{"type":"FeatureCollection","updated":"2026-10-11T01:44","features":[{"type":"Feature","properties":{"id":"r4432955","k":"trail","n":"Gurgling Nature Trail","p":"เชียงราย","km":2.0,"lat":19.0765,"lon":99.39924,"x":{"fee":"no"}},"geometry":{"type":"MultiLineString","coordinates":[[[99.39924,19.0765],[99.39975,19.07568],[99.40053,19.07505],[99.40123,19.07366],[99.40362,19.07284],[99.40314,19.07132],[99.40327,19.07094],[99.40372,19.07052],[99.40485,19.07013],[99.40481,19.07038],[99.40362,19.07119],[99.4042,19.07267],[99.4046,19.07288],[99.40498,19.07257],[99.40521,19.07274],[99.40515,19.07473],[99.40451,19.07516],[99.4026,19.07537],[99.40182,19.07667],[99.40095,19.07671]]]}},{"type":"Feature","properties":{"id":"r4432968","k":"trail","n":"Chom Wana Nature Trail","p":"เชียงราย","km":0.29,"lat":19.07671,"lon":99.40095,"x":{"fee":"no"}},"geometry":{"type":"MultiLineString","coordinates":[[[99.40095,19.07671],[99.40246,19.07681],[99.40311,19.07709],[99.40331,19.07745]]]}},{"type":"Feature","properties":{"id":"r8414445","k":"trail","n":"Mu Ko Lanta National Park Nature Trail","p":"กระบี่","km":2.41,"lat":7.47425,"lon":99.09621,"x":{"wikidata":"Q55236356"}},"geometry":{"type":"MultiLineString","coordinates":[[[99.09621,7.47425],[99.09691,7.47493],[99.09821,7.47506],[99.09864,7.47581],[99.09927,7.47579],[99.09929,7.47511],[99.09898,7.47462],[99.09933,7.47392],[99.09921,7.4736],[99.10041,7.4733],[99.10127,7.47244],[99.102,7.47032],[99.10186,7.46974],[99.10113,7.47024],[99.10061,7.4701],[99.10008,7.47031],[99.0998,7.47007],[99.09929,7.47032],[99.09848,7.47008],[99.09803,7.47027],[99.09825,7.4707],[99.09761,7.47081],[99.09748,7.47217],[99.09649,7.47318],[99.09616,7.4738],[99.09621,7.47425]]]}},{"type":"Feature","properties":{"id":"r8863076","k":"trail","n":"Monkey trail","p":"กระบี่","km":0.36,"lat":8.02743,"lon":98.82672},"geometry":{"type":"MultiLineString","coordinates":[[[98.82672,8.02743],[98.82723,8.02516],[98.82791,8.02485]]]}},{"type":"Feature","properties":{"id":"r12104443","k":"trail","n":"น้ำตกคลองปลาก้าง","p":"ระยอง","km":0.89,"lat":12.93368,"lon":101.71777},"geometry":{"type":"MultiLineString","coordinates":[[[101.71777,12.93368],[101.71907,12.93355],[101.72016,12.93394],[101.72014,12.93412],[101.72148,12.93484],[101.72155,12.93516],[101.7221,12.93554],[101.72213,12.93595],[101.72267,12.93628],[101.72296,12.93606],[101.72364,12.93663],[101.72366,12.93703]]]}},{"type":"Feature","properties":{"id":"r14142208","k":"trail","n":"Mon Tha Than Nature Trail","p":"เชียงใหม่","km":1.06,"lat":18.81705,"lon":98.92452},"geometry":{"type":"MultiLineString","coordinates":[[[98.92452,18.81705],[98.92362,18.81738],[98.9231,18.81732],[98.92291,18.81776],[98.92213,18.81732],[98.92221,18.81687],[98.92295,18.81621],[98.92277,18.81551],[98.92343,18.8153],[98.92438,18.81539],[98.92491,18.81579],[98.92595,18.81567],[98.92667,18.81654]]]}},{"type":"Feature","properties":{"id":"r14384078","k":"trail","n":"Angkha Nature Trail","p":"เชียงใหม่","km":0.37,"lat":18.58894,"lon":98.48565},"geometry":{"type":"MultiLineString","coordinates":[[[98.48565,18.58894],[98.48553,18.58891]],[[98.48573,18.58863],[98.48541,18.58916],[98.48477,18.58885],[98.48488,18.58857],[98.48573,18.58863]],[[98.48623,18.5883],[98.4858,18.58835],[98.48573,18.58863]]]}},{"type":"Feature","properties":{"id":"r14391235","k":"trail","n":"เส้นทางศึกษาธรรมชาติ กิ่วแม่ปาน","p":"เชียงใหม่","km":3.19,"lat":18.55961,"lon":98.47761,"en":"Kew Mae Pan Nature Trail","x":{"url":"https://www.chiangmaitraveller.com/kew-mae-pan-nature-trail-chiang-mai/","opening_hours":"Nov-May: 06:00-16:00","description":"cumpolsory to hire a guide"}},"geometry":{"type":"MultiLineString","coordinates":[[[98.47761,18.55961],[98.47744,18.56046],[98.4765,18.5616],[98.47608,18.56178],[98.47624,18.56137],[98.47573,18.56052],[98.47536,18.55857],[98.47593,18.55475],[98.47613,18.55545],[98.47644,18.55568],[98.47613,18.55638],[98.47631,18.55705],[98.4766,18.55723],[98.47777,18.55603],[98.47813,18.55589],[98.47847,18.55605],[98.47885,18.55568],[98.47964,18.55576],[98.48014,18.55618],[98.48062,18.55595],[98.48119,18.55638],[98.48192,18.5559],[98.48221,18.55605],[98.48132,18.55739],[98.48138,18.55789],[98.48019,18.55775],[98.47943,18.55852],[98.47933,18.55896],[98.47809,18.55923],[98.47761,18.55961]]]}},{"type":"Feature","properties":{"id":"r17671221","k":"trail","n":"Den Ya Kat-Ang Saloong Path","p":"เชียงใหม่","km":7.69,"lat":19.37381,"lon":98.83465},"geometry":{"type":"MultiLineString","coordinates":[[[98.83465,19.37381],[98.83486,19.37403],[98.83468,19.3745],[98.83502,19.37548],[98.83502,19.37631],[98.83621,19.37693],[98.83739,19.3783],[98.83873,19.3784],[98.84029,19.37924],[98.84176,19.37899],[98.84276,19.37929],[98.84325,19.3799],[98.84573,19.38082],[98.8463,19.38134],[98.84664,19.3813],[98.84692,19.38241],[98.8467,19.38289],[98.84694,19.3841],[98.84817,19.38471],[98.84885,19.3846],[98.84945,19.3857],[98.84986,19.386],[98.85145,19.38626],[98.85261,19.38744],[98.85265,19.38813],[98.85291,19.38827],[98.8537,19.38809],[98.85493,19.38839],[98.85553,19.38904],[98.85602,19.38902],[98.85656,19.38948],[98.85866,19.38985],[98.86048,19.39076],[98.86205,19.39098],[98.86533,19.39315],[98.86897,19.39346],[98.87155,19.39303],[98.87259,19.39321],[98.87433,19.39215],[98.87537,19.39213],[98.87586,19.39266],[98.87737,19.39192],[98.87779,19.39205],[98.87861,19.39165],[98.8809,19.39259],[98.88178,19.39431],[98.88261,19.3948],[98.8834,19.3945],[98.88441,19.39458],[98.88478,19.39431],[98.88504,19.3934],[98.88543,19.39317],[98.88569,19.39252],[98.88655,19.39225],[98.88782,19.39229],[98.88838,19.39313],[98.88933,19.39373],[98.88976,19.39373]]]}},{"type":"Feature","properties":{"id":"r17947423","k":"trail","n":"Pa Dok Siew Walking Trail","p":"เชียงใหม่","km":2.55,"lat":18.54083,"lon":98.53031},"geometry":{"type":"MultiLineString","coordinates":[[[98.53031,18.54083],[98.53058,18.54041],[98.53167,18.54054],[98.5336,18.54],[98.53353,18.53856],[98.53315,18.53796],[98.53346,18.53773],[98.53492,18.53761],[98.53581,18.5385],[98.53645,18.53837],[98.53735,18.53662],[98.53799,18.536],[98.53914,18.53624],[98.53985,18.53698],[98.54007,18.53676],[98.54106,18.53703],[98.54167,18.53887],[98.54303,18.53961],[98.54379,18.5393],[98.54458,18.53795],[98.54501,18.53863]]]}},{"type":"Feature","properties":{"id":"r18860849","k":"trail","n":"เส้นทางศูนย์บริการนักท่องเที่ยว - น้ำตกเหวสุวัต","p":"นครราชสีมา","km":7.61,"lat":14.43919,"lon":101.37232,"en":"Visitor Center - Haew Suwat Waterfall"},"geometry":{"type":"MultiLineString","coordinates":[[[101.37232,14.43919],[101.37197,14.43923],[101.37196,14.44007],[101.37292,14.44207],[101.37379,14.44274],[101.37463,14.44263],[101.37721,14.44534],[101.38074,14.44568],[101.38116,14.44614],[101.3826,14.44636],[101.3828,14.44735],[101.38322,14.44772],[101.38613,14.44845],[101.38677,14.44894],[101.38831,14.44896],[101.38848,14.44925],[101.38928,14.4495],[101.38979,14.44903],[101.39137,14.44865],[101.3914,14.44832],[101.39228,14.44793],[101.39381,14.44622],[101.39489,14.44609],[101.39551,14.44645],[101.39643,14.44814],[101.39624,14.44899],[101.39642,14.4507],[101.39701,14.45118],[101.39829,14.45105],[101.39871,14.45129],[101.40334,14.44882],[101.40444,14.44866],[101.40481,14.44761],[101.40588,14.4467],[101.40653,14.44553],[101.40715,14.44507],[101.40788,14.44493],[101.4083,14.44399],[101.40903,14.44374],[101.40977,14.44392],[101.41061,14.44373],[101.4113,14.44428],[101.41165,14.4443],[101.41196,14.44399],[101.41285,14.44426],[101.41284,14.44352],[101.41333,14.44292],[101.41345,14.44233],[101.41316,14.44109],[101.41216,14.43992],[101.41248,14.43941],[101.41251,14.43803],[101.41199,14.43703],[101.41214,14.43622],[101.41306,14.4349],[101.41402,14.43492],[101.4145,14.43515]]]}},{"type":"Feature","properties":{"id":"r18960455","k":"trail","n":"น้ำตกผากล้วยไม้ - น้ำตกเหวสุวัต","p":"ปราจีนบุรี","km":3.08,"lat":14.43103,"lon":101.40068,"en":"Pha Kluai Mai Campground – Haew Suwat Waterfall"},"geometry":{"type":"MultiLineString","coordinates":[[[101.40068,14.43103],[101.40217,14.42922],[101.40414,14.42981],[101.40521,14.42818],[101.40668,14.42806],[101.40745,14.42773],[101.40802,14.42801],[101.40953,14.42733],[101.40959,14.42869],[101.40993,14.42911],[101.40961,14.4314],[101.41014,14.43265],[101.40989,14.43362],[101.41053,14.43387],[101.41141,14.43361],[101.41249,14.4324],[101.41256,14.43138],[101.41301,14.43112],[101.41364,14.43153],[101.41539,14.43356],[101.41544,14.43405],[101.41478,14.4346]]]}},{"type":"Feature","properties":{"id":"r18960456","k":"trail","n":"ดงติ้ว - อ่างเก็บน้ำสายศร","p":"นครราชสีมา","km":2.52,"lat":14.43683,"lon":101.37252,"en":"Dong Tiw – Sai Sorn Reservoir"},"geometry":{"type":"MultiLineString","coordinates":[[[101.37252,14.43683],[101.37188,14.43657],[101.37133,14.43682],[101.36959,14.43653],[101.36801,14.43584],[101.36567,14.4361],[101.36465,14.43549],[101.36393,14.43557],[101.36275,14.43511],[101.36205,14.43382],[101.36166,14.43379],[101.36262,14.43288],[101.36315,14.43272],[101.36457,14.43319],[101.36667,14.43328],[101.36776,14.433],[101.36911,14.43355],[101.36963,14.43408],[101.37153,14.43345]]]}},{"type":"Feature","properties":{"id":"r18960457","k":"trail","n":"ดงติ้ว - หนองผักชี","p":"นครราชสีมา","km":5.37,"lat":14.45094,"lon":101.36788,"en":"Dong Tiw – Nong Phak Chi"},"geometry":{"type":"MultiLineString","coordinates":[[[101.36788,14.45094],[101.36728,14.45102],[101.36588,14.45195],[101.3648,14.45233],[101.36273,14.45214],[101.36127,14.45329],[101.36018,14.45349],[101.35967,14.45394],[101.35934,14.45335],[101.35812,14.45233],[101.35781,14.45141],[101.35696,14.4508],[101.35609,14.45054],[101.35638,14.45032],[101.35625,14.4498],[101.35655,14.44959],[101.35658,14.44848],[101.35604,14.44767],[101.35523,14.44734],[101.35396,14.44631],[101.3536,14.44342],[101.35376,14.4426],[101.35416,14.44181],[101.3546,14.4417],[101.35542,14.44093],[101.35619,14.43975],[101.35703,14.43934],[101.35776,14.4386],[101.3581,14.43791],[101.35904,14.437],[101.35992,14.43533],[101.36166,14.43379],[101.36205,14.43382],[101.36275,14.43511],[101.36393,14.43557],[101.36465,14.43549],[101.36567,14.4361],[101.36801,14.43584],[101.36959,14.43653],[101.37133,14.43682],[101.37188,14.43657],[101.37252,14.43683]]]}},{"type":"Feature","properties":{"id":"r18960484","k":"trail","n":"ศูนย์บริการนักท่องเที่ยว - น้ำตกกองแก้ว","p":"นครราชสีมา","km":1.37,"lat":14.43919,"lon":101.37232,"en":"Visitor Center – Kong Kaew Waterfall"},"geometry":{"type":"MultiLineString","coordinates":[[[101.37232,14.43919],[101.37197,14.43923],[101.37196,14.44007],[101.37292,14.44207],[101.37379,14.44274],[101.37463,14.44263],[101.37488,14.4401],[101.37473,14.43965],[101.37436,14.43961],[101.37407,14.44004],[101.37373,14.44009],[101.37252,14.43834]]]}},{"type":"Feature","properties":{"id":"r18960540","k":"trail","n":"กม. 33 - หนองผักชี","p":"นครราชสีมา","km":3.73,"lat":14.45094,"lon":101.36788,"en":"Km. 33 – Nong Phak Chi"},"geometry":{"type":"MultiLineString","coordinates":[[[101.36788,14.45094],[101.36728,14.45102],[101.36588,14.45195],[101.3648,14.45233],[101.36273,14.45214],[101.36127,14.45329],[101.36018,14.45349],[101.35922,14.45411],[101.35889,14.45549],[101.35857,14.45584],[101.35844,14.45735],[101.35864,14.45832],[101.35797,14.46006],[101.35858,14.46099],[101.35904,14.4613],[101.35925,14.462],[101.36064,14.46338],[101.36116,14.46359],[101.36197,14.46319],[101.36242,14.46377],[101.36316,14.46385],[101.36375,14.46452],[101.36413,14.4645],[101.36563,14.46556],[101.36649,14.46584],[101.36685,14.4657],[101.36734,14.46601],[101.36908,14.46571],[101.36983,14.46451],[101.37063,14.4644],[101.3714,14.4637]]]}},{"type":"Feature","properties":{"id":"r18960552","k":"trail","n":"200 ปี ความสัมพันธ์ไทย-สหรัฐอเมริกา","p":"นครราชสีมา","km":1.76,"lat":14.42903,"lon":101.36906,"en":"Thai-American Friendship Trail"},"geometry":{"type":"MultiLineString","coordinates":[[[101.36906,14.42903],[101.3677,14.42978],[101.36746,14.43127],[101.36666,14.43209],[101.36685,14.4329],[101.36504,14.4326],[101.36403,14.43311],[101.36667,14.43328],[101.36776,14.433],[101.36911,14.43355],[101.36963,14.43408],[101.37153,14.43345]]]}},{"type":"Feature","properties":{"id":"w22764700","k":"trail","n":"Trail no. 17","p":"นครราชสีมา","km":2.05,"lat":14.46942,"lon":101.37631,"sac":"hiking","x":{"access":"no"}},"geometry":{"type":"MultiLineString","coordinates":[[[101.37631,14.46942],[101.37529,14.46977],[101.37488,14.46961],[101.37368,14.47038],[101.37347,14.47079],[101.37151,14.47194],[101.37016,14.47492],[101.36945,14.47551],[101.36878,14.47717],[101.36874,14.47783],[101.36731,14.47979],[101.36677,14.4799],[101.36627,14.48042],[101.36556,14.48072],[101.36374,14.48093]]]}},{"type":"Feature","properties":{"id":"w52080659","k":"trail","n":"Trail closed","p":"สุราษฎร์ธานี","km":3.63,"lat":8.90449,"lon":98.48856,"x":{"access":"no"}},"geometry":{"type":"MultiLineString","coordinates":[[[98.48856,8.90449],[98.4883,8.90405],[98.48908,8.90429],[98.49088,8.90319],[98.49166,8.90327],[98.49274,8.90378],[98.49347,8.90376],[98.49343,8.90349],[98.49386,8.90328],[98.49403,8.90398],[98.49469,8.90336],[98.49506,8.90335],[98.49532,8.90276],[98.49662,8.90203],[98.49745,8.90118],[98.49732,8.90101],[98.49864,8.89992],[98.4985,8.89978],[98.49901,8.89891],[98.49899,8.89793],[98.49929,8.89766],[98.49977,8.89778],[98.49984,8.90096],[98.49909,8.90202],[98.49805,8.90258],[98.49776,8.90249],[98.49667,8.90335],[98.49434,8.90377],[98.49372,8.90422],[98.49006,8.90366]]]}},{"type":"Feature","properties":{"id":"w128367035","k":"trail","n":"Bottle Beach Trail (Jaune /Bleu)","p":"สุราษฎร์ธานี","km":1.94,"lat":9.79331,"lon":100.0334,"x":{"wikidata":"Q117231374","description":"Path to bottle beach. Proper shoes recommended. Duration: About 1,5 hours. Vertical elevation gain: 250m.\nNo more bottles along the trail as of 2023."}},"geometry":{"type":"MultiLineString","coordinates":[[[100.0334,9.79331],[100.03162,9.79382],[100.02945,9.79621],[100.02946,9.79714],[100.02816,9.79786],[100.02701,9.79797],[100.02557,9.79722],[100.02364,9.79722],[100.0213,9.79875],[100.01985,9.79923]]]}},{"type":"Feature","properties":{"id":"w138397163","k":"trail","n":"Nature Trail","p":"เชียงใหม่","km":0.95,"lat":19.24238,"lon":98.68464},"geometry":{"type":"MultiLineString","coordinates":[[[98.68464,19.24238],[98.68474,19.24308],[98.68429,19.2432],[98.68414,19.2437],[98.68509,19.24398],[98.68554,19.2446],[98.68571,19.24533],[98.68622,19.24569],[98.68687,19.24529],[98.68708,19.24451],[98.68739,19.24423],[98.68669,19.24348],[98.68682,19.24318]]]}},{"type":"Feature","properties":{"id":"w207667893","k":"trail","n":"เส้นทางศึกษาธรรมชาติวัดผาลาด","p":"เชียงใหม่","km":2.96,"lat":18.79764,"lon":98.94221,"en":"Monk's trail","sac":"hiking"},"geometry":{"type":"MultiLineString","coordinates":[[[98.94221,18.79764],[98.94185,18.79772],[98.94179,18.79874],[98.94111,18.79866],[98.94068,18.79887],[98.94038,18.80022],[98.93965,18.80079],[98.93902,18.80002],[98.93904,18.79924],[98.93878,18.79878],[98.93737,18.79874],[98.93576,18.79823],[98.93476,18.79838],[98.93363,18.79892],[98.93292,18.7986],[98.93197,18.79875],[98.93172,18.79899],[98.93169,18.79954],[98.93118,18.79964],[98.93066,18.80064],[98.92982,18.80133],[98.92845,18.80106],[98.92659,18.80167],[98.92481,18.80113],[98.92208,18.80231]],[[98.93306,18.79862],[98.9325,18.79909]]]}},{"type":"Feature","properties":{"id":"w208845064","k":"trail","n":"Nature Trail","p":"ชลบุรี","km":0.75,"lat":13.23741,"lon":101.04212},"geometry":{"type":"MultiLineString","coordinates":[[[101.04212,13.23741],[101.04297,13.23694],[101.04296,13.23671],[101.04245,13.23689],[101.04264,13.23586],[101.04119,13.23552],[101.04052,13.23571]],[[101.04245,13.23689],[101.04247,13.23728]],[[101.04296,13.23671],[101.04405,13.23629]]]}},{"type":"Feature","properties":{"id":"w262810510","k":"trail","n":"Bamboo Forest Nature Trail","p":"กาญจนบุรี","km":1.09,"lat":14.37525,"lon":99.14369,"sac":"hiking"},"geometry":{"type":"MultiLineString","coordinates":[[[99.14369,14.37525],[99.14274,14.37493],[99.14269,14.3745],[99.14338,14.37378],[99.14345,14.37337],[99.14391,14.37334],[99.1449,14.37267],[99.14459,14.37167],[99.14421,14.37144],[99.1443,14.37072],[99.14381,14.36997],[99.14377,14.36817]]]}},{"type":"Feature","properties":{"id":"w272514191","k":"trail","n":"Nature Trail","p":"เชียงใหม่","km":0.51,"lat":18.89214,"lon":98.8605},"geometry":{"type":"MultiLineString","coordinates":[[[98.8605,18.89214],[98.86036,18.89138],[98.85977,18.89126],[98.85805,18.89294],[98.85812,18.89371]]]}},{"type":"Feature","properties":{"id":"w298334312","k":"trail","n":"Death Railway Walking Trail","p":"กาญจนบุรี","km":0.55,"lat":14.1052,"lon":99.16643},"geometry":{"type":"MultiLineString","coordinates":[[[99.16643,14.1052],[99.16804,14.10371],[99.16892,14.10109]]]}},{"type":"Feature","properties":{"id":"w314136377","k":"trail","n":"Natural Trail","p":"มหาสารคาม","km":0.75,"lat":16.26095,"lon":103.06619},"geometry":{"type":"MultiLineString","coordinates":[[[103.06619,16.26095],[103.06702,16.25552],[103.06778,16.25451]]]}},{"type":"Feature","properties":{"id":"w335042536","k":"trail","n":"เส้นทางศึกษาธรรมชาติ","p":"ชลบุรี","km":0.39,"lat":13.44342,"lon":100.97076},"geometry":{"type":"MultiLineString","coordinates":[[[100.97076,13.44342],[100.97074,13.44306],[100.96757,13.4434]]]}},{"type":"Feature","properties":{"id":"w335560023","k":"trail","n":"Nature Trail","p":"พังงา","km":0.94,"lat":8.6266,"lon":98.23862},"geometry":{"type":"MultiLineString","coordinates":[[[98.23862,8.6266],[98.23853,8.62641],[98.23824,8.62656],[98.23787,8.62636],[98.23787,8.62606],[98.23673,8.62662],[98.23607,8.62586],[98.23408,8.62557],[98.23271,8.62501],[98.23241,8.62473],[98.23281,8.62393]]]}},{"type":"Feature","properties":{"id":"w339863505","k":"trail","n":"walking trail to Unai, Teelorsu (>6hr)","p":"กาญจนบุรี","km":1.96,"lat":15.45912,"lon":98.66959},"geometry":{"type":"MultiLineString","coordinates":[[[98.66959,15.45912],[98.67039,15.45867],[98.67096,15.45694],[98.67212,15.4557],[98.67259,15.45426],[98.67358,15.45314],[98.67695,15.45106],[98.67847,15.45084],[98.6805,15.44993],[98.68157,15.44901],[98.68273,15.44858]]]}},{"type":"Feature","properties":{"id":"w344297435","k":"trail","n":"เส้นทางศึกษาธรรมชาติบึงบัว","p":"ประจวบคีรีขันธ์","km":1.01,"lat":12.24414,"lon":99.93256,"en":"Bueng Bua Boardwalk"},"geometry":{"type":"MultiLineString","coordinates":[[[99.93256,12.24414],[99.9305,12.24452],[99.93055,12.24493],[99.9301,12.24552],[99.93021,12.24608],[99.92963,12.24674],[99.9298,12.24787],[99.93024,12.24851],[99.93152,12.24859],[99.93195,12.24779],[99.93229,12.24767]]]}},{"type":"Feature","properties":{"id":"w345184287","k":"trail","n":"Koh Surin Nature Trail","p":"พังงา","km":1.58,"lat":9.43266,"lon":97.86179},"geometry":{"type":"MultiLineString","coordinates":[[[97.86179,9.43266],[97.86151,9.43276],[97.86102,9.43364]],[[97.86853,9.42256],[97.86897,9.42384],[97.86748,9.42679],[97.86738,9.42862],[97.86648,9.43084],[97.86595,9.43146],[97.86307,9.43261]]]}},{"type":"Feature","properties":{"id":"w346183240","k":"trail","n":"Dirt trail","p":"น่าน","km":2.0,"lat":19.49051,"lon":100.87417},"geometry":{"type":"MultiLineString","coordinates":[[[100.87417,19.49051],[100.8747,19.49212],[100.87606,19.49323],[100.87646,19.49408],[100.87657,19.49495],[100.87608,19.49568],[100.87475,19.49679],[100.87475,19.49732],[100.8752,19.4978],[100.87546,19.49797],[100.87606,19.49776],[100.87749,19.49819],[100.87876,19.49799],[100.87968,19.4974],[100.88148,19.49833],[100.88356,19.49999]]]}},{"type":"Feature","properties":{"id":"w362333108","k":"trail","n":"Helges Rigde Trail","p":"ชลบุรี","km":1.7,"lat":12.96925,"lon":101.02732},"geometry":{"type":"MultiLineString","coordinates":[[[101.02732,12.96925],[101.02917,12.96926],[101.03138,12.97022],[101.03218,12.9699],[101.03283,12.96924],[101.03368,12.96914],[101.03423,12.96966],[101.03576,12.96982],[101.03645,12.96914],[101.03677,12.96765],[101.03793,12.9675],[101.038,12.96702],[101.03861,12.96617]]]}},{"type":"Feature","properties":{"id":"w369444164","k":"trail","n":"Trail A","p":"ชลบุรี","km":1.31,"lat":13.18977,"lon":100.94996},"geometry":{"type":"MultiLineString","coordinates":[[[100.94996,13.18977],[100.95019,13.18957],[100.94987,13.1891],[100.94977,13.18835],[100.9501,13.18792],[100.95023,13.18644],[100.95088,13.18456],[100.9505,13.18272],[100.95105,13.1814],[100.95101,13.1802],[100.95132,13.17879]]]}},{"type":"Feature","properties":{"id":"w373573616","k":"trail","n":"Haad Yuan trail","p":"สุราษฎร์ธานี","km":1.08,"lat":9.68948,"lon":100.06699,"sac":"hiking"},"geometry":{"type":"MultiLineString","coordinates":[[[100.06699,9.68948],[100.06658,9.69008],[100.06652,9.69072],[100.06686,9.69173],[100.06686,9.69336],[100.06654,9.69367],[100.06659,9.69425],[100.06772,9.69436],[100.06833,9.69548],[100.06903,9.69552],[100.07026,9.69488]]]}},{"type":"Feature","properties":{"id":"w373573619","k":"trail","n":"Haad Kontee Trail","p":"สุราษฎร์ธานี","km":0.54,"lat":9.67966,"lon":100.06949,"sac":"hiking"},"geometry":{"type":"MultiLineString","coordinates":[[[100.06949,9.67966],[100.06974,9.68002],[100.07146,9.68088],[100.07164,9.68127],[100.07215,9.68117],[100.07282,9.6818],[100.0733,9.68176]]]}},{"type":"Feature","properties":{"id":"w382223089","k":"trail","n":"Haad Rin - Haad Yuan trail","p":"สุราษฎร์ธานี","km":1.48,"lat":9.68214,"lon":100.06692,"sac":"hiking"},"geometry":{"type":"MultiLineString","coordinates":[[[100.06692,9.68214],[100.06788,9.68224],[100.06902,9.6831],[100.06878,9.6842],[100.06859,9.68396],[100.06685,9.68484],[100.06609,9.68566],[100.06594,9.68684],[100.06477,9.68779],[100.06546,9.6889],[100.06672,9.68869],[100.06699,9.68948]]]}},{"type":"Feature","properties":{"id":"w401149699","k":"trail","n":"Nature trail 1","p":"สุราษฎร์ธานี","km":0.41,"lat":8.90883,"lon":98.53504},"geometry":{"type":"MultiLineString","coordinates":[[[98.53504,8.90883],[98.53505,8.90916],[98.53477,8.90919],[98.53447,8.9087],[98.53422,8.90894],[98.534,8.90864],[98.53244,8.90846]]]}},{"type":"Feature","properties":{"id":"w401149701","k":"trail","n":"Nature Trail 3","p":"สุราษฎร์ธานี","km":0.41,"lat":8.91073,"lon":98.53144},"geometry":{"type":"MultiLineString","coordinates":[[[98.53144,8.91073],[98.5316,8.91149],[98.5326,8.91159],[98.53273,8.91119],[98.53153,8.91088]]]}},{"type":"Feature","properties":{"id":"w401149703","k":"trail","n":"Nature Trail 2","p":"สุราษฎร์ธานี","km":0.31,"lat":8.90919,"lon":98.53198},"geometry":{"type":"MultiLineString","coordinates":[[[98.53198,8.90919],[98.5315,8.90921],[98.53146,8.90984],[98.53117,8.9101],[98.53129,8.91028],[98.53179,8.90998],[98.53195,8.91033]]]}},{"type":"Feature","properties":{"id":"w415676042","k":"trail","n":"Chanel 5 DH Trail 2","p":"บุรีรัมย์","km":0.47,"lat":14.93453,"lon":103.09914},"geometry":{"type":"MultiLineString","coordinates":[[[103.09914,14.93453],[103.09938,14.9349],[103.09877,14.93604],[103.09654,14.93692]]]}},{"type":"Feature","properties":{"id":"w442874476","k":"trail","n":"Trail to Phu Langka Summit","p":"น่าน","km":0.4,"lat":19.44043,"lon":100.54102},"geometry":{"type":"MultiLineString","coordinates":[[[100.54102,19.44043],[100.54115,19.44106],[100.54151,19.44127],[100.54224,19.44105],[100.5423,19.44065],[100.54352,19.44094]]]}},{"type":"Feature","properties":{"id":"w456584789","k":"trail","n":"Fun MTB trail","p":"นครราชสีมา","km":1.0,"lat":14.72631,"lon":101.20133},"geometry":{"type":"MultiLineString","coordinates":[[[101.20133,14.72631],[101.20073,14.72864],[101.19989,14.72923],[101.19968,14.72904],[101.19982,14.72828],[101.19925,14.72742],[101.19857,14.72749],[101.19836,14.72834],[101.19656,14.72812]]]}},{"type":"Feature","properties":{"id":"w461562115","k":"trail","n":"Overgrown trail","p":"สระบุรี","km":0.59,"lat":14.74056,"lon":101.12674},"geometry":{"type":"MultiLineString","coordinates":[[[101.12674,14.74056],[101.12762,14.73944],[101.12824,14.73945],[101.12939,14.74014],[101.12981,14.74004],[101.13028,14.73874]]]}},{"type":"Feature","properties":{"id":"w479644403","k":"trail","n":"trail between beaches","p":"สตูล","km":0.65,"lat":6.54546,"lon":99.18747},"geometry":{"type":"MultiLineString","coordinates":[[[99.18747,6.54546],[99.18621,6.54482],[99.18477,6.54492],[99.18406,6.54544],[99.1837,6.5463],[99.18288,6.54717]]]}},{"type":"Feature","properties":{"id":"w548126222","k":"trail","n":"Mangrove forest eco trail","p":"ภูเก็ต","km":0.3,"lat":8.19192,"lon":98.28997,"x":{"access":"no"}},"geometry":{"type":"MultiLineString","coordinates":[[[98.28997,8.19192],[98.29116,8.19117],[98.29133,8.19087],[98.29106,8.19013]]]}},{"type":"Feature","properties":{"id":"w566126268","k":"trail","n":"Trail E","p":"ชลบุรี","km":2.86,"lat":13.17706,"lon":100.95162},"geometry":{"type":"MultiLineString","coordinates":[[[100.95162,13.17706],[100.95252,13.17903],[100.95267,13.18028],[100.95333,13.1821],[100.95327,13.18264],[100.95432,13.18484],[100.95473,13.18653],[100.95434,13.18729],[100.95358,13.18732],[100.95431,13.18771],[100.95417,13.18804],[100.95507,13.18894],[100.95471,13.18907],[100.95456,13.18966],[100.95463,13.1915],[100.95511,13.19286],[100.95451,13.19337],[100.95555,13.19518],[100.95544,13.19553],[100.95572,13.19551],[100.95605,13.19589],[100.95543,13.19703],[100.9557,13.19815]]]}},{"type":"Feature","properties":{"id":"w566281169","k":"trail","n":"Trail D","p":"ชลบุรี","km":1.51,"lat":13.18635,"lon":100.94836},"geometry":{"type":"MultiLineString","coordinates":[[[100.94836,13.18635],[100.94866,13.18623],[100.94932,13.1847],[100.94899,13.18234]],[[100.94874,13.18278],[100.9489,13.18215],[100.94821,13.18232],[100.94806,13.18192],[100.94848,13.18109],[100.94847,13.18031],[100.94928,13.17996],[100.95049,13.17743],[100.95133,13.17675],[100.95162,13.17706]]]}},{"type":"Feature","properties":{"id":"w576778183","k":"trail","n":"Natural Trail","p":"ตราด","km":0.77,"lat":11.63358,"lon":102.55624},"geometry":{"type":"MultiLineString","coordinates":[[[102.55624,11.63358],[102.55598,11.63112],[102.55689,11.63038],[102.55749,11.63037],[102.55829,11.62999],[102.55843,11.62979],[102.55805,11.62846]]]}},{"type":"Feature","properties":{"id":"w648831054","k":"trail","n":"เส้นทางศึกษาธรรมชาติน้ําตกมณฑาธาร","p":"เชียงใหม่","km":0.55,"lat":18.81732,"lon":98.92213,"en":"Mon Da than Waterfall Nature Trail","sac":"?"},"geometry":{"type":"MultiLineString","coordinates":[[[98.92213,18.81732],[98.92048,18.8175],[98.9198,18.81812],[98.91844,18.81812]],[[98.92452,18.81705],[98.92404,18.81751]]]}},{"type":"Feature","properties":{"id":"w685927741","k":"trail","n":"Kao Hua Chang Nature Trail","p":"กำแพงเพชร","km":0.69,"lat":16.12915,"lon":99.28694},"geometry":{"type":"MultiLineString","coordinates":[[[99.28694,16.12915],[99.28548,16.12892],[99.28492,16.12922],[99.28423,16.13013],[99.28496,16.13234],[99.28472,16.13281]]]}},{"type":"Feature","properties":{"id":"w689259353","k":"trail","n":"Trail B","p":"ชลบุรี","km":0.46,"lat":13.188,"lon":100.94613},"geometry":{"type":"MultiLineString","coordinates":[[[100.94613,13.188],[100.94666,13.18812],[100.94718,13.18785],[100.9482,13.1878],[100.94985,13.18888]]]}},{"type":"Feature","properties":{"id":"w761300361","k":"trail","n":"Mae sakut nature trail","p":"แม่ฮ่องสอน","km":5.05,"lat":19.25337,"lon":97.99324},"geometry":{"type":"MultiLineString","coordinates":[[[97.99324,19.25337],[97.99161,19.2543],[97.99103,19.25515],[97.99004,19.25519],[97.98987,19.25543]],[[97.99512,19.25489],[97.99855,19.25411],[98.00097,19.25297],[98.00143,19.25309],[98.00173,19.25358],[98.00276,19.25363],[98.00426,19.25347],[98.00474,19.25288],[98.00519,19.25272],[98.00788,19.25301],[98.0101,19.25244],[98.00995,19.25199],[98.00825,19.25077],[98.00774,19.24994],[98.00641,19.24948],[98.00684,19.24809],[98.00629,19.24775],[98.00507,19.24754],[98.00499,19.24685],[98.00462,19.24652],[98.00402,19.24674],[98.0031,19.24601],[98.00225,19.24604],[98.00208,19.24568],[98.0023,19.24503],[98.0009,19.24393],[98.0011,19.24265],[97.99995,19.24131],[97.99946,19.24128],[97.99893,19.24158],[97.99845,19.24284],[97.99755,19.24342]],[[98.00112,19.25295],[98.00166,19.25275],[98.004,19.25308],[98.0049,19.25281]]]}},{"type":"Feature","properties":{"id":"w763502488","k":"trail","n":"Man Nao Nature Trail","p":"เพชรบูรณ์","km":5.1,"lat":16.73958,"lon":101.57373},"geometry":{"type":"MultiLineString","coordinates":[[[101.57373,16.73958],[101.57386,16.73952]],[[101.57412,16.73957],[101.57442,16.73967],[101.57457,16.73929],[101.57505,16.73901],[101.57508,16.73869],[101.57566,16.73879],[101.57598,16.73849],[101.57734,16.73889],[101.57786,16.7394],[101.57836,16.73919],[101.5787,16.7387],[101.57984,16.73881],[101.57998,16.73946],[101.57951,16.7407],[101.58064,16.74116],[101.58116,16.74182],[101.58223,16.742],[101.58277,16.7425],[101.58561,16.74084],[101.58602,16.74022],[101.58579,16.73942],[101.58638,16.73922],[101.58676,16.73829],[101.58749,16.738],[101.58809,16.73852],[101.58823,16.73785],[101.58797,16.73707],[101.58716,16.73747],[101.58553,16.7372],[101.58343,16.73764],[101.58303,16.7374],[101.58177,16.73736],[101.58096,16.73621],[101.58098,16.73592],[101.58006,16.73544],[101.57983,16.73498],[101.58005,16.73376],[101.58055,16.73322],[101.58032,16.73282],[101.57988,16.73251],[101.5795,16.73272],[101.57895,16.73258],[101.57857,16.73193],[101.57699,16.73228],[101.57621,16.73328],[101.57471,16.73413],[101.57474,16.73477],[101.5741,16.73604],[101.57426,16.73658],[101.57488,16.73676],[101.57508,16.73707]]]}},{"type":"Feature","properties":{"id":"w771528191","k":"trail","n":"Huay mahat nature trail","p":"ระยอง","km":1.41,"lat":12.77173,"lon":101.09317},"geometry":{"type":"MultiLineString","coordinates":[[[101.09317,12.77173],[101.09236,12.77112],[101.09176,12.77101],[101.09155,12.77032],[101.09081,12.76944],[101.09057,12.76815],[101.09006,12.76783],[101.08999,12.76656],[101.08949,12.76636],[101.08953,12.76571],[101.08978,12.76546],[101.08949,12.76519],[101.08966,12.7645],[101.08928,12.76421],[101.09004,12.76351],[101.09016,12.76308],[101.0901,12.76253],[101.08969,12.76202]]]}},{"type":"Feature","properties":{"id":"w794717744","k":"trail","n":"Haad Yuan viewpoint trail","p":"สุราษฎร์ธานี","km":0.1,"lat":9.68948,"lon":100.06699,"sac":"hiking"},"geometry":{"type":"MultiLineString","coordinates":[[[100.06699,9.68948],[100.06785,9.68962]]]}},{"type":"Feature","properties":{"id":"w864613280","k":"trail","n":"Nature Trail","p":"เชียงใหม่","km":6.05,"lat":19.55374,"lon":98.80842},"geometry":{"type":"MultiLineString","coordinates":[[[98.80842,19.55374],[98.80914,19.55378],[98.80794,19.55297],[98.80775,19.55249],[98.8064,19.55241],[98.80613,19.55193],[98.80635,19.55142],[98.80514,19.55029],[98.80419,19.5501],[98.80382,19.55079],[98.8034,19.55076],[98.80258,19.54925],[98.80217,19.5462],[98.80075,19.54626],[98.80044,19.54605],[98.80054,19.54578],[98.80028,19.54529],[98.80071,19.54482],[98.80076,19.54421],[98.80042,19.54353],[98.79913,19.54218],[98.79955,19.54046],[98.7996,19.53863],[98.80012,19.53782],[98.80026,19.53668],[98.79982,19.53551],[98.80025,19.53462],[98.80039,19.53366],[98.80024,19.53338],[98.79987,19.53332],[98.79915,19.53227],[98.79881,19.53115],[98.79934,19.53129],[98.79992,19.53104],[98.80027,19.53048],[98.80193,19.53016],[98.80243,19.52888],[98.80315,19.5282],[98.80334,19.52741],[98.80495,19.52624],[98.80518,19.5246],[98.80591,19.52382],[98.80543,19.52365],[98.8049,19.52189],[98.8043,19.52125],[98.80481,19.52007],[98.80546,19.51946],[98.80558,19.51903],[98.80541,19.51892],[98.80786,19.51586]]]}},{"type":"Feature","properties":{"id":"w895119482","k":"trail","n":"Doi Jong Trail","p":"เชียงราย","km":2.67,"lat":20.36314,"lon":99.86623},"geometry":{"type":"MultiLineString","coordinates":[[[99.86623,20.36314],[99.86608,20.3637],[99.86627,20.36467],[99.86568,20.36588],[99.86518,20.36602],[99.86523,20.36642],[99.86482,20.3666],[99.86435,20.36641],[99.86386,20.36659],[99.86306,20.36916],[99.8622,20.36897],[99.86214,20.36963],[99.86175,20.36996],[99.86162,20.37064],[99.86107,20.37144],[99.86011,20.37133],[99.85919,20.37075],[99.85903,20.37014],[99.85866,20.37004],[99.85813,20.37043],[99.85767,20.37034],[99.85567,20.37122],[99.85539,20.37114],[99.85539,20.37068],[99.85459,20.37102],[99.85385,20.37086],[99.85337,20.37165],[99.85451,20.37301]]]}},{"type":"Feature","properties":{"id":"w947568601","k":"trail","n":"Cave Trail","p":"ชลบุรี","km":0.44,"lat":13.19179,"lon":100.95011},"geometry":{"type":"MultiLineString","coordinates":[[[100.95011,13.19179],[100.94942,13.19199],[100.94919,13.19176],[100.94834,13.1922],[100.94735,13.19193],[100.94675,13.19142]]]}},{"type":"Feature","properties":{"id":"w947568603","k":"trail","n":"Trail B+","p":"ชลบุรี","km":0.56,"lat":13.18833,"lon":100.9457},"geometry":{"type":"MultiLineString","coordinates":[[[100.9457,13.18833],[100.94604,13.18825],[100.94633,13.18862],[100.94702,13.18869],[100.94861,13.18948],[100.94959,13.189],[100.9499,13.18917]]]}},{"type":"Feature","properties":{"id":"w947568605","k":"trail","n":"Bear Plus Trail","p":"ชลบุรี","km":0.14,"lat":13.18875,"lon":100.94986},"geometry":{"type":"MultiLineString","coordinates":[[[100.94986,13.18875],[100.9507,13.18805]]]}},{"type":"Feature","properties":{"id":"w947568606","k":"trail","n":"Bear Plus Trail","p":"ชลบุรี","km":0.19,"lat":13.18805,"lon":100.9507},"geometry":{"type":"MultiLineString","coordinates":[[[100.9507,13.18805],[100.95119,13.18737],[100.9513,13.18662]]]}},{"type":"Feature","properties":{"id":"w947568607","k":"trail","n":"Bear Trail","p":"ชลบุรี","km":0.46,"lat":13.18662,"lon":100.9513},"geometry":{"type":"MultiLineString","coordinates":[[[100.9513,13.18662],[100.95135,13.18617],[100.95258,13.18533]],[[100.95271,13.18506],[100.95321,13.18457],[100.95406,13.18433]]]}},{"type":"Feature","properties":{"id":"w948026190","k":"trail","n":"Trail A","p":"ชลบุรี","km":0.24,"lat":13.17879,"lon":100.95132},"geometry":{"type":"MultiLineString","coordinates":[[[100.95132,13.17879],[100.95158,13.17882],[100.95184,13.17949],[100.95229,13.17867]]]}},{"type":"Feature","properties":{"id":"w1042128241","k":"trail","n":"เส้นทางศึกษาธรรมชาติ","p":"ชัยภูมิ","km":5.75,"lat":15.88212,"lon":101.4546,"en":"Nature Trail"},"geometry":{"type":"MultiLineString","coordinates":[[[101.4546,15.88212],[101.45419,15.88205],[101.45401,15.88235]],[[101.45449,15.89925],[101.45421,15.89823],[101.45437,15.89694],[101.45461,15.89667]],[[101.45464,15.88831],[101.45503,15.88837],[101.4555,15.88789],[101.45574,15.88708]],[[101.45466,15.88194],[101.45472,15.88243]],[[101.45529,15.88194],[101.45472,15.88243],[101.45505,15.88412],[101.45448,15.88778],[101.4549,15.88978],[101.45456,15.89313],[101.45497,15.89612],[101.45461,15.89667],[101.45498,15.89774],[101.45449,15.89925],[101.45475,15.89985]],[[101.45771,15.88169],[101.45708,15.88199],[101.45595,15.88194],[101.45522,15.88152],[101.45466,15.88194],[101.45484,15.88215]],[[101.45484,15.89437],[101.45556,15.89396],[101.45704,15.8943],[101.4583,15.89405],[101.45817,15.89338],[101.45845,15.89299],[101.4584,15.89174],[101.45915,15.89159],[101.45934,15.89094],[101.45852,15.88958],[101.45831,15.88868],[101.45738,15.88841],[101.45623,15.88767],[101.45549,15.88635],[101.45572,15.88538],[101.45701,15.88385],[101.45771,15.88169]],[[101.45771,15.88169],[101.45641,15.88288],[101.45612,15.88279],[101.45568,15.88212],[101.45491,15.88215]]]}},{"type":"Feature","properties":{"id":"w1042128242","k":"trail","n":"Nature Trail","p":"ชัยภูมิ","km":0.05,"lat":15.88182,"lon":101.45559},"geometry":{"type":"MultiLineString","coordinates":[[[101.45559,15.88182],[101.45536,15.88191]],[[101.45534,15.88196],[101.45534,15.88196]]]}},{"type":"Feature","properties":{"id":"w1072011137","k":"trail","n":"Khun Kan Nationalpark Natur Trail","p":"เชียงใหม่","km":2.28,"lat":18.85318,"lon":98.62127},"geometry":{"type":"MultiLineString","coordinates":[[[98.62127,18.85318],[98.62093,18.85318],[98.62079,18.85386],[98.62078,18.85679],[98.62005,18.85828],[98.61965,18.86031],[98.61922,18.8606],[98.6188,18.86022],[98.6187,18.85962],[98.61758,18.8591],[98.61656,18.85794],[98.61638,18.85677],[98.61705,18.8553],[98.61706,18.85378],[98.6176,18.85419],[98.6186,18.85424],[98.62093,18.85318]]]}},{"type":"Feature","properties":{"id":"w1099813372","k":"trail","n":"3 Kings Trail","p":"ชลบุรี","km":0.32,"lat":13.18179,"lon":100.95093},"geometry":{"type":"MultiLineString","coordinates":[[[100.95093,13.18179],[100.9514,13.18228],[100.95199,13.18244],[100.95249,13.18232],[100.95278,13.18195],[100.95328,13.18199]]]}},{"type":"Feature","properties":{"id":"w1132121789","k":"trail","n":"Nature Trail","p":"เชียงใหม่","km":0.14,"lat":19.40369,"lon":98.922},"geometry":{"type":"MultiLineString","coordinates":[[[98.922,19.40369],[98.92225,19.40336],[98.92165,19.40296]]]}},{"type":"Feature","properties":{"id":"w1150949182","k":"trail","n":"Nature Study Trail","p":"เชียงใหม่","km":0.08,"lat":19.91172,"lon":99.04565},"geometry":{"type":"MultiLineString","coordinates":[[[99.04565,19.91172],[99.0464,19.9116]]]}},{"type":"Feature","properties":{"id":"w1151672701","k":"trail","n":"เส้นทางศึกษาธรรมชาติ","p":"พังงา","km":0.76,"lat":8.99594,"lon":98.46276,"en":"Si Phang Nga Nature Trail"},"geometry":{"type":"MultiLineString","coordinates":[[[98.46276,8.99594],[98.463,8.99506],[98.46358,8.9947],[98.46389,8.9939],[98.46475,8.99424],[98.46498,8.99404],[98.4658,8.99414],[98.46613,8.99438],[98.46614,8.99488],[98.4667,8.99467],[98.4669,8.99482]]]}},{"type":"Feature","properties":{"id":"w1187796613","k":"trail","n":"Mangrove Forest Trail","p":"ภูเก็ต","km":0.33,"lat":7.86875,"lon":98.39926},"geometry":{"type":"MultiLineString","coordinates":[[[98.39926,7.86875],[98.39916,7.86701],[98.39874,7.86602]]]}},{"type":"Feature","properties":{"id":"w1221251672","k":"trail","n":"Home of Tiger Nature Trail","p":"อุทัยธานี","km":1.23,"lat":15.61152,"lon":99.31942,"x":{"access":"no"}},"geometry":{"type":"MultiLineString","coordinates":[[[99.31942,15.61152],[99.32277,15.61221],[99.32324,15.61298],[99.32293,15.61379],[99.32192,15.61515],[99.32109,15.61541],[99.32076,15.61522],[99.31965,15.61252]]]}},{"type":"Feature","properties":{"id":"w1232461604","k":"trail","n":"Khao Hin Daeng Nature Trail","p":"อุทัยธานี","km":4.09,"lat":15.60295,"lon":99.31747,"x":{"access":"no"}},"geometry":{"type":"MultiLineString","coordinates":[[[99.31747,15.60295],[99.31703,15.60287],[99.31694,15.6026],[99.31836,15.60016],[99.31793,15.60004],[99.31688,15.60069],[99.31621,15.6005],[99.31558,15.59978],[99.31501,15.59952],[99.31169,15.59964],[99.31045,15.59874],[99.30935,15.59754],[99.30896,15.59747],[99.30853,15.59755],[99.30685,15.59909],[99.30672,15.59968],[99.30526,15.60118],[99.30491,15.6025],[99.30359,15.60379],[99.30545,15.60377],[99.30888,15.60295],[99.31223,15.60283],[99.3125,15.60245],[99.31312,15.60232],[99.31421,15.60314],[99.31533,15.60326],[99.31703,15.60287]]]}},{"type":"Feature","properties":{"id":"w1234333451","k":"trail","n":"Teakwood dual-trail","p":"เชียงใหม่","km":0.1,"lat":18.69749,"lon":98.85087},"geometry":{"type":"MultiLineString","coordinates":[[[98.85087,18.69749],[98.85001,18.69775]]]}},{"type":"Feature","properties":{"id":"w1252820305","k":"trail","n":"Ao Phang-nga Mangrove Nature Trail","p":"พังงา","km":1.41,"lat":8.40732,"lon":98.51046},"geometry":{"type":"MultiLineString","coordinates":[[[98.51046,8.40732],[98.51124,8.40825],[98.51181,8.40978],[98.51077,8.41058],[98.50916,8.41088],[98.50809,8.40995],[98.50801,8.40831],[98.51046,8.40732]],[[98.51087,8.40638],[98.51082,8.4067],[98.51049,8.4068],[98.51046,8.40732]]]}},{"type":"Feature","properties":{"id":"w1257701846","k":"trail","n":"(broken) Mangrove forest eco trail","p":"ภูเก็ต","km":0.13,"lat":8.19005,"lon":98.29105,"x":{"access":"no"}},"geometry":{"type":"MultiLineString","coordinates":[[[98.29105,8.19005],[98.29067,8.18983],[98.29027,8.19033]]]}},{"type":"Feature","properties":{"id":"w1263753677","k":"trail","n":"Tanaosri Trail 2022","p":"ราชบุรี","km":13.97,"lat":13.56357,"lon":99.20924},"geometry":{"type":"MultiLineString","coordinates":[[[99.20924,13.56357],[99.20753,13.56378],[99.20791,13.56221],[99.20667,13.56199],[99.20709,13.561],[99.20698,13.56039],[99.20746,13.55999],[99.20722,13.55926],[99.20753,13.55882],[99.20682,13.55763],[99.2075,13.55723],[99.2091,13.55724],[99.21014,13.55688],[99.21042,13.55545],[99.21114,13.55501],[99.21114,13.55452],[99.21158,13.554],[99.21152,13.55334],[99.21175,13.55319],[99.21341,13.55771],[99.21446,13.55801],[99.21528,13.55783],[99.21562,13.55803],[99.21584,13.55884],[99.21621,13.55915],[99.21671,13.55893],[99.21742,13.55902],[99.218,13.55867],[99.21833,13.55888],[99.21827,13.55947],[99.21852,13.55953],[99.22044,13.55916],[99.22069,13.55932],[99.22075,13.55998],[99.22219,13.56038],[99.22268,13.56142],[99.22456,13.56217],[99.22557,13.56331],[99.22609,13.56348],[99.22651,13.56389],[99.22661,13.56438],[99.22638,13.56499],[99.2267,13.5655],[99.22795,13.56671],[99.22873,13.56699]],[[99.22337,13.56182],[99.22329,13.5615],[99.2235,13.56146],[99.2242,13.56166],[99.225,13.56153],[99.22553,13.56176],[99.22569,13.56131],[99.2231,13.55942],[99.22244,13.55795],[99.22203,13.5558],[99.22109,13.55506],[99.22024,13.55487],[99.21887,13.554],[99.21667,13.55331],[99.21537,13.55255],[99.21442,13.5527],[99.21389,13.55237],[99.2132,13.5511],[99.2131,13.54842],[99.21269,13.5476],[99.21347,13.54729],[99.21799,13.54902],[99.21912,13.54897],[99.21969,13.54953],[99.22274,13.55009],[99.22481,13.54945],[99.22573,13.54943],[99.22611,13.54864],[99.22678,13.54839],[99.22762,13.54837],[99.22906,13.54931],[99.23013,13.54918],[99.23165,13.54957]],[[99.23878,13.5502],[99.23911,13.55053],[99.23678,13.55237],[99.23654,13.55268],[99.23663,13.55318],[99.23521,13.55384],[99.2349,13.55501],[99.23393,13.5555],[99.23317,13.5556],[99.23231,13.55618],[99.23199,13.5567],[99.23178,13.55824],[99.2314,13.55889],[99.23034,13.55833],[99.22999,13.5573]],[[99.23911,13.55053],[99.2408,13.55164],[99.24202,13.55198],[99.24243,13.55234],[99.24247,13.55356],[99.24273,13.55392],[99.24486,13.55449],[99.24609,13.55439],[99.24794,13.55325],[99.24831,13.55257],[99.24878,13.55268],[99.24989,13.55366],[99.25048,13.55335],[99.25076,13.55283],[99.2519,13.55244],[99.25407,13.55235],[99.25474,13.55186],[99.25582,13.55178],[99.25637,13.55103]]]}},{"type":"Feature","properties":{"id":"w1263758561","k":"trail","n":"Tanaosri Trail 2022","p":"ราชบุรี","km":27.78,"lat":13.51473,"lon":99.21096},"geometry":{"type":"MultiLineString","coordinates":[[[99.21096,13.51473],[99.20957,13.51468],[99.20921,13.51374],[99.20871,13.51413],[99.20877,13.51567],[99.20946,13.51595],[99.20993,13.51739],[99.2096,13.5178],[99.20923,13.51945],[99.20734,13.52097],[99.20633,13.52368],[99.20662,13.52426],[99.20603,13.52611],[99.20621,13.52745],[99.20591,13.52922],[99.20613,13.531],[99.20579,13.53217],[99.20603,13.53311],[99.20688,13.53448],[99.20669,13.53596],[99.20719,13.53691],[99.20735,13.53886],[99.20895,13.5401],[99.21032,13.54161],[99.21201,13.54169],[99.21322,13.54136],[99.21794,13.54149],[99.21835,13.54175],[99.2185,13.54326],[99.21971,13.54448],[99.22096,13.54535],[99.22365,13.54596],[99.22419,13.54675],[99.22498,13.54671],[99.22522,13.5477],[99.22597,13.54767],[99.22687,13.54839]],[[99.23521,13.52248],[99.23488,13.52274],[99.23322,13.52244],[99.23209,13.52186],[99.23171,13.52197],[99.23158,13.52271],[99.23051,13.52332],[99.23062,13.52429],[99.23115,13.52514],[99.23007,13.52597],[99.23007,13.5264],[99.22974,13.52675],[99.22988,13.52697]],[[99.23984,13.53165],[99.2392,13.53278],[99.23811,13.53393],[99.23772,13.5349],[99.23749,13.53837],[99.23689,13.54031],[99.23647,13.54085],[99.2356,13.54093],[99.23452,13.5415],[99.23381,13.54228],[99.23358,13.54293],[99.23248,13.54391],[99.23237,13.54469],[99.23144,13.54491],[99.22977,13.54376],[99.2276,13.54386],[99.2277,13.54439],[99.22821,13.54503],[99.22922,13.5459],[99.23037,13.54633],[99.23055,13.54714],[99.23025,13.54793]],[[99.23227,13.54989],[99.23033,13.54795],[99.22896,13.5478],[99.22788,13.54688],[99.22743,13.54688],[99.22748,13.54663],[99.22649,13.54537],[99.22646,13.545],[99.22683,13.54498],[99.22699,13.54453],[99.22652,13.54366],[99.22558,13.54318],[99.22514,13.54242],[99.225,13.54087],[99.22455,13.5405],[99.22391,13.53929],[99.22407,13.53906],[99.22346,13.53667],[99.22237,13.53553],[99.22224,13.53388],[99.22257,13.53319],[99.22257,13.53198],[99.22325,13.53108],[99.22283,13.53057],[99.22537,13.52978],[99.22636,13.52914],[99.22799,13.52889],[99.22816,13.5286],[99.22952,13.52797],[99.22981,13.52697],[99.2311,13.52726],[99.23256,13.52702],[99.23466,13.52783],[99.23549,13.52707],[99.23657,13.52704],[99.23717,13.52749],[99.23746,13.52871],[99.23851,13.52945],[99.23957,13.53003],[99.24064,13.52966]],[[99.23418,13.52104],[99.23404,13.52071],[99.23293,13.52025],[99.23197,13.52016],[99.23008,13.52121],[99.22921,13.52142],[99.22637,13.51999],[99.22551,13.52001],[99.22497,13.5196],[99.22491,13.51896],[99.22447,13.51847],[99.22196,13.51729],[99.22074,13.51735],[99.21966,13.5168],[99.21817,13.51644],[99.21748,13.51645],[99.21662,13.51703],[99.21472,13.51642],[99.2145,13.51676],[99.21324,13.51681],[99.21296,13.51716],[99.21201,13.51667],[99.2111,13.51665],[99.21066,13.51611],[99.21066,13.51552],[99.21096,13.51473],[99.21247,13.51298],[99.21286,13.51216],[99.21397,13.51226],[99.21413,13.51198],[99.21582,13.51136],[99.21776,13.51173],[99.21998,13.51124],[99.22037,13.50874],[99.22126,13.50752],[99.22325,13.50666],[99.2239,13.50695],[99.22443,13.50624],[99.22485,13.50609],[99.22623,13.50626],[99.22737,13.50603],[99.2285,13.5063],[99.22969,13.50561],[99.23109,13.5041],[99.2327,13.50494],[99.23352,13.5051],[99.23507,13.50658],[99.23511,13.50868],[99.23584,13.50968],[99.23621,13.51067],[99.2384,13.51175],[99.23986,13.51299],[99.24213,13.51403],[99.24259,13.51473],[99.24375,13.51567]],[[99.24588,13.52162],[99.24527,13.52084],[99.24412,13.52105],[99.24385,13.52089],[99.24336,13.51953],[99.24374,13.51832],[99.24466,13.51746],[99.24469,13.51709],[99.24385,13.51697],[99.24287,13.51925],[99.24034,13.52129],[99.24025,13.52192],[99.23938,13.5226],[99.23749,13.52189],[99.23717,13.52212],[99.23649,13.52164],[99.23418,13.52104],[99.23381,13.5213],[99.23521,13.52248],[99.23593,13.52233],[99.23708,13.52373],[99.23861,13.52447]],[[99.24423,13.47738],[99.2438,13.47674],[99.244,13.47615],[99.24334,13.47645],[99.2435,13.47592],[99.24314,13.47548],[99.24368,13.47476],[99.24896,13.47386]]]}},{"type":"Feature","properties":{"id":"w1263762770","k":"trail","n":"Tanaosri Trail 2022","p":"ราชบุรี","km":4.35,"lat":13.54963,"lon":99.25481},"geometry":{"type":"MultiLineString","coordinates":[[[99.25481,13.54963],[99.25487,13.54915],[99.25548,13.54848],[99.25534,13.54693],[99.25556,13.54646],[99.2589,13.54299],[99.25907,13.54188],[99.25986,13.53988],[99.26022,13.53944],[99.26065,13.53936],[99.26202,13.53721],[99.26176,13.53674],[99.26201,13.53608],[99.26191,13.53517],[99.2612,13.53418],[99.26001,13.53423],[99.2589,13.53365],[99.25871,13.53307],[99.25884,13.53254],[99.25917,13.53183],[99.25976,13.53148],[99.25989,13.53081],[99.25969,13.53043],[99.26002,13.52963],[99.26003,13.52883],[99.25909,13.52723],[99.25891,13.52637],[99.25811,13.52554],[99.25776,13.52367],[99.25683,13.52288],[99.25652,13.52211],[99.25492,13.52078],[99.25234,13.51961]]]}},{"type":"Feature","properties":{"id":"w1316237604","k":"trail","n":"เส้นทางศึกษาธรรมชาติ","p":"กรุงเทพมหานคร","km":0.22,"lat":13.61768,"lon":100.43904,"en":"Nature Trail"},"geometry":{"type":"MultiLineString","coordinates":[[[100.43904,13.61768],[100.4398,13.61761],[100.43999,13.61785],[100.44022,13.61748],[100.44053,13.61745]]]}},{"type":"Feature","properties":{"id":"w1354163818","k":"trail","n":"เส้นทางศึกษาธรรมชาติเขากะโหลก","p":"ประจวบคีรีขันธ์","km":0.76,"lat":12.3386,"lon":99.9976,"en":"Khao Kalok Nature Trail"},"geometry":{"type":"MultiLineString","coordinates":[[[99.9976,12.3386],[99.99828,12.33841],[99.99828,12.33885],[99.99856,12.33905],[99.99935,12.33863],[100.00002,12.33784],[100.00013,12.33712],[100.00061,12.33695],[100.00112,12.33623],[100.00096,12.33528]]]}},{"type":"Feature","properties":{"id":"w1377969481","k":"trail","n":"Cave Trail 2","p":"ชลบุรี","km":0.51,"lat":13.19128,"lon":100.94674},"geometry":{"type":"MultiLineString","coordinates":[[[100.94674,13.19128],[100.94798,13.19081],[100.94835,13.1913],[100.94896,13.19102],[100.94915,13.19034],[100.94966,13.19053]]]}},{"type":"Feature","properties":{"id":"w1377970821","k":"trail","n":"Trail E to San Chaomaapatbok-Watphrommawat Road","p":"ชลบุรี","km":0.41,"lat":13.19018,"lon":100.95466},"geometry":{"type":"MultiLineString","coordinates":[[[100.95466,13.19018],[100.9553,13.19065],[100.95651,13.19086],[100.95723,13.19074],[100.95736,13.19164]]]}},{"type":"Feature","properties":{"id":"w1389266336","k":"trail","n":"Climbers Trail","p":"เชียงใหม่","km":0.96,"lat":18.89494,"lon":98.85815},"geometry":{"type":"MultiLineString","coordinates":[[[98.85815,18.89494],[98.85781,18.89495],[98.85767,18.89472],[98.85817,18.89461],[98.8577,18.89441],[98.85801,18.89433],[98.85741,18.89419],[98.85791,18.89392],[98.85731,18.8938],[98.85752,18.89358],[98.85709,18.89326],[98.85707,18.89284],[98.85762,18.89184],[98.85816,18.89171],[98.85864,18.89099]]]}},{"type":"Feature","properties":{"id":"w1418001299","k":"trail","n":"Millipede Trail","p":"เชียงใหม่","km":0.29,"lat":18.89835,"lon":98.86012},"geometry":{"type":"MultiLineString","coordinates":[[[98.86012,18.89835],[98.85955,18.89681],[98.85893,18.89637]]]}},{"type":"Feature","properties":{"id":"w1461312940","k":"trail","n":"Angkha Nature Trail","p":"เชียงใหม่","km":0.05,"lat":18.58881,"lon":98.4843},"geometry":{"type":"MultiLineString","coordinates":[[[98.4843,18.58881],[98.48477,18.58886]]]}}]}