{"type":"FeatureCollection","properties":{"v":3,"id":"t100_20","name":"เชียงราย","aoi":[100.0,20.0,100.567,20.42],"date":"2026-10-09","dates":["2026-10-09","2026-10-04"],"baseline_years":3,"has_seasonal":true,"totals":{"flood_high":0.0,"flood_low":0.6,"seasonal":4.2},"provinces":[{"name":"เชียงราย","zone":"th-n","flood_high":0.0,"flood_low":0.6,"seasonal":4.1}],"scenes":{"2026-10-09":2,"2026-10-04":1},"baseline_dates":["2025-10-05","2024-10-09","2023-10-10"],"threshold_db":-15.0,"auto":true,"source":"Sentinel-1 RTC (Copernicus/ESA) via Microsoft Planetary Computer; JRC Global Surface Water; Copernicus DEM","method":"ChatGeo v3: Otsu threshold on VV dB; minus JRC permanent water and slope > 5 deg; unusual = water not present in most of the previous 3 years (same season)","added":"2026-10-10T16:37+07:00"},"features":[{"type":"Feature","properties":{"kind":"flood","area_km2":0.193,"conf":"low","date":"2026-10-09"},"geometry":{"type":"Polygon","coordinates":[[[100.0325,20.2632],[100.0322,20.2621],[100.0328,20.2615],[100.0328,20.2607],[100.0339,20.2607],[100.0339,20.2596],[100.0325,20.2591],[100.0322,20.2577],[100.0336,20.258],[100.0336,20.2585],[100.0351,20.2585],[100.0356,20.2588],[100.0356,20.2594],[100.0365,20.2591],[100.0374,20.2599],[100.0402,20.2604],[100.04,20.2612],[100.0385,20.261],[100.0385,20.2615],[100.0374,20.2604],[100.0359,20.2604],[100.0354,20.2607],[100.0345,20.2632],[100.0325,20.2632]]]}},{"type":"Feature","properties":{"kind":"flood","area_km2":0.139,"conf":"low","date":"2026-10-09"},"geometry":{"type":"Polygon","coordinates":[[[100.0104,20.2202],[100.0104,20.2194],[100.011,20.2194],[100.011,20.2186],[100.0115,20.2183],[100.0118,20.2169],[100.0124,20.2169],[100.0127,20.2156],[100.0138,20.2153],[100.0138,20.2158],[100.0147,20.2161],[100.015,20.2194],[100.0121,20.2191],[100.0118,20.2199],[100.0104,20.2202]]]}},{"type":"Feature","properties":{"kind":"flood","area_km2":0.062,"conf":"low","date":"2026-10-09"},"geometry":{"type":"Polygon","coordinates":[[[100.41,20.2066],[100.41,20.2052],[100.4108,20.205],[100.4111,20.2039],[100.4117,20.2039],[100.4117,20.2031],[100.4128,20.2031],[100.4128,20.2047],[100.412,20.205],[100.412,20.2058],[100.4114,20.2058],[100.4108,20.2066],[100.41,20.2066]]]}},{"type":"Feature","properties":{"kind":"flood","area_km2":0.061,"conf":"low","date":"2026-10-09"},"geometry":{"type":"Polygon","coordinates":[[[100.0192,20.2497],[100.0189,20.2478],[100.0206,20.2483],[100.0206,20.2478],[100.0221,20.2475],[100.0224,20.247],[100.0238,20.247],[100.0238,20.2475],[100.0232,20.2475],[100.0229,20.248],[100.0218,20.248],[100.0218,20.2494],[100.0201,20.2491],[100.0192,20.2497]]]}},{"type":"Feature","properties":{"kind":"flood","area_km2":0.058,"conf":"low","date":"2026-10-09"},"geometry":{"type":"Polygon","coordinates":[[[100.0096,20.2251],[100.0093,20.2243],[100.0081,20.2235],[100.0084,20.2221],[100.0098,20.2221],[100.0098,20.2229],[100.0107,20.2237],[100.0107,20.2248],[100.0096,20.2251]]]}},{"type":"Feature","properties":{"kind":"flood","area_km2":0.053,"conf":"low","date":"2026-10-09"},"geometry":{"type":"Polygon","coordinates":[[[100.0136,20.2242],[100.0116,20.224],[100.0116,20.2205],[100.0124,20.2205],[100.0127,20.2234],[100.0142,20.2234],[100.0136,20.2242]]]}},{"type":"Feature","properties":{"kind":"seasonal","area_km2":0.435,"date":"2026-10-09"},"geometry":{"type":"Polygon","coordinates":[[[100.2334,20.0271],[100.2334,20.0261],[100.232,20.0255],[100.2317,20.025],[100.2303,20.0244],[100.2291,20.0253],[100.228,20.0253],[100.228,20.0242],[100.2288,20.0234],[100.2288,20.022],[100.232,20.0212],[100.2325,20.0204],[100.2325,20.019],[100.2331,20.0185],[100.2348,20.0185],[100.2354,20.019],[100.2351,20.0236],[100.236,20.0244],[100.236,20.0252],[100.2354,20.0255],[100.2354,20.0263],[100.2346,20.0271],[100.2334,20.0271]]]}},{"type":"Feature","properties":{"kind":"seasonal","area_km2":0.349,"date":"2026-10-09"},"geometry":{"type":"Polygon","coordinates":[[[100.0278,20.199],[100.0278,20.1979],[100.0263,20.1965],[100.0255,20.1965],[100.0246,20.1954],[100.0234,20.1952],[100.0232,20.1944],[100.0226,20.1944],[100.0223,20.1949],[100.0211,20.1947],[100.0209,20.1936],[100.0214,20.1933],[100.0217,20.1919],[100.0229,20.1919],[100.024,20.1938],[100.0272,20.1941],[100.0278,20.1962],[100.0283,20.1962],[100.0286,20.1949],[100.0277,20.1903],[100.0294,20.19],[100.0301,20.1951],[100.0295,20.1954],[100.0292,20.1968],[100.0298,20.197],[100.0298,20.1981],[100.0286,20.1989],[100.0278,20.199]]]}},{"type":"Feature","properties":{"kind":"seasonal","area_km2":0.325,"date":"2026-10-09"},"geometry":{"type":"Polygon","coordinates":[[[100.3623,20.2316],[100.3623,20.2311],[100.3617,20.2308],[100.362,20.23],[100.3614,20.2295],[100.3591,20.2295],[100.3585,20.229],[100.3576,20.2292],[100.3568,20.2284],[100.3559,20.2284],[100.3553,20.2276],[100.3533,20.2271],[100.3527,20.2266],[100.353,20.2249],[100.3536,20.2247],[100.3542,20.2255],[100.3553,20.226],[100.3562,20.2257],[100.357,20.2268],[100.3593,20.2271],[100.3605,20.2279],[100.3662,20.2273],[100.3671,20.2265],[100.368,20.2267],[100.368,20.2292],[100.3674,20.2294],[100.3674,20.23],[100.3657,20.2281],[100.3625,20.2281],[100.3619,20.2292],[100.3628,20.23],[100.3628,20.2311],[100.3623,20.2316]]]}},{"type":"Feature","properties":{"kind":"seasonal","area_km2":0.322,"date":"2026-10-09"},"geometry":{"type":"Polygon","coordinates":[[[100.018,20.1952],[100.0174,20.1947],[100.0174,20.1939],[100.0168,20.1936],[100.0168,20.1928],[100.0185,20.1911],[100.0185,20.1895],[100.0194,20.1879],[100.0228,20.1868],[100.0266,20.1868],[100.0291,20.1881],[100.0292,20.1895],[100.026,20.1892],[100.0251,20.1884],[100.0225,20.1884],[100.0208,20.189],[100.0191,20.1922],[100.0189,20.1952],[100.018,20.1952]]]}},{"type":"Feature","properties":{"kind":"seasonal","area_km2":0.285,"date":"2026-10-09"},"geometry":{"type":"Polygon","coordinates":[[[100.0254,20.2301],[100.0248,20.2296],[100.0225,20.2296],[100.0225,20.2277],[100.0234,20.2264],[100.0242,20.2263],[100.0242,20.2234],[100.0265,20.2231],[100.0268,20.2236],[100.0282,20.2236],[100.0282,20.225],[100.0274,20.2261],[100.0277,20.2271],[100.026,20.2282],[100.0263,20.2301],[100.0254,20.2301]]]}},{"type":"Feature","properties":{"kind":"seasonal","area_km2":0.259,"date":"2026-10-09"},"geometry":{"type":"Polygon","coordinates":[[[100.0034,20.2059],[100.0034,20.2048],[100.0025,20.2037],[100.0025,20.2005],[100.0031,20.2004],[100.0034,20.1996],[100.0017,20.1994],[100.0014,20.1999],[100.0002,20.1999],[100.0002,20.1988],[100.0054,20.1972],[100.0054,20.1994],[100.0045,20.1994],[100.0042,20.2002],[100.0057,20.2015],[100.006,20.2037],[100.0048,20.2045],[100.0043,20.2059],[100.0034,20.2059]]]}},{"type":"Feature","properties":{"kind":"seasonal","area_km2":0.249,"date":"2026-10-09"},"geometry":{"type":"Polygon","coordinates":[[[100.0264,20.251],[100.0241,20.2507],[100.0238,20.2502],[100.0227,20.2502],[100.0224,20.2494],[100.0218,20.2494],[100.0218,20.248],[100.0229,20.248],[100.0232,20.2475],[100.0238,20.2475],[100.0238,20.247],[100.0249,20.2469],[100.0264,20.2477],[100.0272,20.2469],[100.0278,20.2469],[100.0293,20.2491],[100.0304,20.2491],[100.0313,20.2499],[100.0313,20.251],[100.0307,20.251],[100.0307,20.2502],[100.0296,20.2496],[100.029,20.2496],[100.029,20.2507],[100.0281,20.251],[100.0281,20.2488],[100.0275,20.2488],[100.0275,20.2496],[100.0261,20.2496],[100.0264,20.251]]]}},{"type":"Feature","properties":{"kind":"seasonal","area_km2":0.234,"date":"2026-10-09"},"geometry":{"type":"Polygon","coordinates":[[[100.0941,20.2828],[100.0938,20.2823],[100.093,20.2823],[100.0921,20.2796],[100.092,20.2742],[100.0929,20.2723],[100.0929,20.2707],[100.0932,20.2747],[100.0938,20.2753],[100.0938,20.2763],[100.0944,20.2769],[100.0955,20.2812],[100.0955,20.282],[100.0944,20.282],[100.0941,20.2828]]]}},{"type":"Feature","properties":{"kind":"seasonal","area_km2":0.184,"date":"2026-10-09"},"geometry":{"type":"Polygon","coordinates":[[[100.3154,20.1537],[100.3142,20.1529],[100.3128,20.1526],[100.3128,20.1512],[100.3133,20.1507],[100.3128,20.1491],[100.3165,20.1493],[100.3174,20.1528],[100.3162,20.1537],[100.3154,20.1537]]]}},{"type":"Feature","properties":{"kind":"seasonal","area_km2":0.156,"date":"2026-10-09"},"geometry":{"type":"Polygon","coordinates":[[[100.0101,20.2161],[100.0101,20.2121],[100.0089,20.2118],[100.0086,20.2094],[100.0098,20.2094],[100.0098,20.2099],[100.0109,20.2104],[100.0106,20.2118],[100.0112,20.2123],[100.0121,20.2123],[100.0132,20.2134],[100.0132,20.2142],[100.0109,20.2153],[100.011,20.2161],[100.0101,20.2161]]]}},{"type":"Feature","properties":{"kind":"seasonal","area_km2":0.15,"date":"2026-10-09"},"geometry":{"type":"Polygon","coordinates":[[[100.044,20.262],[100.0437,20.2615],[100.0426,20.2615],[100.0423,20.2609],[100.0403,20.2607],[100.0397,20.2601],[100.0417,20.2599],[100.0423,20.2604],[100.044,20.2607],[100.0443,20.2612],[100.0443,20.2607],[100.0451,20.2606],[100.0463,20.2598],[100.0483,20.2598],[100.0489,20.2595],[100.0486,20.2585],[100.0491,20.2576],[100.0491,20.256],[100.0497,20.256],[100.0503,20.2566],[100.0503,20.2585],[100.0494,20.2595],[100.0494,20.2609],[100.0477,20.2609],[100.0474,20.2604],[100.0463,20.2604],[100.0454,20.262],[100.044,20.262]]]}},{"type":"Feature","properties":{"kind":"seasonal","area_km2":0.147,"date":"2026-10-09"},"geometry":{"type":"Polygon","coordinates":[[[100.5071,20.1565],[100.5074,20.1554],[100.5068,20.1559],[100.5054,20.1559],[100.5059,20.1543],[100.5065,20.1543],[100.5065,20.1535],[100.5074,20.1527],[100.5074,20.1521],[100.5091,20.1505],[100.5096,20.1505],[100.5096,20.1499],[100.5116,20.1491],[100.5116,20.1497],[100.5102,20.1507],[100.5102,20.1513],[100.5079,20.1527],[100.5077,20.1535],[100.5097,20.1535],[100.5097,20.1543],[100.5088,20.1548],[100.5085,20.1556],[100.508,20.1556],[100.5071,20.1565]]]}},{"type":"Feature","properties":{"kind":"seasonal","area_km2":0.13,"date":"2026-10-09"},"geometry":{"type":"Polygon","coordinates":[[[100.0958,20.3124],[100.0949,20.3113],[100.0943,20.3113],[100.0943,20.3086],[100.0949,20.3091],[100.0946,20.311],[100.096,20.3108],[100.0966,20.3056],[100.0966,20.3045],[100.096,20.3045],[100.096,20.304],[100.0966,20.3037],[100.0966,20.3021],[100.096,20.3007],[100.0962,20.2994],[100.0971,20.3037],[100.0975,20.3099],[100.0969,20.3099],[100.0966,20.3124],[100.0958,20.3124]],[[100.0958,20.3118],[100.0963,20.3121],[100.0963,20.3118],[100.0958,20.3118]],[[100.0969,20.3094],[100.0972,20.3097],[100.0972,20.3094],[100.0969,20.3094]]]}},{"type":"Feature","properties":{"kind":"seasonal","area_km2":0.126,"date":"2026-10-09"},"geometry":{"type":"Polygon","coordinates":[[[100.3165,20.0154],[100.3151,20.0141],[100.315,20.0116],[100.3168,20.01],[100.3179,20.01],[100.3185,20.0116],[100.3165,20.0116],[100.3162,20.0127],[100.3171,20.0133],[100.3182,20.0132],[100.3182,20.0143],[100.3174,20.0154],[100.3165,20.0154]],[[100.3156,20.0138],[100.3159,20.0141],[100.3159,20.0138],[100.3156,20.0138]],[[100.3153,20.0135],[100.3156,20.0138],[100.3156,20.0135],[100.3153,20.0135]]]}},{"type":"Feature","properties":{"kind":"seasonal","area_km2":0.124,"date":"2026-10-09"},"geometry":{"type":"Polygon","coordinates":[[[100.5317,20.1511],[100.53,20.1492],[100.5303,20.1487],[100.5277,20.1463],[100.5254,20.1457],[100.5222,20.146],[100.5182,20.1458],[100.5214,20.1452],[100.526,20.1452],[100.5268,20.1457],[100.528,20.1457],[100.5291,20.1462],[100.5303,20.1479],[100.5309,20.1479],[100.5312,20.1495],[100.5317,20.1495],[100.532,20.15],[100.5317,20.1511]]]}},{"type":"Feature","properties":{"kind":"seasonal","area_km2":0.117,"date":"2026-10-09"},"geometry":{"type":"Polygon","coordinates":[[[100.0718,20.174],[100.0712,20.1735],[100.0704,20.1735],[100.0687,20.1713],[100.0672,20.1713],[100.0672,20.1705],[100.0689,20.1702],[100.071,20.1724],[100.0727,20.1732],[100.0747,20.1732],[100.0753,20.1724],[100.0761,20.1724],[100.0761,20.1732],[100.075,20.174],[100.0718,20.174]]]}},{"type":"Feature","properties":{"kind":"seasonal","area_km2":0.113,"date":"2026-10-09"},"geometry":{"type":"Polygon","coordinates":[[[100.4954,20.1647],[100.496,20.1633],[100.4968,20.1631],[100.4968,20.162],[100.4988,20.1606],[100.4991,20.1595],[100.5003,20.1587],[100.5002,20.1582],[100.5017,20.1565],[100.5011,20.1592],[100.5,20.1603],[100.5,20.1611],[100.4994,20.1611],[100.4991,20.162],[100.498,20.1625],[100.498,20.1633],[100.4974,20.1633],[100.4971,20.1641],[100.4954,20.1647]]]}},{"type":"Feature","properties":{"kind":"seasonal","area_km2":0.111,"date":"2026-10-09"},"geometry":{"type":"Polygon","coordinates":[[[100.4244,20.2471],[100.425,20.2458],[100.4273,20.2447],[100.4267,20.2441],[100.4304,20.243],[100.429,20.2457],[100.4279,20.2463],[100.427,20.2458],[100.4267,20.2463],[100.4273,20.2466],[100.4244,20.2471]]]}},{"type":"Feature","properties":{"kind":"seasonal","area_km2":0.105,"date":"2026-10-09"},"geometry":{"type":"Polygon","coordinates":[[[100.0052,20.2105],[100.0032,20.2091],[100.0031,20.2083],[100.0049,20.2075],[100.0057,20.2075],[100.006,20.208],[100.0075,20.2077],[100.0077,20.2091],[100.0066,20.2091],[100.0066,20.2105],[100.0052,20.2105]]]}},{"type":"Feature","properties":{"kind":"seasonal","area_km2":0.103,"date":"2026-10-09"},"geometry":{"type":"Polygon","coordinates":[[[100.0954,20.2666],[100.096,20.2647],[100.0983,20.2625],[100.0983,20.2617],[100.0991,20.2617],[100.0991,20.2609],[100.1003,20.2606],[100.1006,20.26],[100.1023,20.2598],[100.1009,20.2614],[100.1003,20.2614],[100.1,20.2625],[100.0989,20.2628],[100.0983,20.2633],[100.0983,20.2641],[100.0954,20.2666]]]}},{"type":"Feature","properties":{"kind":"seasonal","area_km2":0.103,"date":"2026-10-09"},"geometry":{"type":"Polygon","coordinates":[[[100.3491,20.203],[100.3488,20.2022],[100.3494,20.2025],[100.3499,20.2022],[100.3485,20.2019],[100.3485,20.2011],[100.3488,20.2003],[100.3496,20.2],[100.3496,20.1995],[100.3485,20.1998],[100.3485,20.1992],[100.3479,20.1992],[100.3471,20.2],[100.347,20.1992],[100.3482,20.1987],[100.3493,20.1987],[100.3493,20.1992],[100.3508,20.1992],[100.3516,20.1997],[100.3514,20.2008],[100.3502,20.2006],[100.3502,20.2011],[100.3517,20.2016],[100.3517,20.2027],[100.3491,20.203]],[[100.3505,20.2022],[100.3508,20.2025],[100.3508,20.2022],[100.3505,20.2022]],[[100.3497,20.2017],[100.3499,20.2019],[100.3499,20.2017],[100.3497,20.2017]],[[100.3496,20.2011],[100.3499,20.2014],[100.3499,20.2011],[100.3496,20.2011]],[[100.3502,20.2],[100.3511,20.2],[100.3502,20.1995],[100.3502,20.2]]]}},{"type":"Feature","properties":{"kind":"seasonal","area_km2":0.1,"date":"2026-10-09"},"geometry":{"type":"Polygon","coordinates":[[[100.3187,20.1404],[100.3181,20.1396],[100.3164,20.1401],[100.3161,20.1396],[100.3167,20.1379],[100.315,20.1377],[100.3147,20.1369],[100.317,20.1369],[100.3181,20.1385],[100.3204,20.139],[100.3204,20.1398],[100.3199,20.1404],[100.3187,20.1404]]]}}]}
