{"type":"FeatureCollection","properties":{"v":3,"id":"t100_7","name":"พัทลุง · สงขลา · สตูล","aoi":[100.0,7.0,100.7723,8.0],"date":"2026-10-09","dates":["2026-10-09","2026-10-08","2026-10-02"],"baseline_years":3,"has_seasonal":true,"totals":{"flood_high":2.4,"flood_low":0.5,"seasonal":7.1},"provinces":[{"name":"สงขลา","zone":"th-s","flood_high":2.4,"flood_low":0.2,"seasonal":4.1},{"name":"พัทลุง","zone":"th-s","flood_high":0.0,"flood_low":0.3,"seasonal":2.2},{"name":"นครศรีธรรมราช","zone":"th-s","flood_high":0.0,"flood_low":0.0,"seasonal":0.8}],"scenes":{"2026-10-09":1,"2026-10-08":1,"2026-10-02":2},"baseline_dates":["2025-10-07","2024-10-05","2023-10-11"],"threshold_db":-15.3,"auto":true,"source":"Sentinel-1 RTC (Copernicus/ESA) via Microsoft Planetary Computer; JRC Global Surface Water; Copernicus DEM","method":"ChatGeo v3: Otsu threshold on VV dB; minus JRC permanent water and slope > 5 deg; unusual = water not present in most of the previous 3 years (same season)","added":"2026-10-10T16:37+07:00"},"features":[{"type":"Feature","properties":{"kind":"flood","area_km2":1.637,"conf":"high","date":"2026-10-02"},"geometry":{"type":"Polygon","coordinates":[[[100.148,7.8075],[100.1459,7.8075],[100.1459,7.8062],[100.145,7.8053],[100.1456,7.8037],[100.1439,7.8037],[100.144,7.8051],[100.1445,7.8056],[100.1434,7.8064],[100.1434,7.8054],[100.1429,7.8054],[100.1426,7.804],[100.142,7.804],[100.142,7.8035],[100.1407,7.8032],[100.1396,7.8013],[100.1382,7.8013],[100.1382,7.8029],[100.1371,7.8029],[100.1371,7.804],[100.1382,7.8051],[100.1377,7.8051],[100.1363,7.8037],[100.1355,7.8037],[100.1352,7.8002],[100.1363,7.7999],[100.1363,7.801],[100.1377,7.801],[100.1377,7.7997],[100.1369,7.7997],[100.1369,7.7991],[100.139,7.7991],[100.139,7.7986],[100.1396,7.7986],[100.1396,7.7972],[100.1399,7.7986],[100.1434,7.798],[100.1431,7.7964],[100.1437,7.7964],[100.1445,7.7953],[100.1418,7.7953],[100.1409,7.7956],[100.1409,7.7967],[100.1404,7.7967],[100.1401,7.7953],[100.1407,7.7953],[100.1412,7.7934],[100.1437,7.7942],[100.1456,7.7939],[100.1458,7.7948],[100.148,7.795],[100.148,7.7942],[100.1461,7.7945],[100.1461,7.7939],[100.1485,7.7934],[100.1515,7.7934],[100.1518,7.7939],[100.1524,7.7934],[100.1518,7.7928],[100.1526,7.7926],[100.1534,7.7915],[100.154,7.7915],[100.1543,7.7934],[100.1548,7.7934],[100.1545,7.7964],[100.1551,7.7964],[100.1551,7.7969],[100.1543,7.7969],[100.1526,7.798],[100.1526,7.7996],[100.154,7.7994],[100.1548,7.7996],[100.1516,7.8002],[100.1516,7.8015],[100.1524,7.8015],[100.1524,7.8034],[100.151,7.8034],[100.151,7.8045],[100.1518,7.8048],[100.1508,7.8048],[100.1502,7.8032],[100.1488,7.8032],[100.1486,7.8045],[100.1491,7.8067],[100.148,7.8067],[100.148,7.8075]],[[100.1478,7.8045],[100.1483,7.804],[100.1472,7.8032],[100.1472,7.8024],[100.1467,7.8021],[100.1467,7.8037],[100.1478,7.8045]],[[100.1442,7.8032],[100.1445,7.8034],[100.1445,7.8032],[100.1442,7.8032]],[[100.1513,7.8029],[100.1516,7.8032],[100.1516,7.8029],[100.1513,7.8029]],[[100.151,7.8026],[100.1513,7.8029],[100.1513,7.8026],[100.151,7.8026]],[[100.151,7.8015],[100.1516,7.8018],[100.1516,7.8015],[100.151,7.8015]],[[100.1401,7.8013],[100.1407,7.8013],[100.1404,7.8005],[100.1401,7.8005],[100.1401,7.8013]],[[100.1478,7.8007],[100.1491,7.8007],[100.1505,7.7994],[100.151,7.7994],[100.151,7.798],[100.1505,7.7975],[100.1469,7.798],[100.1469,7.7996],[100.1475,7.7996],[100.1478,7.8007]],[[100.1467,7.7969],[100.148,7.7969],[100.148,7.7956],[100.1466,7.7956],[100.1467,7.7969]],[[100.1496,7.7967],[100.1507,7.7969],[100.1507,7.7966],[100.1496,7.7967]],[[100.145,7.7967],[100.1461,7.7967],[100.1461,7.7953],[100.1447,7.7953],[100.145,7.7967]],[[100.1486,7.7967],[100.1494,7.7967],[100.1494,7.7964],[100.1483,7.7961],[100.1486,7.7967]],[[100.1494,7.7958],[100.1499,7.7958],[100.1499,7.7953],[100.1494,7.7953],[100.1494,7.7958]],[[100.151,7.795],[100.1515,7.7953],[100.1515,7.795],[100.151,7.795]],[[100.1415,7.794],[100.1417,7.7942],[100.1417,7.794],[100.1415,7.794]]]}},{"type":"Feature","properties":{"kind":"flood","area_km2":0.718,"conf":"high","date":"2026-10-02"},"geometry":{"type":"Polygon","coordinates":[[[100.16,7.8067],[100.157,7.8067],[100.1576,7.8048],[100.1581,7.8048],[100.1576,7.8045],[100.1576,7.8034],[100.1543,7.8034],[100.1548,7.8029],[100.1548,7.8015],[100.1559,7.8012],[100.1562,7.7999],[100.1567,7.7999],[100.1567,7.7988],[100.1573,7.7988],[100.1573,7.7999],[100.1592,7.7999],[100.1592,7.7993],[100.1603,7.7991],[100.1633,7.7991],[100.1633,7.7996],[100.1646,7.7993],[100.1646,7.8004],[100.1652,7.8004],[100.1652,7.7999],[100.1657,7.7999],[100.1654,7.798],[100.1665,7.7977],[100.1671,7.7988],[100.1684,7.799],[100.169,7.7999],[100.1711,7.8001],[100.172,7.7996],[100.172,7.8007],[100.1709,7.8009],[100.1706,7.802],[100.1687,7.802],[100.1687,7.8026],[100.1692,7.8026],[100.1695,7.8031],[100.1712,7.8031],[100.1712,7.8042],[100.1671,7.8042],[100.1665,7.8031],[100.1652,7.8028],[100.1654,7.8018],[100.1633,7.8004],[100.1619,7.8015],[100.1603,7.801],[100.1589,7.8012],[100.1586,7.8026],[100.1592,7.8031],[100.1592,7.804],[100.1603,7.8042],[100.1603,7.8048],[100.1611,7.8048],[100.1611,7.8058],[100.16,7.8067]]]}},{"type":"Feature","properties":{"kind":"flood","area_km2":0.105,"conf":"low","date":"2026-10-02"},"geometry":{"type":"Polygon","coordinates":[[[100.1311,7.781],[100.1314,7.7796],[100.1327,7.7793],[100.1327,7.7788],[100.1316,7.7788],[100.1316,7.7777],[100.1322,7.7777],[100.1319,7.7761],[100.1335,7.7763],[100.1341,7.7769],[100.1344,7.7782],[100.1333,7.7782],[100.1333,7.7799],[100.1344,7.7799],[100.1344,7.7804],[100.1325,7.7804],[100.1319,7.781],[100.1311,7.781]]]}},{"type":"Feature","properties":{"kind":"flood","area_km2":0.095,"conf":"low","date":"2026-10-02"},"geometry":{"type":"Polygon","coordinates":[[[100.1719,7.7866],[100.1711,7.7855],[100.1684,7.786],[100.1665,7.7858],[100.1665,7.7852],[100.1673,7.7849],[100.1676,7.7839],[100.1697,7.7841],[100.1697,7.7833],[100.1703,7.7833],[100.1716,7.7838],[100.1703,7.7841],[100.1703,7.7847],[100.1706,7.7852],[100.1722,7.7855],[100.1719,7.7866]],[[100.1676,7.7849],[100.1681,7.7849],[100.1684,7.7844],[100.1676,7.7844],[100.1676,7.7849]]]}},{"type":"Feature","properties":{"kind":"flood","area_km2":0.086,"conf":"high","date":"2026-10-02"},"geometry":{"type":"Polygon","coordinates":[[[100.1527,7.8083],[100.1524,7.8078],[100.1519,7.8078],[100.1521,7.8064],[100.157,7.8067],[100.1567,7.8078],[100.1562,7.8078],[100.1559,7.8083],[100.1527,7.8083]]]}},{"type":"Feature","properties":{"kind":"flood","area_km2":0.06,"conf":"low","date":"2026-10-02"},"geometry":{"type":"Polygon","coordinates":[[[100.1782,7.7993],[100.1782,7.7982],[100.1785,7.7982],[100.1785,7.7977],[100.179,7.7974],[100.179,7.7963],[100.1798,7.7958],[100.1801,7.7949],[100.1801,7.7958],[100.1807,7.7958],[100.1807,7.7966],[100.1798,7.7968],[100.1801,7.7993],[100.1793,7.7993],[100.179,7.7987],[100.1785,7.7987],[100.1782,7.7993]],[[100.1788,7.7977],[100.1793,7.7979],[100.1793,7.7977],[100.1788,7.7977]]]}},{"type":"Feature","properties":{"kind":"flood","area_km2":0.058,"conf":"low","date":"2026-10-02"},"geometry":{"type":"Polygon","coordinates":[[[100.1733,7.802],[100.1733,7.8012],[100.1739,7.8009],[100.1739,7.8004],[100.1733,7.8004],[100.1733,7.7993],[100.1747,7.7996],[100.1747,7.8004],[100.1771,7.8004],[100.1758,7.8015],[100.1733,7.802]]]}},{"type":"Feature","properties":{"kind":"flood","area_km2":0.058,"conf":"low","date":"2026-10-02"},"geometry":{"type":"Polygon","coordinates":[[[100.5491,7.1386],[100.5491,7.1378],[100.5475,7.137],[100.5477,7.1356],[100.5499,7.1362],[100.5496,7.1375],[100.5502,7.1378],[100.5502,7.1386],[100.5491,7.1386]]]}},{"type":"Feature","properties":{"kind":"flood","area_km2":0.056,"conf":"low","date":"2026-10-02"},"geometry":{"type":"Polygon","coordinates":[[[100.1714,7.7798],[100.1703,7.7795],[100.1703,7.7784],[100.1692,7.7771],[100.1705,7.7771],[100.1711,7.7773],[100.1711,7.7781],[100.1724,7.7781],[100.1724,7.7792],[100.1714,7.7798]]]}},{"type":"Feature","properties":{"kind":"flood","area_km2":0.054,"conf":"low","date":"2026-10-02"},"geometry":{"type":"Polygon","coordinates":[[[100.1357,7.7869],[100.1349,7.7864],[100.1349,7.7853],[100.1333,7.7848],[100.1336,7.7831],[100.1341,7.7848],[100.1357,7.7845],[100.136,7.7861],[100.1374,7.7858],[100.1371,7.7869],[100.1357,7.7869]]]}},{"type":"Feature","properties":{"kind":"flood","area_km2":0.05,"conf":"low","date":"2026-10-02"},"geometry":{"type":"Polygon","coordinates":[[[100.4953,7.1212],[100.4955,7.1176],[100.4947,7.1174],[100.495,7.1168],[100.4958,7.1168],[100.4966,7.1176],[100.4969,7.119],[100.4961,7.1195],[100.4953,7.1212]]]}},{"type":"Feature","properties":{"kind":"seasonal","area_km2":2.495,"date":"2026-10-02"},"geometry":{"type":"Polygon","coordinates":[[[100.1513,7.8075],[100.151,7.8064],[100.1505,7.8064],[100.1505,7.8072],[100.1491,7.807],[100.1486,7.8034],[100.1502,7.8032],[100.1505,7.8045],[100.1518,7.8048],[100.151,7.8045],[100.151,7.8034],[100.1524,7.8034],[100.1524,7.8018],[100.1529,7.8021],[100.1532,7.801],[100.1529,7.8004],[100.1524,7.8004],[100.1516,7.8015],[100.1516,7.8002],[100.1548,7.7996],[100.1526,7.7996],[100.1526,7.798],[100.1532,7.7975],[100.154,7.7977],[100.1537,7.7972],[100.1543,7.7969],[100.1551,7.7969],[100.1551,7.7964],[100.1545,7.7964],[100.1548,7.7934],[100.1543,7.7934],[100.1543,7.7912],[100.1537,7.7909],[100.1537,7.7915],[100.1532,7.7918],[100.1529,7.7907],[100.1553,7.7899],[100.1556,7.7904],[100.1548,7.7907],[100.1562,7.7912],[100.1564,7.7907],[100.1575,7.7907],[100.1575,7.7901],[100.1581,7.7901],[100.1578,7.792],[100.157,7.792],[100.1567,7.7931],[100.1586,7.7931],[100.1586,7.7939],[100.1602,7.7947],[100.1603,7.7964],[100.1616,7.7961],[100.1622,7.7953],[100.163,7.7953],[100.163,7.7947],[100.1635,7.7953],[100.1638,7.7944],[100.1651,7.7944],[100.1651,7.7939],[100.1657,7.7936],[100.1649,7.7936],[100.1646,7.7931],[100.1657,7.7928],[100.1654,7.792],[100.166,7.792],[100.166,7.7928],[100.167,7.7925],[100.1673,7.7931],[100.1709,7.792],[100.1706,7.7942],[100.1728,7.7941],[100.1725,7.7936],[100.173,7.7936],[100.1736,7.7944],[100.1747,7.7941],[100.1747,7.7933],[100.1752,7.7933],[100.1749,7.7928],[100.176,7.7922],[100.176,7.7912],[100.1763,7.7917],[100.1771,7.7917],[100.1774,7.7898],[100.179,7.7898],[100.1793,7.7909],[100.1804,7.7917],[100.1801,7.793],[100.1809,7.7941],[100.1809,7.7949],[100.1798,7.7949],[100.1798,7.7958],[100.179,7.7963],[100.179,7.7974],[100.1785,7.7977],[100.1782,7.7993],[100.1774,7.8004],[100.1747,7.8004],[100.1747,7.7996],[100.1733,7.7993],[100.1733,7.8007],[100.172,7.8007],[100.172,7.7996],[100.1711,7.8001],[100.169,7.7999],[100.1684,7.799],[100.1671,7.7988],[100.1665,7.7977],[100.1654,7.798],[100.1657,7.7999],[100.1649,7.7999],[100.1646,7.7993],[100.1633,7.7996],[100.1633,7.7991],[100.1603,7.7991],[100.1592,7.7993],[100.1592,7.7999],[100.1573,7.7999],[100.1573,7.7988],[100.1567,7.7988],[100.1567,7.7999],[100.1562,7.7999],[100.1559,7.8012],[100.1548,7.8015],[100.1548,7.8029],[100.1543,7.8034],[100.1576,7.8034],[100.1576,7.8056],[100.157,7.8067],[100.1529,7.8067],[100.1527,7.8056],[100.1524,7.8056],[100.1521,7.8075],[100.1513,7.8075]],[[100.1518,7.8056],[100.1524,7.8056],[100.1524,7.8053],[100.1518,7.8051],[100.1518,7.8056]],[[100.1581,7.7983],[100.1584,7.7988],[100.1584,7.7983],[100.1581,7.7983]],[[100.1603,7.7974],[100.1608,7.7985],[100.1608,7.7974],[100.1603,7.7974]],[[100.1573,7.7983],[100.1581,7.7983],[100.1581,7.798],[100.1573,7.7977],[100.1573,7.7983]],[[100.1758,7.7982],[100.1766,7.7979],[100.1766,7.7955],[100.1771,7.7952],[100.1766,7.7947],[100.176,7.795],[100.1758,7.7966],[100.1749,7.7966],[100.1744,7.7974],[100.1736,7.7974],[100.1758,7.7977],[100.1758,7.7982]],[[100.1733,7.7958],[100.1736,7.796],[100.1736,7.7958],[100.1733,7.7958]],[[100.1592,7.7953],[100.1594,7.7958],[100.1594,7.7953],[100.1592,7.7953]],[[100.1575,7.795],[100.1581,7.795],[100.1581,7.7945],[100.1575,7.7945],[100.1575,7.795]],[[100.1556,7.7939],[100.1559,7.7945],[100.1559,7.7939],[100.1556,7.7939]],[[100.1553,7.7926],[100.1559,7.7926],[100.1559,7.792],[100.1556,7.792],[100.1553,7.7926]],[[100.1548,7.792],[100.1551,7.7923],[100.1551,7.792],[100.1548,7.792]]]}},{"type":"Feature","properties":{"kind":"seasonal","area_km2":1.372,"date":"2026-10-02"},"geometry":{"type":"Polygon","coordinates":[[[100.0049,7.3168],[100.0014,7.316],[100.0016,7.3143],[100.0043,7.3141],[100.0052,7.3132],[100.0057,7.3132],[100.0065,7.3121],[100.0065,7.3113],[100.0079,7.3113],[100.0079,7.31],[100.0073,7.31],[100.0068,7.3075],[100.0057,7.3073],[100.0057,7.3062],[100.0062,7.3062],[100.0062,7.3048],[100.0054,7.304],[100.0027,7.3043],[100.0019,7.3035],[100.0002,7.3037],[100.0002,7.3018],[100.0011,7.3018],[100.0013,7.3013],[100.003,7.3018],[100.0032,7.301],[100.0059,7.3005],[100.0065,7.301],[100.0065,7.3021],[100.007,7.3021],[100.0076,7.3029],[100.0089,7.3029],[100.0089,7.3016],[100.0081,7.3007],[100.0084,7.2994],[100.0108,7.2994],[100.0111,7.3013],[100.0106,7.3016],[100.0098,7.3056],[100.0103,7.3067],[100.0119,7.3078],[100.0133,7.3105],[100.0147,7.3113],[100.0147,7.3121],[100.0128,7.314],[100.0125,7.3167],[100.0081,7.3162],[100.0049,7.3168]],[[100.0084,7.3116],[100.009,7.3119],[100.009,7.3116],[100.0084,7.3116]],[[100.0081,7.3113],[100.0084,7.3116],[100.0084,7.3113],[100.0081,7.3113]],[[100.0081,7.3078],[100.0087,7.3078],[100.0087,7.3064],[100.0092,7.3064],[100.0092,7.3059],[100.0087,7.3059],[100.0084,7.3064],[100.007,7.3064],[100.007,7.3073],[100.0081,7.3073],[100.0081,7.3078]]]}},{"type":"Feature","properties":{"kind":"seasonal","area_km2":0.922,"date":"2026-10-02"},"geometry":{"type":"Polygon","coordinates":[[[100.2095,7.806],[100.2095,7.8049],[100.2087,7.8041],[100.2076,7.8044],[100.2068,7.8041],[100.2062,7.803],[100.2043,7.803],[100.2046,7.8019],[100.206,7.8019],[100.206,7.8014],[100.2054,7.8014],[100.2054,7.7992],[100.2081,7.7995],[100.2087,7.7989],[100.2084,7.7976],[100.2073,7.7965],[100.2076,7.7954],[100.207,7.7954],[100.207,7.7959],[100.2049,7.7962],[100.2046,7.7938],[100.207,7.7943],[100.2076,7.794],[100.2073,7.7935],[100.2062,7.7935],[100.2057,7.7913],[100.2065,7.7913],[100.2065,7.7922],[100.2078,7.7927],[100.2084,7.7924],[100.2084,7.7919],[100.2089,7.7919],[100.2095,7.7908],[100.2125,7.7902],[100.2125,7.7911],[100.2117,7.7911],[100.2117,7.7916],[100.2125,7.7916],[100.213,7.7921],[100.213,7.7932],[100.2122,7.7935],[100.2122,7.7946],[100.2103,7.7949],[100.2098,7.7959],[100.2103,7.7965],[100.2136,7.7959],[100.2136,7.7967],[100.2128,7.7976],[100.2114,7.7978],[100.2114,7.7984],[100.2119,7.7984],[100.2119,7.7995],[100.2111,7.7992],[100.2114,7.8005],[100.2103,7.8006],[100.2101,7.8014],[100.2106,7.8016],[100.2114,7.8035],[100.212,7.803],[100.212,7.8024],[100.2114,7.8024],[100.2117,7.8014],[100.2125,7.8014],[100.2122,7.8024],[100.2133,7.8027],[100.2136,7.8038],[100.2141,7.8041],[100.2141,7.8049],[100.2131,7.8049],[100.2128,7.8041],[100.2114,7.8041],[100.2114,7.8046],[100.2103,7.8052],[100.2103,7.806],[100.2095,7.806]],[[100.2101,7.8041],[100.2103,7.8044],[100.2103,7.8041],[100.2101,7.8041]],[[100.2109,7.8041],[100.2111,7.8043],[100.2111,7.8041],[100.2109,7.8041]],[[100.2103,7.8038],[100.2106,7.8033],[100.2095,7.8027],[100.2098,7.8035],[100.2103,7.8038]],[[100.2087,7.8033],[100.2092,7.8033],[100.2092,7.8027],[100.2087,7.8027],[100.2087,7.8033]],[[100.209,7.7997],[100.2095,7.7997],[100.2095,7.7992],[100.209,7.7992],[100.209,7.7997]]]}},{"type":"Feature","properties":{"kind":"seasonal","area_km2":0.788,"date":"2026-10-08"},"geometry":{"type":"Polygon","coordinates":[[[100.1733,7.9949],[100.1725,7.9933],[100.1728,7.9887],[100.1771,7.9887],[100.1777,7.9857],[100.182,7.9851],[100.185,7.9838],[100.1872,7.9835],[100.1872,7.9848],[100.1855,7.9848],[100.1855,7.9851],[100.1853,7.9851],[100.185,7.9854],[100.185,7.9867],[100.1845,7.9867],[100.1842,7.9873],[100.1834,7.9873],[100.1828,7.9865],[100.182,7.9865],[100.1828,7.9862],[100.1828,7.9857],[100.1817,7.9862],[100.1793,7.9857],[100.1787,7.9862],[100.1787,7.9876],[100.1782,7.9876],[100.1782,7.99],[100.1788,7.9906],[100.1774,7.9906],[100.1774,7.9911],[100.1769,7.9911],[100.1766,7.9903],[100.1771,7.99],[100.1771,7.9895],[100.1755,7.9895],[100.1747,7.9903],[100.1741,7.9903],[100.1741,7.9914],[100.1763,7.9917],[100.1766,7.993],[100.1774,7.9935],[100.1799,7.9935],[100.1801,7.9927],[100.1818,7.9927],[100.1818,7.9916],[100.1809,7.9916],[100.1809,7.9911],[100.1815,7.9908],[100.1809,7.9908],[100.1809,7.99],[100.1804,7.9897],[100.1817,7.9897],[100.182,7.9887],[100.1815,7.9884],[100.1823,7.9881],[100.182,7.987],[100.1831,7.9881],[100.1845,7.9878],[100.1845,7.9884],[100.1856,7.9886],[100.1858,7.9897],[100.1875,7.9892],[100.1877,7.9884],[100.1885,7.9884],[100.1888,7.9897],[100.1883,7.9903],[100.185,7.9914],[100.1847,7.9919],[100.1839,7.9919],[100.1823,7.9935],[100.1804,7.9935],[100.1799,7.9941],[100.178,7.9941],[100.1758,7.9949],[100.1733,7.9949]],[[100.1741,7.9927],[100.175,7.9927],[100.175,7.9925],[100.1741,7.9922],[100.1741,7.9927]],[[100.1834,7.9886],[100.1837,7.9892],[100.1837,7.9886],[100.1834,7.9886]],[[100.1823,7.9887],[100.1826,7.9889],[100.1826,7.9886],[100.1823,7.9887]],[[100.1777,7.9876],[100.1782,7.9876],[100.1782,7.987],[100.1777,7.987],[100.1777,7.9876]],[[100.1777,7.9865],[100.1782,7.9868],[100.1782,7.9865],[100.1777,7.9865]],[[100.185,7.9846],[100.1853,7.9851],[100.1853,7.9846],[100.185,7.9846]],[[100.1842,7.9846],[100.1845,7.9848],[100.1845,7.9846],[100.1842,7.9846]]]}},{"type":"Feature","properties":{"kind":"seasonal","area_km2":0.231,"date":"2026-10-02"},"geometry":{"type":"Polygon","coordinates":[[[100.4887,7.1128],[100.4868,7.1125],[100.4868,7.1117],[100.4876,7.1109],[100.4855,7.1101],[100.4855,7.1093],[100.4865,7.1076],[100.4879,7.1076],[100.4882,7.1082],[100.4895,7.1084],[100.4909,7.1109],[100.4914,7.1111],[100.4914,7.1119],[100.492,7.1119],[100.492,7.1128],[100.4914,7.1128],[100.4914,7.1122],[100.4898,7.112],[100.4887,7.112],[100.4887,7.1128]]]}},{"type":"Feature","properties":{"kind":"seasonal","area_km2":0.203,"date":"2026-10-02"},"geometry":{"type":"Polygon","coordinates":[[[100.2613,7.1851],[100.2594,7.1851],[100.2594,7.184],[100.2583,7.1829],[100.2583,7.1821],[100.2591,7.1799],[100.2597,7.1794],[100.2605,7.1794],[100.2632,7.1805],[100.2638,7.181],[100.2638,7.1824],[100.2613,7.1851]],[[100.2602,7.1843],[100.2611,7.184],[100.261,7.1829],[100.2605,7.1826],[100.2616,7.1824],[100.2621,7.1813],[100.2602,7.181],[100.2594,7.1816],[100.2594,7.1826],[100.2602,7.1824],[100.2602,7.1829],[100.2597,7.1829],[100.2597,7.1837],[100.2602,7.1843]],[[100.2589,7.1821],[100.2591,7.1824],[100.2591,7.1821],[100.2589,7.1821]],[[100.2597,7.1807],[100.26,7.181],[100.26,7.1807],[100.2597,7.1807]]]}},{"type":"Feature","properties":{"kind":"seasonal","area_km2":0.197,"date":"2026-10-02"},"geometry":{"type":"Polygon","coordinates":[[[100.1385,7.7839],[100.136,7.7837],[100.136,7.7823],[100.1344,7.782],[100.1346,7.7807],[100.136,7.781],[100.1363,7.7804],[100.1344,7.7804],[100.1344,7.7799],[100.1333,7.7799],[100.1333,7.7782],[100.1346,7.778],[100.1354,7.7782],[100.1355,7.7793],[100.1379,7.7793],[100.1376,7.7828],[100.1393,7.7826],[100.1393,7.7831],[100.1385,7.7834],[100.1385,7.7839]],[[100.1385,7.7828],[100.1387,7.7831],[100.1387,7.7828],[100.1385,7.7828]]]}},{"type":"Feature","properties":{"kind":"seasonal","area_km2":0.184,"date":"2026-10-02"},"geometry":{"type":"Polygon","coordinates":[[[100.139,7.7991],[100.1366,7.7991],[100.1366,7.7983],[100.1371,7.7975],[100.1388,7.7967],[100.1385,7.7956],[100.139,7.7953],[100.1401,7.7953],[100.1404,7.7967],[100.1409,7.7967],[100.1409,7.7956],[100.1418,7.7956],[100.1418,7.7961],[100.1428,7.7961],[100.1434,7.7967],[100.1434,7.798],[100.1423,7.7975],[100.1423,7.798],[100.1412,7.7986],[100.1399,7.7986],[100.1396,7.7972],[100.1396,7.7986],[100.139,7.7986],[100.139,7.7991]]]}},{"type":"Feature","properties":{"kind":"seasonal","area_km2":0.173,"date":"2026-10-02"},"geometry":{"type":"Polygon","coordinates":[[[100.1152,7.1944],[100.1152,7.1939],[100.1141,7.1939],[100.1146,7.1914],[100.1157,7.1898],[100.1152,7.1876],[100.1163,7.1887],[100.1157,7.1868],[100.1171,7.186],[100.1187,7.186],[100.1179,7.1876],[100.1176,7.1901],[100.1168,7.1906],[100.1168,7.1911],[100.1157,7.1914],[100.1157,7.1939],[100.1152,7.1944]],[[100.1171,7.1887],[100.1176,7.1884],[100.1176,7.1876],[100.1171,7.1879],[100.1171,7.1887]]]}},{"type":"Feature","properties":{"kind":"seasonal","area_km2":0.134,"date":"2026-10-02"},"geometry":{"type":"Polygon","coordinates":[[[100.1665,7.7792],[100.1659,7.779],[100.1665,7.7782],[100.1654,7.7779],[100.1654,7.7784],[100.1648,7.7784],[100.1643,7.7779],[100.1654,7.7776],[100.1654,7.7771],[100.1665,7.7773],[100.1665,7.7768],[100.167,7.7768],[100.1673,7.776],[100.1684,7.776],[100.1689,7.7754],[100.1694,7.7754],[100.1692,7.7765],[100.1705,7.7762],[100.1705,7.7771],[100.1692,7.7771],[100.1703,7.7784],[100.1703,7.7792],[100.1695,7.7784],[100.1689,7.7784],[100.1689,7.779],[100.1675,7.7787],[100.1665,7.7792]],[[100.1667,7.7787],[100.1673,7.7787],[100.1673,7.7782],[100.1667,7.7782],[100.1667,7.7787]],[[100.1675,7.7768],[100.1686,7.7771],[100.1686,7.7768],[100.1675,7.7768]]]}},{"type":"Feature","properties":{"kind":"seasonal","area_km2":0.132,"date":"2026-10-02"},"geometry":{"type":"Polygon","coordinates":[[[100.0009,7.4956],[100.0007,7.494],[100.002,7.4918],[100.002,7.4907],[100.0026,7.4902],[100.0034,7.4901],[100.0039,7.4907],[100.0042,7.4896],[100.0061,7.4893],[100.0058,7.491],[100.0039,7.491],[100.0026,7.4923],[100.0023,7.4956],[100.0009,7.4956]]]}},{"type":"Feature","properties":{"kind":"seasonal","area_km2":0.123,"date":"2026-10-02"},"geometry":{"type":"Polygon","coordinates":[[[100.4377,7.3099],[100.4372,7.3088],[100.4358,7.3083],[100.4369,7.3031],[100.4375,7.3031],[100.4372,7.3039],[100.438,7.305],[100.438,7.308],[100.4388,7.3085],[100.4388,7.3096],[100.4377,7.3099]]]}},{"type":"Feature","properties":{"kind":"seasonal","area_km2":0.112,"date":"2026-10-02"},"geometry":{"type":"Polygon","coordinates":[[[100.1478,7.8007],[100.1475,7.7996],[100.1469,7.7996],[100.1469,7.798],[100.1505,7.7975],[100.151,7.798],[100.151,7.7994],[100.1499,7.7996],[100.1499,7.8002],[100.1491,7.8007],[100.1478,7.8007]],[[100.1491,7.7988],[100.1499,7.7988],[100.1499,7.798],[100.1494,7.798],[100.1491,7.7988]]]}}]}
