{"type":"FeatureCollection","properties":{"v":3,"id":"t100_12","name":"ชลบุรี · เพชรบุรี · ระยอง","aoi":[100.0,12.1358,101.0,13.0],"date":"2026-10-09","dates":["2026-10-09"],"baseline_years":3,"has_seasonal":true,"totals":{"flood_high":0.0,"flood_low":0.8,"seasonal":1.4},"provinces":[{"name":"เพชรบุรี","zone":"th-w","flood_high":0.0,"flood_low":0.6,"seasonal":0.1},{"name":"ชลบุรี","zone":"th-e","flood_high":0.0,"flood_low":0.2,"seasonal":0.9},{"name":"ระยอง","zone":"th-e","flood_high":0.0,"flood_low":0.0,"seasonal":0.4}],"scenes":{"2026-10-09":2},"baseline_dates":["2025-10-07","2024-10-05","2023-10-11"],"threshold_db":-15.0,"auto":true,"source":"Sentinel-1 RTC (Copernicus/ESA) via Microsoft Planetary Computer; JRC Global Surface Water; Copernicus DEM","method":"ChatGeo v3: Otsu threshold on VV dB; minus JRC permanent water and slope > 5 deg; unusual = water not present in most of the previous 3 years (same season)","added":"2026-10-10T16:37+07:00"},"features":[{"type":"Feature","properties":{"kind":"flood","area_km2":0.158,"conf":"low","date":"2026-10-09"},"geometry":{"type":"Polygon","coordinates":[[[100.0092,12.9868],[100.0092,12.9851],[100.0081,12.9849],[100.0075,12.986],[100.0067,12.986],[100.0067,12.9854],[100.0062,12.9854],[100.0059,12.9849],[100.0059,12.9835],[100.0081,12.9833],[100.0084,12.9824],[100.0095,12.9824],[100.0097,12.9838],[100.0109,12.9843],[100.0111,12.9862],[100.0103,12.9868],[100.0092,12.9868]]]}},{"type":"Feature","properties":{"kind":"flood","area_km2":0.155,"conf":"low","date":"2026-10-09"},"geometry":{"type":"Polygon","coordinates":[[[100.0072,12.9814],[100.0067,12.98],[100.0061,12.9797],[100.0064,12.9786],[100.0058,12.9784],[100.0058,12.9776],[100.0072,12.9776],[100.0075,12.9781],[100.0081,12.9781],[100.0083,12.9797],[100.0097,12.9795],[100.0097,12.9776],[100.0111,12.9778],[100.0108,12.9808],[100.0103,12.9813],[100.0072,12.9814]]]}},{"type":"Feature","properties":{"kind":"flood","area_km2":0.086,"conf":"low","date":"2026-10-09"},"geometry":{"type":"Polygon","coordinates":[[[100.9662,12.9414],[100.9665,12.9401],[100.966,12.9401],[100.9657,12.9409],[100.9651,12.9409],[100.9646,12.9393],[100.9654,12.9393],[100.9654,12.9387],[100.967,12.9382],[100.9676,12.9368],[100.9682,12.939],[100.9671,12.9398],[100.9671,12.9414],[100.9662,12.9414]]]}},{"type":"Feature","properties":{"kind":"flood","area_km2":0.069,"conf":"low","date":"2026-10-09"},"geometry":{"type":"Polygon","coordinates":[[[100.0001,12.9236],[99.9995,12.9231],[99.9995,12.9214],[100.0009,12.9209],[100.0023,12.9212],[100.0018,12.9233],[100.0001,12.9236]]]}},{"type":"Feature","properties":{"kind":"flood","area_km2":0.068,"conf":"low","date":"2026-10-09"},"geometry":{"type":"Polygon","coordinates":[[[100.0176,12.9518],[100.0171,12.9504],[100.0171,12.948],[100.0193,12.9479],[100.019,12.949],[100.0179,12.949],[100.0182,12.9499],[100.0187,12.9499],[100.0187,12.9517],[100.0176,12.9518]]]}},{"type":"Feature","properties":{"kind":"flood","area_km2":0.068,"conf":"low","date":"2026-10-09"},"geometry":{"type":"Polygon","coordinates":[[[100.0036,12.9773],[100.0036,12.9768],[100.0031,12.9768],[100.0031,12.9757],[100.0047,12.9757],[100.0053,12.974],[100.0061,12.974],[100.0061,12.9759],[100.0056,12.9759],[100.0056,12.9765],[100.0047,12.9773],[100.0036,12.9773]]]}},{"type":"Feature","properties":{"kind":"flood","area_km2":0.067,"conf":"low","date":"2026-10-09"},"geometry":{"type":"Polygon","coordinates":[[[100.0331,12.9533],[100.0312,12.9531],[100.0312,12.952],[100.032,12.9517],[100.0317,12.9512],[100.0312,12.9512],[100.0312,12.9503],[100.0328,12.9503],[100.0326,12.9514],[100.0339,12.9514],[100.034,12.9525],[100.0331,12.9525],[100.0331,12.9533]]]}},{"type":"Feature","properties":{"kind":"flood","area_km2":0.055,"conf":"low","date":"2026-10-09"},"geometry":{"type":"Polygon","coordinates":[[[100.931,12.8918],[100.931,12.8907],[100.9305,12.8902],[100.9296,12.8902],[100.9305,12.8886],[100.931,12.8886],[100.931,12.8891],[100.9318,12.8896],[100.9332,12.8896],[100.931,12.8918]]]}},{"type":"Feature","properties":{"kind":"flood","area_km2":0.052,"conf":"low","date":"2026-10-09"},"geometry":{"type":"Polygon","coordinates":[[[100.9683,12.8143],[100.968,12.8137],[100.9666,12.8135],[100.9663,12.8124],[100.9691,12.8124],[100.9694,12.8143],[100.9683,12.8143]]]}},{"type":"Feature","properties":{"kind":"flood","area_km2":0.05,"conf":"low","date":"2026-10-09"},"geometry":{"type":"Polygon","coordinates":[[[100.0058,12.9553],[100.0035,12.9551],[100.0027,12.9543],[100.0027,12.9532],[100.0035,12.9532],[100.0038,12.9537],[100.0049,12.9537],[100.0058,12.9542],[100.0058,12.9553]]]}},{"type":"Feature","properties":{"kind":"seasonal","area_km2":0.297,"date":"2026-10-09"},"geometry":{"type":"Polygon","coordinates":[[[101.0005,12.6888],[101.0002,12.6882],[100.9994,12.6882],[100.9996,12.6833],[100.999,12.6817],[100.999,12.6798],[100.9998,12.6793],[100.999,12.6793],[100.9987,12.6787],[100.9987,12.6777],[100.9998,12.6771],[101.0009,12.6771],[101.0009,12.6782],[101.0001,12.6787],[101.0001,12.6793],[101.0009,12.6795],[101.001,12.6814],[101.0018,12.6817],[101.0021,12.6849],[101.0018,12.6885],[101.0005,12.6888]]]}},{"type":"Feature","properties":{"kind":"seasonal","area_km2":0.241,"date":"2026-10-09"},"geometry":{"type":"Polygon","coordinates":[[[100.9259,12.8414],[100.924,12.8412],[100.9237,12.8406],[100.9234,12.8379],[100.9243,12.8379],[100.9243,12.8374],[100.9232,12.8374],[100.9232,12.8368],[100.9262,12.8365],[100.927,12.8373],[100.9276,12.8368],[100.9281,12.839],[100.9287,12.8395],[100.9287,12.8406],[100.9276,12.8411],[100.9262,12.8411],[100.9259,12.8406],[100.9259,12.8414]],[[100.9259,12.8379],[100.9262,12.8382],[100.9262,12.8379],[100.9259,12.8379]],[[100.9262,12.8376],[100.9265,12.8379],[100.9265,12.8376],[100.9262,12.8376]]]}},{"type":"Feature","properties":{"kind":"seasonal","area_km2":0.156,"date":"2026-10-09"},"geometry":{"type":"Polygon","coordinates":[[[100.9734,12.6827],[100.9722,12.6795],[100.9717,12.6789],[100.9711,12.676],[100.97,12.6741],[100.97,12.6722],[100.9708,12.6722],[100.9713,12.6732],[100.9716,12.6751],[100.9722,12.6754],[100.9722,12.6765],[100.9728,12.6773],[100.9728,12.6784],[100.9733,12.6787],[100.9733,12.6797],[100.9739,12.6803],[100.9742,12.6827],[100.9734,12.6827]]]}},{"type":"Feature","properties":{"kind":"seasonal","area_km2":0.148,"date":"2026-10-09"},"geometry":{"type":"Polygon","coordinates":[[[100.9697,12.6719],[100.9691,12.6714],[100.9691,12.6703],[100.9683,12.6695],[100.9677,12.6665],[100.9671,12.6662],[100.9671,12.6651],[100.966,12.663],[100.966,12.6616],[100.9671,12.6619],[100.9668,12.6627],[100.9674,12.6627],[100.9677,12.6643],[100.9682,12.6646],[100.9682,12.6657],[100.9688,12.6662],[100.9688,12.6673],[100.9694,12.6678],[100.9694,12.6689],[100.9699,12.6695],[100.9699,12.6705],[100.9705,12.6708],[100.9705,12.6719],[100.9697,12.6719]]]}},{"type":"Feature","properties":{"kind":"seasonal","area_km2":0.148,"date":"2026-10-09"},"geometry":{"type":"Polygon","coordinates":[[[100.0044,12.8986],[100.0041,12.8978],[100.0033,12.8976],[100.0028,12.8967],[100.0016,12.8968],[100.0016,12.8959],[100.0027,12.8948],[100.0027,12.8938],[100.0036,12.8927],[100.0044,12.8927],[100.0044,12.8935],[100.005,12.894],[100.0047,12.8973],[100.0055,12.8978],[100.0055,12.8986],[100.0044,12.8986]]]}},{"type":"Feature","properties":{"kind":"seasonal","area_km2":0.121,"date":"2026-10-09"},"geometry":{"type":"Polygon","coordinates":[[[101.0009,12.9149],[100.9978,12.9141],[100.9978,12.9122],[100.9983,12.9114],[100.9992,12.9114],[101.0,12.9122],[101.002,12.9127],[101.0022,12.9146],[101.0009,12.9149]],[[100.9984,12.9138],[100.9986,12.9125],[100.9981,12.9122],[100.9981,12.9133],[100.9984,12.9138]]]}},{"type":"Feature","properties":{"kind":"seasonal","area_km2":0.116,"date":"2026-10-09"},"geometry":{"type":"Polygon","coordinates":[[[100.8979,12.6711],[100.897,12.6703],[100.897,12.6692],[100.8976,12.6689],[100.8976,12.6665],[100.8989,12.6662],[100.8987,12.667],[100.8981,12.667],[100.8978,12.6673],[100.8979,12.6694],[100.899,12.6697],[100.8998,12.6689],[100.8998,12.6678],[100.9006,12.6678],[100.8995,12.667],[100.9012,12.6667],[100.9014,12.6678],[100.9003,12.6683],[100.9006,12.67],[100.8995,12.6711],[100.8979,12.6711]],[[100.9001,12.667],[100.9006,12.6673],[100.9006,12.667],[100.9001,12.667]],[[100.8978,12.6667],[100.8981,12.667],[100.8981,12.6667],[100.8978,12.6667]]]}},{"type":"Feature","properties":{"kind":"seasonal","area_km2":0.11,"date":"2026-10-09"},"geometry":{"type":"Polygon","coordinates":[[[100.9936,12.9106],[100.9931,12.9092],[100.9933,12.9082],[100.9922,12.9076],[100.9922,12.9071],[100.9914,12.9065],[100.9914,12.906],[100.9919,12.9057],[100.9933,12.9057],[100.9939,12.9068],[100.9947,12.9073],[100.9953,12.9106],[100.9936,12.9106]]]}},{"type":"Feature","properties":{"kind":"seasonal","area_km2":0.109,"date":"2026-10-09"},"geometry":{"type":"Polygon","coordinates":[[[101.0002,12.6936],[100.9999,12.6898],[101.0005,12.6893],[101.0013,12.6893],[101.0021,12.6901],[101.0024,12.6936],[101.0002,12.6936]]]}}]}
