{"type":"FeatureCollection","properties":{"v":3,"id":"t100_8","name":"นครศรีธรรมราช · สุราษฎร์ธานี","aoi":[100.0,8.0,100.3548,8.5992],"date":"2026-10-08","dates":["2026-10-08","2026-10-02"],"baseline_years":3,"has_seasonal":true,"totals":{"flood_high":0.0,"flood_low":0.0,"seasonal":0.3},"provinces":[{"name":"นครศรีธรรมราช","zone":"th-s","flood_high":0.0,"flood_low":0.0,"seasonal":0.3}],"scenes":{"2026-10-08":1,"2026-10-02":1},"baseline_dates":["2025-10-06","2024-10-05","2023-10-10"],"threshold_db":-15.0,"auto":true,"source":"Sentinel-1 RTC (Copernicus/ESA) via Microsoft Planetary Computer; JRC Global Surface Water; Copernicus DEM","method":"ChatGeo v3: Otsu threshold on VV dB; minus JRC permanent water and slope > 5 deg; unusual = water not present in most of the previous 3 years (same season)","added":"2026-10-10T03:24+07:00"},"features":[{"type":"Feature","properties":{"kind":"seasonal","area_km2":0.191,"date":"2026-10-08"},"geometry":{"type":"Polygon","coordinates":[[[100.1509,8.0663],[100.1504,8.0582],[100.152,8.0579],[100.1526,8.0598],[100.1528,8.0661],[100.1509,8.0663]]]}},{"type":"Feature","properties":{"kind":"seasonal","area_km2":0.128,"date":"2026-10-08"},"geometry":{"type":"Polygon","coordinates":[[[100.2229,8.0111],[100.2229,8.0102],[100.2221,8.0102],[100.2218,8.0108],[100.2218,8.01],[100.2142,8.01],[100.2142,8.0108],[100.2134,8.0108],[100.2131,8.0097],[100.2259,8.0097],[100.2267,8.0102],[100.2284,8.0102],[100.2284,8.011],[100.2229,8.0111]]]}}]}
