{"type":"FeatureCollection","properties":{"v":3,"id":"t100_9","name":"นครศรีธรรมราช · สุราษฎร์ธานี","aoi":[100.0,9.4054,100.111,9.8181],"date":"2026-10-02","dates":["2026-10-02"],"baseline_years":3,"has_seasonal":false,"totals":{"flood_high":0.0,"flood_low":0.0,"seasonal":0.0},"provinces":[],"scenes":{"2026-10-02":1},"baseline_dates":["2025-09-30","2024-10-05","2023-09-29"],"threshold_db":-16.4,"auto":true,"source":"Sentinel-1 RTC (Copernicus/ESA) via Microsoft Planetary Computer; JRC Global Surface Water; Copernicus DEM","method":"ChatGeo v3: Otsu threshold on VV dB; minus JRC permanent water and slope > 5 deg; unusual = water not present in most of the previous 3 years (same season)","added":"2026-10-07T18:42+07:00"},"features":[]}
