{"type":"FeatureCollection","properties":{"v":3,"id":"t100_19","name":"พะเยา · เชียงราย · น่าน","aoi":[100.0,19.0,101.0,20.0],"date":"2026-10-09","dates":["2026-10-09","2026-10-04"],"baseline_years":3,"has_seasonal":true,"totals":{"flood_high":0.0,"flood_low":2.7,"seasonal":4.3},"provinces":[{"name":"เชียงราย","zone":"th-n","flood_high":0.0,"flood_low":2.3,"seasonal":3.2},{"name":"พะเยา","zone":"th-n","flood_high":0.0,"flood_low":0.5,"seasonal":0.9},{"name":"น่าน","zone":"th-n","flood_high":0.0,"flood_low":0.0,"seasonal":0.1}],"scenes":{"2026-10-09":1,"2026-10-04":2},"baseline_dates":["2025-10-08","2024-10-09","2023-10-10"],"threshold_db":-15.0,"auto":true,"source":"Sentinel-1 RTC (Copernicus/ESA) via Microsoft Planetary Computer; JRC Global Surface Water; Copernicus DEM","method":"ChatGeo v3: Otsu threshold on VV dB; minus JRC permanent water and slope > 5 deg; unusual = water not present in most of the previous 3 years (same season)","added":"2026-10-10T16:37+07:00"},"features":[{"type":"Feature","properties":{"kind":"flood","area_km2":0.239,"conf":"low","date":"2026-10-09"},"geometry":{"type":"Polygon","coordinates":[[[100.3771,19.3552],[100.3768,19.3536],[100.3754,19.3536],[100.3754,19.3525],[100.3731,19.3509],[100.3733,19.349],[100.3722,19.348],[100.3725,19.3471],[100.3707,19.3471],[100.3707,19.3466],[100.3693,19.3466],[100.3693,19.3461],[100.3684,19.3455],[100.3676,19.3455],[100.3676,19.3464],[100.3667,19.3461],[100.3667,19.3456],[100.3676,19.3453],[100.3676,19.3445],[100.3661,19.3434],[100.3664,19.3428],[100.3696,19.3458],[100.371,19.3461],[100.3716,19.3466],[100.3745,19.3466],[100.3739,19.3469],[100.3736,19.3479],[100.3745,19.3485],[100.3751,19.3512],[100.3756,19.3517],[100.3771,19.3514],[100.3779,19.3522],[100.3782,19.3547],[100.3771,19.3552]],[[100.3765,19.3517],[100.3768,19.352],[100.3768,19.3517],[100.3765,19.3517]],[[100.3739,19.3504],[100.3742,19.3506],[100.3742,19.3504],[100.3739,19.3504]],[[100.3736,19.3496],[100.3739,19.3501],[100.3739,19.3496],[100.3736,19.3496]],[[100.373,19.3477],[100.3733,19.3479],[100.3733,19.3477],[100.373,19.3477]]]}},{"type":"Feature","properties":{"kind":"flood","area_km2":0.192,"conf":"low","date":"2026-10-09"},"geometry":{"type":"Polygon","coordinates":[[[100.1227,19.5736],[100.1227,19.573],[100.1221,19.573],[100.1221,19.5722],[100.1233,19.5717],[100.1233,19.5711],[100.1241,19.5706],[100.1241,19.5698],[100.1267,19.5697],[100.1267,19.5689],[100.1273,19.5689],[100.1275,19.5665],[100.1287,19.5665],[100.129,19.567],[100.1295,19.567],[100.1295,19.5665],[100.1304,19.5665],[100.1304,19.5681],[100.1287,19.5687],[100.1284,19.5692],[100.1275,19.5692],[100.1275,19.5703],[100.1267,19.5703],[100.1267,19.5714],[100.1261,19.5716],[100.1261,19.5722],[100.1241,19.5717],[100.1236,19.5719],[100.1236,19.5725],[100.1244,19.5725],[100.1244,19.5736],[100.1227,19.5736]],[[100.1233,19.5725],[100.1236,19.5727],[100.1236,19.5725],[100.1233,19.5725]]]}},{"type":"Feature","properties":{"kind":"flood","area_km2":0.187,"conf":"low","date":"2026-10-09"},"geometry":{"type":"Polygon","coordinates":[[[100.2102,19.7674],[100.2088,19.7663],[100.2085,19.7652],[100.2079,19.7652],[100.2068,19.7663],[100.2059,19.7663],[100.2048,19.766],[100.2045,19.7647],[100.2062,19.7641],[100.2065,19.7628],[100.2076,19.7628],[100.2085,19.7619],[100.2113,19.7622],[100.2114,19.763],[100.2088,19.763],[100.2085,19.7636],[100.2071,19.7639],[100.2074,19.7647],[100.2079,19.7647],[100.2082,19.7641],[100.2096,19.7641],[100.2099,19.766],[100.2111,19.7663],[100.2111,19.7673],[100.2102,19.7674]]]}},{"type":"Feature","properties":{"kind":"flood","area_km2":0.123,"conf":"low","date":"2026-10-09"},"geometry":{"type":"Polygon","coordinates":[[[100.1335,19.5654],[100.1324,19.5651],[100.1324,19.5643],[100.1329,19.5643],[100.1329,19.5637],[100.1318,19.5638],[100.1315,19.5619],[100.1323,19.5619],[100.1329,19.5635],[100.1335,19.5635],[100.1341,19.5627],[100.1335,19.5624],[100.1335,19.5616],[100.1352,19.5621],[100.1361,19.5637],[100.1361,19.5648],[100.1335,19.5654]]]}},{"type":"Feature","properties":{"kind":"flood","area_km2":0.113,"conf":"low","date":"2026-10-09"},"geometry":{"type":"Polygon","coordinates":[[[100.1693,19.4846],[100.169,19.4841],[100.1667,19.4838],[100.1667,19.483],[100.1675,19.4822],[100.1684,19.4822],[100.1684,19.4814],[100.1689,19.4814],[100.1678,19.4811],[100.1681,19.4795],[100.1689,19.4795],[100.1701,19.4811],[100.1701,19.4819],[100.1687,19.4822],[100.1687,19.4833],[100.1704,19.4827],[100.1704,19.4846],[100.1693,19.4846]]]}},{"type":"Feature","properties":{"kind":"flood","area_km2":0.112,"conf":"low","date":"2026-10-09"},"geometry":{"type":"Polygon","coordinates":[[[100.132,19.5188],[100.1315,19.5166],[100.132,19.5163],[100.1323,19.5152],[100.1303,19.5158],[100.1297,19.5152],[100.1297,19.5144],[100.1323,19.5141],[100.1326,19.5147],[100.1332,19.5147],[100.1332,19.5141],[100.134,19.5141],[100.134,19.5149],[100.1335,19.5149],[100.1329,19.516],[100.1329,19.5166],[100.1335,19.5166],[100.1335,19.5185],[100.132,19.5188]]]}},{"type":"Feature","properties":{"kind":"flood","area_km2":0.107,"conf":"low","date":"2026-10-09"},"geometry":{"type":"Polygon","coordinates":[[[100.1582,19.5834],[100.1585,19.5807],[100.1599,19.5807],[100.1596,19.579],[100.1605,19.579],[100.1605,19.5798],[100.1611,19.5798],[100.1611,19.5793],[100.1634,19.5795],[100.1631,19.5806],[100.1608,19.5809],[100.1602,19.5815],[100.1605,19.5825],[100.1594,19.5823],[100.1591,19.5834],[100.1582,19.5834]]]}},{"type":"Feature","properties":{"kind":"flood","area_km2":0.102,"conf":"low","date":"2026-10-09"},"geometry":{"type":"Polygon","coordinates":[[[100.1389,19.5634],[100.1386,19.5621],[100.1366,19.5624],[100.1366,19.5616],[100.1372,19.5615],[100.1369,19.5605],[100.1386,19.5607],[100.1389,19.5599],[100.1403,19.5599],[100.1398,19.5623],[100.1409,19.5621],[100.1409,19.5632],[100.1389,19.5634]]]}},{"type":"Feature","properties":{"kind":"flood","area_km2":0.098,"conf":"low","date":"2026-10-09"},"geometry":{"type":"Polygon","coordinates":[[[100.1114,19.5856],[100.1082,19.5853],[100.1079,19.5845],[100.1073,19.5845],[100.1073,19.5837],[100.1096,19.5834],[100.1102,19.5845],[100.1108,19.5845],[100.111,19.5826],[100.1122,19.5826],[100.1119,19.5847],[100.1113,19.585],[100.1114,19.5856]]]}},{"type":"Feature","properties":{"kind":"flood","area_km2":0.094,"conf":"low","date":"2026-10-09"},"geometry":{"type":"Polygon","coordinates":[[[100.1237,19.5581],[100.1234,19.5568],[100.124,19.5568],[100.1243,19.5559],[100.126,19.5559],[100.126,19.5551],[100.1283,19.5551],[100.1283,19.5559],[100.1275,19.5565],[100.1275,19.5575],[100.1246,19.5573],[100.1246,19.5581],[100.1237,19.5581]]]}},{"type":"Feature","properties":{"kind":"flood","area_km2":0.093,"conf":"low","date":"2026-10-09"},"geometry":{"type":"Polygon","coordinates":[[[100.1224,19.5671],[100.1221,19.5635],[100.1246,19.5633],[100.1246,19.5646],[100.1238,19.5646],[100.1235,19.5657],[100.1249,19.5657],[100.1249,19.5668],[100.1224,19.5671]]]}},{"type":"Feature","properties":{"kind":"flood","area_km2":0.091,"conf":"low","date":"2026-10-09"},"geometry":{"type":"Polygon","coordinates":[[[100.1523,19.588],[100.1523,19.5867],[100.152,19.5856],[100.1514,19.5853],[100.1514,19.5845],[100.1534,19.5842],[100.1537,19.5864],[100.1548,19.5864],[100.1548,19.5875],[100.1523,19.588]]]}},{"type":"Feature","properties":{"kind":"flood","area_km2":0.086,"conf":"low","date":"2026-10-09"},"geometry":{"type":"Polygon","coordinates":[[[100.1223,19.5139],[100.1223,19.5126],[100.1226,19.5118],[100.1231,19.5118],[100.1231,19.5112],[100.124,19.5112],[100.1246,19.512],[100.126,19.512],[100.126,19.5131],[100.1254,19.5136],[100.1223,19.5139]]]}},{"type":"Feature","properties":{"kind":"flood","area_km2":0.078,"conf":"low","date":"2026-10-09"},"geometry":{"type":"Polygon","coordinates":[[[100.143,19.5772],[100.1425,19.5767],[100.1425,19.5756],[100.1419,19.5756],[100.1419,19.5743],[100.1424,19.574],[100.1433,19.574],[100.1436,19.5751],[100.145,19.5751],[100.145,19.5764],[100.1442,19.5764],[100.1442,19.5772],[100.143,19.5772]]]}},{"type":"Feature","properties":{"kind":"flood","area_km2":0.076,"conf":"low","date":"2026-10-09"},"geometry":{"type":"Polygon","coordinates":[[[100.1325,19.5488],[100.132,19.5469],[100.1328,19.5467],[100.1328,19.5461],[100.132,19.5459],[100.1319,19.545],[100.134,19.5456],[100.1342,19.5469],[100.1343,19.5488],[100.1325,19.5488]]]}},{"type":"Feature","properties":{"kind":"flood","area_km2":0.074,"conf":"low","date":"2026-10-09"},"geometry":{"type":"Polygon","coordinates":[[[100.1566,19.7889],[100.1548,19.7886],[100.1551,19.787],[100.1566,19.7872],[100.1574,19.7867],[100.1574,19.7861],[100.1583,19.7861],[100.1586,19.788],[100.1569,19.7883],[100.1566,19.7889]]]}},{"type":"Feature","properties":{"kind":"flood","area_km2":0.073,"conf":"low","date":"2026-10-09"},"geometry":{"type":"Polygon","coordinates":[[[100.1327,19.57],[100.1324,19.5686],[100.133,19.5684],[100.1355,19.5686],[100.1361,19.5681],[100.137,19.5681],[100.137,19.5694],[100.1358,19.57],[100.135,19.57],[100.135,19.5694],[100.1344,19.5694],[100.1341,19.57],[100.1327,19.57]]]}},{"type":"Feature","properties":{"kind":"flood","area_km2":0.072,"conf":"low","date":"2026-10-09"},"geometry":{"type":"Polygon","coordinates":[[[100.1297,19.557],[100.1294,19.5543],[100.13,19.5543],[100.1303,19.5529],[100.1311,19.5529],[100.1309,19.5545],[100.132,19.5545],[100.132,19.5553],[100.1309,19.5556],[100.1312,19.557],[100.1297,19.557]],[[100.1303,19.5545],[100.1306,19.5548],[100.1306,19.5545],[100.1303,19.5545]]]}},{"type":"Feature","properties":{"kind":"flood","area_km2":0.071,"conf":"low","date":"2026-10-09"},"geometry":{"type":"Polygon","coordinates":[[[100.2076,19.7584],[100.2076,19.7573],[100.2067,19.7568],[100.2067,19.756],[100.2087,19.7557],[100.2084,19.7568],[100.2104,19.7565],[100.2105,19.7576],[100.2096,19.7576],[100.2093,19.7584],[100.2076,19.7584]]]}},{"type":"Feature","properties":{"kind":"flood","area_km2":0.069,"conf":"low","date":"2026-10-09"},"geometry":{"type":"Polygon","coordinates":[[[100.1156,19.5861],[100.1156,19.5855],[100.1136,19.5858],[100.1136,19.585],[100.1131,19.585],[100.1131,19.5839],[100.1148,19.5845],[100.1148,19.5839],[100.1159,19.5836],[100.1159,19.5828],[100.1168,19.5828],[100.1168,19.5836],[100.1162,19.5836],[100.1159,19.5845],[100.1165,19.5861],[100.1156,19.5861]]]}},{"type":"Feature","properties":{"kind":"flood","area_km2":0.066,"conf":"low","date":"2026-10-09"},"geometry":{"type":"Polygon","coordinates":[[[100.1329,19.5534],[100.1326,19.5513],[100.1331,19.5513],[100.1337,19.5496],[100.1346,19.5496],[100.134,19.5518],[100.1349,19.5523],[100.1349,19.5534],[100.134,19.5534],[100.134,19.5529],[100.1337,19.5534],[100.1329,19.5534]]]}},{"type":"Feature","properties":{"kind":"flood","area_km2":0.056,"conf":"low","date":"2026-10-09"},"geometry":{"type":"Polygon","coordinates":[[[100.3101,19.9987],[100.31,19.996],[100.3086,19.996],[100.3086,19.9952],[100.3095,19.9954],[100.3097,19.9949],[100.3106,19.9949],[100.3103,19.997],[100.3109,19.9976],[100.3123,19.9973],[100.3124,19.9981],[100.3115,19.9987],[100.3101,19.9987]]]}},{"type":"Feature","properties":{"kind":"flood","area_km2":0.056,"conf":"low","date":"2026-10-09"},"geometry":{"type":"Polygon","coordinates":[[[100.0544,19.5837],[100.0547,19.5813],[100.0553,19.5808],[100.0561,19.5807],[100.0564,19.5821],[100.0558,19.5826],[100.0564,19.5826],[100.0564,19.5835],[100.0544,19.5837]]]}},{"type":"Feature","properties":{"kind":"flood","area_km2":0.056,"conf":"low","date":"2026-10-09"},"geometry":{"type":"Polygon","coordinates":[[[100.1453,19.5718],[100.1453,19.571],[100.1461,19.571],[100.1461,19.5704],[100.1487,19.5696],[100.1487,19.5718],[100.1479,19.5718],[100.1473,19.5712],[100.147,19.5718],[100.1453,19.5718]]]}},{"type":"Feature","properties":{"kind":"flood","area_km2":0.056,"conf":"low","date":"2026-10-09"},"geometry":{"type":"Polygon","coordinates":[[[100.1187,19.5297],[100.1175,19.5286],[100.1175,19.5262],[100.119,19.5264],[100.119,19.5281],[100.1195,19.528],[100.1195,19.5297],[100.1187,19.5297]]]}},{"type":"Feature","properties":{"kind":"flood","area_km2":0.056,"conf":"low","date":"2026-10-09"},"geometry":{"type":"Polygon","coordinates":[[[100.1001,19.4916],[100.0961,19.4916],[100.0961,19.4908],[100.0967,19.4902],[100.1001,19.4905],[100.1001,19.4916]]]}},{"type":"Feature","properties":{"kind":"flood","area_km2":0.052,"conf":"low","date":"2026-10-09"},"geometry":{"type":"Polygon","coordinates":[[[100.197,19.4872],[100.1967,19.4845],[100.1993,19.4842],[100.1993,19.485],[100.1978,19.4855],[100.1979,19.4872],[100.197,19.4872]]]}},{"type":"Feature","properties":{"kind":"flood","area_km2":0.05,"conf":"low","date":"2026-10-09"},"geometry":{"type":"Polygon","coordinates":[[[100.1298,19.5613],[100.1298,19.5605],[100.1303,19.5602],[100.1292,19.56],[100.1292,19.5589],[100.1306,19.5586],[100.1306,19.5594],[100.1312,19.5594],[100.1315,19.5602],[100.1323,19.5602],[100.1323,19.561],[100.1306,19.5605],[100.1306,19.5613],[100.1298,19.5613]]]}},{"type":"Feature","properties":{"kind":"flood","area_km2":0.05,"conf":"low","date":"2026-10-09"},"geometry":{"type":"Polygon","coordinates":[[[100.1417,19.5558],[100.1392,19.5556],[100.1394,19.5542],[100.1423,19.5542],[100.1417,19.5558]]]}},{"type":"Feature","properties":{"kind":"flood","area_km2":0.05,"conf":"low","date":"2026-10-09"},"geometry":{"type":"Polygon","coordinates":[[[100.172,19.5071],[100.1714,19.5066],[100.1703,19.5069],[100.17,19.5055],[100.1714,19.5052],[100.1717,19.506],[100.1737,19.506],[100.1734,19.5071],[100.172,19.5071]]]}},{"type":"Feature","properties":{"kind":"flood","area_km2":0.05,"conf":"low","date":"2026-10-09"},"geometry":{"type":"Polygon","coordinates":[[[100.1005,19.497],[100.0999,19.494],[100.101,19.4937],[100.1016,19.4943],[100.1016,19.4964],[100.1013,19.497],[100.1005,19.497]]]}},{"type":"Feature","properties":{"kind":"seasonal","area_km2":0.535,"date":"2026-10-09"},"geometry":{"type":"Polygon","coordinates":[[[100.1398,19.6101],[100.1393,19.6095],[100.1393,19.6084],[100.1401,19.6079],[100.1401,19.6073],[100.139,19.6063],[100.1389,19.6052],[100.1409,19.6041],[100.1438,19.6038],[100.1444,19.603],[100.1455,19.603],[100.1464,19.6024],[100.1481,19.6024],[100.1495,19.6046],[100.1495,19.6054],[100.151,19.6062],[100.151,19.607],[100.1487,19.607],[100.1484,19.6057],[100.1478,19.6073],[100.1441,19.6076],[100.143,19.6087],[100.1407,19.6092],[100.1407,19.61],[100.1398,19.6101]],[[100.1452,19.6065],[100.1458,19.6065],[100.1461,19.6057],[100.1467,19.6057],[100.1464,19.6046],[100.1458,19.6046],[100.1458,19.6051],[100.1452,19.6054],[100.1452,19.6065]],[[100.1444,19.6043],[100.1447,19.6046],[100.1447,19.6043],[100.1444,19.6043]]]}},{"type":"Feature","properties":{"kind":"seasonal","area_km2":0.508,"date":"2026-10-09"},"geometry":{"type":"Polygon","coordinates":[[[100.1974,20.0],[100.1962,19.9976],[100.1956,19.997],[100.1942,19.997],[100.1939,19.996],[100.1939,19.9949],[100.1945,19.9946],[100.1945,19.9927],[100.1956,19.9919],[100.1965,19.9919],[100.197,19.9913],[100.197,19.9905],[100.1959,19.9903],[100.1956,19.9908],[100.1933,19.9914],[100.1933,19.9908],[100.1944,19.9903],[100.1944,19.9892],[100.1939,19.9886],[100.1933,19.9889],[100.193,19.9878],[100.1956,19.9886],[100.1956,19.987],[100.1967,19.987],[100.1964,19.9884],[100.197,19.9894],[100.1962,19.9894],[100.1962,19.9897],[100.1976,19.9894],[100.1982,19.9902],[100.2002,19.9902],[100.201,19.9886],[100.2028,19.9891],[100.2028,19.9899],[100.2022,19.9897],[100.2013,19.9905],[100.2013,19.9916],[100.1996,19.9919],[100.1996,19.9932],[100.1985,19.9946],[100.1991,19.9967],[100.1988,19.9986],[100.1994,20.0],[100.1974,20.0]],[[100.1971,19.9959],[100.1974,19.9965],[100.1974,19.9959],[100.1971,19.9959]],[[100.1965,19.9951],[100.1976,19.9957],[100.1976,19.9946],[100.1971,19.9943],[100.1976,19.994],[100.1973,19.9935],[100.1982,19.9927],[100.1988,19.9927],[100.1988,19.9921],[100.1982,19.9919],[100.197,19.9919],[100.197,19.9924],[100.1962,19.9924],[100.1956,19.993],[100.1965,19.9935],[100.1968,19.994],[100.1965,19.9951]],[[100.1959,19.9941],[100.1965,19.9943],[100.1965,19.9941],[100.1959,19.9941]],[[100.1982,19.993],[100.1988,19.9932],[100.1988,19.993],[100.1982,19.993]],[[100.1982,19.9916],[100.1988,19.9919],[100.1988,19.9916],[100.1982,19.9916]],[[100.1979,19.9911],[100.1988,19.9911],[100.1988,19.9908],[100.1979,19.9905],[100.1979,19.9911]],[[100.1947,19.9897],[100.1956,19.99],[100.1956,19.9897],[100.1947,19.9897]],[[100.1956,19.9894],[100.1959,19.9897],[100.1959,19.9894],[100.1956,19.9894]],[[100.1959,19.9892],[100.1962,19.9894],[100.1962,19.9892],[100.1959,19.9892]]]}},{"type":"Feature","properties":{"kind":"seasonal","area_km2":0.488,"date":"2026-10-09"},"geometry":{"type":"Polygon","coordinates":[[[100.1442,19.6165],[100.1436,19.6155],[100.1436,19.6141],[100.143,19.6136],[100.143,19.6122],[100.1424,19.6119],[100.1424,19.6109],[100.1441,19.6106],[100.1447,19.61],[100.1461,19.61],[100.1464,19.6095],[100.1476,19.6095],[100.1478,19.6089],[100.1498,19.6089],[100.1498,19.61],[100.151,19.6122],[100.1507,19.6135],[100.1493,19.6141],[100.1482,19.6154],[100.1467,19.6157],[100.1462,19.6165],[100.1442,19.6165]],[[100.1462,19.6138],[100.1464,19.6141],[100.1464,19.6138],[100.1462,19.6138]],[[100.147,19.6138],[100.1479,19.6141],[100.1479,19.6135],[100.147,19.6138]],[[100.1464,19.6135],[100.147,19.6138],[100.147,19.6135],[100.1464,19.6135]],[[100.1484,19.6135],[100.149,19.6135],[100.149,19.6127],[100.1479,19.6127],[100.1484,19.6135]]]}},{"type":"Feature","properties":{"kind":"seasonal","area_km2":0.411,"date":"2026-10-09"},"geometry":{"type":"Polygon","coordinates":[[[100.0777,19.688],[100.0771,19.6874],[100.0743,19.6874],[100.0734,19.6866],[100.072,19.6866],[100.072,19.6861],[100.0708,19.6856],[100.0708,19.6848],[100.0714,19.6842],[100.0697,19.6834],[100.0699,19.6818],[100.0705,19.6812],[100.0722,19.6818],[100.0731,19.6809],[100.0742,19.6809],[100.074,19.6823],[100.0745,19.6834],[100.076,19.6839],[100.0771,19.685],[100.078,19.6847],[100.0786,19.6855],[100.0794,19.6858],[100.0794,19.6874],[100.0777,19.688]]]}},{"type":"Feature","properties":{"kind":"seasonal","area_km2":0.28,"date":"2026-10-09"},"geometry":{"type":"Polygon","coordinates":[[[100.0512,19.9269],[100.0509,19.924],[100.0486,19.9242],[100.0481,19.9232],[100.0463,19.9237],[100.0466,19.9215],[100.0472,19.9207],[100.05,19.9199],[100.0506,19.921],[100.0515,19.921],[100.0518,19.9221],[100.0524,19.9223],[100.0524,19.9231],[100.0529,19.9234],[100.0532,19.9264],[100.0524,19.9269],[100.0512,19.9269]]]}},{"type":"Feature","properties":{"kind":"seasonal","area_km2":0.19,"date":"2026-10-09"},"geometry":{"type":"Polygon","coordinates":[[[100.4124,19.6019],[100.4123,19.5997],[100.4146,19.5975],[100.4146,19.597],[100.4155,19.5967],[100.4155,19.5962],[100.4163,19.5959],[100.4169,19.5951],[100.4192,19.5948],[100.4195,19.5959],[100.4183,19.5959],[100.4172,19.597],[100.4169,19.5983],[100.4161,19.5992],[100.4155,19.5992],[100.4141,19.6008],[100.4135,19.6008],[100.4132,19.6019],[100.4124,19.6019]]]}},{"type":"Feature","properties":{"kind":"seasonal","area_km2":0.185,"date":"2026-10-09"},"geometry":{"type":"Polygon","coordinates":[[[100.0014,19.2352],[100.0002,19.2343],[100.0002,19.2335],[100.0031,19.2327],[100.0034,19.2316],[100.0042,19.2308],[100.0051,19.2308],[100.0051,19.2313],[100.0068,19.2332],[100.0068,19.2343],[100.0057,19.2351],[100.0045,19.2351],[100.0042,19.2343],[100.0014,19.2352]]]}},{"type":"Feature","properties":{"kind":"seasonal","area_km2":0.173,"date":"2026-10-09"},"geometry":{"type":"Polygon","coordinates":[[[100.1926,19.2427],[100.1926,19.2413],[100.1904,19.2419],[100.1906,19.24],[100.1926,19.24],[100.1923,19.2389],[100.1909,19.2389],[100.1909,19.2381],[100.1918,19.2381],[100.1918,19.2375],[100.1926,19.2375],[100.1932,19.2383],[100.1946,19.2381],[100.1949,19.2389],[100.1958,19.2394],[100.1958,19.24],[100.1946,19.24],[100.1946,19.2394],[100.1932,19.2394],[100.1932,19.2411],[100.1955,19.241],[100.1963,19.2399],[100.1963,19.241],[100.1955,19.2416],[100.1955,19.2421],[100.1926,19.2427]]]}},{"type":"Feature","properties":{"kind":"seasonal","area_km2":0.163,"date":"2026-10-09"},"geometry":{"type":"Polygon","coordinates":[[[100.0128,19.7908],[100.0125,19.7903],[100.0117,19.7903],[100.0114,19.7886],[100.0105,19.7884],[100.0102,19.787],[100.0079,19.786],[100.0079,19.7841],[100.0071,19.7838],[100.007,19.7827],[100.0079,19.7827],[100.0082,19.7832],[100.0088,19.7832],[100.0088,19.7838],[100.0105,19.7838],[100.0105,19.7843],[100.0114,19.7846],[100.0114,19.7862],[100.0099,19.7865],[100.0114,19.787],[100.0114,19.7884],[100.0128,19.7886],[100.0128,19.79],[100.0134,19.7903],[100.0128,19.7908]],[[100.0082,19.7843],[100.0088,19.7843],[100.0088,19.7838],[100.0082,19.7838],[100.0082,19.7843]]]}},{"type":"Feature","properties":{"kind":"seasonal","area_km2":0.16,"date":"2026-10-09"},"geometry":{"type":"Polygon","coordinates":[[[100.0195,19.7989],[100.0189,19.7978],[100.016,19.7981],[100.0154,19.797],[100.0137,19.7957],[100.0137,19.7951],[100.0151,19.7951],[100.0148,19.7938],[100.0157,19.7938],[100.016,19.7946],[100.0166,19.794],[100.0171,19.7957],[100.0157,19.7968],[100.0163,19.7968],[100.0166,19.7973],[100.018,19.797],[100.0186,19.7976],[100.0195,19.7975],[100.02,19.797],[100.02,19.7962],[100.0194,19.7962],[100.0197,19.7935],[100.0209,19.7932],[100.0209,19.7924],[100.0214,19.7924],[100.0214,19.7935],[100.0206,19.7937],[100.02,19.7946],[100.02,19.7959],[100.0209,19.7965],[100.0209,19.7973],[100.0203,19.7989],[100.0195,19.7989]]]}},{"type":"Feature","properties":{"kind":"seasonal","area_km2":0.142,"date":"2026-10-09"},"geometry":{"type":"Polygon","coordinates":[[[100.0165,19.79],[100.0165,19.7892],[100.0174,19.7889],[100.0174,19.7878],[100.0165,19.7878],[100.0165,19.787],[100.0159,19.7873],[100.016,19.7878],[100.0154,19.7878],[100.0145,19.7862],[100.0134,19.7862],[100.0139,19.7835],[100.0151,19.7827],[100.0156,19.7827],[100.0156,19.7837],[100.0145,19.784],[100.0142,19.7854],[100.0154,19.7865],[100.0162,19.7865],[100.0168,19.787],[100.0197,19.7867],[100.02,19.7872],[100.02,19.7883],[100.0185,19.7886],[100.0188,19.7894],[100.0171,19.7894],[100.0171,19.79],[100.0165,19.79]],[[100.0174,19.787],[100.0177,19.7878],[100.0177,19.787],[100.0174,19.787]]]}},{"type":"Feature","properties":{"kind":"seasonal","area_km2":0.127,"date":"2026-10-09"},"geometry":{"type":"Polygon","coordinates":[[[100.3967,19.5489],[100.3964,19.5475],[100.3959,19.5473],[100.395,19.5454],[100.395,19.5448],[100.3958,19.544],[100.3958,19.5432],[100.3967,19.5432],[100.3973,19.5443],[100.397,19.5451],[100.3979,19.5456],[100.3979,19.5464],[100.3984,19.5467],[100.3982,19.5489],[100.3967,19.5489]]]}},{"type":"Feature","properties":{"kind":"seasonal","area_km2":0.125,"date":"2026-10-09"},"geometry":{"type":"Polygon","coordinates":[[[100.1266,19.3082],[100.1257,19.3074],[100.1257,19.3065],[100.1266,19.3065],[100.1274,19.3057],[100.1271,19.3041],[100.1286,19.3041],[100.1303,19.3054],[100.1303,19.3062],[100.1292,19.3073],[100.1286,19.3073],[100.1286,19.3079],[100.1266,19.3082]],[[100.128,19.3052],[100.1289,19.3054],[100.1289,19.3052],[100.128,19.3052]]]}},{"type":"Feature","properties":{"kind":"seasonal","area_km2":0.12,"date":"2026-10-09"},"geometry":{"type":"Polygon","coordinates":[[[100.2792,19.44],[100.2789,19.4394],[100.2769,19.4389],[100.2744,19.4389],[100.2735,19.4378],[100.2729,19.4379],[100.2729,19.4373],[100.2769,19.4373],[100.2769,19.4378],[100.2792,19.4381],[100.2801,19.4392],[100.2807,19.4392],[100.2807,19.44],[100.2792,19.44]]]}},{"type":"Feature","properties":{"kind":"seasonal","area_km2":0.116,"date":"2026-10-09"},"geometry":{"type":"Polygon","coordinates":[[[100.0444,19.9741],[100.0418,19.9739],[100.0421,19.9714],[100.0432,19.9712],[100.0443,19.9693],[100.0452,19.9693],[100.0449,19.9706],[100.0444,19.9706],[100.0441,19.9722],[100.0455,19.9722],[100.0455,19.9733],[100.0447,19.9733],[100.0444,19.9741]]]}},{"type":"Feature","properties":{"kind":"seasonal","area_km2":0.114,"date":"2026-10-09"},"geometry":{"type":"Polygon","coordinates":[[[100.0591,19.6471],[100.0588,19.6463],[100.058,19.6458],[100.0582,19.6442],[100.0611,19.6441],[100.0611,19.6447],[100.0625,19.6447],[100.0643,19.6455],[100.0643,19.646],[100.0608,19.6458],[100.06,19.6466],[100.06,19.6471],[100.0591,19.6471]]]}},{"type":"Feature","properties":{"kind":"seasonal","area_km2":0.111,"date":"2026-10-09"},"geometry":{"type":"Polygon","coordinates":[[[100.0076,19.7816],[100.007,19.7797],[100.0059,19.7786],[100.0053,19.7762],[100.0067,19.7762],[100.0076,19.7778],[100.0096,19.7792],[100.0093,19.7803],[100.009,19.7797],[100.0079,19.7797],[100.0082,19.7816],[100.0076,19.7816]]]}},{"type":"Feature","properties":{"kind":"seasonal","area_km2":0.103,"date":"2026-10-09"},"geometry":{"type":"Polygon","coordinates":[[[100.5448,19.3661],[100.5445,19.3653],[100.5451,19.3647],[100.5451,19.3639],[100.5442,19.3636],[100.544,19.3642],[100.5428,19.3645],[100.5422,19.3642],[100.5422,19.3637],[100.5437,19.3637],[100.5448,19.3628],[100.5448,19.3623],[100.5465,19.362],[100.5468,19.3647],[100.5463,19.3653],[100.5463,19.3661],[100.5448,19.3661]]]}},{"type":"Feature","properties":{"kind":"seasonal","area_km2":0.102,"date":"2026-10-09"},"geometry":{"type":"Polygon","coordinates":[[[100.2373,19.7121],[100.2373,19.7116],[100.2359,19.7105],[100.2356,19.7081],[100.2376,19.7083],[100.2381,19.7075],[100.239,19.7075],[100.239,19.7086],[100.2399,19.7097],[100.2399,19.7105],[100.2393,19.7108],[100.239,19.7119],[100.2373,19.7121]],[[100.2376,19.7111],[100.2379,19.71],[100.239,19.7097],[100.2387,19.7089],[100.2361,19.7086],[100.2361,19.71],[100.237,19.7102],[100.237,19.7108],[100.2376,19.7111]]]}},{"type":"Feature","properties":{"kind":"seasonal","area_km2":0.101,"date":"2026-10-09"},"geometry":{"type":"Polygon","coordinates":[[[100.1835,19.6735],[100.1829,19.6729],[100.1829,19.6719],[100.1818,19.6719],[100.1818,19.6713],[100.1863,19.671],[100.1869,19.6716],[100.1866,19.6732],[100.1858,19.6732],[100.1855,19.6724],[100.1849,19.6724],[100.1849,19.6735],[100.1835,19.6735]]]}}]}
