{"type":"FeatureCollection","properties":{"v":3,"id":"t100_6","name":"สงขลา · สตูล · ยะลา","aoi":[100.0,6.216,101.0,7.0],"date":"2026-10-09","dates":["2026-10-09","2026-10-02"],"baseline_years":3,"has_seasonal":true,"totals":{"flood_high":0.0,"flood_low":0.0,"seasonal":0.6},"provinces":[{"name":"สตูล","zone":"th-s","flood_high":0.0,"flood_low":0.0,"seasonal":0.4},{"name":"สงขลา","zone":"th-s","flood_high":0.0,"flood_low":0.0,"seasonal":0.2}],"scenes":{"2026-10-09":1,"2026-10-02":2},"baseline_dates":["2025-10-07","2024-10-05","2023-10-11"],"threshold_db":-15.0,"auto":true,"source":"Sentinel-1 RTC (Copernicus/ESA) via Microsoft Planetary Computer; JRC Global Surface Water; Copernicus DEM","method":"ChatGeo v3: Otsu threshold on VV dB; minus JRC permanent water and slope > 5 deg; unusual = water not present in most of the previous 3 years (same season)","added":"2026-10-10T16:37+07:00"},"features":[{"type":"Feature","properties":{"kind":"seasonal","area_km2":0.196,"date":"2026-10-02"},"geometry":{"type":"Polygon","coordinates":[[[100.0286,6.8723],[100.0289,6.8674],[100.0324,6.8674],[100.0327,6.8668],[100.0332,6.8668],[100.0351,6.8652],[100.0359,6.8652],[100.0362,6.8646],[100.0389,6.8646],[100.0387,6.8655],[100.0365,6.8649],[100.0365,6.8655],[100.0351,6.8668],[100.0327,6.8676],[100.0313,6.8693],[100.0313,6.8701],[100.0292,6.8712],[100.0286,6.8723]]]}},{"type":"Feature","properties":{"kind":"seasonal","area_km2":0.191,"date":"2026-10-02"},"geometry":{"type":"Polygon","coordinates":[[[100.0422,6.8641],[100.0414,6.8622],[100.0416,6.8611],[100.0446,6.8603],[100.0449,6.8597],[100.0463,6.8597],[100.0471,6.8606],[100.0471,6.8616],[100.0463,6.8625],[100.0446,6.863],[100.0444,6.8638],[100.0422,6.8641]]]}},{"type":"Feature","properties":{"kind":"seasonal","area_km2":0.167,"date":"2026-10-02"},"geometry":{"type":"Polygon","coordinates":[[[100.567,6.9742],[100.5654,6.9734],[100.5646,6.9734],[100.564,6.9725],[100.5589,6.9715],[100.5591,6.969],[100.5608,6.9693],[100.5613,6.9704],[100.5627,6.9706],[100.5635,6.9717],[100.5662,6.972],[100.567,6.9733],[100.567,6.9742]]]}}]}
