{"type":"FeatureCollection","properties":{"v":3,"id":"t100_18","name":"แพร่ · น่าน · อุตรดิตถ์","aoi":[100.0,18.0,101.0,19.0],"date":"2026-10-09","dates":["2026-10-09","2026-10-04"],"baseline_years":3,"has_seasonal":true,"totals":{"flood_high":0.0,"flood_low":0.0,"seasonal":4.5},"provinces":[{"name":"แพร่","zone":"th-n","flood_high":0.0,"flood_low":0.0,"seasonal":2.2},{"name":"น่าน","zone":"th-n","flood_high":0.0,"flood_low":0.0,"seasonal":1.7},{"name":"พะเยา","zone":"th-n","flood_high":0.0,"flood_low":0.0,"seasonal":0.4},{"name":"ลำปาง","zone":"th-n","flood_high":0.0,"flood_low":0.0,"seasonal":0.1}],"scenes":{"2026-10-09":2,"2026-10-04":1},"baseline_dates":["2025-10-08","2024-10-09","2023-10-10"],"threshold_db":-15.0,"auto":true,"source":"Sentinel-1 RTC (Copernicus/ESA) via Microsoft Planetary Computer; JRC Global Surface Water; Copernicus DEM","method":"ChatGeo v3: Otsu threshold on VV dB; minus JRC permanent water and slope > 5 deg; unusual = water not present in most of the previous 3 years (same season)","added":"2026-10-10T16:37+07:00"},"features":[{"type":"Feature","properties":{"kind":"seasonal","area_km2":1.088,"date":"2026-10-09"},"geometry":{"type":"Polygon","coordinates":[[[100.2737,18.4872],[100.2742,18.4858],[100.2757,18.4853],[100.2771,18.4834],[100.2788,18.4828],[100.2788,18.482],[100.2756,18.482],[100.2739,18.4815],[100.2734,18.4799],[100.2733,18.4766],[100.2722,18.4769],[100.2722,18.478],[100.2728,18.4788],[100.2725,18.4799],[100.2716,18.4799],[100.2716,18.4793],[100.2708,18.4788],[100.2699,18.4796],[100.2699,18.4802],[100.2691,18.4804],[100.2688,18.4793],[100.2679,18.4785],[100.2654,18.4786],[100.2642,18.478],[100.2631,18.4769],[100.2634,18.4756],[100.2625,18.4745],[100.2605,18.4761],[100.2603,18.477],[100.2583,18.477],[100.2549,18.4759],[100.254,18.4765],[100.2543,18.4781],[100.252,18.4778],[100.2509,18.4787],[100.2486,18.4784],[100.2483,18.4792],[100.2461,18.4814],[100.2447,18.4814],[100.2444,18.4825],[100.2438,18.4825],[100.2435,18.4803],[100.2441,18.4803],[100.2441,18.4809],[100.245,18.4811],[100.2449,18.4806],[100.2458,18.48],[100.2447,18.4795],[100.2446,18.4787],[100.2452,18.4787],[100.2458,18.4779],[100.2472,18.4779],[100.2475,18.4773],[100.2515,18.4773],[100.2517,18.4762],[100.2526,18.4759],[100.2531,18.4748],[100.2554,18.4748],[100.2563,18.4737],[100.2571,18.4737],[100.2588,18.4753],[100.2597,18.4753],[100.2608,18.4745],[100.2605,18.4737],[100.2619,18.4723],[100.2628,18.4723],[100.2636,18.4731],[100.2653,18.4726],[100.2651,18.4745],[100.2642,18.4753],[100.2642,18.4764],[100.2651,18.4775],[100.2659,18.4775],[100.2665,18.4767],[100.2696,18.4769],[100.2702,18.4755],[100.2713,18.4747],[100.2745,18.4755],[100.2753,18.4747],[100.2773,18.4744],[100.2779,18.4747],[100.2779,18.4755],[100.2773,18.475],[100.2764,18.475],[100.2762,18.4763],[100.2753,18.4763],[100.2748,18.4769],[100.2748,18.478],[100.2753,18.4782],[100.2751,18.4798],[100.2756,18.4801],[100.2759,18.4812],[100.2793,18.4812],[100.2802,18.482],[100.2802,18.4828],[100.2793,18.4825],[100.2785,18.4836],[100.2785,18.4844],[100.2774,18.4844],[100.2762,18.4855],[100.2762,18.4863],[100.2737,18.4872]],[[100.2455,18.4798],[100.2464,18.4798],[100.2466,18.4792],[100.2461,18.4792],[100.2455,18.4798]],[[100.2466,18.479],[100.2472,18.4792],[100.2472,18.4789],[100.2466,18.479]]]}},{"type":"Feature","properties":{"kind":"seasonal","area_km2":0.377,"date":"2026-10-09"},"geometry":{"type":"Polygon","coordinates":[[[100.2387,18.9464],[100.2387,18.9458],[100.2372,18.9445],[100.2372,18.9431],[100.2361,18.9423],[100.2358,18.9412],[100.2346,18.9402],[100.2357,18.9353],[100.2377,18.9358],[100.2392,18.9377],[100.2389,18.9423],[100.2398,18.9436],[100.2398,18.9447],[100.2395,18.9461],[100.2387,18.9464]]]}},{"type":"Feature","properties":{"kind":"seasonal","area_km2":0.308,"date":"2026-10-09"},"geometry":{"type":"Polygon","coordinates":[[[100.7946,18.1414],[100.7934,18.1396],[100.792,18.1393],[100.792,18.1369],[100.7903,18.1363],[100.7914,18.1363],[100.7917,18.1358],[100.7911,18.1352],[100.7911,18.1336],[100.7902,18.1331],[100.7922,18.1325],[100.7916,18.1309],[100.7902,18.1304],[100.7902,18.132],[100.7896,18.1323],[100.7894,18.1315],[100.7899,18.1315],[100.7899,18.1309],[100.7893,18.1301],[100.7888,18.1301],[100.7882,18.1312],[100.7874,18.1317],[100.7865,18.1296],[100.7854,18.1288],[100.7845,18.1288],[100.7873,18.1285],[100.7848,18.1282],[100.7839,18.1274],[100.7876,18.1282],[100.7902,18.1282],[100.7902,18.1287],[100.7913,18.1287],[100.7908,18.1293],[100.7916,18.1295],[100.7922,18.1314],[100.7928,18.132],[100.7925,18.1341],[100.7928,18.1336],[100.7933,18.1336],[100.7934,18.1371],[100.7931,18.1366],[100.7925,18.1369],[100.7931,18.1385],[100.7937,18.1387],[100.7937,18.1396],[100.7948,18.1406],[100.7946,18.1414]],[[100.7925,18.1363],[100.7931,18.136],[100.7928,18.1347],[100.7925,18.1347],[100.7925,18.1363]],[[100.7917,18.135],[100.7919,18.1352],[100.7919,18.135],[100.7917,18.135]],[[100.7916,18.1331],[100.7919,18.1333],[100.7919,18.1331],[100.7916,18.1331]],[[100.7914,18.1328],[100.7916,18.1331],[100.7916,18.1328],[100.7914,18.1328]],[[100.7874,18.1312],[100.7879,18.1309],[100.7879,18.1301],[100.7871,18.1304],[100.7874,18.1312]],[[100.7879,18.1288],[100.7902,18.129],[100.7902,18.1287],[100.7879,18.1288]]]}},{"type":"Feature","properties":{"kind":"seasonal","area_km2":0.262,"date":"2026-10-09"},"geometry":{"type":"Polygon","coordinates":[[[100.675,18.5938],[100.6747,18.5927],[100.6761,18.5922],[100.6764,18.5906],[100.6739,18.5903],[100.6736,18.5909],[100.6724,18.5909],[100.6724,18.5901],[100.6733,18.5892],[100.6758,18.5892],[100.6761,18.5897],[100.6773,18.5897],[100.6775,18.5889],[100.679,18.5889],[100.6792,18.5895],[100.681,18.59],[100.6815,18.5892],[100.6821,18.5892],[100.6821,18.5886],[100.6815,18.5886],[100.6818,18.5875],[100.6829,18.5875],[100.6832,18.5881],[100.6838,18.5881],[100.6838,18.5891],[100.6829,18.5894],[100.6827,18.5902],[100.6795,18.5908],[100.6793,18.5919],[100.6773,18.5919],[100.6759,18.5938],[100.675,18.5938]]]}},{"type":"Feature","properties":{"kind":"seasonal","area_km2":0.23,"date":"2026-10-09"},"geometry":{"type":"Polygon","coordinates":[[[100.1198,18.2911],[100.119,18.29],[100.1181,18.29],[100.1181,18.2892],[100.1193,18.2883],[100.1192,18.2848],[100.1198,18.2843],[100.1198,18.2832],[100.1206,18.2826],[100.1206,18.2813],[100.1212,18.2829],[100.1209,18.2837],[100.1215,18.2837],[100.1218,18.2845],[100.1226,18.2843],[100.1226,18.2837],[100.1243,18.2837],[100.1246,18.2823],[100.126,18.2823],[100.1255,18.284],[100.1249,18.2845],[100.1232,18.2845],[100.1224,18.2853],[100.1221,18.2864],[100.1201,18.2881],[100.1204,18.2908],[100.1198,18.2911]],[[100.1209,18.2856],[100.1212,18.2859],[100.1212,18.2856],[100.1209,18.2856]],[[100.1204,18.2851],[100.1207,18.2856],[100.1207,18.2851],[100.1204,18.2851]],[[100.1215,18.2853],[100.1218,18.2856],[100.1218,18.2853],[100.1215,18.2853]],[[100.1218,18.2848],[100.1221,18.2851],[100.1221,18.2848],[100.1218,18.2848]],[[100.1204,18.2843],[100.1207,18.2845],[100.1207,18.2843],[100.1204,18.2843]],[[100.1207,18.2837],[100.1209,18.2843],[100.1209,18.2837],[100.1207,18.2837]]]}},{"type":"Feature","properties":{"kind":"seasonal","area_km2":0.211,"date":"2026-10-04"},"geometry":{"type":"Polygon","coordinates":[[[100.8442,18.7858],[100.8445,18.7852],[100.8434,18.7841],[100.8417,18.7847],[100.8416,18.7828],[100.8428,18.7828],[100.8448,18.7811],[100.8465,18.7811],[100.8465,18.7822],[100.8473,18.783],[100.849,18.783],[100.8491,18.7846],[100.8479,18.7846],[100.8479,18.7838],[100.8473,18.7838],[100.8474,18.7852],[100.8465,18.7852],[100.8462,18.7844],[100.8451,18.7841],[100.8451,18.7857],[100.8442,18.7858]],[[100.8436,18.7828],[100.8439,18.7831],[100.8439,18.7828],[100.8436,18.7828]],[[100.8442,18.7825],[100.8445,18.7828],[100.8445,18.7825],[100.8442,18.7825]],[[100.8445,18.7825],[100.8453,18.7825],[100.8453,18.782],[100.8448,18.782],[100.8445,18.7825]]]}},{"type":"Feature","properties":{"kind":"seasonal","area_km2":0.196,"date":"2026-10-09"},"geometry":{"type":"Polygon","coordinates":[[[100.7785,18.1204],[100.7779,18.1196],[100.7773,18.1199],[100.7759,18.1188],[100.7751,18.1191],[100.7745,18.118],[100.7733,18.1178],[100.7733,18.1167],[100.7708,18.1159],[100.7699,18.1151],[100.7699,18.1143],[100.7691,18.1146],[100.7679,18.1135],[100.7679,18.1127],[100.767,18.1122],[100.7665,18.1105],[100.7664,18.1086],[100.765,18.1073],[100.7664,18.1075],[100.7673,18.1119],[100.7682,18.1124],[100.7682,18.113],[100.769,18.1129],[100.7696,18.114],[100.7713,18.1146],[100.7716,18.1154],[100.7739,18.1159],[100.7756,18.1172],[100.7773,18.1177],[100.7782,18.1196],[100.7787,18.1199],[100.7785,18.1204]],[[100.775,18.1175],[100.7753,18.1178],[100.7753,18.1175],[100.775,18.1175]],[[100.7705,18.1148],[100.7708,18.1151],[100.7708,18.1148],[100.7705,18.1148]],[[100.7688,18.1138],[100.7691,18.114],[100.7691,18.1138],[100.7688,18.1138]]]}},{"type":"Feature","properties":{"kind":"seasonal","area_km2":0.147,"date":"2026-10-09"},"geometry":{"type":"Polygon","coordinates":[[[100.3141,18.4161],[100.3132,18.4156],[100.3129,18.408],[100.3134,18.408],[100.3137,18.4091],[100.3149,18.4091],[100.314,18.4102],[100.3146,18.4107],[100.3146,18.4126],[100.3155,18.4134],[100.3149,18.414],[100.3155,18.4161],[100.3141,18.4161]]]}},{"type":"Feature","properties":{"kind":"seasonal","area_km2":0.146,"date":"2026-10-09"},"geometry":{"type":"Polygon","coordinates":[[[100.7595,18.0979],[100.7595,18.097],[100.7587,18.0962],[100.7581,18.0962],[100.7572,18.0954],[100.7558,18.0954],[100.7567,18.0946],[100.7561,18.0935],[100.755,18.0933],[100.7547,18.0927],[100.7538,18.0928],[100.7535,18.0922],[100.7527,18.0928],[100.7527,18.092],[100.7518,18.0911],[100.7513,18.0912],[100.7504,18.0898],[100.7518,18.0901],[100.7524,18.0911],[100.7541,18.0911],[100.7544,18.0917],[100.7558,18.0919],[100.7575,18.0938],[100.7578,18.0949],[100.7587,18.0949],[100.7587,18.0954],[100.7598,18.0965],[100.7601,18.0978],[100.7595,18.0979]]]}},{"type":"Feature","properties":{"kind":"seasonal","area_km2":0.145,"date":"2026-10-09"},"geometry":{"type":"Polygon","coordinates":[[[100.2283,18.0871],[100.2282,18.0852],[100.2271,18.0849],[100.226,18.0854],[100.2254,18.0846],[100.2243,18.0844],[100.2243,18.0836],[100.2248,18.083],[100.2262,18.083],[100.2265,18.0835],[100.2282,18.083],[100.2285,18.0841],[100.2291,18.0843],[100.2288,18.0852],[100.2316,18.0854],[100.2316,18.086],[100.2308,18.0868],[100.2297,18.0865],[100.2294,18.0871],[100.2283,18.0871]],[[100.2308,18.0857],[100.2311,18.086],[100.2311,18.0857],[100.2308,18.0857]],[[100.2254,18.0841],[100.2257,18.0844],[100.2257,18.0841],[100.2254,18.0841]],[[100.2251,18.0833],[100.226,18.0835],[100.226,18.0833],[100.2251,18.0833]]]}},{"type":"Feature","properties":{"kind":"seasonal","area_km2":0.137,"date":"2026-10-09"},"geometry":{"type":"Polygon","coordinates":[[[100.1498,18.4901],[100.1484,18.4891],[100.1484,18.4885],[100.1504,18.4861],[100.1501,18.4847],[100.1506,18.4842],[100.1518,18.4842],[100.1524,18.4847],[100.1524,18.4855],[100.1518,18.4858],[100.1512,18.489],[100.1507,18.4901],[100.1498,18.4901]],[[100.1512,18.4847],[100.1515,18.4852],[100.1515,18.4847],[100.1512,18.4847]]]}},{"type":"Feature","properties":{"kind":"seasonal","area_km2":0.131,"date":"2026-10-09"},"geometry":{"type":"Polygon","coordinates":[[[100.7653,18.1051],[100.7627,18.1043],[100.7619,18.1027],[100.7613,18.1024],[100.7613,18.1014],[100.7627,18.1016],[100.7641,18.1027],[100.7661,18.1029],[100.767,18.104],[100.767,18.1051],[100.7653,18.1051]],[[100.7639,18.104],[100.7641,18.1046],[100.7641,18.104],[100.7639,18.104]]]}},{"type":"Feature","properties":{"kind":"seasonal","area_km2":0.13,"date":"2026-10-09"},"geometry":{"type":"Polygon","coordinates":[[[100.4937,18.0407],[100.4937,18.0394],[100.4943,18.0388],[100.4974,18.0383],[100.4991,18.0385],[100.4991,18.0366],[100.5019,18.0361],[100.5033,18.0371],[100.5028,18.0379],[100.5022,18.0374],[100.5014,18.0374],[100.5005,18.0385],[100.4985,18.0391],[100.4983,18.0396],[100.4977,18.0391],[100.4957,18.0391],[100.4954,18.0396],[100.4949,18.0396],[100.4949,18.0402],[100.4943,18.0402],[100.4943,18.0407],[100.4937,18.0407]]]}},{"type":"Feature","properties":{"kind":"seasonal","area_km2":0.128,"date":"2026-10-09"},"geometry":{"type":"Polygon","coordinates":[[[100.1445,18.0187],[100.1436,18.0179],[100.1436,18.0174],[100.143,18.0174],[100.1422,18.0163],[100.1394,18.0163],[100.1379,18.0158],[100.1393,18.0152],[100.1399,18.0155],[100.1399,18.0149],[100.1405,18.0149],[100.1416,18.016],[100.1416,18.0155],[100.1427,18.0157],[100.1425,18.0149],[100.1439,18.0146],[100.1453,18.0155],[100.1453,18.0163],[100.1442,18.0163],[100.1442,18.0171],[100.1456,18.0176],[100.1456,18.0182],[100.1445,18.0187]]]}},{"type":"Feature","properties":{"kind":"seasonal","area_km2":0.127,"date":"2026-10-04"},"geometry":{"type":"Polygon","coordinates":[[[100.855,18.7274],[100.8547,18.7263],[100.8538,18.726],[100.8538,18.725],[100.8544,18.7247],[100.8569,18.7247],[100.8592,18.7254],[100.8604,18.7252],[100.8601,18.7262],[100.8584,18.7257],[100.8578,18.7271],[100.8561,18.7274],[100.8555,18.7268],[100.855,18.7274]]]}},{"type":"Feature","properties":{"kind":"seasonal","area_km2":0.124,"date":"2026-10-04"},"geometry":{"type":"Polygon","coordinates":[[[100.9376,18.5669],[100.9359,18.5661],[100.9351,18.565],[100.9345,18.5651],[100.9345,18.5642],[100.9353,18.5642],[100.9359,18.5648],[100.9368,18.5645],[100.9362,18.5612],[100.9373,18.5612],[100.9373,18.5626],[100.9382,18.5634],[100.9396,18.5631],[100.9407,18.5639],[100.9376,18.5639],[100.9373,18.565],[100.9382,18.5656],[100.9379,18.5664],[100.9385,18.5666],[100.9376,18.5669]]]}},{"type":"Feature","properties":{"kind":"seasonal","area_km2":0.121,"date":"2026-10-09"},"geometry":{"type":"Polygon","coordinates":[[[100.1527,18.4923],[100.1524,18.4904],[100.153,18.4896],[100.1529,18.4885],[100.1535,18.4879],[100.1535,18.4866],[100.1541,18.486],[100.1541,18.4852],[100.1555,18.4852],[100.1561,18.4855],[100.1558,18.4877],[100.1535,18.4898],[100.1527,18.4923]]]}},{"type":"Feature","properties":{"kind":"seasonal","area_km2":0.12,"date":"2026-10-09"},"geometry":{"type":"Polygon","coordinates":[[[100.1487,18.0152],[100.1493,18.0149],[100.1493,18.0143],[100.1501,18.0141],[100.1498,18.0135],[100.1518,18.0122],[100.1515,18.0116],[100.1509,18.0116],[100.1509,18.0108],[100.1504,18.0105],[100.1515,18.0105],[100.1518,18.01],[100.1535,18.0108],[100.154,18.0102],[100.1557,18.0102],[100.1558,18.0113],[100.1541,18.0119],[100.1538,18.0124],[100.1532,18.0122],[100.1518,18.0127],[100.1504,18.0138],[100.1501,18.0149],[100.1487,18.0152]]]}},{"type":"Feature","properties":{"kind":"seasonal","area_km2":0.118,"date":"2026-10-09"},"geometry":{"type":"Polygon","coordinates":[[[100.3458,18.2581],[100.3449,18.2571],[100.3469,18.2568],[100.3466,18.2554],[100.3475,18.2552],[100.3489,18.2562],[100.35,18.2562],[100.35,18.2557],[100.3506,18.2557],[100.35,18.2551],[100.3526,18.2554],[100.3529,18.2562],[100.3537,18.2562],[100.3537,18.2551],[100.3546,18.2551],[100.3546,18.2556],[100.3551,18.2559],[100.354,18.257],[100.3526,18.2567],[100.3523,18.2559],[100.3514,18.2557],[100.3509,18.2562],[100.3509,18.257],[100.3475,18.2568],[100.3463,18.2573],[100.3464,18.2581],[100.3458,18.2581]]]}},{"type":"Feature","properties":{"kind":"seasonal","area_km2":0.113,"date":"2026-10-04"},"geometry":{"type":"Polygon","coordinates":[[[100.9565,18.9491],[100.956,18.9478],[100.9542,18.9475],[100.9542,18.9464],[100.9556,18.9453],[100.9576,18.9459],[100.958,18.948],[100.9585,18.9483],[100.9585,18.9488],[100.958,18.9491],[100.9565,18.9491]]]}},{"type":"Feature","properties":{"kind":"seasonal","area_km2":0.111,"date":"2026-10-09"},"geometry":{"type":"Polygon","coordinates":[[[100.0107,18.6048],[100.0104,18.604],[100.0113,18.6032],[100.0104,18.6021],[100.0107,18.6013],[100.0093,18.6013],[100.009,18.6002],[100.0107,18.6002],[100.0112,18.5994],[100.0121,18.5991],[100.0124,18.6004],[100.0118,18.6005],[100.0118,18.6018],[100.0127,18.6029],[100.0127,18.6037],[100.0121,18.6037],[100.0118,18.6048],[100.0107,18.6048]],[[100.0107,18.6043],[100.011,18.6045],[100.011,18.6043],[100.0107,18.6043]]]}}]}
