{"type":"FeatureCollection","properties":{"v":3,"id":"t100_17","name":"อุตรดิตถ์ · พิษณุโลก · แพร่","aoi":[100.0,17.0,101.0,18.0],"date":"2026-10-09","dates":["2026-10-09"],"baseline_years":3,"has_seasonal":true,"totals":{"flood_high":0.0,"flood_low":0.6,"seasonal":54.9},"provinces":[{"name":"อุตรดิตถ์","zone":"th-n","flood_high":0.0,"flood_low":0.4,"seasonal":17.5},{"name":"พิษณุโลก","zone":"th-c","flood_high":0.0,"flood_low":0.2,"seasonal":37.4}],"scenes":{"2026-10-09":2},"baseline_dates":["2025-10-08","2024-10-09","2023-10-10"],"threshold_db":-15.0,"auto":true,"source":"Sentinel-1 RTC (Copernicus/ESA) via Microsoft Planetary Computer; JRC Global Surface Water; Copernicus DEM","method":"ChatGeo v3: Otsu threshold on VV dB; minus JRC permanent water and slope > 5 deg; unusual = water not present in most of the previous 3 years (same season)","added":"2026-10-10T16:37+07:00"},"features":[{"type":"Feature","properties":{"kind":"flood","area_km2":0.088,"conf":"low","date":"2026-10-09"},"geometry":{"type":"Polygon","coordinates":[[[100.1819,17.2024],[100.1805,17.2019],[100.1788,17.2019],[100.1791,17.1997],[100.1819,17.1997],[100.1828,17.2005],[100.1819,17.2024]]]}},{"type":"Feature","properties":{"kind":"flood","area_km2":0.08,"conf":"low","date":"2026-10-09"},"geometry":{"type":"Polygon","coordinates":[[[100.0069,17.5344],[100.0071,17.5325],[100.006,17.5325],[100.006,17.5312],[100.008,17.5312],[100.0088,17.5317],[100.0088,17.5325],[100.008,17.5333],[100.0091,17.5333],[100.0091,17.5344],[100.0069,17.5344]]]}},{"type":"Feature","properties":{"kind":"flood","area_km2":0.062,"conf":"low","date":"2026-10-09"},"geometry":{"type":"Polygon","coordinates":[[[100.3843,17.1068],[100.3832,17.1057],[100.3832,17.1046],[100.3866,17.1054],[100.3866,17.1068],[100.3843,17.1068]]]}},{"type":"Feature","properties":{"kind":"flood","area_km2":0.061,"conf":"low","date":"2026-10-09"},"geometry":{"type":"Polygon","coordinates":[[[100.1109,17.4476],[100.1092,17.4474],[100.1092,17.4466],[100.11,17.4458],[100.11,17.4449],[100.1117,17.4449],[100.1115,17.4471],[100.1109,17.4476]]]}},{"type":"Feature","properties":{"kind":"flood","area_km2":0.057,"conf":"low","date":"2026-10-09"},"geometry":{"type":"Polygon","coordinates":[[[100.1388,17.2962],[100.1382,17.2957],[100.1382,17.2943],[100.1402,17.294],[100.1407,17.2948],[100.1408,17.2959],[100.1388,17.2962]]]}},{"type":"Feature","properties":{"kind":"flood","area_km2":0.056,"conf":"low","date":"2026-10-09"},"geometry":{"type":"Polygon","coordinates":[[[100.1354,17.6574],[100.1351,17.6565],[100.1351,17.6517],[100.1356,17.6517],[100.1362,17.6525],[100.1362,17.6546],[100.1356,17.656],[100.1359,17.6574],[100.1354,17.6574]],[[100.1356,17.6536],[100.1359,17.6538],[100.1359,17.6536],[100.1356,17.6536]]]}},{"type":"Feature","properties":{"kind":"flood","area_km2":0.054,"conf":"low","date":"2026-10-09"},"geometry":{"type":"Polygon","coordinates":[[[100.1086,17.2508],[100.1083,17.2497],[100.1097,17.2492],[100.11,17.2473],[100.1108,17.2473],[100.1103,17.2508],[100.1086,17.2508]]]}},{"type":"Feature","properties":{"kind":"flood","area_km2":0.054,"conf":"low","date":"2026-10-09"},"geometry":{"type":"Polygon","coordinates":[[[100.0347,17.0972],[100.0346,17.0964],[100.0355,17.0948],[100.036,17.0945],[100.036,17.0937],[100.0369,17.0937],[100.0369,17.0956],[100.0363,17.0958],[100.0358,17.0972],[100.0347,17.0972]]]}},{"type":"Feature","properties":{"kind":"flood","area_km2":0.053,"conf":"low","date":"2026-10-09"},"geometry":{"type":"Polygon","coordinates":[[[100.2228,17.6216],[100.2228,17.6211],[100.2222,17.6208],[100.2222,17.6194],[100.2228,17.6194],[100.2228,17.6189],[100.2233,17.6186],[100.2248,17.6186],[100.2248,17.6194],[100.2236,17.6197],[100.2239,17.6216],[100.2228,17.6216]]]}},{"type":"Feature","properties":{"kind":"flood","area_km2":0.052,"conf":"low","date":"2026-10-09"},"geometry":{"type":"Polygon","coordinates":[[[100.1127,17.0458],[100.1124,17.0447],[100.1141,17.0444],[100.1144,17.0436],[100.1155,17.0436],[100.1153,17.0455],[100.1127,17.0458]]]}},{"type":"Feature","properties":{"kind":"seasonal","area_km2":35.131,"date":"2026-10-09"},"geometry":{"type":"Polygon","coordinates":[[[100.4287,17.1913],[100.4284,17.1892],[100.4258,17.19],[100.4244,17.19],[100.4241,17.1889],[100.4213,17.1884],[100.4207,17.1881],[100.4207,17.1876],[100.4188,17.1876],[100.4182,17.1865],[100.4182,17.1838],[100.4173,17.1835],[100.4151,17.1841],[100.4142,17.1836],[100.4142,17.1827],[100.4151,17.1827],[100.4151,17.1822],[100.4125,17.1817],[100.4125,17.1809],[100.4139,17.1798],[100.4147,17.1781],[100.4176,17.1773],[100.4176,17.1765],[100.4164,17.1749],[100.4144,17.1752],[100.4142,17.176],[100.413,17.1768],[100.4131,17.1779],[100.4125,17.1784],[100.4119,17.1806],[100.4043,17.1774],[100.4043,17.1766],[100.4049,17.1763],[100.4046,17.1752],[100.4026,17.1755],[100.4026,17.1744],[100.4037,17.1736],[100.4043,17.1722],[100.406,17.1722],[100.4074,17.1709],[100.4073,17.1692],[100.4057,17.1687],[100.4056,17.1674],[100.4051,17.1671],[100.4051,17.1663],[100.4062,17.1663],[100.4065,17.1649],[100.4073,17.1649],[100.4076,17.1657],[100.4087,17.1652],[100.4087,17.1646],[100.4098,17.1635],[100.4095,17.1619],[100.4104,17.1608],[100.4104,17.16],[100.4109,17.1597],[100.4109,17.1589],[100.4101,17.1586],[100.4101,17.1578],[100.4106,17.1573],[100.4101,17.1549],[100.4092,17.1538],[100.4075,17.1535],[100.4075,17.1522],[100.4083,17.1516],[100.4083,17.1511],[100.41,17.1511],[100.4109,17.1521],[100.412,17.1521],[100.412,17.154],[100.4129,17.1556],[100.4134,17.1556],[100.4137,17.1548],[100.4146,17.1543],[100.4145,17.1513],[100.4151,17.151],[100.4151,17.1486],[100.4156,17.148],[100.4156,17.1472],[100.417,17.1467],[100.4173,17.1442],[100.4179,17.1437],[100.4178,17.1396],[100.419,17.1385],[100.4189,17.1372],[100.4201,17.1339],[100.4234,17.1323],[100.4242,17.1295],[100.4257,17.129],[100.4265,17.1274],[100.4285,17.1263],[100.4293,17.1246],[100.4298,17.1246],[100.4298,17.1241],[100.4315,17.123],[100.4318,17.1219],[100.436,17.1178],[100.436,17.1167],[100.4374,17.117],[100.4377,17.1159],[100.4391,17.1153],[100.4402,17.1129],[100.4413,17.1129],[100.4413,17.1153],[100.4419,17.1156],[100.4419,17.1178],[100.4425,17.1183],[100.4445,17.1177],[100.4447,17.1172],[100.447,17.1172],[100.4473,17.1166],[100.4481,17.1166],[100.4481,17.1172],[100.4507,17.1166],[100.4512,17.1155],[100.4526,17.1144],[100.4537,17.1112],[100.456,17.1101],[100.4559,17.1084],[100.4565,17.1082],[100.4565,17.1073],[100.4582,17.1049],[100.4582,17.1035],[100.4584,17.103],[100.4593,17.103],[100.4593,17.1106],[100.4602,17.1117],[100.4602,17.1125],[100.4594,17.1133],[100.4591,17.1144],[100.4583,17.1149],[100.4577,17.1174],[100.4557,17.1193],[100.4555,17.1204],[100.4546,17.1212],[100.4529,17.1209],[100.4521,17.1215],[100.4501,17.1215],[100.4496,17.122],[100.449,17.1242],[100.4476,17.1248],[100.4462,17.1261],[100.4457,17.1261],[100.4451,17.1272],[100.4434,17.127],[100.4434,17.1248],[100.442,17.1248],[100.4411,17.1256],[100.4397,17.1256],[100.4386,17.1248],[100.4383,17.124],[100.436,17.1238],[100.4358,17.1243],[100.4349,17.1243],[100.4341,17.1251],[100.4327,17.1306],[100.4316,17.1322],[100.4316,17.1341],[100.4305,17.1344],[100.4305,17.1349],[100.4299,17.1349],[100.4297,17.1355],[100.4297,17.1363],[100.4302,17.1363],[100.4302,17.1374],[100.4297,17.1376],[100.4291,17.1401],[100.4274,17.1406],[100.426,17.1423],[100.4249,17.1423],[100.4238,17.1439],[100.423,17.1483],[100.4224,17.1485],[100.4224,17.1515],[100.4219,17.1518],[100.4216,17.1548],[100.4219,17.1575],[100.4228,17.1577],[100.423,17.1561],[100.4236,17.1558],[100.4236,17.1534],[100.4244,17.1529],[100.4247,17.1518],[100.4258,17.152],[100.4264,17.1509],[100.4272,17.1504],[100.4272,17.1499],[100.4264,17.149],[100.4264,17.1482],[100.4272,17.1471],[100.4286,17.1471],[100.4289,17.1439],[100.4308,17.1444],[100.4317,17.1433],[100.4328,17.1433],[100.4334,17.1422],[100.4348,17.1422],[100.435,17.1408],[100.4379,17.14],[100.4381,17.1392],[100.439,17.1392],[100.4395,17.137],[100.4409,17.1365],[100.4418,17.1324],[100.4432,17.1327],[100.4432,17.1343],[100.444,17.1351],[100.4454,17.1351],[100.4454,17.1364],[100.446,17.137],[100.4458,17.1391],[100.4463,17.14],[100.4469,17.14],[100.4474,17.1386],[100.4488,17.1372],[100.4497,17.1372],[100.4514,17.135],[100.4514,17.134],[100.4522,17.1337],[100.4522,17.1329],[100.4527,17.1326],[100.4527,17.1312],[100.4544,17.1296],[100.4544,17.1288],[100.4561,17.1293],[100.4561,17.1285],[100.4567,17.1282],[100.4575,17.1266],[100.4575,17.125],[100.4589,17.125],[100.4589,17.1244],[100.4583,17.1241],[100.4583,17.1231],[100.4594,17.1222],[100.46,17.1203],[100.4611,17.1203],[100.4614,17.119],[100.4622,17.119],[100.4622,17.1182],[100.4633,17.1165],[100.4631,17.116],[100.4636,17.1157],[100.4644,17.1133],[100.465,17.113],[100.465,17.1122],[100.4664,17.1111],[100.4664,17.11],[100.467,17.1097],[100.4669,17.1089],[100.4664,17.1086],[100.4663,17.1046],[100.4669,17.1043],[100.4666,17.1038],[100.4672,17.1035],[100.4672,17.1024],[100.468,17.1021],[100.4677,17.0997],[100.4694,17.0999],[100.4694,17.0994],[100.4683,17.0983],[100.4683,17.0964],[100.4694,17.0967],[100.4694,17.0956],[100.4699,17.0951],[100.4699,17.0915],[100.471,17.091],[100.4707,17.0899],[100.4721,17.0896],[100.4724,17.0872],[100.4738,17.0863],[100.4738,17.0855],[100.4764,17.0863],[100.4764,17.0871],[100.4758,17.0874],[100.4755,17.0885],[100.4761,17.0885],[100.4764,17.0877],[100.4772,17.0877],[100.4775,17.0888],[100.4786,17.0888],[100.4795,17.0877],[100.4792,17.0863],[100.4797,17.0863],[100.4803,17.0874],[100.4812,17.0874],[100.4811,17.0866],[100.4817,17.0863],[100.4814,17.0852],[100.482,17.0852],[100.482,17.0847],[100.4839,17.0846],[100.484,17.0865],[100.4831,17.0879],[100.4837,17.0884],[100.4845,17.0884],[100.4845,17.089],[100.4837,17.089],[100.4831,17.0895],[100.4837,17.0903],[100.4846,17.0903],[100.4848,17.0892],[100.4877,17.0892],[100.4882,17.0884],[100.4893,17.0884],[100.4893,17.0895],[100.4913,17.0914],[100.493,17.0919],[100.4953,17.0919],[100.497,17.094],[100.4976,17.094],[100.4981,17.0932],[100.4995,17.0929],[100.4998,17.0924],[100.5006,17.0924],[100.5006,17.0929],[100.5012,17.0929],[100.5026,17.0943],[100.5026,17.0954],[100.5018,17.0954],[100.5015,17.0945],[100.5001,17.0935],[100.4995,17.0943],[100.4987,17.0943],[100.4978,17.0951],[100.4979,17.0965],[100.4962,17.0965],[100.4936,17.0943],[100.4914,17.0941],[100.4899,17.093],[100.488,17.093],[100.488,17.0938],[100.4871,17.0941],[100.4863,17.0949],[100.4863,17.0955],[100.4857,17.0955],[100.4849,17.0963],[100.4849,17.0987],[100.4835,17.0998],[100.4835,17.1006],[100.483,17.1012],[100.4824,17.105],[100.4819,17.1053],[100.4819,17.1064],[100.481,17.1072],[100.4808,17.1099],[100.4796,17.1099],[100.4796,17.1085],[100.4791,17.1085],[100.4791,17.1091],[100.4785,17.1094],[100.4785,17.111],[100.4763,17.1113],[100.4768,17.1124],[100.4777,17.1123],[100.4777,17.1132],[100.4763,17.1132],[100.4763,17.114],[100.4785,17.114],[100.4791,17.1161],[100.4769,17.1164],[100.4769,17.1159],[100.4763,17.1156],[100.4755,17.1164],[100.4749,17.1164],[100.4746,17.1172],[100.4738,17.1175],[100.4738,17.1183],[100.4721,17.1178],[100.4726,17.1159],[100.4723,17.1151],[100.4715,17.1151],[100.4704,17.1165],[100.4704,17.1181],[100.4698,17.1181],[100.4698,17.1186],[100.4704,17.1192],[100.471,17.1186],[100.4718,17.1186],[100.4721,17.1202],[100.473,17.1202],[100.4732,17.1208],[100.4732,17.1216],[100.4724,17.1221],[100.4727,17.1232],[100.471,17.1235],[100.4707,17.1243],[100.4733,17.1246],[100.4735,17.124],[100.4741,17.124],[100.4741,17.1254],[100.4721,17.1254],[100.4722,17.1259],[100.471,17.1262],[100.4705,17.1273],[100.473,17.1273],[100.4741,17.1281],[100.4741,17.1289],[100.4733,17.1297],[100.4716,17.1303],[100.4716,17.1308],[100.4728,17.1311],[100.4739,17.13],[100.4739,17.1311],[100.4736,17.1322],[100.473,17.1322],[100.4728,17.133],[100.4719,17.1333],[100.4711,17.1344],[100.4717,17.1352],[100.472,17.1371],[100.4708,17.1371],[100.4706,17.1379],[100.47,17.1379],[100.4694,17.1387],[100.4694,17.1392],[100.4706,17.1395],[100.4706,17.1403],[100.4703,17.1409],[100.4695,17.1409],[100.4695,17.1414],[100.4686,17.142],[100.4686,17.1436],[100.4681,17.1441],[100.4687,17.1468],[100.4664,17.1474],[100.4658,17.1466],[100.4653,17.1466],[100.4647,17.1447],[100.4638,17.1447],[100.4633,17.1453],[100.4624,17.1453],[100.4616,17.1445],[100.4607,17.1447],[100.4608,17.1477],[100.4616,17.1488],[100.4616,17.1496],[100.463,17.1501],[100.4636,17.1493],[100.4644,17.1493],[100.4676,17.1506],[100.4676,17.1515],[100.4664,17.1515],[100.4664,17.152],[100.465,17.1534],[100.4636,17.1534],[100.4634,17.155],[100.4622,17.155],[100.4622,17.1556],[100.4636,17.1558],[100.4637,17.1566],[100.462,17.1567],[100.462,17.1572],[100.4611,17.1577],[100.4614,17.1583],[100.4625,17.1585],[100.4628,17.1599],[100.4642,17.1596],[100.4642,17.1604],[100.4626,17.1607],[100.462,17.1599],[100.4614,17.1599],[100.4609,17.1607],[100.46,17.1607],[100.46,17.1561],[100.4605,17.1556],[100.46,17.155],[100.4586,17.155],[100.4586,17.154],[100.4577,17.1534],[100.4574,17.1521],[100.4563,17.1526],[100.4569,17.1545],[100.456,17.1548],[100.456,17.1559],[100.4549,17.1559],[100.4543,17.1554],[100.4543,17.154],[100.4524,17.1537],[100.4526,17.1524],[100.4543,17.1507],[100.4543,17.1497],[100.4537,17.1497],[100.4534,17.1486],[100.4515,17.1489],[100.452,17.1494],[100.452,17.1508],[100.4506,17.151],[100.4509,17.1546],[100.4526,17.1545],[100.4524,17.1567],[100.4515,17.1567],[100.4515,17.1562],[100.451,17.1559],[100.4504,17.1567],[100.4479,17.1573],[100.4476,17.1549],[100.447,17.1543],[100.4464,17.1549],[100.4453,17.1549],[100.4453,17.1543],[100.4439,17.1543],[100.4436,17.1538],[100.443,17.1538],[100.4436,17.156],[100.4417,17.1563],[100.4403,17.1576],[100.4397,17.1576],[100.4397,17.1584],[100.4405,17.1584],[100.4405,17.1576],[100.4419,17.1576],[100.4439,17.1581],[100.4445,17.1589],[100.4453,17.1581],[100.4467,17.1578],[100.4482,17.1578],[100.449,17.1589],[100.4515,17.1586],[100.4524,17.163],[100.4538,17.1632],[100.4538,17.1638],[100.4547,17.1635],[100.4547,17.1629],[100.4561,17.1629],[100.4564,17.1637],[100.4569,17.1637],[100.4569,17.1645],[100.4553,17.1643],[100.4539,17.1654],[100.4522,17.1654],[100.4527,17.1665],[100.4536,17.1667],[100.4539,17.1686],[100.4516,17.1681],[100.4513,17.1695],[100.4502,17.1697],[100.4502,17.1714],[100.4494,17.1714],[100.4496,17.1679],[100.4491,17.1679],[100.4488,17.1665],[100.4482,17.1668],[100.4479,17.166],[100.4465,17.1665],[100.4462,17.1657],[100.4448,17.166],[100.4443,17.1655],[100.4434,17.1655],[100.4426,17.1671],[100.4432,17.1695],[100.4418,17.1698],[100.4409,17.1723],[100.4398,17.1728],[100.4401,17.1744],[100.4393,17.1744],[100.4384,17.1736],[100.4373,17.1742],[100.4373,17.1766],[100.4362,17.1774],[100.4359,17.1791],[100.4342,17.181],[100.4337,17.184],[100.432,17.1853],[100.4317,17.187],[100.4326,17.1872],[100.4326,17.1883],[100.4309,17.1897],[100.4304,17.191],[100.4287,17.1913]],[[100.4164,17.1781],[100.4167,17.1787],[100.4167,17.1781],[100.4164,17.1781]],[[100.4218,17.1781],[100.4221,17.1786],[100.4221,17.1781],[100.4218,17.1781]],[[100.4221,17.1778],[100.4224,17.1781],[100.4224,17.1778],[100.4221,17.1778]],[[100.4235,17.1729],[100.4237,17.1732],[100.4237,17.1729],[100.4235,17.1729]],[[100.4378,17.1666],[100.44,17.1658],[100.4397,17.1644],[100.4383,17.1641],[100.4383,17.1652],[100.4375,17.166],[100.4378,17.1666]],[[100.4186,17.1659],[100.4197,17.1648],[100.4217,17.161],[100.4222,17.161],[100.4222,17.1605],[100.4228,17.1602],[100.4219,17.1586],[100.4211,17.1597],[100.42,17.1599],[100.4197,17.161],[100.4191,17.1613],[100.4189,17.1635],[100.418,17.164],[100.4186,17.1659]],[[100.4209,17.1656],[100.4211,17.1659],[100.4211,17.1656],[100.4209,17.1656]],[[100.4445,17.1644],[100.4451,17.1641],[100.4451,17.1633],[100.4437,17.1627],[100.4437,17.163],[100.4434,17.163],[100.4434,17.1633],[100.444,17.1633],[100.4445,17.1644]],[[100.4462,17.1641],[100.4468,17.1644],[100.4468,17.1641],[100.4462,17.1641]],[[100.4476,17.1635],[100.4479,17.1641],[100.4482,17.1635],[100.4476,17.1635]],[[100.4468,17.1638],[100.4474,17.1638],[100.4473,17.1633],[100.4471,17.1633],[100.4468,17.1638]],[[100.4223,17.1634],[100.4225,17.1637],[100.4225,17.1634],[100.4223,17.1634]],[[100.4428,17.1628],[100.4434,17.163],[100.4434,17.1627],[100.4428,17.1628]],[[100.4251,17.1629],[100.4256,17.1629],[100.4256,17.1623],[100.4251,17.1623],[100.4251,17.1629]],[[100.4259,17.1615],[100.4262,17.1618],[100.4262,17.1615],[100.4259,17.1615]],[[100.4262,17.161],[100.4265,17.1615],[100.4265,17.161],[100.4262,17.161]],[[100.4265,17.161],[100.427,17.161],[100.427,17.1604],[100.4265,17.1604],[100.4265,17.161]],[[100.427,17.1599],[100.4273,17.1602],[100.4273,17.1599],[100.427,17.1599]],[[100.4276,17.1588],[100.4279,17.1591],[100.4279,17.1588],[100.4276,17.1588]],[[100.438,17.1576],[100.4386,17.1579],[100.4386,17.1576],[100.438,17.1576]],[[100.4348,17.1476],[100.4351,17.1479],[100.4351,17.1476],[100.4348,17.1476]],[[100.4515,17.1472],[100.4534,17.1478],[100.4534,17.1472],[100.4523,17.1461],[100.4517,17.1462],[100.4515,17.1472]],[[100.4582,17.1475],[100.4588,17.1475],[100.4588,17.1469],[100.4585,17.1469],[100.4582,17.1475]],[[100.4359,17.1463],[100.4362,17.1465],[100.4362,17.1463],[100.4359,17.1463]],[[100.443,17.1438],[100.4438,17.1438],[100.4438,17.1432],[100.443,17.1432],[100.443,17.1438]],[[100.4418,17.143],[100.4421,17.1432],[100.4421,17.143],[100.4418,17.143]],[[100.4379,17.1427],[100.4382,17.143],[100.4382,17.1427],[100.4379,17.1427]],[[100.452,17.1405],[100.4548,17.1407],[100.4556,17.1402],[100.4539,17.1404],[100.4528,17.1402],[100.4528,17.1396],[100.452,17.1396],[100.452,17.1405]],[[100.4576,17.1377],[100.4579,17.138],[100.4579,17.1377],[100.4576,17.1377]],[[100.466,17.1352],[100.4671,17.1347],[100.4671,17.1341],[100.4677,17.1338],[100.4677,17.1328],[100.4669,17.1333],[100.4666,17.1341],[100.4652,17.1341],[100.466,17.1352]],[[100.4629,17.1287],[100.4632,17.129],[100.4632,17.1287],[100.4629,17.1287]],[[100.4614,17.126],[100.4617,17.1266],[100.4617,17.126],[100.4614,17.126]],[[100.4679,17.1181],[100.4684,17.1186],[100.4684,17.1178],[100.4679,17.1181]],[[100.4715,17.1113],[100.4718,17.1118],[100.4718,17.1113],[100.4715,17.1113]],[[100.4726,17.111],[100.4732,17.1108],[100.4729,17.1099],[100.4723,17.1099],[100.4726,17.111]],[[100.4793,17.1012],[100.4801,17.1012],[100.4807,17.1004],[100.4796,17.1004],[100.4793,17.1012]],[[100.4753,17.0969],[100.4759,17.0969],[100.4759,17.0964],[100.4753,17.0964],[100.4753,17.0969]],[[100.4807,17.0969],[100.4846,17.0963],[100.484,17.0944],[100.4823,17.0933],[100.4821,17.0944],[100.4823,17.095],[100.4829,17.095],[100.4829,17.0958],[100.4821,17.0958],[100.4821,17.0952],[100.4804,17.0952],[100.4807,17.0969]],[[100.4761,17.0961],[100.4767,17.0961],[100.477,17.0955],[100.4764,17.0953],[100.4761,17.0961]],[[100.4801,17.092],[100.4815,17.0923],[100.4815,17.092],[100.4801,17.092]],[[100.4826,17.0893],[100.4829,17.0895],[100.4829,17.0893],[100.4826,17.0893]]]}},{"type":"Feature","properties":{"kind":"seasonal","area_km2":2.442,"date":"2026-10-09"},"geometry":{"type":"Polygon","coordinates":[[[100.4103,17.8838],[100.4103,17.8833],[100.4112,17.8825],[100.4112,17.8814],[100.4106,17.8809],[100.4097,17.8809],[100.4092,17.8795],[100.4083,17.8795],[100.4083,17.8782],[100.4077,17.8776],[100.4066,17.8774],[100.4063,17.8779],[100.4052,17.8779],[100.4052,17.8768],[100.406,17.8766],[100.4057,17.8758],[100.404,17.8766],[100.4029,17.8766],[100.4029,17.8755],[100.4023,17.875],[100.4012,17.875],[100.4006,17.8752],[100.4001,17.8766],[100.3989,17.8766],[100.3989,17.8758],[100.3998,17.8755],[100.4001,17.8747],[100.4006,17.8747],[100.4012,17.8739],[100.4009,17.8731],[100.3989,17.8734],[100.3989,17.872],[100.3997,17.8715],[100.3995,17.8704],[100.4003,17.8698],[100.4,17.8693],[100.3992,17.8693],[100.398,17.8704],[100.398,17.8712],[100.3975,17.8712],[100.3975,17.8704],[100.3966,17.8699],[100.3969,17.8688],[100.3958,17.868],[100.3952,17.868],[100.3943,17.8688],[100.3935,17.8688],[100.3927,17.8699],[100.3918,17.8699],[100.3921,17.8688],[100.3935,17.8674],[100.3946,17.8674],[100.3952,17.8663],[100.394,17.8655],[100.3921,17.8674],[100.3912,17.8675],[100.3892,17.8664],[100.3901,17.8647],[100.3906,17.8647],[100.3912,17.8658],[100.3918,17.8658],[100.3926,17.865],[100.3929,17.8639],[100.3918,17.8628],[100.392,17.8615],[100.3912,17.8609],[100.3898,17.8615],[100.3895,17.8607],[100.3886,17.8607],[100.3889,17.8593],[100.3872,17.8574],[100.3861,17.8577],[100.3841,17.8596],[100.3829,17.8591],[100.3829,17.8586],[100.3838,17.8586],[100.3844,17.858],[100.3841,17.8569],[100.3849,17.8561],[100.3866,17.8561],[100.3869,17.8569],[100.3877,17.8569],[100.3911,17.8558],[100.3911,17.8566],[100.39,17.8569],[100.3897,17.858],[100.3911,17.8569],[100.3928,17.8569],[100.3928,17.8577],[100.392,17.858],[100.3928,17.8582],[100.3929,17.8596],[100.3934,17.8571],[100.3968,17.856],[100.3968,17.8568],[100.3962,17.8568],[100.396,17.8582],[100.3951,17.8582],[100.396,17.8587],[100.3957,17.8606],[100.3965,17.8606],[100.3966,17.8614],[100.396,17.862],[100.3949,17.862],[100.3949,17.8628],[100.3935,17.8634],[100.3949,17.8642],[100.3952,17.8636],[100.3957,17.8639],[100.396,17.8633],[100.3974,17.8628],[100.3977,17.8612],[100.3994,17.8603],[100.3994,17.8598],[100.3999,17.8598],[100.4008,17.859],[100.4005,17.8582],[100.3994,17.8584],[100.3988,17.8587],[100.3991,17.8601],[100.3982,17.8601],[100.3982,17.8582],[100.3977,17.8576],[100.3988,17.8576],[100.3988,17.8566],[100.3996,17.8565],[100.3999,17.8571],[100.4002,17.8565],[100.4019,17.856],[100.4019,17.8552],[100.4013,17.8546],[100.3996,17.8549],[100.3996,17.8541],[100.4005,17.8541],[100.4005,17.8536],[100.401,17.8536],[100.4019,17.8544],[100.4019,17.8525],[100.4027,17.8527],[100.4027,17.8511],[100.4038,17.8497],[100.4044,17.8497],[100.4047,17.8505],[100.4035,17.8506],[100.4033,17.8514],[100.4044,17.8519],[100.4053,17.8516],[100.405,17.8511],[100.4055,17.8503],[100.4067,17.85],[100.4064,17.8494],[100.4052,17.8492],[100.4055,17.8486],[100.4075,17.8489],[100.4078,17.8481],[100.41,17.8478],[100.4106,17.8483],[100.4106,17.8502],[100.4098,17.8505],[100.41,17.8492],[100.4081,17.8484],[100.4067,17.8511],[100.4058,17.8514],[100.4061,17.8524],[100.4098,17.8521],[100.4106,17.851],[100.4115,17.851],[100.412,17.8516],[100.4135,17.8505],[100.4149,17.8507],[100.4143,17.8524],[100.4126,17.8521],[100.4123,17.8532],[100.4115,17.8537],[100.4115,17.8546],[100.4126,17.8546],[100.4124,17.8554],[100.4115,17.8554],[100.4107,17.8543],[100.4109,17.8532],[100.4121,17.8529],[100.4115,17.8519],[100.4106,17.8519],[100.4101,17.8527],[100.4095,17.8527],[100.4095,17.8532],[100.4053,17.8533],[100.4047,17.8524],[100.4033,17.8522],[100.4024,17.8544],[100.4039,17.8549],[100.4039,17.8554],[100.4027,17.8565],[100.4008,17.8568],[100.4008,17.8582],[100.4016,17.8584],[100.4022,17.8579],[100.4036,17.8579],[100.4045,17.8584],[100.4045,17.859],[100.4036,17.8584],[100.4019,17.8587],[100.4019,17.8592],[100.4011,17.8595],[100.4005,17.8606],[100.3999,17.8606],[100.3994,17.8614],[100.3988,17.8614],[100.3985,17.8625],[100.398,17.8628],[100.3983,17.8633],[100.3991,17.8633],[100.3986,17.8641],[100.4014,17.863],[100.402,17.8649],[100.4014,17.8652],[100.4011,17.8644],[100.4,17.8644],[100.4,17.8652],[100.3994,17.8652],[100.3991,17.8647],[100.3972,17.8652],[100.3966,17.8644],[100.3957,17.8644],[100.3952,17.865],[100.3955,17.8661],[100.3972,17.8661],[100.3977,17.8666],[100.3963,17.8666],[100.396,17.8671],[100.3986,17.8671],[100.4,17.8668],[100.4003,17.8663],[100.402,17.8668],[100.4034,17.8663],[100.4031,17.8676],[100.4008,17.8674],[100.4006,17.8679],[100.3989,17.8679],[100.3994,17.8685],[100.4017,17.8687],[100.4017,17.8695],[100.4012,17.8701],[100.4031,17.8698],[100.4034,17.8706],[100.404,17.8706],[100.4029,17.8714],[100.4012,17.8709],[100.4014,17.8717],[100.4006,17.8717],[100.4012,17.8725],[100.4029,17.8722],[100.4031,17.8717],[100.4046,17.8717],[100.4043,17.873],[100.4037,17.8736],[100.4029,17.8736],[100.4029,17.8741],[100.4034,17.8741],[100.4035,17.875],[100.404,17.8749],[100.4037,17.8741],[100.4051,17.8733],[100.4051,17.8709],[100.4057,17.8695],[100.4062,17.8695],[100.4062,17.869],[100.4074,17.869],[100.4074,17.8684],[100.4079,17.8695],[100.4077,17.8706],[100.4082,17.8706],[100.4077,17.8719],[100.4088,17.8719],[100.4085,17.8733],[100.4094,17.873],[100.4097,17.8722],[100.4108,17.8719],[100.4116,17.8722],[100.4117,17.873],[100.4122,17.8735],[100.4122,17.8743],[100.4117,17.8735],[100.4091,17.8738],[100.4091,17.8744],[100.408,17.8752],[100.4086,17.8765],[100.4105,17.8768],[100.4111,17.8763],[100.4105,17.8757],[100.4108,17.8749],[100.4117,17.8749],[100.4117,17.8757],[100.4122,17.876],[100.4122,17.8752],[100.4128,17.8749],[100.4128,17.8743],[100.4134,17.8743],[100.4136,17.873],[100.4142,17.8732],[100.4139,17.8749],[100.4134,17.8752],[100.4134,17.8781],[100.4125,17.8784],[100.4125,17.8792],[100.4117,17.8795],[100.4117,17.8803],[100.4128,17.8811],[100.4129,17.8819],[100.4137,17.8822],[100.4137,17.8836],[100.412,17.883],[100.4115,17.8838],[100.4103,17.8838]],[[100.406,17.8755],[100.4069,17.8752],[100.4083,17.8738],[100.4071,17.8736],[100.4066,17.8741],[100.4057,17.8741],[100.4054,17.8749],[100.4043,17.8749],[100.406,17.8755]],[[100.4083,17.8733],[100.4085,17.8736],[100.4085,17.8733],[100.4083,17.8733]],[[100.4029,17.8731],[100.4034,17.8733],[100.4034,17.8731],[100.4029,17.8731]],[[100.406,17.8728],[100.4068,17.8728],[100.4074,17.8719],[100.4074,17.8714],[100.4068,17.8711],[100.4068,17.8706],[100.4074,17.8703],[100.4071,17.8698],[100.406,17.8701],[100.4063,17.872],[100.4054,17.8722],[100.406,17.8728]],[[100.4074,17.8719],[100.4077,17.8722],[100.4077,17.8719],[100.4074,17.8719]],[[100.3969,17.8688],[100.3977,17.8688],[100.398,17.8682],[100.3975,17.8679],[100.3969,17.8688]],[[100.3929,17.8617],[100.3937,17.8615],[100.3934,17.8607],[100.3929,17.8609],[100.3929,17.8617]],[[100.3946,17.8612],[100.3949,17.8615],[100.3949,17.8612],[100.3946,17.8612]],[[100.3949,17.8612],[100.3957,17.8609],[100.3957,17.8606],[100.3949,17.8606],[100.3949,17.8612]],[[100.392,17.8596],[100.3926,17.8598],[100.3926,17.8596],[100.392,17.8596]]]}},{"type":"Feature","properties":{"kind":"seasonal","area_km2":1.276,"date":"2026-10-09"},"geometry":{"type":"Polygon","coordinates":[[[100.6117,17.9219],[100.61,17.9197],[100.6094,17.9197],[100.6091,17.9205],[100.608,17.9203],[100.608,17.9181],[100.6074,17.9178],[100.6074,17.917],[100.6068,17.9165],[100.6051,17.9162],[100.6051,17.9173],[100.6043,17.9173],[100.6037,17.9162],[100.602,17.9163],[100.6023,17.9152],[100.6031,17.9149],[100.6025,17.9116],[100.6028,17.9106],[100.6019,17.9097],[100.6022,17.9087],[100.6016,17.9076],[100.6011,17.9076],[100.6014,17.907],[100.5994,17.9054],[100.5991,17.9046],[100.5985,17.9046],[100.5982,17.9038],[100.5971,17.9038],[100.5954,17.903],[100.5942,17.9033],[100.5931,17.9028],[100.5906,17.9055],[100.5903,17.9044],[100.5909,17.9044],[100.5914,17.9033],[100.5925,17.903],[100.5925,17.9017],[100.5931,17.9014],[100.5931,17.9009],[100.5937,17.9009],[100.5936,17.9003],[100.5942,17.9009],[100.5945,17.9003],[100.5942,17.8992],[100.5936,17.8995],[100.5936,17.9001],[100.5931,17.9001],[100.5928,17.8995],[100.5919,17.8995],[100.5914,17.8987],[100.5934,17.899],[100.5942,17.8982],[100.5948,17.8987],[100.5956,17.9014],[100.5968,17.9025],[100.5988,17.9027],[100.5993,17.9035],[100.6005,17.9035],[100.601,17.9049],[100.6025,17.9049],[100.6019,17.906],[100.6028,17.9068],[100.6028,17.9073],[100.6042,17.9084],[100.6042,17.9089],[100.6068,17.9097],[100.607,17.9092],[100.6082,17.9089],[100.6116,17.9091],[100.6116,17.9099],[100.6107,17.9097],[100.6096,17.9102],[100.6093,17.9116],[100.6079,17.9116],[100.6088,17.9124],[100.6105,17.9121],[100.6107,17.9129],[100.6119,17.9129],[100.6119,17.9151],[100.6125,17.9156],[100.6133,17.9156],[100.6133,17.9164],[100.6125,17.9167],[100.6128,17.9181],[100.6119,17.9189],[100.6119,17.9194],[100.6125,17.9197],[100.6125,17.9219],[100.6117,17.9219]],[[100.6048,17.9116],[100.6051,17.9119],[100.6051,17.9116],[100.6048,17.9116]],[[100.6068,17.9119],[100.6071,17.9113],[100.6068,17.9113],[100.6068,17.9111],[100.6065,17.9111],[100.6065,17.9108],[100.6062,17.9108],[100.6068,17.9119]],[[100.6051,17.9113],[100.6054,17.9116],[100.6054,17.9113],[100.6051,17.9113]],[[100.6059,17.9105],[100.6062,17.9108],[100.6062,17.9105],[100.6059,17.9105]],[[100.6065,17.9105],[100.607,17.9105],[100.6073,17.91],[100.6062,17.91],[100.6065,17.9105]],[[100.5942,17.9014],[100.5954,17.9014],[100.5942,17.9011],[100.5942,17.9014]],[[100.5934,17.9011],[100.5937,17.9014],[100.5937,17.9011],[100.5934,17.9011]]]}},{"type":"Feature","properties":{"kind":"seasonal","area_km2":1.27,"date":"2026-10-09"},"geometry":{"type":"Polygon","coordinates":[[[100.1792,17.2171],[100.1789,17.2165],[100.1781,17.2165],[100.1781,17.2154],[100.175,17.2146],[100.1741,17.2138],[100.1735,17.206],[100.1752,17.2062],[100.1749,17.2046],[100.1766,17.2046],[100.1769,17.2051],[100.1777,17.2051],[100.1774,17.2076],[100.1794,17.2084],[100.1814,17.2084],[100.1817,17.2065],[100.1822,17.2057],[100.1831,17.2057],[100.1836,17.2062],[100.1853,17.2062],[100.187,17.207],[100.1871,17.2105],[100.1865,17.2111],[100.186,17.2138],[100.1843,17.2138],[100.184,17.2132],[100.1834,17.2132],[100.1817,17.216],[100.1798,17.2154],[100.1798,17.216],[100.1809,17.2162],[100.1809,17.2171],[100.1792,17.2171]],[[100.1781,17.2154],[100.1789,17.2154],[100.1789,17.2149],[100.1783,17.2149],[100.1781,17.2154]],[[100.1746,17.21],[100.1752,17.21],[100.1752,17.2095],[100.1746,17.2095],[100.1746,17.21]]]}},{"type":"Feature","properties":{"kind":"seasonal","area_km2":1.014,"date":"2026-10-09"},"geometry":{"type":"Polygon","coordinates":[[[100.3869,17.8558],[100.3863,17.8545],[100.3835,17.8542],[100.384,17.8537],[100.384,17.8526],[100.3829,17.8515],[100.382,17.8515],[100.382,17.8504],[100.3809,17.8496],[100.3809,17.8491],[100.38,17.8488],[100.38,17.8483],[100.3809,17.848],[100.3809,17.8466],[100.3823,17.8466],[100.3823,17.8461],[100.3814,17.8458],[100.3811,17.8442],[100.3817,17.8431],[100.3811,17.8429],[100.3806,17.8439],[100.3797,17.8439],[100.38,17.842],[100.3808,17.8412],[100.3811,17.8401],[100.3825,17.8399],[100.3825,17.8407],[100.3837,17.8407],[100.3831,17.8418],[100.3834,17.8423],[100.3845,17.842],[100.3851,17.8412],[100.3868,17.8415],[100.3868,17.842],[100.3876,17.8423],[100.3882,17.8414],[100.3876,17.8409],[100.3868,17.8412],[100.387,17.8398],[100.3862,17.839],[100.3856,17.839],[100.3856,17.8374],[100.3873,17.8377],[100.3884,17.8368],[100.3901,17.8374],[100.3913,17.8368],[100.3915,17.836],[100.3932,17.8357],[100.3938,17.8352],[100.3938,17.8344],[100.3946,17.8344],[100.3944,17.8357],[100.3935,17.836],[100.3935,17.8373],[100.393,17.8373],[100.3933,17.8379],[100.3938,17.8379],[100.3938,17.8387],[100.3924,17.8374],[100.3918,17.8379],[100.3907,17.8379],[100.3899,17.8385],[100.3902,17.839],[100.3907,17.839],[100.3907,17.8395],[100.3933,17.8395],[100.3935,17.839],[100.3941,17.839],[100.3944,17.8379],[100.395,17.8379],[100.395,17.8395],[100.3938,17.8395],[100.3933,17.8403],[100.3927,17.8401],[100.3924,17.8406],[100.3919,17.8406],[100.3919,17.8417],[100.3927,17.8425],[100.3924,17.843],[100.3916,17.842],[100.3905,17.8422],[100.3905,17.8431],[100.391,17.8436],[100.3896,17.8431],[100.3899,17.8414],[100.3916,17.8412],[100.3916,17.8406],[100.3899,17.8395],[100.3887,17.8404],[100.389,17.8409],[100.3896,17.8409],[100.3893,17.8425],[100.3879,17.8428],[100.3874,17.8444],[100.3865,17.8442],[100.3871,17.8431],[100.3868,17.8423],[100.3859,17.8431],[100.3859,17.8436],[100.3842,17.8436],[100.3837,17.8431],[100.3823,17.8437],[100.384,17.8439],[100.3837,17.8461],[100.3831,17.8466],[100.3846,17.8466],[100.3851,17.8477],[100.386,17.8477],[100.3874,17.8488],[100.3874,17.8501],[100.3868,17.8509],[100.3849,17.851],[100.3849,17.8504],[100.3843,17.8504],[100.3843,17.8499],[100.3834,17.8496],[100.384,17.8504],[100.384,17.8515],[100.3846,17.8515],[100.3849,17.8523],[100.386,17.8523],[100.386,17.8518],[100.3869,17.8518],[100.3869,17.8542],[100.3877,17.8545],[100.3875,17.8558],[100.3869,17.8558]],[[100.3854,17.8507],[100.386,17.8507],[100.3857,17.8493],[100.3851,17.8493],[100.3854,17.8507]],[[100.3829,17.8466],[100.3831,17.8469],[100.3831,17.8466],[100.3829,17.8466]],[[100.3882,17.8393],[100.3893,17.8387],[100.389,17.8376],[100.3876,17.8385],[100.3882,17.8393]],[[100.3927,17.8371],[100.393,17.8373],[100.393,17.8371],[100.3927,17.8371]],[[100.3918,17.8365],[100.3921,17.8368],[100.3921,17.8365],[100.3918,17.8365]]]}},{"type":"Feature","properties":{"kind":"seasonal","area_km2":0.95,"date":"2026-10-09"},"geometry":{"type":"Polygon","coordinates":[[[100.1613,17.597],[100.1604,17.5954],[100.1599,17.5951],[100.1483,17.5952],[100.1488,17.5938],[100.1491,17.5898],[100.1499,17.5887],[100.1499,17.5873],[100.1508,17.5865],[100.1507,17.5846],[100.1513,17.5838],[100.1539,17.5838],[100.1544,17.5849],[100.1544,17.5876],[100.155,17.5887],[100.1573,17.5911],[100.1573,17.5916],[100.1584,17.5922],[100.1596,17.5932],[100.1596,17.5938],[100.161,17.5943],[100.161,17.5949],[100.1618,17.5954],[100.1621,17.597],[100.1613,17.597]],[[100.1516,17.5868],[100.1519,17.587],[100.1519,17.5868],[100.1516,17.5868]],[[100.1513,17.5865],[100.1516,17.5868],[100.1516,17.5865],[100.1513,17.5865]]]}},{"type":"Feature","properties":{"kind":"seasonal","area_km2":0.845,"date":"2026-10-09"},"geometry":{"type":"Polygon","coordinates":[[[100.7717,17.0452],[100.7719,17.0438],[100.7702,17.0433],[100.7702,17.039],[100.769,17.0379],[100.7685,17.0379],[100.7688,17.0368],[100.7702,17.0371],[100.7702,17.0365],[100.7696,17.0365],[100.7696,17.036],[100.7687,17.0357],[100.7679,17.0347],[100.7673,17.0347],[100.7665,17.0355],[100.7665,17.036],[100.7634,17.0369],[100.7643,17.0374],[100.7643,17.0388],[100.7632,17.0404],[100.7612,17.041],[100.7595,17.0423],[100.7584,17.0426],[100.7584,17.044],[100.7561,17.0443],[100.7561,17.0434],[100.7567,17.0432],[100.7564,17.0415],[100.7575,17.0415],[100.7581,17.0402],[100.7592,17.0399],[100.7592,17.0393],[100.7572,17.0391],[100.7564,17.0367],[100.7572,17.0367],[100.7583,17.038],[100.7595,17.038],[100.7595,17.0391],[100.7609,17.0391],[100.7612,17.0396],[100.762,17.0396],[100.7623,17.0385],[100.7612,17.0377],[100.7611,17.0363],[100.7637,17.0361],[100.7642,17.0352],[100.7648,17.0352],[100.7648,17.0347],[100.7654,17.0347],[100.7656,17.0336],[100.7648,17.0333],[100.765,17.032],[100.7665,17.0317],[100.7664,17.0311],[100.7676,17.0303],[100.7678,17.0292],[100.769,17.0284],[100.769,17.0279],[100.7698,17.0279],[100.7698,17.0292],[100.769,17.0303],[100.769,17.0325],[100.7707,17.0341],[100.7707,17.0352],[100.7718,17.0352],[100.7721,17.0357],[100.7721,17.0365],[100.771,17.0382],[100.7713,17.0387],[100.7719,17.0387],[100.7719,17.04],[100.7711,17.0414],[100.7711,17.0422],[100.7728,17.043],[100.7728,17.0444],[100.7725,17.0452],[100.7717,17.0452]]]}},{"type":"Feature","properties":{"kind":"seasonal","area_km2":0.764,"date":"2026-10-09"},"geometry":{"type":"Polygon","coordinates":[[[100.4204,17.8317],[100.4204,17.8301],[100.419,17.8301],[100.4187,17.829],[100.4184,17.8298],[100.417,17.829],[100.417,17.8296],[100.4153,17.8299],[100.4153,17.8307],[100.4144,17.831],[100.4141,17.8299],[100.415,17.8296],[100.4147,17.8282],[100.4153,17.8282],[100.4155,17.8274],[100.4144,17.828],[100.4141,17.8266],[100.4124,17.8266],[100.4124,17.8261],[100.4135,17.8258],[100.4133,17.8253],[100.4116,17.8261],[100.4115,17.8239],[100.4113,17.8247],[100.4101,17.825],[100.4101,17.8242],[100.4093,17.8242],[100.409,17.8231],[100.4084,17.8231],[100.4084,17.8237],[100.409,17.8248],[100.4099,17.8248],[100.4099,17.8253],[100.4104,17.8256],[100.4104,17.8269],[100.4099,17.8275],[100.409,17.8275],[100.409,17.8288],[100.4079,17.8291],[100.4076,17.8297],[100.4071,17.8294],[100.4082,17.8275],[100.4087,17.8275],[100.4085,17.8269],[100.4073,17.8272],[100.4076,17.828],[100.4056,17.8286],[100.4056,17.8272],[100.409,17.8256],[100.4056,17.8261],[100.4056,17.8256],[100.4062,17.8256],[100.4079,17.8237],[100.4073,17.8226],[100.4064,17.8226],[100.4059,17.8232],[100.4059,17.8242],[100.405,17.8245],[100.4056,17.8253],[100.4036,17.8259],[100.4036,17.8243],[100.4047,17.8234],[100.4036,17.8234],[100.4036,17.8229],[100.405,17.8213],[100.4061,17.8213],[100.4059,17.8202],[100.4053,17.8202],[100.405,17.8207],[100.405,17.8172],[100.4061,17.8175],[100.4061,17.818],[100.407,17.8183],[100.4067,17.8199],[100.4076,17.8199],[100.4076,17.8215],[100.4104,17.8212],[100.4101,17.8223],[100.4115,17.8223],[100.4132,17.8231],[100.4132,17.8242],[100.4141,17.8245],[100.4147,17.8255],[100.4155,17.8255],[100.4161,17.8261],[100.4161,17.8271],[100.4184,17.8277],[100.4189,17.8288],[100.4201,17.8285],[100.4198,17.8296],[100.4212,17.8296],[100.4212,17.8304],[100.4218,17.8309],[100.4226,17.8309],[100.4224,17.8314],[100.4215,17.8314],[100.4215,17.8309],[100.4209,17.8309],[100.4209,17.8315],[100.4204,17.8317]],[[100.4133,17.8247],[100.4135,17.8253],[100.4135,17.8247],[100.4133,17.8247]],[[100.4079,17.825],[100.4084,17.825],[100.4084,17.8245],[100.4079,17.8245],[100.4079,17.825]],[[100.411,17.8234],[100.4115,17.8237],[100.4115,17.8234],[100.411,17.8234]],[[100.4047,17.8229],[100.4053,17.8232],[100.4053,17.8229],[100.4047,17.8229]]]}},{"type":"Feature","properties":{"kind":"seasonal","area_km2":0.582,"date":"2026-10-09"},"geometry":{"type":"Polygon","coordinates":[[[100.0001,17.529],[100.0002,17.5087],[100.0008,17.5087],[100.0031,17.5103],[100.0039,17.5103],[100.0042,17.5108],[100.0062,17.5114],[100.0065,17.5125],[100.0053,17.5138],[100.0048,17.5155],[100.0042,17.5157],[100.0042,17.5165],[100.0034,17.5171],[100.0031,17.5184],[100.0025,17.5187],[100.0025,17.5195],[100.002,17.5198],[100.0009,17.522],[100.0001,17.529]]]}},{"type":"Feature","properties":{"kind":"seasonal","area_km2":0.558,"date":"2026-10-09"},"geometry":{"type":"Polygon","coordinates":[[[99.9972,17.532],[99.9972,17.5209],[99.9977,17.5196],[99.9974,17.5182],[99.998,17.5147],[99.9991,17.5133],[99.9991,17.512],[99.9983,17.5103],[99.9971,17.5095],[99.9971,17.5074],[99.998,17.5074],[99.9988,17.5082],[99.9997,17.5082],[99.9995,17.532],[99.9972,17.532]]]}},{"type":"Feature","properties":{"kind":"seasonal","area_km2":0.528,"date":"2026-10-09"},"geometry":{"type":"Polygon","coordinates":[[[100.1739,17.2266],[100.173,17.2255],[100.1733,17.2236],[100.173,17.222],[100.1725,17.2214],[100.1722,17.2179],[100.1727,17.2176],[100.1733,17.2155],[100.1747,17.2155],[100.1761,17.2163],[100.1761,17.2171],[100.1775,17.2168],[100.1784,17.2176],[100.1801,17.2176],[100.1798,17.2203],[100.1809,17.2206],[100.1809,17.2219],[100.1784,17.2219],[100.1784,17.2209],[100.1778,17.2209],[100.1778,17.2203],[100.1756,17.2203],[100.1753,17.2209],[100.1747,17.2209],[100.1744,17.2214],[100.1753,17.226],[100.1747,17.2266],[100.1739,17.2266]]]}},{"type":"Feature","properties":{"kind":"seasonal","area_km2":0.459,"date":"2026-10-09"},"geometry":{"type":"Polygon","coordinates":[[[100.5954,17.8377],[100.5953,17.8369],[100.5945,17.8361],[100.5945,17.8355],[100.5942,17.8355],[100.5942,17.8358],[100.5939,17.8358],[100.5939,17.8361],[100.5936,17.8361],[100.5936,17.8364],[100.5928,17.8364],[100.5931,17.8342],[100.5914,17.8345],[100.5905,17.8331],[100.5902,17.8331],[100.5905,17.8342],[100.5897,17.8331],[100.5891,17.8331],[100.588,17.8342],[100.5874,17.8329],[100.5885,17.8326],[100.5874,17.8323],[100.5877,17.831],[100.5896,17.8307],[100.5896,17.8315],[100.5911,17.8318],[100.591,17.831],[100.5922,17.8315],[100.5922,17.8304],[100.5936,17.8298],[100.5939,17.829],[100.5944,17.829],[100.5944,17.8315],[100.5961,17.8317],[100.5947,17.8323],[100.5959,17.8347],[100.5965,17.8352],[100.6001,17.8347],[100.6007,17.8363],[100.6007,17.8374],[100.5982,17.8371],[100.597,17.8366],[100.5962,17.8369],[100.5962,17.8377],[100.5954,17.8377]],[[100.5934,17.8353],[100.5936,17.8361],[100.5936,17.8353],[100.5934,17.8353]],[[100.5936,17.8347],[100.5939,17.835],[100.5939,17.8347],[100.5936,17.8347]],[[100.5931,17.8339],[100.5933,17.8342],[100.5933,17.8339],[100.5931,17.8339]],[[100.5911,17.8337],[100.5916,17.8337],[100.5916,17.8331],[100.5914,17.8331],[100.5911,17.8337]],[[100.5931,17.8334],[100.5933,17.8336],[100.5933,17.8334],[100.5931,17.8334]],[[100.5925,17.8334],[100.5931,17.8334],[100.593,17.8331],[100.5928,17.8328],[100.5922,17.8328],[100.5925,17.8334]],[[100.5899,17.8331],[100.5911,17.8329],[100.5911,17.8326],[100.5899,17.8326],[100.5899,17.8331]],[[100.5916,17.8326],[100.5922,17.8328],[100.5922,17.8326],[100.5916,17.8326]],[[100.5885,17.8321],[100.5888,17.8326],[100.5888,17.8321],[100.5885,17.8321]],[[100.5882,17.8318],[100.5885,17.8321],[100.5885,17.8318],[100.5882,17.8318]]]}},{"type":"Feature","properties":{"kind":"seasonal","area_km2":0.454,"date":"2026-10-09"},"geometry":{"type":"Polygon","coordinates":[[[100.5932,17.8545],[100.5932,17.8537],[100.5924,17.8534],[100.5924,17.8529],[100.5918,17.8526],[100.5921,17.8505],[100.5915,17.8507],[100.5915,17.8502],[100.5926,17.8496],[100.5915,17.8494],[100.5912,17.848],[100.5903,17.8475],[100.5892,17.8472],[100.5892,17.8483],[100.5887,17.8481],[100.5886,17.8472],[100.5884,17.8483],[100.5878,17.8475],[100.5878,17.8483],[100.587,17.8481],[100.5869,17.8473],[100.5861,17.8475],[100.5853,17.8483],[100.585,17.8497],[100.5841,17.8503],[100.5844,17.8508],[100.5839,17.8513],[100.5842,17.8522],[100.5836,17.8524],[100.5836,17.8532],[100.5825,17.8533],[100.5825,17.8522],[100.583,17.8522],[100.583,17.8516],[100.5825,17.8516],[100.5824,17.8508],[100.583,17.8503],[100.5822,17.8505],[100.5822,17.8495],[100.5836,17.8494],[100.5841,17.8481],[100.5855,17.8467],[100.5855,17.8462],[100.5878,17.8467],[100.5872,17.8462],[100.5878,17.8462],[100.5883,17.8445],[100.5898,17.8445],[100.5915,17.8456],[100.5915,17.8459],[100.5909,17.8459],[100.5909,17.8461],[100.5915,17.8461],[100.5923,17.8469],[100.5926,17.848],[100.5935,17.8477],[100.5935,17.8486],[100.5952,17.8494],[100.5946,17.851],[100.5946,17.8529],[100.5941,17.8529],[100.5938,17.8534],[100.5941,17.8545],[100.5932,17.8545]],[[100.583,17.8508],[100.5836,17.8513],[100.5836,17.8508],[100.583,17.8508]],[[100.5921,17.8502],[100.5924,17.8505],[100.5924,17.8502],[100.5921,17.8502]],[[100.5906,17.8456],[100.5909,17.8459],[100.5909,17.8456],[100.5906,17.8456]]]}},{"type":"Feature","properties":{"kind":"seasonal","area_km2":0.439,"date":"2026-10-09"},"geometry":{"type":"Polygon","coordinates":[[[100.5743,17.8262],[100.5749,17.8254],[100.5737,17.8246],[100.5729,17.8249],[100.5729,17.8241],[100.5749,17.8243],[100.5749,17.8251],[100.5757,17.8251],[100.576,17.8243],[100.5763,17.8248],[100.5768,17.8248],[100.5763,17.8229],[100.5777,17.8229],[100.5782,17.8237],[100.5811,17.824],[100.5819,17.8224],[100.5808,17.8224],[100.5802,17.8218],[100.5794,17.8221],[100.5791,17.8216],[100.5785,17.8216],[100.5785,17.8189],[100.5779,17.8186],[100.5742,17.8192],[100.5742,17.8178],[100.5748,17.8178],[100.5745,17.8156],[100.5756,17.8151],[100.5748,17.8151],[100.5739,17.8143],[100.5734,17.8151],[100.5711,17.8148],[100.5714,17.8121],[100.5722,17.8124],[100.5725,17.814],[100.5739,17.814],[100.5742,17.8135],[100.5742,17.8143],[100.577,17.8148],[100.5762,17.8154],[100.5762,17.8159],[100.5751,17.8159],[100.5754,17.8175],[100.5759,17.8181],[100.5765,17.8172],[100.5756,17.8167],[100.5756,17.8162],[100.5765,17.8162],[100.5765,17.8167],[100.5771,17.8167],[100.5771,17.8178],[100.5779,17.8178],[100.5782,17.817],[100.579,17.8175],[100.579,17.818],[100.5796,17.8178],[100.5796,17.8169],[100.5807,17.8172],[100.5793,17.8186],[100.5794,17.821],[100.5819,17.821],[100.5819,17.8205],[100.5808,17.8207],[100.5808,17.8202],[100.5805,17.8207],[100.5796,17.8207],[100.5799,17.8194],[100.5813,17.8199],[100.5819,17.8199],[100.5819,17.8194],[100.5827,17.8194],[100.5827,17.8202],[100.5839,17.8196],[100.5839,17.8202],[100.583,17.8207],[100.5831,17.8232],[100.5825,17.824],[100.5819,17.824],[100.5819,17.8248],[100.5794,17.8243],[100.5785,17.8245],[100.578,17.8237],[100.5774,17.8237],[100.5771,17.8251],[100.576,17.8251],[100.5749,17.8262],[100.5743,17.8262]],[[100.5759,17.8183],[100.5762,17.8186],[100.5762,17.8183],[100.5759,17.8183]],[[100.5765,17.8186],[100.5771,17.8186],[100.5773,17.8181],[100.5768,17.8181],[100.5765,17.8186]]]}},{"type":"Feature","properties":{"kind":"seasonal","area_km2":0.418,"date":"2026-10-09"},"geometry":{"type":"Polygon","coordinates":[[[100.3898,17.8357],[100.3898,17.8349],[100.3904,17.8347],[100.3898,17.8336],[100.3907,17.8336],[100.391,17.8344],[100.391,17.833],[100.3924,17.8317],[100.3935,17.8316],[100.3935,17.8311],[100.3949,17.8314],[100.3949,17.8308],[100.3958,17.8308],[100.396,17.8303],[100.3986,17.8305],[100.3991,17.83],[100.3991,17.8292],[100.3974,17.8292],[100.3969,17.8295],[100.3969,17.83],[100.3957,17.83],[100.3957,17.8292],[100.3966,17.8292],[100.3966,17.8284],[100.3983,17.827],[100.3977,17.8248],[100.3994,17.824],[100.3999,17.8232],[100.4008,17.8232],[100.4013,17.8226],[100.4022,17.8226],[100.4033,17.8215],[100.4042,17.8215],[100.403,17.8229],[100.4016,17.8232],[100.4014,17.824],[100.4002,17.8237],[100.4002,17.8251],[100.3994,17.8251],[100.3997,17.8265],[100.3988,17.8265],[100.3988,17.8273],[100.398,17.8276],[100.398,17.8281],[100.4011,17.8281],[100.4011,17.8286],[100.4,17.8289],[100.3997,17.8294],[100.4006,17.8294],[100.402,17.8283],[100.4031,17.8289],[100.4028,17.8297],[100.4017,17.8297],[100.4017,17.8305],[100.4006,17.8311],[100.4006,17.8321],[100.3997,17.8321],[100.4006,17.8308],[100.3997,17.8305],[100.3986,17.8313],[100.3994,17.8321],[100.3983,17.8327],[100.3977,17.8327],[100.3977,17.8322],[100.3975,17.8322],[100.3975,17.833],[100.3958,17.8333],[100.3955,17.8322],[100.396,17.8324],[100.396,17.8316],[100.3949,17.8316],[100.3949,17.8322],[100.3941,17.8325],[100.3924,17.8325],[100.3918,17.8349],[100.3907,17.8357],[100.3898,17.8357]],[[100.3972,17.8319],[100.3975,17.8322],[100.3975,17.8319],[100.3972,17.8319]],[[100.3966,17.8316],[100.3969,17.8319],[100.3969,17.8316],[100.3966,17.8316]],[[100.3994,17.8294],[100.3997,17.8297],[100.3997,17.8294],[100.3994,17.8294]]]}},{"type":"Feature","properties":{"kind":"seasonal","area_km2":0.404,"date":"2026-10-09"},"geometry":{"type":"Polygon","coordinates":[[[100.0854,17.0058],[100.0835,17.0056],[100.0835,17.0048],[100.0846,17.0047],[100.0843,17.0039],[100.0835,17.0037],[100.0826,17.005],[100.0818,17.005],[100.0818,17.004],[100.0806,17.0034],[100.0803,17.0018],[100.082,17.0018],[100.0826,17.001],[100.0854,17.0012],[100.0863,17.0004],[100.0863,16.9999],[100.0868,16.9999],[100.0868,16.9993],[100.0908,16.9993],[100.0908,17.0009],[100.0899,17.0015],[100.0885,17.0012],[100.0885,17.002],[100.0877,17.0023],[100.0877,17.0042],[100.0871,17.0045],[100.0871,17.005],[100.0857,17.005],[100.0854,17.0058]],[[100.0879,17.0007],[100.0882,17.0009],[100.0882,17.0007],[100.0879,17.0007]],[[100.0874,17.0004],[100.0879,17.0007],[100.0879,17.0004],[100.0874,17.0004]],[[100.0899,17.0004],[100.0902,17.0007],[100.0902,17.0004],[100.0899,17.0004]]]}},{"type":"Feature","properties":{"kind":"seasonal","area_km2":0.401,"date":"2026-10-09"},"geometry":{"type":"Polygon","coordinates":[[[100.5607,17.5888],[100.5601,17.5875],[100.5603,17.5856],[100.5618,17.5856],[100.5617,17.585],[100.5629,17.5853],[100.5634,17.5834],[100.5643,17.5831],[100.5637,17.5826],[100.5657,17.5815],[100.5657,17.5809],[100.5668,17.5799],[100.5665,17.5793],[100.5671,17.5793],[100.5679,17.5801],[100.569,17.5788],[100.5707,17.5787],[100.5713,17.579],[100.5716,17.5804],[100.5722,17.5804],[100.573,17.5793],[100.5744,17.579],[100.5747,17.5795],[100.5755,17.5795],[100.5761,17.5806],[100.5781,17.5808],[100.5787,17.5795],[100.5786,17.5779],[100.5792,17.5779],[100.5789,17.5792],[100.5795,17.5795],[100.5795,17.58],[100.5787,17.5803],[100.5787,17.5814],[100.5773,17.5828],[100.5761,17.5819],[100.5758,17.5811],[100.5739,17.5801],[100.5733,17.5806],[100.5733,17.5822],[100.5722,17.582],[100.5713,17.5828],[100.5711,17.5839],[100.5702,17.5828],[100.5707,17.5798],[100.5696,17.5796],[100.5682,17.5817],[100.5671,17.5817],[100.5654,17.5834],[100.564,17.5837],[100.5643,17.5848],[100.5637,17.5856],[100.5643,17.5864],[100.5635,17.5864],[100.5632,17.5858],[100.5626,17.5859],[100.5623,17.5864],[100.5618,17.5859],[100.5609,17.5861],[100.5606,17.5878],[100.5612,17.588],[100.5612,17.5886],[100.5607,17.5888]],[[100.5668,17.5807],[100.5671,17.5809],[100.5671,17.5807],[100.5668,17.5807]],[[100.5671,17.5804],[100.5674,17.5807],[100.5674,17.5804],[100.5671,17.5804]],[[100.5674,17.5801],[100.5676,17.5804],[100.5676,17.5801],[100.5674,17.5801]]]}},{"type":"Feature","properties":{"kind":"seasonal","area_km2":0.398,"date":"2026-10-09"},"geometry":{"type":"Polygon","coordinates":[[[100.582,17.8297],[100.5822,17.8272],[100.5817,17.8267],[100.5825,17.8264],[100.5822,17.8256],[100.5834,17.8256],[100.5839,17.8234],[100.5859,17.8223],[100.5856,17.821],[100.5867,17.8207],[100.587,17.8201],[100.589,17.8201],[100.589,17.8207],[100.5884,17.8212],[100.5876,17.8212],[100.587,17.8223],[100.5901,17.8226],[100.5904,17.8231],[100.5918,17.8234],[100.5916,17.825],[100.591,17.825],[100.5907,17.8255],[100.5885,17.8253],[100.5876,17.8275],[100.5871,17.8277],[100.5871,17.8285],[100.5862,17.8294],[100.5859,17.8286],[100.5865,17.8283],[100.5865,17.8272],[100.587,17.8266],[100.5865,17.8264],[100.5854,17.8286],[100.5856,17.8269],[100.5851,17.8269],[100.5851,17.8264],[100.5856,17.8261],[100.5848,17.8261],[100.5848,17.824],[100.5842,17.8237],[100.5839,17.8256],[100.5836,17.8261],[100.5831,17.8261],[100.5834,17.8278],[100.5825,17.8278],[100.5825,17.8297],[100.582,17.8297]],[[100.5822,17.827],[100.5825,17.8272],[100.5825,17.827],[100.5822,17.827]],[[100.5825,17.8267],[100.5828,17.827],[100.5828,17.8267],[100.5825,17.8267]],[[100.5868,17.825],[100.587,17.8256],[100.587,17.825],[100.5868,17.825]],[[100.587,17.8248],[100.5873,17.825],[100.5873,17.8247],[100.587,17.8248]],[[100.5873,17.8247],[100.5879,17.8247],[100.5882,17.8239],[100.5879,17.8239],[100.5873,17.8247]],[[100.5873,17.8237],[100.5876,17.8239],[100.5876,17.8237],[100.5873,17.8237]],[[100.587,17.8234],[100.5873,17.8237],[100.5873,17.8234],[100.587,17.8234]],[[100.5867,17.8231],[100.587,17.8234],[100.587,17.8231],[100.5867,17.8231]]]}},{"type":"Feature","properties":{"kind":"seasonal","area_km2":0.364,"date":"2026-10-09"},"geometry":{"type":"Polygon","coordinates":[[[100.4004,17.8427],[100.4004,17.8405],[100.4009,17.8408],[100.4009,17.84],[100.4018,17.84],[100.402,17.8386],[100.4012,17.8395],[100.4003,17.8395],[100.4009,17.8365],[100.3995,17.837],[100.3995,17.8357],[100.4017,17.8354],[100.402,17.8362],[100.4023,17.8354],[100.4031,17.8351],[100.4031,17.8346],[100.4048,17.8343],[100.4048,17.8351],[100.4029,17.8362],[100.4032,17.8367],[100.4037,17.8362],[100.4046,17.8362],[100.4051,17.8354],[100.4063,17.8351],[100.4063,17.8345],[100.4071,17.8345],[100.4071,17.8356],[100.4049,17.8367],[100.4049,17.8381],[100.404,17.8373],[100.4034,17.8373],[100.4026,17.8381],[100.4026,17.8389],[100.4046,17.8392],[100.4054,17.8386],[100.4054,17.8381],[100.4063,17.8381],[100.4063,17.8375],[100.408,17.837],[100.4091,17.8378],[100.4083,17.838],[100.4083,17.8386],[100.4077,17.8386],[100.4083,17.8394],[100.4069,17.8397],[100.4066,17.8391],[100.4057,17.8392],[100.4049,17.8405],[100.4043,17.84],[100.4032,17.8405],[100.4035,17.8416],[100.4029,17.8416],[100.4026,17.8411],[100.4015,17.8411],[100.4009,17.8419],[100.4012,17.8427],[100.4004,17.8427]],[[100.4069,17.8391],[100.4074,17.8391],[100.4074,17.8383],[100.4069,17.8386],[100.4069,17.8391]],[[100.4015,17.8362],[100.4017,17.8365],[100.4017,17.8362],[100.4015,17.8362]]]}},{"type":"Feature","properties":{"kind":"seasonal","area_km2":0.343,"date":"2026-10-09"},"geometry":{"type":"Polygon","coordinates":[[[100.1845,17.2054],[100.1842,17.2048],[100.1825,17.2046],[100.1822,17.2013],[100.1828,17.2005],[100.1819,17.2],[100.1816,17.1989],[100.1808,17.1986],[100.1813,17.1981],[100.183,17.1981],[100.185,17.1997],[100.185,17.2008],[100.1856,17.201],[100.1856,17.2016],[100.1859,17.201],[100.187,17.201],[100.1881,17.2021],[100.1881,17.2032],[100.187,17.2054],[100.1845,17.2054]]]}},{"type":"Feature","properties":{"kind":"seasonal","area_km2":0.327,"date":"2026-10-09"},"geometry":{"type":"Polygon","coordinates":[[[100.2421,17.3379],[100.2418,17.3352],[100.2432,17.3341],[100.2432,17.3335],[100.2443,17.3335],[100.2463,17.3319],[100.2474,17.3294],[100.2482,17.3294],[100.2482,17.3303],[100.2491,17.3302],[100.2491,17.3311],[100.2508,17.3316],[100.2514,17.3324],[100.2533,17.3324],[100.2533,17.3332],[100.2525,17.3335],[100.2522,17.3346],[100.2505,17.3346],[100.2502,17.3354],[100.2494,17.3354],[100.2494,17.3346],[100.248,17.334],[100.2483,17.3324],[100.2471,17.3327],[100.2468,17.3341],[100.2452,17.3346],[100.2449,17.3352],[100.2432,17.3343],[100.2421,17.3357],[100.2421,17.3368],[100.2424,17.3376],[100.2435,17.3379],[100.2421,17.3379]]]}},{"type":"Feature","properties":{"kind":"seasonal","area_km2":0.289,"date":"2026-10-09"},"geometry":{"type":"Polygon","coordinates":[[[100.3894,17.8536],[100.3874,17.8528],[100.3874,17.8515],[100.3891,17.8504],[100.3911,17.8501],[100.3919,17.8487],[100.3928,17.8487],[100.3931,17.8493],[100.3936,17.8493],[100.3936,17.8498],[100.3911,17.8506],[100.3905,17.8515],[100.3936,17.8517],[100.3936,17.8509],[100.3951,17.8509],[100.3956,17.8501],[100.3979,17.8501],[100.3979,17.8514],[100.3965,17.8514],[100.3965,17.8528],[100.3948,17.8528],[100.3942,17.8536],[100.3937,17.8536],[100.3928,17.8525],[100.392,17.8525],[100.3905,17.8528],[100.3905,17.8536],[100.3894,17.8536]]]}},{"type":"Feature","properties":{"kind":"seasonal","area_km2":0.285,"date":"2026-10-09"},"geometry":{"type":"Polygon","coordinates":[[[100.5656,17.6021],[100.565,17.601],[100.5639,17.601],[100.5636,17.6016],[100.5633,17.6002],[100.5622,17.5997],[100.5604,17.5978],[100.5593,17.5978],[100.5588,17.5984],[100.5568,17.5965],[100.5556,17.5967],[100.5556,17.5962],[100.5545,17.5957],[100.5542,17.5949],[100.5559,17.5949],[100.5565,17.5951],[100.5565,17.5957],[100.557,17.5954],[100.5576,17.5965],[100.5585,17.5965],[100.5596,17.5956],[100.5613,17.5959],[100.5613,17.5964],[100.5627,17.5967],[100.5624,17.5978],[100.5633,17.598],[100.5636,17.5989],[100.565,17.5988],[100.5658,17.5999],[100.5664,17.5996],[100.5667,17.5986],[100.5675,17.6005],[100.5667,17.6007],[100.5656,17.6021]]]}},{"type":"Feature","properties":{"kind":"seasonal","area_km2":0.263,"date":"2026-10-09"},"geometry":{"type":"Polygon","coordinates":[[[100.4289,17.9051],[100.43,17.9035],[100.4309,17.9035],[100.4311,17.9027],[100.432,17.9027],[100.4317,17.901],[100.4323,17.9008],[100.4323,17.9002],[100.434,17.9002],[100.4351,17.8997],[100.4351,17.8991],[100.4362,17.8986],[100.4365,17.8978],[100.4376,17.8977],[100.4376,17.8983],[100.4373,17.8988],[100.4368,17.8988],[100.4368,17.8994],[100.4356,17.8991],[100.4354,17.901],[100.4348,17.9016],[100.4351,17.9024],[100.4354,17.9013],[100.4365,17.9013],[100.4362,17.9002],[100.4376,17.8996],[100.4388,17.8999],[100.4399,17.8988],[100.4393,17.901],[100.4385,17.9018],[100.4385,17.9023],[100.4393,17.9021],[100.4396,17.9034],[100.4402,17.9026],[100.4408,17.9026],[100.4402,17.9023],[100.4402,17.9018],[100.4408,17.9018],[100.4411,17.9029],[100.4405,17.9034],[100.4391,17.9037],[100.4391,17.9032],[100.4379,17.9026],[100.4385,17.901],[100.4374,17.9005],[100.4371,17.9021],[100.4359,17.9021],[100.4362,17.9037],[100.434,17.904],[100.4343,17.9027],[100.4337,17.9027],[100.4337,17.9018],[100.4345,17.9013],[100.4345,17.9008],[100.4337,17.9008],[100.4325,17.901],[100.4323,17.9029],[100.4314,17.9035],[100.4312,17.9048],[100.4289,17.9051]],[[100.4309,17.9035],[100.4312,17.9043],[100.4311,17.9035],[100.4309,17.9035]],[[100.4351,17.9026],[100.4354,17.9029],[100.4354,17.9026],[100.4351,17.9026]],[[100.4354,17.9024],[100.4357,17.9026],[100.4357,17.9024],[100.4354,17.9024]],[[100.4365,17.9013],[100.4368,17.9015],[100.4368,17.9013],[100.4365,17.9013]]]}},{"type":"Feature","properties":{"kind":"seasonal","area_km2":0.261,"date":"2026-10-09"},"geometry":{"type":"Polygon","coordinates":[[[100.259,17.2521],[100.259,17.2516],[100.2581,17.2513],[100.2581,17.2507],[100.2576,17.2508],[100.2573,17.2502],[100.2576,17.248],[100.2606,17.2453],[100.2615,17.2453],[100.2615,17.2461],[100.2626,17.2467],[100.2629,17.248],[100.2618,17.2488],[100.2618,17.2502],[100.2612,17.2505],[100.2612,17.251],[100.2601,17.2521],[100.259,17.2521]],[[100.2601,17.2478],[100.2612,17.2475],[100.2612,17.2469],[100.2598,17.2469],[100.2601,17.2478]],[[100.2612,17.2461],[100.2615,17.2464],[100.2615,17.2461],[100.2612,17.2461]]]}},{"type":"Feature","properties":{"kind":"seasonal","area_km2":0.261,"date":"2026-10-09"},"geometry":{"type":"Polygon","coordinates":[[[100.1206,17.2244],[100.12,17.2239],[100.12,17.222],[100.1194,17.2217],[100.1188,17.2169],[100.1211,17.2158],[100.1236,17.2158],[100.1239,17.2177],[100.1208,17.2177],[100.1217,17.2234],[100.1234,17.2236],[100.1234,17.2244],[100.1206,17.2244]]]}},{"type":"Feature","properties":{"kind":"seasonal","area_km2":0.249,"date":"2026-10-09"},"geometry":{"type":"Polygon","coordinates":[[[100.1757,17.2041],[100.1752,17.2035],[100.1738,17.2035],[100.1737,17.2014],[100.1746,17.2006],[100.1746,17.1997],[100.1751,17.1992],[100.1791,17.1997],[100.1791,17.2013],[100.1785,17.2019],[100.1783,17.2038],[100.1757,17.2041]]]}},{"type":"Feature","properties":{"kind":"seasonal","area_km2":0.248,"date":"2026-10-09"},"geometry":{"type":"Polygon","coordinates":[[[100.4083,17.9476],[100.4074,17.9473],[100.4074,17.9465],[100.4085,17.9454],[100.4105,17.9457],[100.4105,17.9443],[100.4114,17.9443],[100.4125,17.9435],[100.4122,17.9419],[100.4139,17.9416],[100.4139,17.9424],[100.4159,17.9426],[100.4167,17.9424],[100.417,17.9415],[100.4181,17.9415],[100.4176,17.9421],[100.4176,17.9429],[100.4165,17.9432],[100.4148,17.9454],[100.4139,17.9451],[100.4128,17.9459],[100.4117,17.9459],[100.4108,17.9467],[100.4094,17.9468],[100.4083,17.9476]],[[100.4145,17.9426],[100.4148,17.9429],[100.4148,17.9426],[100.4145,17.9426]]]}},{"type":"Feature","properties":{"kind":"seasonal","area_km2":0.225,"date":"2026-10-09"},"geometry":{"type":"Polygon","coordinates":[[[100.164,17.222],[100.1634,17.221],[100.162,17.221],[100.162,17.2199],[100.1629,17.2191],[100.1628,17.2142],[100.1634,17.2134],[100.1634,17.212],[100.1642,17.212],[100.1645,17.2125],[100.1645,17.2147],[100.1651,17.2155],[100.1648,17.222],[100.164,17.222]],[[100.1637,17.2134],[100.1639,17.2136],[100.1639,17.2134],[100.1637,17.2134]]]}},{"type":"Feature","properties":{"kind":"seasonal","area_km2":0.21,"date":"2026-10-09"},"geometry":{"type":"Polygon","coordinates":[[[100.4244,17.8697],[100.4255,17.8686],[100.426,17.8669],[100.4272,17.8666],[100.4277,17.8656],[100.4277,17.865],[100.4272,17.865],[100.4277,17.8645],[100.4274,17.8637],[100.4257,17.8642],[100.4257,17.8648],[100.4252,17.8648],[100.4249,17.8637],[100.4263,17.8631],[100.4288,17.8634],[100.4288,17.8615],[100.4308,17.8612],[100.4311,17.8623],[100.43,17.8623],[100.4297,17.8634],[100.4283,17.8645],[100.4283,17.8653],[100.4289,17.8653],[100.4289,17.8666],[100.4294,17.8666],[100.43,17.8664],[100.43,17.865],[100.4311,17.8647],[100.4317,17.8663],[100.4314,17.8669],[100.4309,17.8669],[100.4311,17.8674],[100.4306,17.8677],[100.428,17.8669],[100.4277,17.8675],[100.4266,17.8677],[100.4258,17.8696],[100.4244,17.8697]],[[100.4275,17.8664],[100.4277,17.8666],[100.4277,17.8664],[100.4275,17.8664]]]}},{"type":"Feature","properties":{"kind":"seasonal","area_km2":0.196,"date":"2026-10-09"},"geometry":{"type":"Polygon","coordinates":[[[100.44,17.9419],[100.438,17.94],[100.436,17.94],[100.4365,17.939],[100.4354,17.9382],[100.4351,17.9373],[100.4362,17.9373],[100.4362,17.9368],[100.4354,17.9368],[100.4351,17.9357],[100.4368,17.936],[100.4368,17.9354],[100.4374,17.9354],[100.4376,17.9349],[100.4393,17.9349],[100.4388,17.9362],[100.4365,17.9376],[100.4374,17.9392],[100.4388,17.9392],[100.4388,17.9403],[100.4411,17.9403],[100.4408,17.9395],[100.4399,17.9392],[100.4402,17.9381],[100.4408,17.9381],[100.4408,17.9387],[100.4413,17.9381],[100.4425,17.9384],[100.4425,17.9397],[100.4436,17.94],[100.4433,17.9408],[100.4428,17.9403],[100.4414,17.9403],[100.4414,17.9408],[100.44,17.9419]],[[100.4411,17.9389],[100.4416,17.9392],[100.4416,17.9389],[100.4411,17.9389]],[[100.4374,17.9365],[100.4382,17.936],[100.4379,17.9354],[100.4371,17.936],[100.4374,17.9365]]]}},{"type":"Feature","properties":{"kind":"seasonal","area_km2":0.172,"date":"2026-10-09"},"geometry":{"type":"Polygon","coordinates":[[[100.1932,17.4664],[100.1927,17.4653],[100.1926,17.4626],[100.1932,17.4624],[100.1932,17.4615],[100.1915,17.4616],[100.1909,17.4605],[100.1963,17.461],[100.1963,17.4615],[100.1935,17.4615],[100.1935,17.4626],[100.1943,17.4623],[100.1963,17.4626],[100.1946,17.4642],[100.1946,17.4648],[100.1955,17.4651],[100.1955,17.4661],[100.1932,17.4664]]]}},{"type":"Feature","properties":{"kind":"seasonal","area_km2":0.168,"date":"2026-10-09"},"geometry":{"type":"Polygon","coordinates":[[[100.7737,17.1113],[100.7725,17.1097],[100.7725,17.1089],[100.772,17.1086],[100.772,17.1075],[100.7734,17.1062],[100.7745,17.1062],[100.7751,17.107],[100.7762,17.1075],[100.7759,17.1086],[100.7745,17.1081],[100.7745,17.1097],[100.7762,17.1097],[100.7768,17.1091],[100.7768,17.1102],[100.7759,17.111],[100.7737,17.1113]],[[100.7737,17.1086],[100.7742,17.1086],[100.7742,17.1081],[100.7739,17.1081],[100.7737,17.1086]]]}},{"type":"Feature","properties":{"kind":"seasonal","area_km2":0.167,"date":"2026-10-09"},"geometry":{"type":"Polygon","coordinates":[[[100.4158,17.9345],[100.415,17.9337],[100.4149,17.9318],[100.4141,17.9315],[100.4147,17.931],[100.4147,17.9302],[100.4135,17.9294],[100.4135,17.9288],[100.4129,17.9283],[100.409,17.9286],[100.4098,17.928],[100.4101,17.9261],[100.4081,17.9245],[100.407,17.9243],[100.4064,17.9235],[100.4047,17.9232],[100.4044,17.9224],[100.4067,17.9235],[100.4084,17.9232],[100.4084,17.9237],[100.4107,17.9261],[100.411,17.9278],[100.4138,17.928],[100.4138,17.9286],[100.4155,17.9302],[100.4155,17.9323],[100.4161,17.9331],[100.4158,17.9345]]]}},{"type":"Feature","properties":{"kind":"seasonal","area_km2":0.167,"date":"2026-10-09"},"geometry":{"type":"Polygon","coordinates":[[[100.1281,17.4842],[100.125,17.4839],[100.125,17.4831],[100.1238,17.4826],[100.1238,17.4815],[100.1255,17.4804],[100.1269,17.4804],[100.1286,17.4812],[100.1286,17.4836],[100.1281,17.4842]]]}},{"type":"Feature","properties":{"kind":"seasonal","area_km2":0.166,"date":"2026-10-09"},"geometry":{"type":"Polygon","coordinates":[[[100.4555,17.3722],[100.4543,17.3712],[100.4543,17.3701],[100.4557,17.3701],[100.4557,17.3692],[100.4583,17.3684],[100.4594,17.3684],[100.46,17.3689],[100.46,17.3714],[100.4583,17.3711],[100.458,17.3717],[100.4563,17.3717],[100.4563,17.3722],[100.4555,17.3722]],[[100.456,17.3709],[100.4563,17.3711],[100.4563,17.3709],[100.456,17.3709]],[[100.4569,17.3711],[100.458,17.3706],[100.458,17.37],[100.4574,17.37],[100.4569,17.3711]]]}},{"type":"Feature","properties":{"kind":"seasonal","area_km2":0.162,"date":"2026-10-09"},"geometry":{"type":"Polygon","coordinates":[[[100.152,17.2465],[100.1523,17.2449],[100.1517,17.2454],[100.1506,17.2454],[100.1506,17.2449],[100.1492,17.2446],[100.1492,17.2438],[100.1509,17.243],[100.1509,17.2424],[100.1517,17.2416],[100.1526,17.2416],[100.1523,17.2441],[100.1551,17.2443],[100.1557,17.2449],[100.1557,17.2457],[100.152,17.2465]]]}},{"type":"Feature","properties":{"kind":"seasonal","area_km2":0.161,"date":"2026-10-09"},"geometry":{"type":"Polygon","coordinates":[[[100.4445,17.9045],[100.4442,17.9039],[100.4447,17.9039],[100.445,17.9031],[100.4439,17.9031],[100.4439,17.9042],[100.443,17.9042],[100.443,17.9029],[100.4436,17.9029],[100.4436,17.9023],[100.4444,17.9018],[100.4444,17.9009],[100.4439,17.9007],[100.4433,17.9012],[100.441,17.9012],[100.441,17.9002],[100.4419,17.8999],[100.4422,17.9007],[100.443,17.9007],[100.4433,17.8999],[100.4473,17.8998],[100.4473,17.9004],[100.4467,17.9001],[100.4467,17.9007],[100.4461,17.9001],[100.4461,17.9012],[100.4453,17.9012],[100.4453,17.9018],[100.4444,17.9026],[100.4459,17.902],[100.4478,17.9023],[100.4487,17.9012],[100.4495,17.9015],[100.449,17.9017],[100.449,17.9023],[100.4481,17.9023],[100.4478,17.9031],[100.4464,17.9028],[100.4453,17.9034],[100.4456,17.9045],[100.4445,17.9045]]]}},{"type":"Feature","properties":{"kind":"seasonal","area_km2":0.155,"date":"2026-10-09"},"geometry":{"type":"Polygon","coordinates":[[[100.4479,17.9112],[100.4473,17.9104],[100.4454,17.9104],[100.4439,17.911],[100.442,17.9107],[100.4434,17.9102],[100.4436,17.9088],[100.4442,17.9088],[100.4439,17.9099],[100.4445,17.9099],[100.4451,17.9091],[100.4445,17.9083],[100.4456,17.9074],[100.4459,17.9061],[100.447,17.9058],[100.4473,17.9069],[100.447,17.9074],[100.4467,17.9069],[100.4459,17.9072],[100.4459,17.9077],[100.4468,17.908],[100.4459,17.9083],[100.4456,17.9091],[100.4473,17.9082],[100.4485,17.9085],[100.4479,17.9085],[100.4468,17.9096],[100.4451,17.9096],[100.4454,17.9102],[100.4488,17.9099],[100.4502,17.9088],[100.4502,17.9082],[100.4516,17.9082],[100.4516,17.9088],[100.4507,17.9088],[100.4505,17.9099],[100.4488,17.9104],[100.4488,17.9109],[100.4479,17.9112]],[[100.4434,17.9102],[100.4437,17.9104],[100.4437,17.9102],[100.4434,17.9102]]]}},{"type":"Feature","properties":{"kind":"seasonal","area_km2":0.154,"date":"2026-10-09"},"geometry":{"type":"Polygon","coordinates":[[[100.4542,17.9521],[100.4542,17.9516],[100.4536,17.951],[100.4528,17.951],[100.4528,17.9505],[100.4539,17.9502],[100.4547,17.9491],[100.4556,17.9491],[100.4562,17.9497],[100.4581,17.9496],[100.4584,17.9491],[100.4601,17.9483],[100.4604,17.9496],[100.461,17.9491],[100.4618,17.9491],[100.4613,17.9496],[100.4613,17.9504],[100.4596,17.9502],[100.459,17.951],[100.457,17.9507],[100.4553,17.9513],[100.455,17.9521],[100.4542,17.9521]]]}},{"type":"Feature","properties":{"kind":"seasonal","area_km2":0.144,"date":"2026-10-09"},"geometry":{"type":"Polygon","coordinates":[[[100.473,17.9951],[100.4727,17.9943],[100.4718,17.9937],[100.4724,17.9926],[100.4718,17.9926],[100.4715,17.9918],[100.4721,17.9918],[100.4724,17.9913],[100.4729,17.9913],[100.4727,17.9918],[100.4735,17.9918],[100.4752,17.991],[100.4758,17.9902],[100.4766,17.9899],[100.4769,17.9891],[100.4783,17.9888],[100.4786,17.9883],[100.4791,17.9883],[100.4792,17.9899],[100.4811,17.989],[100.4794,17.9907],[100.4783,17.9907],[100.478,17.9915],[100.4772,17.9907],[100.4766,17.9913],[100.4749,17.9913],[100.4738,17.9918],[100.4729,17.9926],[100.4729,17.9934],[100.4735,17.994],[100.4735,17.9948],[100.473,17.9951]]]}},{"type":"Feature","properties":{"kind":"seasonal","area_km2":0.133,"date":"2026-10-09"},"geometry":{"type":"Polygon","coordinates":[[[100.4452,17.1787],[100.4449,17.1776],[100.4444,17.1777],[100.4444,17.1771],[100.4438,17.1768],[100.4427,17.1769],[100.4424,17.1777],[100.4413,17.1777],[100.441,17.1747],[100.4435,17.1755],[100.446,17.1752],[100.446,17.1766],[100.4455,17.1768],[100.4455,17.1774],[100.4463,17.1774],[100.4463,17.1787],[100.4452,17.1787]]]}},{"type":"Feature","properties":{"kind":"seasonal","area_km2":0.122,"date":"2026-10-09"},"geometry":{"type":"Polygon","coordinates":[[[100.3986,17.8354],[100.398,17.8343],[100.3969,17.8349],[100.3958,17.8346],[100.3955,17.8341],[100.3972,17.8341],[100.3978,17.8338],[100.3978,17.8332],[100.3986,17.833],[100.3997,17.8332],[100.4006,17.8321],[100.4028,17.8316],[100.4028,17.831],[100.404,17.8299],[100.404,17.8316],[100.4034,17.831],[100.4031,17.8332],[100.4028,17.8327],[100.402,17.8327],[100.402,17.8332],[100.4009,17.833],[100.4,17.8338],[100.4006,17.8351],[100.3995,17.8346],[100.3995,17.8351],[100.3986,17.8354]],[[100.3986,17.8346],[100.3992,17.8346],[100.3992,17.834],[100.3986,17.8341],[100.3986,17.8346]]]}},{"type":"Feature","properties":{"kind":"seasonal","area_km2":0.122,"date":"2026-10-09"},"geometry":{"type":"Polygon","coordinates":[[[100.2153,17.0493],[100.2119,17.0461],[100.2119,17.0452],[100.2128,17.045],[100.2131,17.0442],[100.2139,17.0441],[100.2139,17.0447],[100.2159,17.0463],[100.2159,17.0479],[100.2153,17.0493]]]}},{"type":"Feature","properties":{"kind":"seasonal","area_km2":0.119,"date":"2026-10-09"},"geometry":{"type":"Polygon","coordinates":[[[100.4136,17.8722],[100.4136,17.8705],[100.4125,17.8703],[100.4116,17.8695],[100.4116,17.8681],[100.4102,17.8679],[100.4122,17.8676],[100.4125,17.8687],[100.4144,17.8689],[100.4145,17.8695],[100.415,17.8686],[100.4167,17.8686],[100.4167,17.8694],[100.4156,17.87],[100.4156,17.8711],[100.4147,17.8711],[100.4136,17.8722]],[[100.4147,17.8694],[100.415,17.8697],[100.415,17.8694],[100.4147,17.8694]]]}},{"type":"Feature","properties":{"kind":"seasonal","area_km2":0.119,"date":"2026-10-09"},"geometry":{"type":"Polygon","coordinates":[[[100.0783,17.0338],[100.0783,17.0324],[100.0794,17.0322],[100.0794,17.03],[100.0805,17.03],[100.0808,17.0311],[100.0816,17.0311],[100.0816,17.0316],[100.0822,17.0319],[100.0822,17.0338],[100.0783,17.0338]]]}},{"type":"Feature","properties":{"kind":"seasonal","area_km2":0.11,"date":"2026-10-09"},"geometry":{"type":"Polygon","coordinates":[[[100.1678,17.777],[100.1661,17.7762],[100.1658,17.7754],[100.1644,17.7762],[100.1636,17.7762],[100.1638,17.7749],[100.1633,17.7743],[100.1644,17.7732],[100.1644,17.7727],[100.1661,17.773],[100.1664,17.7748],[100.167,17.7759],[100.1678,17.7762],[100.1678,17.777]]]}},{"type":"Feature","properties":{"kind":"seasonal","area_km2":0.109,"date":"2026-10-09"},"geometry":{"type":"Polygon","coordinates":[[[100.4028,17.8647],[100.4028,17.8636],[100.4022,17.8636],[100.4017,17.8622],[100.4019,17.8609],[100.4039,17.8611],[100.4039,17.8619],[100.4028,17.8619],[100.4031,17.863],[100.4053,17.8627],[100.4053,17.8622],[100.4068,17.8622],[100.4068,17.8627],[100.4073,17.863],[100.4068,17.8638],[100.4056,17.8638],[100.4056,17.863],[100.4048,17.863],[100.4053,17.8633],[100.4048,17.8636],[100.4054,17.8646],[100.4048,17.8646],[100.4045,17.8641],[100.4034,17.8641],[100.4028,17.8647]]]}},{"type":"Feature","properties":{"kind":"seasonal","area_km2":0.109,"date":"2026-10-09"},"geometry":{"type":"Polygon","coordinates":[[[100.1068,17.0496],[100.1068,17.0488],[100.1085,17.0485],[100.1093,17.0458],[100.1102,17.0458],[100.1119,17.0466],[100.1122,17.0472],[100.1139,17.0469],[100.1139,17.0477],[100.1133,17.048],[100.1102,17.0477],[100.1099,17.0485],[100.1088,17.0485],[100.1088,17.0496],[100.1068,17.0496]]]}},{"type":"Feature","properties":{"kind":"seasonal","area_km2":0.107,"date":"2026-10-09"},"geometry":{"type":"Polygon","coordinates":[[[100.4377,17.1951],[100.4372,17.1945],[100.4377,17.1937],[100.4366,17.1923],[100.4366,17.1913],[100.4385,17.191],[100.4397,17.1915],[100.4397,17.1937],[100.4391,17.194],[100.4389,17.195],[100.4377,17.1951]]]}},{"type":"Feature","properties":{"kind":"seasonal","area_km2":0.103,"date":"2026-10-09"},"geometry":{"type":"Polygon","coordinates":[[[100.004,17.1044],[100.0037,17.1033],[100.0028,17.1025],[100.0014,17.1025],[100.0025,17.1022],[100.0025,17.1014],[100.0023,17.1014],[100.0023,17.102],[100.0014,17.1017],[100.0008,17.1017],[100.0003,17.102],[100.0003,17.1004],[100.0014,17.1003],[100.0042,17.102],[100.0056,17.1022],[100.0056,17.1036],[100.0048,17.1044],[100.004,17.1044]],[[100.0006,17.1017],[100.0011,17.1012],[100.0017,17.1014],[100.0017,17.1009],[100.0008,17.1009],[100.0006,17.1017]],[[100.002,17.1012],[100.0023,17.1014],[100.0023,17.1012],[100.002,17.1012]]]}},{"type":"Feature","properties":{"kind":"seasonal","area_km2":0.103,"date":"2026-10-09"},"geometry":{"type":"Polygon","coordinates":[[[100.4195,17.8594],[100.4189,17.8572],[100.42,17.8572],[100.4195,17.8569],[100.4194,17.8564],[100.4203,17.8561],[100.4217,17.8564],[100.422,17.8558],[100.4226,17.8558],[100.4237,17.8564],[100.424,17.8572],[100.4248,17.8569],[100.4251,17.8577],[100.4257,17.8577],[100.4254,17.8583],[100.4248,17.8583],[100.4245,17.8575],[100.424,17.8575],[100.4237,17.858],[100.4237,17.8575],[100.4223,17.8567],[100.4223,17.8575],[100.4214,17.8569],[100.4209,17.8577],[100.4203,17.8578],[100.4209,17.8594],[100.4195,17.8594]]]}},{"type":"Feature","properties":{"kind":"seasonal","area_km2":0.102,"date":"2026-10-09"},"geometry":{"type":"Polygon","coordinates":[[[100.5733,17.8433],[100.5733,17.8428],[100.5739,17.8427],[100.5739,17.8411],[100.575,17.8406],[100.5747,17.8384],[100.5755,17.8387],[100.5758,17.8381],[100.5764,17.8389],[100.5772,17.8389],[100.5773,17.84],[100.5761,17.8389],[100.5756,17.8389],[100.5756,17.8411],[100.5747,17.8422],[100.5753,17.8422],[100.5753,17.8417],[100.5759,17.8416],[100.5759,17.8422],[100.5764,17.8425],[100.5781,17.8422],[100.5784,17.8416],[100.5795,17.8422],[100.5801,17.8419],[100.5801,17.8432],[100.5793,17.8422],[100.5787,17.8422],[100.5784,17.843],[100.5773,17.8425],[100.5764,17.8433],[100.5764,17.8427],[100.5756,17.8425],[100.5756,17.8433],[100.575,17.8433],[100.5753,17.8425],[100.5747,17.8425],[100.5745,17.8433],[100.5733,17.8433]]]}},{"type":"Feature","properties":{"kind":"seasonal","area_km2":0.101,"date":"2026-10-09"},"geometry":{"type":"Polygon","coordinates":[[[100.5477,17.5944],[100.5474,17.593],[100.5494,17.5922],[100.5516,17.5924],[100.5516,17.5916],[100.5511,17.5916],[100.5516,17.5914],[100.5516,17.5903],[100.5539,17.5892],[100.5542,17.59],[100.5525,17.5903],[100.5519,17.5908],[100.5519,17.5919],[100.5525,17.5922],[100.5525,17.593],[100.5533,17.5941],[100.5528,17.5941],[100.5519,17.5933],[100.5499,17.593],[100.5494,17.5941],[100.5477,17.5944]],[[100.5485,17.593],[100.5488,17.5933],[100.5488,17.593],[100.5485,17.593]]]}}]}
