{"type":"FeatureCollection","properties":{"v":3,"id":"t101_6","name":"ปัตตานี · นราธิวาส · ยะลา","aoi":[101.0,6.0,102.0,6.975],"date":"2026-10-09","dates":["2026-10-09"],"baseline_years":3,"has_seasonal":true,"totals":{"flood_high":0.0,"flood_low":0.6,"seasonal":7.5},"provinces":[{"name":"สงขลา","zone":"th-s","flood_high":0.0,"flood_low":0.2,"seasonal":0.0},{"name":"ปัตตานี","zone":"th-s","flood_high":0.0,"flood_low":0.2,"seasonal":3.8},{"name":"ยะลา","zone":"th-s","flood_high":0.0,"flood_low":0.1,"seasonal":0.4},{"name":"นราธิวาส","zone":"th-s","flood_high":0.0,"flood_low":0.1,"seasonal":2.9}],"scenes":{"2026-10-09":2},"baseline_dates":["2025-10-07","2024-10-06","2023-10-11"],"threshold_db":-15.0,"auto":true,"source":"Sentinel-1 RTC (Copernicus/ESA) via Microsoft Planetary Computer; JRC Global Surface Water; Copernicus DEM","method":"ChatGeo v3: Otsu threshold on VV dB; minus JRC permanent water and slope > 5 deg; unusual = water not present in most of the previous 3 years (same season)","added":"2026-10-10T16:37+07:00"},"features":[{"type":"Feature","properties":{"kind":"flood","area_km2":0.184,"conf":"low","date":"2026-10-09"},"geometry":{"type":"Polygon","coordinates":[[[101.0301,6.8314],[101.0295,6.8295],[101.029,6.8295],[101.0287,6.8303],[101.0282,6.8303],[101.0282,6.8295],[101.0287,6.8292],[101.0282,6.8292],[101.0282,6.8284],[101.0274,6.8273],[101.0284,6.827],[101.0284,6.8262],[101.0292,6.8262],[101.0293,6.8281],[101.0301,6.8284],[101.0306,6.8273],[101.0311,6.8273],[101.0314,6.8262],[101.0333,6.8267],[101.0333,6.8273],[101.0339,6.8273],[101.0336,6.8289],[101.0322,6.8286],[101.0312,6.8292],[101.0306,6.83],[101.0306,6.8311],[101.0301,6.8314]],[[101.0287,6.827],[101.029,6.8273],[101.029,6.827],[101.0287,6.827]]]}},{"type":"Feature","properties":{"kind":"flood","area_km2":0.076,"conf":"low","date":"2026-10-09"},"geometry":{"type":"Polygon","coordinates":[[[101.9327,6.3405],[101.9321,6.3397],[101.9313,6.3397],[101.9313,6.3386],[101.9321,6.338],[101.9324,6.3372],[101.9335,6.3372],[101.9346,6.3383],[101.9337,6.3383],[101.9338,6.3399],[101.9335,6.3405],[101.9327,6.3405]]]}},{"type":"Feature","properties":{"kind":"flood","area_km2":0.069,"conf":"low","date":"2026-10-09"},"geometry":{"type":"Polygon","coordinates":[[[101.3147,6.9369],[101.3171,6.9347],[101.3185,6.9345],[101.3187,6.9336],[101.3195,6.9336],[101.3203,6.9328],[101.3203,6.9323],[101.3212,6.9326],[101.3206,6.9336],[101.3198,6.9336],[101.3193,6.9347],[101.3179,6.9353],[101.3171,6.9364],[101.3147,6.9369]]]}},{"type":"Feature","properties":{"kind":"flood","area_km2":0.069,"conf":"low","date":"2026-10-09"},"geometry":{"type":"Polygon","coordinates":[[[101.4705,6.5292],[101.4705,6.527],[101.47,6.5267],[101.47,6.5259],[101.4727,6.5259],[101.4732,6.5264],[101.4732,6.5273],[101.4716,6.5273],[101.4713,6.5292],[101.4705,6.5292]]]}},{"type":"Feature","properties":{"kind":"flood","area_km2":0.065,"conf":"low","date":"2026-10-09"},"geometry":{"type":"Polygon","coordinates":[[[101.4743,6.5319],[101.4732,6.53],[101.4727,6.53],[101.4727,6.5292],[101.4732,6.5286],[101.4746,6.5286],[101.4751,6.5297],[101.4752,6.5319],[101.4743,6.5319]]]}},{"type":"Feature","properties":{"kind":"flood","area_km2":0.06,"conf":"low","date":"2026-10-09"},"geometry":{"type":"Polygon","coordinates":[[[101.0328,6.8346],[101.0325,6.8333],[101.0314,6.8333],[101.0309,6.8327],[101.0312,6.8311],[101.0333,6.8314],[101.0328,6.8319],[101.0333,6.8319],[101.0331,6.8333],[101.0336,6.8335],[101.0336,6.8346],[101.0328,6.8346]],[[101.0317,6.8327],[101.0328,6.8322],[101.0328,6.8319],[101.032,6.8319],[101.0317,6.8327]]]}},{"type":"Feature","properties":{"kind":"flood","area_km2":0.053,"conf":"low","date":"2026-10-09"},"geometry":{"type":"Polygon","coordinates":[[[101.4695,6.5864],[101.4692,6.5823],[101.4702,6.582],[101.4708,6.5826],[101.4708,6.5839],[101.47,6.5839],[101.4695,6.5864]]]}},{"type":"Feature","properties":{"kind":"flood","area_km2":0.05,"conf":"low","date":"2026-10-09"},"geometry":{"type":"Polygon","coordinates":[[[101.5561,6.7657],[101.555,6.7649],[101.5552,6.763],[101.5566,6.763],[101.5569,6.7657],[101.5561,6.7657]]]}},{"type":"Feature","properties":{"kind":"seasonal","area_km2":1.444,"date":"2026-10-09"},"geometry":{"type":"Polygon","coordinates":[[[101.4416,6.5936],[101.4405,6.5928],[101.4402,6.5914],[101.4391,6.5914],[101.4391,6.5906],[101.438,6.5906],[101.438,6.5901],[101.4367,6.5901],[101.4348,6.5884],[101.432,6.5882],[101.4315,6.5879],[101.4315,6.5874],[101.4285,6.5863],[101.4288,6.5844],[101.4282,6.5844],[101.4282,6.5831],[101.4266,6.5831],[101.4266,6.5822],[101.4277,6.5814],[101.4277,6.5806],[101.4263,6.5798],[101.4263,6.5785],[101.4271,6.5774],[101.4282,6.5774],[101.4285,6.5763],[101.4306,6.5768],[101.4306,6.5749],[101.4312,6.5744],[101.4336,6.5741],[101.4347,6.5749],[101.4347,6.5754],[101.4336,6.5781],[101.4334,6.5773],[101.4331,6.5779],[101.432,6.5779],[101.4317,6.5811],[101.4309,6.5817],[101.4309,6.5822],[101.4299,6.5825],[101.4299,6.5841],[101.4304,6.5844],[101.4304,6.5852],[101.4318,6.5844],[101.435,6.5846],[101.4356,6.5841],[101.4364,6.5841],[101.4375,6.586],[101.4383,6.5849],[101.4434,6.5851],[101.4434,6.5873],[101.4426,6.5873],[101.4424,6.5879],[101.4429,6.5881],[101.4429,6.5895],[101.4434,6.5895],[101.4434,6.5906],[101.4443,6.5903],[101.444,6.5889],[101.4445,6.5884],[101.4448,6.5906],[101.4437,6.5925],[101.444,6.5936],[101.4432,6.5936],[101.4429,6.593],[101.4424,6.5936],[101.4416,6.5936]],[[101.4418,6.593],[101.4421,6.5933],[101.4421,6.593],[101.4418,6.593]],[[101.4435,6.5914],[101.444,6.5917],[101.444,6.5914],[101.4435,6.5914]],[[101.4383,6.589],[101.4388,6.5892],[101.4388,6.589],[101.4383,6.589]],[[101.4296,6.5841],[101.4299,6.5844],[101.4299,6.5841],[101.4296,6.5841]],[[101.4333,6.5771],[101.4336,6.5773],[101.4336,6.5771],[101.4333,6.5771]],[[101.4336,6.5768],[101.4339,6.5771],[101.4339,6.5768],[101.4336,6.5768]]]}},{"type":"Feature","properties":{"kind":"seasonal","area_km2":1.319,"date":"2026-10-09"},"geometry":{"type":"Polygon","coordinates":[[[101.8652,6.3845],[101.8636,6.3834],[101.8633,6.3821],[101.8622,6.381],[101.8589,6.3802],[101.8587,6.3786],[101.8592,6.3778],[101.8592,6.3767],[101.8589,6.3734],[101.8584,6.3732],[101.8583,6.3713],[101.8613,6.3712],[101.8646,6.3723],[101.8678,6.3723],[101.8689,6.3712],[101.8713,6.3704],[101.8714,6.3712],[101.8708,6.3717],[101.8708,6.3734],[101.87,6.3734],[101.8698,6.3761],[101.8687,6.3782],[101.8681,6.3785],[101.8681,6.3793],[101.8671,6.3804],[101.8665,6.3837],[101.866,6.3845],[101.8652,6.3845]],[[101.8635,6.3785],[101.8638,6.3788],[101.8638,6.3785],[101.8635,6.3785]]]}},{"type":"Feature","properties":{"kind":"seasonal","area_km2":0.506,"date":"2026-10-09"},"geometry":{"type":"Polygon","coordinates":[[[101.7982,6.4732],[101.7993,6.4711],[101.8009,6.4697],[101.8014,6.4683],[101.8012,6.4675],[101.802,6.4675],[101.8033,6.4664],[101.8031,6.4659],[101.8022,6.4662],[101.8028,6.4645],[101.8033,6.4643],[101.803,6.4653],[101.8039,6.4651],[101.8039,6.4643],[101.8044,6.4643],[101.8047,6.4648],[101.8049,6.464],[101.8044,6.4637],[101.8044,6.4632],[101.8049,6.4626],[101.8057,6.4626],[101.806,6.4632],[101.806,6.4615],[101.8074,6.4604],[101.8079,6.4594],[101.8084,6.4599],[101.8098,6.4585],[101.8098,6.458],[101.809,6.4585],[101.8087,6.4577],[101.8092,6.4577],[101.8095,6.4566],[101.8109,6.4564],[101.8103,6.4555],[101.8114,6.4545],[101.8117,6.4534],[101.8122,6.4528],[101.8141,6.4525],[101.8146,6.4517],[101.8152,6.4517],[101.8165,6.4504],[101.8181,6.4495],[101.8192,6.4498],[101.8184,6.4501],[101.8184,6.4506],[101.8163,6.4528],[101.8157,6.4528],[101.8154,6.4536],[101.8149,6.4536],[101.8149,6.4542],[101.8128,6.4569],[101.8122,6.4566],[101.8122,6.4572],[101.8117,6.4572],[101.8117,6.458],[101.8109,6.4585],[101.8109,6.4591],[101.8093,6.4607],[101.8087,6.4607],[101.8084,6.4618],[101.806,6.4642],[101.8055,6.4642],[101.8055,6.4651],[101.8039,6.4662],[101.8039,6.467],[101.8028,6.4678],[101.8025,6.4689],[101.8017,6.4689],[101.8012,6.47],[101.8004,6.4705],[101.8001,6.4719],[101.7996,6.4719],[101.799,6.473],[101.7982,6.4732]],[[101.8028,6.4653],[101.8031,6.4656],[101.803,6.4653],[101.8028,6.4653]],[[101.8063,6.4621],[101.8066,6.4623],[101.8066,6.4621],[101.8063,6.4621]],[[101.8076,6.4602],[101.8079,6.4604],[101.8079,6.4602],[101.8076,6.4602]],[[101.8079,6.4599],[101.8082,6.4602],[101.8082,6.4599],[101.8079,6.4599]],[[101.8101,6.4574],[101.8103,6.4577],[101.8103,6.4574],[101.8101,6.4574]],[[101.8103,6.4572],[101.8106,6.4574],[101.8106,6.4572],[101.8103,6.4572]],[[101.8098,6.4569],[101.8103,6.4572],[101.8103,6.4569],[101.8098,6.4569]],[[101.8111,6.4561],[101.8114,6.4564],[101.8114,6.4561],[101.8111,6.4561]],[[101.8114,6.4555],[101.8117,6.4561],[101.8117,6.4555],[101.8114,6.4555]],[[101.8119,6.4558],[101.813,6.455],[101.813,6.4544],[101.8119,6.4553],[101.8119,6.4558]],[[101.813,6.4539],[101.8136,6.4539],[101.8141,6.4528],[101.8133,6.4528],[101.813,6.4539]],[[101.8146,6.4525],[101.8163,6.4523],[101.8168,6.4512],[101.8163,6.4517],[101.8149,6.452],[101.8146,6.4525]],[[101.8176,6.4501],[101.8179,6.4504],[101.8179,6.4501],[101.8176,6.4501]]]}},{"type":"Feature","properties":{"kind":"seasonal","area_km2":0.476,"date":"2026-10-09"},"geometry":{"type":"Polygon","coordinates":[[[101.9282,6.3627],[101.9282,6.3622],[101.9304,6.3603],[101.9314,6.3584],[101.9349,6.3551],[101.936,6.3532],[101.9387,6.3507],[101.939,6.3497],[101.94,6.3486],[101.9406,6.3486],[101.9408,6.3478],[101.9414,6.3477],[101.9422,6.3469],[101.9433,6.3469],[101.9441,6.3461],[101.9435,6.3458],[101.943,6.3467],[101.9422,6.3467],[101.9422,6.3461],[101.9438,6.3448],[101.9438,6.3442],[101.9443,6.3442],[101.9454,6.3423],[101.9479,6.3409],[101.9478,6.3399],[101.9495,6.3385],[101.9503,6.3385],[101.9511,6.3371],[101.9532,6.3371],[101.9533,6.3379],[101.9516,6.3379],[101.9527,6.3385],[101.9516,6.339],[101.9511,6.3404],[101.9503,6.3404],[101.9487,6.342],[101.9484,6.3431],[101.9471,6.3434],[101.9465,6.3445],[101.946,6.3445],[101.946,6.345],[101.9449,6.3458],[101.9444,6.3472],[101.9438,6.3472],[101.9438,6.3477],[101.9419,6.3477],[101.9411,6.3486],[101.9411,6.3491],[101.9395,6.3502],[101.9395,6.351],[101.9382,6.3524],[101.9376,6.3524],[101.9374,6.3535],[101.9368,6.3535],[101.9365,6.3543],[101.9352,6.3556],[101.9347,6.3556],[101.9339,6.3575],[101.9333,6.3576],[101.9325,6.3586],[101.932,6.3586],[101.9312,6.3595],[101.9306,6.3611],[101.9293,6.3616],[101.9282,6.3627]],[[101.9441,6.3453],[101.9446,6.3453],[101.9457,6.3442],[101.9457,6.3437],[101.9441,6.3453]],[[101.9457,6.3434],[101.946,6.3437],[101.946,6.3434],[101.9457,6.3434]],[[101.9514,6.3377],[101.9516,6.3379],[101.9516,6.3377],[101.9514,6.3377]]]}},{"type":"Feature","properties":{"kind":"seasonal","area_km2":0.41,"date":"2026-10-09"},"geometry":{"type":"Polygon","coordinates":[[[101.6027,6.7692],[101.6035,6.7663],[101.6043,6.7652],[101.6054,6.7646],[101.6054,6.763],[101.6068,6.7603],[101.6076,6.7597],[101.6076,6.7586],[101.6084,6.7578],[101.6086,6.7565],[101.6102,6.7548],[101.61,6.7543],[101.6105,6.7543],[101.6105,6.7529],[101.6116,6.7508],[101.6121,6.7508],[101.6129,6.7497],[101.614,6.7464],[101.6151,6.745],[101.6156,6.7431],[101.6161,6.7429],[101.6167,6.7407],[101.6175,6.7402],[101.6186,6.7374],[101.6191,6.7372],[101.6199,6.7347],[101.621,6.7336],[101.6231,6.7333],[101.6229,6.7339],[101.621,6.7342],[101.621,6.7347],[101.6204,6.735],[101.6199,6.7369],[101.6194,6.7372],[101.6194,6.7385],[101.6188,6.7385],[101.6188,6.7393],[101.618,6.7402],[101.618,6.7412],[101.6172,6.7429],[101.6159,6.7442],[101.6156,6.7456],[101.6148,6.7461],[101.614,6.7486],[101.6132,6.7494],[101.6127,6.7516],[101.6119,6.7524],[101.6119,6.7535],[101.6116,6.754],[101.6111,6.754],[101.6108,6.7556],[101.6092,6.7578],[101.6089,6.7592],[101.6084,6.7592],[101.6084,6.7603],[101.6076,6.7611],[101.6068,6.7633],[101.6062,6.7635],[101.6054,6.7654],[101.6049,6.7654],[101.6046,6.7668],[101.6027,6.7692]]]}},{"type":"Feature","properties":{"kind":"seasonal","area_km2":0.394,"date":"2026-10-09"},"geometry":{"type":"Polygon","coordinates":[[[101.2887,6.6746],[101.2887,6.6727],[101.2895,6.6724],[101.2893,6.6708],[101.2901,6.6708],[101.2903,6.6699],[101.2909,6.6699],[101.2906,6.6713],[101.2914,6.6721],[101.2922,6.6716],[101.2922,6.6705],[101.2936,6.6705],[101.293,6.6691],[101.293,6.6661],[101.2949,6.6661],[101.2957,6.6656],[101.2957,6.665],[101.2966,6.665],[101.2966,6.6677],[101.2963,6.6688],[101.2958,6.6691],[101.296,6.6707],[101.2955,6.6721],[101.2947,6.6726],[101.295,6.674],[101.2933,6.6743],[101.2939,6.6732],[101.2944,6.6732],[101.2944,6.6726],[101.2939,6.6726],[101.2936,6.6716],[101.2931,6.6716],[101.2928,6.6726],[101.2917,6.6724],[101.292,6.674],[101.2909,6.6745],[101.2887,6.6746]]]}},{"type":"Feature","properties":{"kind":"seasonal","area_km2":0.324,"date":"2026-10-09"},"geometry":{"type":"Polygon","coordinates":[[[101.4372,6.5817],[101.4366,6.5806],[101.4345,6.5806],[101.4336,6.579],[101.4336,6.5781],[101.4344,6.5784],[101.4344,6.5773],[101.435,6.5768],[101.4352,6.5754],[101.4363,6.5752],[101.4363,6.5773],[101.438,6.5776],[101.4396,6.5759],[101.4404,6.5759],[101.4404,6.5751],[101.4409,6.5751],[101.4412,6.5743],[101.4431,6.5746],[101.4431,6.5754],[101.4417,6.5759],[101.4409,6.5768],[101.4409,6.5773],[101.4401,6.5781],[101.4396,6.5781],[101.4396,6.5787],[101.4377,6.5803],[101.438,6.5811],[101.4393,6.5816],[101.4372,6.5817]],[[101.4366,6.5803],[101.4369,6.5806],[101.4369,6.5803],[101.4366,6.5803]],[[101.4355,6.58],[101.4363,6.5803],[101.4366,6.5795],[101.4355,6.58]],[[101.4369,6.58],[101.4372,6.5803],[101.4372,6.58],[101.4369,6.58]]]}},{"type":"Feature","properties":{"kind":"seasonal","area_km2":0.314,"date":"2026-10-09"},"geometry":{"type":"Polygon","coordinates":[[[101.4508,6.6003],[101.4495,6.5995],[101.4495,6.5984],[101.45,6.5968],[101.4513,6.5968],[101.4516,6.5973],[101.4524,6.5973],[101.4524,6.5968],[101.4516,6.5968],[101.4513,6.5957],[101.4516,6.5927],[101.4535,6.5927],[101.454,6.5932],[101.4548,6.5932],[101.4546,6.5951],[101.454,6.5946],[101.4543,6.5938],[101.4538,6.5935],[101.4521,6.5935],[101.4516,6.5941],[101.4516,6.5951],[101.4519,6.596],[101.4535,6.5968],[101.4546,6.5965],[101.4546,6.5954],[101.4554,6.5957],[101.4554,6.5962],[101.4568,6.597],[101.4568,6.5976],[101.456,6.5981],[101.4562,6.5992],[101.4549,6.5989],[101.4543,6.6],[101.4522,6.5997],[101.4519,6.6003],[101.4508,6.6003]],[[101.4527,6.5992],[101.453,6.5995],[101.453,6.5992],[101.4527,6.5992]],[[101.453,6.5992],[101.4535,6.5989],[101.4535,6.5984],[101.453,6.5987],[101.453,6.5992]]]}},{"type":"Feature","properties":{"kind":"seasonal","area_km2":0.259,"date":"2026-10-09"},"geometry":{"type":"Polygon","coordinates":[[[101.4441,6.8867],[101.4438,6.8861],[101.4447,6.8861],[101.4455,6.885],[101.4468,6.8853],[101.4465,6.8845],[101.4509,6.8845],[101.4509,6.8839],[101.4531,6.8836],[101.4533,6.8831],[101.4547,6.8831],[101.4552,6.8825],[101.4566,6.8825],[101.4571,6.8822],[101.4566,6.8817],[101.4579,6.8817],[101.4585,6.8806],[101.4596,6.8806],[101.4604,6.8798],[101.4647,6.8798],[101.4639,6.8806],[101.459,6.882],[101.4585,6.8825],[101.4577,6.8825],[101.4577,6.8831],[101.456,6.8833],[101.4555,6.8839],[101.4531,6.8839],[101.4512,6.8844],[101.4506,6.885],[101.4479,6.8853],[101.4474,6.8858],[101.4466,6.8858],[101.4466,6.8864],[101.4441,6.8867]],[[101.446,6.8853],[101.4463,6.8856],[101.4463,6.8853],[101.446,6.8853]],[[101.4582,6.8817],[101.4587,6.8817],[101.4587,6.8812],[101.4585,6.8812],[101.4582,6.8817]],[[101.4606,6.8801],[101.4609,6.8803],[101.4609,6.8801],[101.4606,6.8801]]]}},{"type":"Feature","properties":{"kind":"seasonal","area_km2":0.247,"date":"2026-10-09"},"geometry":{"type":"Polygon","coordinates":[[[101.152,6.8607],[101.1515,6.8599],[101.1425,6.8599],[101.1423,6.8594],[101.1477,6.8593],[101.1518,6.8588],[101.1548,6.8593],[101.1618,6.8593],[101.1624,6.8598],[101.1632,6.8598],[101.1596,6.8604],[101.152,6.8607]]]}},{"type":"Feature","properties":{"kind":"seasonal","area_km2":0.226,"date":"2026-10-09"},"geometry":{"type":"Polygon","coordinates":[[[101.8246,6.3934],[101.8238,6.391],[101.8238,6.3885],[101.8243,6.3882],[101.8248,6.3866],[101.8245,6.3836],[101.8251,6.3823],[101.8251,6.379],[101.8253,6.3779],[101.8264,6.3771],[101.8267,6.3744],[101.8275,6.3733],[101.8272,6.3712],[101.8274,6.369],[101.8283,6.3725],[101.8275,6.376],[101.8269,6.3768],[101.827,6.3785],[101.8261,6.3788],[101.8256,6.3804],[101.8256,6.3831],[101.8251,6.3836],[101.8254,6.3872],[101.8248,6.3882],[101.8246,6.3934]]]}},{"type":"Feature","properties":{"kind":"seasonal","area_km2":0.221,"date":"2026-10-09"},"geometry":{"type":"Polygon","coordinates":[[[101.4045,6.8917],[101.4048,6.8912],[101.4043,6.8912],[101.4043,6.8915],[101.4026,6.8912],[101.408,6.889],[101.414,6.889],[101.4146,6.8884],[101.4165,6.8882],[101.4178,6.8884],[101.4148,6.8892],[101.4148,6.8898],[101.4137,6.8901],[101.4045,6.8917]],[[101.404,6.8909],[101.4043,6.8912],[101.4043,6.8909],[101.404,6.8909]],[[101.4051,6.8909],[101.4056,6.8912],[101.4056,6.8909],[101.4051,6.8909]],[[101.4067,6.8898],[101.407,6.8901],[101.407,6.8898],[101.4067,6.8898]],[[101.408,6.8898],[101.4083,6.8901],[101.4083,6.8898],[101.408,6.8898]],[[101.4097,6.8895],[101.4102,6.8898],[101.4102,6.8895],[101.4097,6.8895]]]}},{"type":"Feature","properties":{"kind":"seasonal","area_km2":0.207,"date":"2026-10-09"},"geometry":{"type":"Polygon","coordinates":[[[101.785,6.4904],[101.785,6.4898],[101.7858,6.4893],[101.7856,6.489],[101.7858,6.4877],[101.7877,6.4858],[101.7882,6.4833],[101.7891,6.4828],[101.7899,6.4828],[101.7904,6.4833],[101.7912,6.4822],[101.7912,6.4814],[101.7923,6.4806],[101.7931,6.479],[101.7942,6.4781],[101.7942,6.4776],[101.7947,6.4776],[101.7961,6.4762],[101.7963,6.4751],[101.7971,6.4746],[101.7966,6.4762],[101.7958,6.4768],[101.7955,6.4776],[101.7947,6.4779],[101.7947,6.4784],[101.7934,6.4798],[101.7934,6.4806],[101.7923,6.4811],[101.7923,6.4819],[101.7912,6.4825],[101.7904,6.4841],[101.7899,6.4841],[101.7893,6.486],[101.7883,6.4866],[101.7883,6.4871],[101.7869,6.4882],[101.7869,6.489],[101.785,6.4904]],[[101.7858,6.4888],[101.7861,6.489],[101.7861,6.4888],[101.7858,6.4888]],[[101.7861,6.4885],[101.7864,6.4888],[101.7864,6.4885],[101.7861,6.4885]],[[101.7864,6.4879],[101.7866,6.4885],[101.7866,6.4879],[101.7864,6.4879]],[[101.7866,6.4877],[101.7869,6.4879],[101.7869,6.4877],[101.7866,6.4877]],[[101.7874,6.4866],[101.7877,6.4868],[101.7877,6.4866],[101.7874,6.4866]],[[101.7877,6.4863],[101.788,6.4866],[101.788,6.4863],[101.7877,6.4863]],[[101.788,6.4858],[101.7883,6.486],[101.7883,6.4858],[101.788,6.4858]],[[101.7883,6.4855],[101.7885,6.4858],[101.7885,6.4855],[101.7883,6.4855]],[[101.7885,6.4852],[101.7888,6.4855],[101.7888,6.4852],[101.7885,6.4852]],[[101.7888,6.4847],[101.7891,6.4849],[101.7891,6.4847],[101.7888,6.4847]],[[101.7891,6.4844],[101.7893,6.4847],[101.7893,6.4844],[101.7891,6.4844]],[[101.7893,6.4839],[101.7896,6.4844],[101.7896,6.4839],[101.7893,6.4839]],[[101.7896,6.4836],[101.7899,6.4839],[101.7899,6.4836],[101.7896,6.4836]],[[101.7899,6.4833],[101.7901,6.4836],[101.7901,6.4833],[101.7899,6.4833]]]}},{"type":"Feature","properties":{"kind":"seasonal","area_km2":0.196,"date":"2026-10-09"},"geometry":{"type":"Polygon","coordinates":[[[101.6724,6.6588],[101.6724,6.6569],[101.6729,6.6569],[101.6734,6.6542],[101.6742,6.6539],[101.6756,6.6515],[101.6756,6.6501],[101.6775,6.6479],[101.6775,6.6474],[101.6785,6.6471],[101.6791,6.6463],[101.6791,6.6471],[101.6796,6.6471],[101.6796,6.6463],[101.6804,6.6463],[101.6799,6.6474],[101.6794,6.6474],[101.6791,6.6487],[101.6775,6.6506],[101.6753,6.6547],[101.6742,6.6547],[101.674,6.6558],[101.6737,6.6558],[101.6732,6.6566],[101.6734,6.6574],[101.6724,6.6588]],[[101.6734,6.6555],[101.6737,6.6558],[101.6737,6.6555],[101.6734,6.6555]],[[101.6748,6.6539],[101.6753,6.6536],[101.6753,6.6531],[101.6748,6.6534],[101.6748,6.6539]],[[101.6753,6.6525],[101.6756,6.6531],[101.6756,6.6525],[101.6753,6.6525]],[[101.6756,6.6523],[101.6759,6.6525],[101.6759,6.6523],[101.6756,6.6523]],[[101.6759,6.6517],[101.6761,6.652],[101.6761,6.6517],[101.6759,6.6517]],[[101.6761,6.6506],[101.6764,6.6512],[101.6764,6.6506],[101.6761,6.6506]],[[101.6764,6.6501],[101.6767,6.6506],[101.6767,6.6501],[101.6764,6.6501]],[[101.6767,6.6501],[101.6772,6.6501],[101.6772,6.6496],[101.678,6.6496],[101.678,6.649],[101.6769,6.6493],[101.6767,6.6501]],[[101.678,6.6482],[101.6783,6.6485],[101.6783,6.6482],[101.678,6.6482]]]}},{"type":"Feature","properties":{"kind":"seasonal","area_km2":0.17,"date":"2026-10-09"},"geometry":{"type":"Polygon","coordinates":[[[101.0972,6.859],[101.0877,6.8591],[101.0877,6.8582],[101.0904,6.8569],[101.0937,6.8569],[101.0942,6.8571],[101.0942,6.8588],[101.0967,6.8585],[101.0972,6.859]],[[101.0907,6.8585],[101.0913,6.8585],[101.0915,6.858],[101.0904,6.8577],[101.0907,6.8585]]]}},{"type":"Feature","properties":{"kind":"seasonal","area_km2":0.163,"date":"2026-10-09"},"geometry":{"type":"Polygon","coordinates":[[[101.8981,6.1547],[101.8975,6.1542],[101.898,6.1499],[101.8975,6.1472],[101.8969,6.1469],[101.8969,6.1458],[101.8977,6.1458],[101.8983,6.1466],[101.8991,6.1466],[101.9013,6.1488],[101.9013,6.1498],[101.9007,6.1498],[101.8999,6.1509],[101.8991,6.1545],[101.8981,6.1547]],[[101.8986,6.1534],[101.8989,6.1536],[101.8989,6.1534],[101.8986,6.1534]],[[101.8983,6.1531],[101.8986,6.1534],[101.8986,6.1531],[101.8983,6.1531]],[[101.8986,6.1531],[101.8991,6.1526],[101.8991,6.1512],[101.9002,6.1498],[101.8999,6.1488],[101.8994,6.1485],[101.8994,6.1477],[101.8988,6.1474],[101.8986,6.1474],[101.8986,6.148],[101.898,6.148],[101.8986,6.1485],[101.8986,6.1531]],[[101.898,6.1471],[101.8986,6.1474],[101.8986,6.1471],[101.898,6.1471]]]}},{"type":"Feature","properties":{"kind":"seasonal","area_km2":0.151,"date":"2026-10-09"},"geometry":{"type":"Polygon","coordinates":[[[101.9289,6.3448],[101.9286,6.3443],[101.9276,6.344],[101.9275,6.3429],[101.9284,6.3427],[101.9284,6.3421],[101.93,6.3402],[101.9308,6.3402],[101.9311,6.3408],[101.9327,6.3402],[101.9327,6.3413],[101.9319,6.3413],[101.9321,6.3427],[101.9294,6.3427],[101.9297,6.3432],[101.9308,6.3429],[101.9311,6.344],[101.9303,6.3448],[101.9289,6.3448]],[[101.9292,6.3435],[101.9297,6.3437],[101.9297,6.3435],[101.9292,6.3435]],[[101.9302,6.3421],[101.9305,6.3416],[101.9297,6.3416],[101.9297,6.3419],[101.9302,6.3421]],[[101.9311,6.341],[101.9313,6.3413],[101.9313,6.341],[101.9311,6.341]]]}},{"type":"Feature","properties":{"kind":"seasonal","area_km2":0.124,"date":"2026-10-09"},"geometry":{"type":"Polygon","coordinates":[[[101.4348,6.5933],[101.4345,6.5928],[101.4318,6.5923],[101.4318,6.5917],[101.4307,6.5912],[101.4307,6.5901],[101.4318,6.5898],[101.4323,6.5906],[101.434,6.5906],[101.4353,6.5909],[101.4356,6.5914],[101.4367,6.5914],[101.4367,6.5922],[101.4356,6.5925],[101.4356,6.5933],[101.4348,6.5933]],[[101.4329,6.592],[101.4334,6.592],[101.4337,6.5914],[101.4329,6.5914],[101.4329,6.592]]]}},{"type":"Feature","properties":{"kind":"seasonal","area_km2":0.123,"date":"2026-10-09"},"geometry":{"type":"Polygon","coordinates":[[[101.4267,6.5958],[101.4264,6.5953],[101.4277,6.5955],[101.428,6.5939],[101.4258,6.5936],[101.4253,6.5939],[101.425,6.5953],[101.4245,6.5953],[101.4247,6.5926],[101.4264,6.5923],[101.4269,6.5931],[101.4283,6.5931],[101.4288,6.5925],[101.4304,6.5928],[101.4302,6.5942],[101.4294,6.5942],[101.4283,6.5958],[101.4267,6.5958]]]}},{"type":"Feature","properties":{"kind":"seasonal","area_km2":0.123,"date":"2026-10-09"},"geometry":{"type":"Polygon","coordinates":[[[101.4152,6.5823],[101.4144,6.581],[101.4133,6.5807],[101.4136,6.5782],[101.4149,6.5782],[101.4157,6.579],[101.4168,6.5793],[101.4168,6.5809],[101.4163,6.5812],[101.4163,6.582],[101.4152,6.5823]]]}},{"type":"Feature","properties":{"kind":"seasonal","area_km2":0.106,"date":"2026-10-09"},"geometry":{"type":"Polygon","coordinates":[[[101.8959,6.3995],[101.8959,6.3987],[101.8967,6.3979],[101.8967,6.3973],[101.8975,6.3965],[101.898,6.3965],[101.8986,6.3954],[101.8994,6.3949],[101.8994,6.3943],[101.901,6.393],[101.901,6.3924],[101.9018,6.3922],[101.9021,6.3911],[101.905,6.3881],[101.9058,6.3864],[101.9064,6.3864],[101.9075,6.3853],[101.9075,6.3848],[101.908,6.3848],[101.908,6.3856],[101.9072,6.3859],[101.9056,6.3875],[101.905,6.3889],[101.9045,6.3889],[101.9037,6.3897],[101.9037,6.3902],[101.9026,6.3911],[101.9021,6.3924],[101.9005,6.3938],[101.9005,6.3943],[101.8989,6.3957],[101.8989,6.3962],[101.8975,6.3973],[101.8975,6.3979],[101.8964,6.3984],[101.8959,6.3995]]]}}]}
