{"type":"FeatureCollection","properties":{"v":3,"id":"t101_12","name":"ระยอง · ชลบุรี · จันทบุรี","aoi":[101.0,12.51,102.0,13.0],"date":"2026-10-09","dates":["2026-10-09"],"baseline_years":3,"has_seasonal":true,"totals":{"flood_high":0.0,"flood_low":3.6,"seasonal":11.8},"provinces":[{"name":"ระยอง","zone":"th-e","flood_high":0.0,"flood_low":3.5,"seasonal":11.3},{"name":"ชลบุรี","zone":"th-e","flood_high":0.0,"flood_low":0.1,"seasonal":0.0},{"name":"จันทบุรี","zone":"th-e","flood_high":0.0,"flood_low":0.0,"seasonal":0.5}],"scenes":{"2026-10-09":2},"baseline_dates":["2025-10-08","2024-10-07","2023-10-10"],"threshold_db":-15.0,"auto":true,"source":"Sentinel-1 RTC (Copernicus/ESA) via Microsoft Planetary Computer; JRC Global Surface Water; Copernicus DEM","method":"ChatGeo v3: Otsu threshold on VV dB; minus JRC permanent water and slope > 5 deg; unusual = water not present in most of the previous 3 years (same season)","added":"2026-10-10T16:37+07:00"},"features":[{"type":"Feature","properties":{"kind":"flood","area_km2":0.369,"conf":"low","date":"2026-10-09"},"geometry":{"type":"Polygon","coordinates":[[[101.2568,12.8513],[101.257,12.8502],[101.2557,12.8499],[101.2565,12.8494],[101.2565,12.8485],[101.2559,12.8486],[101.2554,12.8475],[101.2553,12.8458],[101.2559,12.8456],[101.2567,12.8431],[101.2572,12.8426],[101.2581,12.8426],[101.2578,12.8445],[101.2586,12.8445],[101.2592,12.8458],[101.26,12.8461],[101.2601,12.8472],[101.2612,12.848],[101.2623,12.8474],[101.2625,12.848],[101.2617,12.848],[101.2623,12.8482],[101.262,12.849],[101.2626,12.8496],[101.2631,12.8496],[101.2634,12.849],[101.2648,12.8493],[101.2651,12.8501],[101.2648,12.8504],[101.2637,12.8501],[101.2634,12.8507],[101.2615,12.8507],[101.2609,12.8504],[101.2609,12.8496],[101.2617,12.8493],[101.2606,12.8488],[101.2601,12.8496],[101.2601,12.851],[101.2593,12.851],[101.259,12.8493],[101.2584,12.8512],[101.2568,12.8513]],[[101.2639,12.8498],[101.2642,12.8501],[101.2642,12.8498],[101.2639,12.8498]],[[101.2576,12.8496],[101.2579,12.8499],[101.2579,12.8496],[101.2576,12.8496]],[[101.2642,12.8496],[101.2645,12.8498],[101.2645,12.8496],[101.2642,12.8496]],[[101.2581,12.8493],[101.2587,12.8493],[101.2587,12.8483],[101.2598,12.8482],[101.2598,12.8477],[101.2589,12.8474],[101.2589,12.8458],[101.2578,12.8464],[101.2581,12.8493]],[[101.2565,12.8461],[101.2576,12.8464],[101.2576,12.8461],[101.2565,12.8461]],[[101.2573,12.8447],[101.2575,12.845],[101.2575,12.8447],[101.2573,12.8447]],[[101.2564,12.8445],[101.2567,12.8447],[101.2567,12.8445],[101.2564,12.8445]]]}},{"type":"Feature","properties":{"kind":"flood","area_km2":0.32,"conf":"low","date":"2026-10-09"},"geometry":{"type":"Polygon","coordinates":[[[101.2653,12.8482],[101.2634,12.8474],[101.2634,12.8463],[101.2625,12.8463],[101.2631,12.8466],[101.2631,12.8471],[101.2625,12.8474],[101.2623,12.8463],[101.2614,12.8458],[101.2623,12.8458],[101.2628,12.8444],[101.262,12.8452],[101.2614,12.8453],[101.2611,12.8444],[101.2611,12.8434],[101.2614,12.8428],[101.2619,12.8428],[101.2619,12.8423],[101.2636,12.8431],[101.2636,12.8417],[101.2647,12.842],[101.2644,12.8414],[101.2633,12.8412],[101.2633,12.8406],[101.2641,12.8398],[101.2664,12.8414],[101.2672,12.8414],[101.2672,12.8403],[101.2686,12.8406],[101.2686,12.8419],[101.2672,12.8428],[101.2664,12.8444],[101.2656,12.8441],[101.2642,12.8447],[101.2645,12.8452],[101.2658,12.8452],[101.2645,12.8458],[101.2647,12.8471],[101.2661,12.8479],[101.2653,12.8482]],[[101.2639,12.8444],[101.2642,12.8447],[101.2642,12.8444],[101.2639,12.8444]],[[101.2636,12.8441],[101.2639,12.8444],[101.2639,12.8441],[101.2636,12.8441]],[[101.2622,12.8431],[101.2625,12.8436],[101.2625,12.8431],[101.2622,12.8431]],[[101.2642,12.8433],[101.2644,12.8436],[101.2644,12.8433],[101.2642,12.8433]],[[101.2619,12.8428],[101.2622,12.8431],[101.2622,12.8428],[101.2619,12.8428]]]}},{"type":"Feature","properties":{"kind":"flood","area_km2":0.211,"conf":"low","date":"2026-10-09"},"geometry":{"type":"Polygon","coordinates":[[[101.2661,12.8401],[101.2652,12.8384],[101.2672,12.8387],[101.2671,12.8357],[101.2682,12.8357],[101.2682,12.8362],[101.2688,12.8362],[101.2688,12.8373],[101.2694,12.8373],[101.2707,12.836],[101.2707,12.8354],[101.2713,12.8359],[101.2729,12.8351],[101.2727,12.8392],[101.2708,12.8392],[101.2702,12.8381],[101.2694,12.8379],[101.2685,12.8387],[101.2672,12.839],[101.2669,12.8401],[101.2661,12.8401]],[[101.2707,12.8381],[101.2713,12.8384],[101.2713,12.8381],[101.2707,12.8381]],[[101.2702,12.8379],[101.2707,12.8381],[101.2707,12.8379],[101.2702,12.8379]],[[101.2716,12.8368],[101.2718,12.837],[101.2718,12.8368],[101.2716,12.8368]],[[101.2716,12.8362],[101.2718,12.8365],[101.2718,12.8362],[101.2716,12.8362]],[[101.2713,12.8359],[101.2716,12.8362],[101.2716,12.8359],[101.2713,12.8359]]]}},{"type":"Feature","properties":{"kind":"flood","area_km2":0.204,"conf":"low","date":"2026-10-09"},"geometry":{"type":"Polygon","coordinates":[[[101.1665,12.9296],[101.1654,12.9287],[101.1651,12.9271],[101.1665,12.9258],[101.1687,12.926],[101.1687,12.9247],[101.1695,12.9246],[101.1695,12.9252],[101.1712,12.9271],[101.1707,12.9271],[101.1704,12.9282],[101.1699,12.9282],[101.1696,12.9287],[101.1679,12.9295],[101.1665,12.9296]],[[101.1671,12.9287],[101.1679,12.929],[101.1679,12.9287],[101.1671,12.9287]],[[101.1687,12.9266],[101.169,12.9268],[101.169,12.9266],[101.1687,12.9266]]]}},{"type":"Feature","properties":{"kind":"flood","area_km2":0.202,"conf":"low","date":"2026-10-09"},"geometry":{"type":"Polygon","coordinates":[[[101.2413,12.8465],[101.2412,12.8454],[101.2401,12.8454],[101.2401,12.8446],[101.2407,12.8446],[101.241,12.8441],[101.2415,12.8443],[101.2418,12.843],[101.2443,12.8432],[101.2445,12.8427],[101.247,12.8427],[101.247,12.8437],[101.2457,12.8438],[101.2465,12.844],[101.2462,12.8448],[101.247,12.8446],[101.2471,12.8459],[101.2432,12.8462],[101.2435,12.8446],[101.2426,12.8446],[101.2424,12.8454],[101.2429,12.8454],[101.2429,12.8465],[101.2413,12.8465]],[[101.2415,12.8449],[101.2418,12.8451],[101.2418,12.8449],[101.2415,12.8449]],[[101.2451,12.8451],[101.2459,12.8451],[101.2459,12.8443],[101.2448,12.844],[101.2446,12.8446],[101.2451,12.8451]]]}},{"type":"Feature","properties":{"kind":"flood","area_km2":0.181,"conf":"low","date":"2026-10-09"},"geometry":{"type":"Polygon","coordinates":[[[101.1761,12.9506],[101.1764,12.9493],[101.1753,12.9474],[101.1755,12.9444],[101.1744,12.9441],[101.1741,12.9422],[101.1761,12.9425],[101.1761,12.9436],[101.1766,12.9438],[101.1769,12.9455],[101.1777,12.9465],[101.1778,12.9482],[101.1772,12.9487],[101.1778,12.9503],[101.1761,12.9506]]]}},{"type":"Feature","properties":{"kind":"flood","area_km2":0.176,"conf":"low","date":"2026-10-09"},"geometry":{"type":"Polygon","coordinates":[[[101.1631,12.9431],[101.1631,12.9423],[101.1642,12.942],[101.1644,12.9404],[101.1625,12.9399],[101.1616,12.9366],[101.1647,12.9369],[101.1655,12.9407],[101.1661,12.9409],[101.1661,12.9418],[101.1653,12.9418],[101.1647,12.9431],[101.1631,12.9431]]]}},{"type":"Feature","properties":{"kind":"flood","area_km2":0.15,"conf":"low","date":"2026-10-09"},"geometry":{"type":"Polygon","coordinates":[[[101.1789,12.9208],[101.1792,12.9191],[101.1797,12.9191],[101.18,12.9178],[101.1811,12.9167],[101.1814,12.9175],[101.1855,12.9172],[101.1855,12.9167],[101.1869,12.9166],[101.1874,12.9158],[101.1872,12.9177],[101.1861,12.9177],[101.1861,12.9183],[101.1828,12.918],[101.1822,12.9191],[101.1808,12.9191],[101.1806,12.9202],[101.1789,12.9208]]]}},{"type":"Feature","properties":{"kind":"flood","area_km2":0.15,"conf":"low","date":"2026-10-09"},"geometry":{"type":"Polygon","coordinates":[[[101.2288,12.8428],[101.2282,12.8407],[101.229,12.8401],[101.229,12.8388],[101.2307,12.8387],[101.2307,12.8401],[101.231,12.8395],[101.2318,12.8395],[101.2327,12.8422],[101.2288,12.8428]]]}},{"type":"Feature","properties":{"kind":"flood","area_km2":0.147,"conf":"low","date":"2026-10-09"},"geometry":{"type":"Polygon","coordinates":[[[101.5431,12.6467],[101.5431,12.6456],[101.542,12.6454],[101.542,12.6446],[101.5417,12.644],[101.5409,12.644],[101.5409,12.6432],[101.5417,12.6432],[101.5417,12.6437],[101.5439,12.6434],[101.5442,12.6424],[101.545,12.6424],[101.545,12.6413],[101.5472,12.6407],[101.5472,12.6415],[101.5461,12.6426],[101.5453,12.6426],[101.5456,12.644],[101.5445,12.6443],[101.5448,12.6462],[101.5431,12.6467]]]}},{"type":"Feature","properties":{"kind":"flood","area_km2":0.119,"conf":"low","date":"2026-10-09"},"geometry":{"type":"Polygon","coordinates":[[[101.0617,12.9526],[101.0611,12.9516],[101.0606,12.9516],[101.0606,12.9497],[101.0631,12.9499],[101.0633,12.9494],[101.0647,12.9491],[101.0647,12.9499],[101.0642,12.9502],[101.0645,12.9523],[101.0617,12.9526]],[[101.0622,12.9507],[101.0625,12.9513],[101.0628,12.9507],[101.0622,12.9507]],[[101.0633,12.9505],[101.0639,12.9504],[101.0639,12.9499],[101.0636,12.9499],[101.0633,12.9505]],[[101.0633,12.9496],[101.0636,12.9499],[101.0636,12.9496],[101.0633,12.9496]]]}},{"type":"Feature","properties":{"kind":"flood","area_km2":0.116,"conf":"low","date":"2026-10-09"},"geometry":{"type":"Polygon","coordinates":[[[101.6561,12.8093],[101.6558,12.8082],[101.6569,12.8082],[101.6574,12.8077],[101.6574,12.8071],[101.6563,12.806],[101.6563,12.8052],[101.6571,12.8052],[101.6571,12.8058],[101.658,12.8063],[101.6588,12.8055],[101.6596,12.8055],[101.6602,12.806],[101.6602,12.8071],[101.6588,12.8074],[101.6588,12.8093],[101.6561,12.8093]],[[101.6588,12.8068],[101.6591,12.8071],[101.6591,12.8068],[101.6588,12.8068]],[[101.6588,12.8063],[101.6591,12.8066],[101.6591,12.8063],[101.6588,12.8063]]]}},{"type":"Feature","properties":{"kind":"flood","area_km2":0.112,"conf":"low","date":"2026-10-09"},"geometry":{"type":"Polygon","coordinates":[[[101.1689,12.9135],[101.1686,12.9119],[101.1736,12.9119],[101.1744,12.9111],[101.1747,12.9119],[101.1755,12.9119],[101.1752,12.9124],[101.1741,12.9124],[101.1725,12.9135],[101.1689,12.9135]]]}},{"type":"Feature","properties":{"kind":"flood","area_km2":0.104,"conf":"low","date":"2026-10-09"},"geometry":{"type":"Polygon","coordinates":[[[101.2244,12.848],[101.2239,12.8472],[101.2216,12.8469],[101.2216,12.8453],[101.2233,12.8448],[101.2255,12.8447],[101.2258,12.8458],[101.2255,12.8464],[101.2247,12.8464],[101.225,12.848],[101.2244,12.848]]]}},{"type":"Feature","properties":{"kind":"flood","area_km2":0.095,"conf":"low","date":"2026-10-09"},"geometry":{"type":"Polygon","coordinates":[[[101.6808,12.7998],[101.6811,12.7979],[101.6805,12.7977],[101.6805,12.7966],[101.6822,12.7958],[101.6835,12.7957],[101.6844,12.7965],[101.6844,12.7974],[101.6825,12.7971],[101.6825,12.7979],[101.6819,12.7982],[101.6819,12.7998],[101.6808,12.7998]]]}},{"type":"Feature","properties":{"kind":"flood","area_km2":0.094,"conf":"low","date":"2026-10-09"},"geometry":{"type":"Polygon","coordinates":[[[101.2213,12.9619],[101.2213,12.9586],[101.2207,12.9581],[101.2207,12.9573],[101.2212,12.9567],[101.2223,12.9567],[101.2229,12.9594],[101.2224,12.96],[101.2221,12.9619],[101.2213,12.9619]]]}},{"type":"Feature","properties":{"kind":"flood","area_km2":0.081,"conf":"low","date":"2026-10-09"},"geometry":{"type":"Polygon","coordinates":[[[101.2636,12.8368],[101.2641,12.8355],[101.2655,12.8349],[101.2657,12.8341],[101.2682,12.8341],[101.2682,12.8352],[101.2669,12.8352],[101.2666,12.8365],[101.2636,12.8368]],[[101.266,12.8352],[101.2663,12.8354],[101.2663,12.8352],[101.266,12.8352]],[[101.2657,12.8349],[101.266,12.8352],[101.266,12.8349],[101.2657,12.8349]]]}},{"type":"Feature","properties":{"kind":"flood","area_km2":0.08,"conf":"low","date":"2026-10-09"},"geometry":{"type":"Polygon","coordinates":[[[101.251,12.9798],[101.2449,12.9799],[101.2449,12.979],[101.248,12.9782],[101.2491,12.9782],[101.2491,12.9795],[101.2505,12.9795],[101.2505,12.979],[101.2513,12.979],[101.251,12.9798]]]}},{"type":"Feature","properties":{"kind":"flood","area_km2":0.076,"conf":"low","date":"2026-10-09"},"geometry":{"type":"Polygon","coordinates":[[[101.2196,12.96],[101.2193,12.9595],[101.2177,12.9598],[101.2174,12.9587],[101.2179,12.9581],[101.219,12.9581],[101.2193,12.957],[101.2204,12.957],[101.2207,12.96],[101.2196,12.96]]]}},{"type":"Feature","properties":{"kind":"flood","area_km2":0.072,"conf":"low","date":"2026-10-09"},"geometry":{"type":"Polygon","coordinates":[[[101.2606,12.8417],[101.2605,12.8409],[101.2597,12.8407],[101.2605,12.8401],[101.2594,12.8398],[101.26,12.839],[101.2636,12.839],[101.263,12.8406],[101.2622,12.8401],[101.2619,12.8409],[101.2614,12.8406],[101.2614,12.8417],[101.2606,12.8417]],[[101.2608,12.8404],[101.2611,12.8398],[101.2605,12.8396],[101.2605,12.8401],[101.2608,12.8404]]]}},{"type":"Feature","properties":{"kind":"flood","area_km2":0.067,"conf":"low","date":"2026-10-09"},"geometry":{"type":"Polygon","coordinates":[[[101.2695,12.817],[101.2694,12.8156],[101.27,12.8154],[101.2705,12.8137],[101.2722,12.8137],[101.2714,12.817],[101.2711,12.8164],[101.2695,12.817]],[[101.2708,12.8159],[101.2711,12.8162],[101.2711,12.8159],[101.2708,12.8159]]]}},{"type":"Feature","properties":{"kind":"flood","area_km2":0.061,"conf":"low","date":"2026-10-09"},"geometry":{"type":"Polygon","coordinates":[[[101.1714,12.9436],[101.1708,12.9428],[101.1691,12.9428],[101.1691,12.942],[101.1702,12.942],[101.1705,12.9412],[101.1719,12.9409],[101.1722,12.9436],[101.1714,12.9436]]]}},{"type":"Feature","properties":{"kind":"flood","area_km2":0.061,"conf":"low","date":"2026-10-09"},"geometry":{"type":"Polygon","coordinates":[[[101.2468,12.8494],[101.2454,12.8481],[101.2454,12.8473],[101.2462,12.8465],[101.2471,12.8465],[101.2479,12.8481],[101.2479,12.8492],[101.2468,12.8494]]]}},{"type":"Feature","properties":{"kind":"flood","area_km2":0.061,"conf":"low","date":"2026-10-09"},"geometry":{"type":"Polygon","coordinates":[[[101.6747,12.7937],[101.6747,12.7929],[101.6755,12.7926],[101.6752,12.791],[101.676,12.7904],[101.6771,12.7904],[101.6766,12.7931],[101.6747,12.7937]]]}},{"type":"Feature","properties":{"kind":"flood","area_km2":0.058,"conf":"low","date":"2026-10-09"},"geometry":{"type":"Polygon","coordinates":[[[101.3211,12.6683],[101.3206,12.6666],[101.3197,12.6658],[101.32,12.6645],[101.3211,12.6645],[101.3211,12.6655],[101.3217,12.6655],[101.322,12.6682],[101.3211,12.6683]]]}},{"type":"Feature","properties":{"kind":"flood","area_km2":0.057,"conf":"low","date":"2026-10-09"},"geometry":{"type":"Polygon","coordinates":[[[101.2884,12.7447],[101.2884,12.7439],[101.2892,12.7431],[101.2892,12.742],[101.2912,12.742],[101.2912,12.7428],[101.2906,12.7428],[101.2909,12.7442],[101.2895,12.7439],[101.2892,12.7447],[101.2884,12.7447]]]}},{"type":"Feature","properties":{"kind":"flood","area_km2":0.054,"conf":"low","date":"2026-10-09"},"geometry":{"type":"Polygon","coordinates":[[[101.6906,12.8054],[101.6903,12.8041],[101.6919,12.8041],[101.6922,12.8035],[101.6933,12.8038],[101.6933,12.8054],[101.6906,12.8054]]]}},{"type":"Feature","properties":{"kind":"flood","area_km2":0.053,"conf":"low","date":"2026-10-09"},"geometry":{"type":"Polygon","coordinates":[[[101.0258,12.7889],[101.0231,12.7886],[101.0225,12.7881],[101.0225,12.7873],[101.0247,12.7875],[101.0247,12.7865],[101.0253,12.7864],[101.0258,12.7889]]]}},{"type":"Feature","properties":{"kind":"flood","area_km2":0.052,"conf":"low","date":"2026-10-09"},"geometry":{"type":"Polygon","coordinates":[[[101.5909,12.6771],[101.5898,12.6755],[101.5898,12.6742],[101.5901,12.6747],[101.5912,12.6744],[101.5915,12.675],[101.5923,12.675],[101.5923,12.676],[101.5915,12.6763],[101.5915,12.6771],[101.5909,12.6771]]]}},{"type":"Feature","properties":{"kind":"seasonal","area_km2":3.842,"date":"2026-10-09"},"geometry":{"type":"Polygon","coordinates":[[[101.3048,12.9923],[101.3042,12.9907],[101.3034,12.9899],[101.3023,12.9905],[101.3023,12.9913],[101.3014,12.9921],[101.2995,12.9921],[101.2981,12.991],[101.2973,12.9911],[101.2973,12.9902],[101.2981,12.9894],[101.2992,12.9891],[101.2989,12.9872],[101.2995,12.9872],[101.2997,12.9867],[101.2986,12.9864],[101.2986,12.9848],[101.2972,12.9843],[101.2972,12.9821],[101.298,12.981],[101.298,12.9783],[101.2985,12.9778],[101.2982,12.9745],[101.2991,12.974],[101.299,12.9723],[101.3002,12.9721],[101.3015,12.9699],[101.3026,12.9699],[101.3032,12.969],[101.304,12.969],[101.3043,12.968],[101.307,12.9677],[101.3089,12.9666],[101.3101,12.9665],[101.3101,12.9676],[101.3117,12.9679],[101.3109,12.9674],[101.3109,12.9665],[101.3117,12.9665],[101.3128,12.9654],[101.318,12.9646],[101.3203,12.9648],[101.3211,12.9667],[101.3217,12.967],[101.3217,12.9678],[101.3208,12.9686],[101.3209,12.9702],[101.32,12.9708],[101.3206,12.9716],[101.3201,12.9746],[101.3173,12.9779],[101.3162,12.9779],[101.3157,12.9784],[101.3157,12.9803],[101.3152,12.9806],[101.3152,12.9811],[101.3141,12.9811],[101.3143,12.979],[101.3135,12.9787],[101.3127,12.9795],[101.3127,12.9803],[101.3116,12.9809],[101.311,12.9831],[101.3102,12.9831],[101.3099,12.9825],[101.3074,12.9817],[101.3069,12.9809],[101.3036,12.9815],[101.3033,12.9829],[101.3038,12.9831],[101.3039,12.9837],[101.3052,12.9842],[101.305,12.9872],[101.3058,12.988],[101.3058,12.9891],[101.3069,12.9899],[101.307,12.9907],[101.3067,12.9912],[101.3061,12.9912],[101.3059,12.9923],[101.3048,12.9923]],[[101.3022,12.9894],[101.3031,12.9891],[101.3036,12.9875],[101.303,12.9859],[101.3019,12.9864],[101.3022,12.9894]],[[101.3013,12.9772],[101.3016,12.9775],[101.3016,12.9772],[101.3013,12.9772]],[[101.3016,12.9769],[101.3021,12.9772],[101.3021,12.9769],[101.3016,12.9769]],[[101.3101,12.9768],[101.3104,12.9771],[101.3104,12.9768],[101.3101,12.9768]],[[101.3126,12.9771],[101.3135,12.9771],[101.3135,12.9765],[101.3129,12.9765],[101.3126,12.9728],[101.3137,12.9725],[101.3137,12.9719],[101.3129,12.9719],[101.3129,12.9714],[101.3112,12.9717],[101.3117,12.9706],[101.3106,12.9706],[101.3104,12.9712],[101.3093,12.9709],[101.309,12.9714],[101.3084,12.9714],[101.3095,12.9717],[101.3093,12.9725],[101.3084,12.9728],[101.3085,12.9733],[101.309,12.9733],[101.3096,12.9744],[101.3087,12.9744],[101.3087,12.9741],[101.3085,12.9741],[101.3085,12.9747],[101.3096,12.9747],[101.3101,12.976],[101.3112,12.9758],[101.3124,12.9763],[101.3126,12.9771]],[[101.3005,12.9769],[101.3013,12.9769],[101.3013,12.9764],[101.3021,12.9764],[101.3021,12.9758],[101.3035,12.9758],[101.3035,12.9737],[101.3029,12.9737],[101.3029,12.9745],[101.3016,12.9745],[101.3013,12.975],[101.3007,12.975],[101.3002,12.9753],[101.2999,12.9761],[101.3005,12.9769]],[[101.3021,12.9769],[101.3027,12.9769],[101.3027,12.9766],[101.3021,12.9764],[101.3021,12.9769]],[[101.3104,12.9766],[101.3107,12.9768],[101.3107,12.9766],[101.3104,12.9766]],[[101.3107,12.9763],[101.311,12.9766],[101.311,12.9763],[101.3107,12.9763]],[[101.311,12.976],[101.3112,12.9763],[101.3112,12.976],[101.311,12.976]],[[101.306,12.975],[101.3063,12.9753],[101.3063,12.975],[101.306,12.975]],[[101.3005,12.9748],[101.3007,12.975],[101.3007,12.9748],[101.3005,12.9748]],[[101.3013,12.9742],[101.3016,12.9745],[101.3016,12.9742],[101.3013,12.9742]],[[101.3043,12.9739],[101.3049,12.9742],[101.3049,12.9739],[101.3043,12.9739]],[[101.3065,12.9739],[101.3068,12.9742],[101.3068,12.9739],[101.3065,12.9739]],[[101.3082,12.9742],[101.3085,12.9736],[101.3074,12.9736],[101.3074,12.9739],[101.3082,12.9742]],[[101.304,12.9734],[101.3046,12.9736],[101.3046,12.9734],[101.304,12.9734]],[[101.3062,12.9734],[101.3076,12.9733],[101.3076,12.9725],[101.3082,12.9725],[101.3082,12.972],[101.3062,12.972],[101.3062,12.9734]],[[101.3029,12.9731],[101.3032,12.9734],[101.3032,12.9731],[101.3029,12.9731]],[[101.3032,12.9728],[101.3035,12.9731],[101.3035,12.9728],[101.3032,12.9728]],[[101.3035,12.9726],[101.304,12.9728],[101.304,12.9726],[101.3035,12.9726]],[[101.3049,12.9726],[101.3051,12.9728],[101.3051,12.9726],[101.3049,12.9726]],[[101.304,12.9726],[101.3049,12.9726],[101.3048,12.972],[101.304,12.972],[101.304,12.9726]],[[101.3048,12.9715],[101.3051,12.972],[101.3051,12.9715],[101.3048,12.9715]],[[101.3026,12.9712],[101.3029,12.9718],[101.3029,12.9712],[101.3026,12.9712]],[[101.3068,12.9715],[101.3076,12.9717],[101.3076,12.9712],[101.3068,12.9715]],[[101.3051,12.9712],[101.3057,12.9715],[101.3057,12.9712],[101.3051,12.9712]],[[101.3057,12.9709],[101.3059,12.9712],[101.3059,12.9709],[101.3057,12.9709]],[[101.3123,12.9711],[101.3129,12.9711],[101.3129,12.9709],[101.3123,12.9706],[101.3123,12.9711]],[[101.3059,12.9709],[101.3068,12.9709],[101.307,12.9704],[101.3062,12.9704],[101.3059,12.9709]],[[101.3093,12.9706],[101.3101,12.9706],[101.3101,12.9698],[101.3098,12.9698],[101.3093,12.9706]],[[101.307,12.9701],[101.3079,12.9704],[101.3079,12.9701],[101.307,12.9701]],[[101.3112,12.9703],[101.3131,12.9703],[101.3131,12.9695],[101.3117,12.9695],[101.3117,12.9701],[101.3112,12.9703]],[[101.3076,12.9695],[101.3081,12.9701],[101.3081,12.9695],[101.3076,12.9695]],[[101.3134,12.9692],[101.3139,12.9698],[101.3139,12.9689],[101.3134,12.9692]],[[101.3106,12.969],[101.3109,12.9682],[101.3101,12.9682],[101.3106,12.9684],[101.3106,12.969]],[[101.309,12.9682],[101.3092,12.9684],[101.3092,12.9682],[101.309,12.9682]],[[101.3131,12.9681],[101.3134,12.9684],[101.3134,12.9681],[101.3131,12.9681]],[[101.3062,12.9679],[101.3067,12.9682],[101.3067,12.9679],[101.3062,12.9679]],[[101.3092,12.9679],[101.3095,12.9682],[101.3095,12.9679],[101.3092,12.9679]],[[101.3081,12.9676],[101.3087,12.9679],[101.3087,12.9676],[101.3081,12.9676]],[[101.3142,12.9676],[101.3153,12.9676],[101.3156,12.9668],[101.3148,12.9668],[101.3142,12.9676]],[[101.3112,12.9668],[101.3117,12.9671],[101.3117,12.9668],[101.3112,12.9668]],[[101.3186,12.9651],[101.3189,12.9659],[101.3189,12.9651],[101.3186,12.9651]]]}},{"type":"Feature","properties":{"kind":"seasonal","area_km2":1.46,"date":"2026-10-09"},"geometry":{"type":"Polygon","coordinates":[[[101.5616,13.0],[101.5569,12.9997],[101.5563,12.9957],[101.5558,12.9951],[101.5527,12.9957],[101.5533,12.9941],[101.5547,12.9943],[101.5549,12.9938],[101.5563,12.9932],[101.556,12.9913],[101.5568,12.9913],[101.5568,12.9908],[101.5563,12.9905],[101.5563,12.9894],[101.5571,12.9873],[101.5568,12.9867],[101.5554,12.9867],[101.5554,12.9857],[101.5559,12.9854],[101.5559,12.9848],[101.557,12.9848],[101.557,12.984],[101.5565,12.984],[101.5565,12.9835],[101.5556,12.9829],[101.5556,12.9821],[101.5565,12.9821],[101.557,12.9813],[101.5584,12.981],[101.5595,12.9786],[101.5633,12.9788],[101.5642,12.9793],[101.5664,12.9793],[101.5669,12.9799],[101.5692,12.9801],[101.5686,12.9807],[101.5683,12.9801],[101.5647,12.9802],[101.5639,12.9793],[101.562,12.9794],[101.5617,12.9802],[101.5611,12.9802],[101.5614,12.9815],[101.5609,12.9826],[101.5595,12.9832],[101.5592,12.9837],[101.5584,12.9837],[101.5593,12.984],[101.5593,12.9845],[101.5601,12.9843],[101.5604,12.9848],[101.5615,12.9851],[101.5615,12.9856],[101.5612,12.9853],[101.5604,12.9853],[101.5609,12.9859],[101.5601,12.9862],[101.5626,12.9864],[101.5623,12.9872],[101.5629,12.9875],[101.5612,12.9875],[101.5612,12.9902],[101.5618,12.9897],[101.5626,12.9897],[101.5624,12.9905],[101.5632,12.991],[101.5632,12.9921],[101.5643,12.9921],[101.5643,12.9932],[101.5649,12.9932],[101.5649,12.9937],[101.5643,12.9937],[101.5643,12.9934],[101.564,12.9934],[101.5641,12.9956],[101.5621,12.9956],[101.5627,12.9975],[101.5616,12.9989],[101.5616,13.0]],[[101.5613,12.9954],[101.5616,12.9956],[101.5616,12.9954],[101.5613,12.9954]],[[101.5619,12.9954],[101.5621,12.9956],[101.5621,12.9954],[101.5619,12.9954]],[[101.5635,12.9934],[101.564,12.9934],[101.564,12.9926],[101.5635,12.9926],[101.5635,12.9934]],[[101.5571,12.9913],[101.5577,12.9916],[101.5577,12.9913],[101.5571,12.9913]],[[101.5604,12.9883],[101.5607,12.9889],[101.5607,12.9883],[101.5604,12.9883]],[[101.5595,12.9854],[101.5598,12.9856],[101.5598,12.9853],[101.5595,12.9854]],[[101.5584,12.9851],[101.5587,12.9854],[101.5587,12.9851],[101.5584,12.9851]],[[101.5601,12.9851],[101.5604,12.9853],[101.5604,12.9851],[101.5601,12.9851]],[[101.5579,12.9835],[101.5581,12.9837],[101.5581,12.9835],[101.5579,12.9835]]]}},{"type":"Feature","properties":{"kind":"seasonal","area_km2":1.383,"date":"2026-10-09"},"geometry":{"type":"Polygon","coordinates":[[[101.5873,13.0],[101.5873,12.9986],[101.5879,12.9986],[101.5876,12.9975],[101.587,12.997],[101.5854,12.9973],[101.5848,12.9962],[101.5837,12.9965],[101.5837,12.996],[101.5854,12.9959],[101.5862,12.9954],[101.5873,12.9954],[101.5878,12.9948],[101.5878,12.994],[101.5873,12.994],[101.5864,12.9932],[101.5864,12.9927],[101.5872,12.9919],[101.5878,12.9918],[101.5878,12.9905],[101.5861,12.9908],[101.5867,12.9913],[101.5856,12.9916],[101.5856,12.9935],[101.5842,12.9932],[101.5842,12.9924],[101.5834,12.9924],[101.5828,12.9933],[101.5831,12.9938],[101.5823,12.9938],[101.5823,12.9927],[101.5814,12.9925],[101.5837,12.9922],[101.5842,12.9911],[101.585,12.9911],[101.5864,12.9897],[101.5864,12.9881],[101.5875,12.9867],[101.5875,12.9862],[101.5869,12.9862],[101.5874,12.9845],[101.5888,12.9845],[101.5894,12.9851],[101.5905,12.9872],[101.5908,12.9891],[101.5916,12.9899],[101.5922,12.9899],[101.5922,12.9907],[101.5917,12.991],[101.5917,12.9926],[101.5925,12.9932],[101.5925,12.9942],[101.592,12.9942],[101.5923,12.9959],[101.5947,12.9956],[101.595,12.9961],[101.5959,12.9961],[101.5969,12.9945],[101.5969,12.9918],[101.5964,12.9909],[101.5977,12.9909],[101.598,12.9928],[101.5986,12.9928],[101.5986,12.9939],[101.5997,12.995],[101.5997,12.9966],[101.6003,12.998],[101.6014,12.9985],[101.6036,12.9982],[101.6042,12.9995],[101.605,12.9995],[101.605,12.9976],[101.6061,12.9976],[101.6061,12.9993],[101.6056,12.9993],[101.6058,12.9998],[101.5934,12.9999],[101.5939,12.9983],[101.592,12.998],[101.5917,12.9991],[101.5906,12.9991],[101.5906,12.9981],[101.5895,12.9975],[101.5892,12.9981],[101.5887,12.9981],[101.589,12.9989],[101.5879,12.9992],[101.5873,13.0]],[[101.5854,12.9965],[101.5856,12.9967],[101.5856,12.9965],[101.5854,12.9965]],[[101.5876,12.9965],[101.5878,12.9967],[101.5878,12.9965],[101.5876,12.9965]],[[101.5884,12.9964],[101.589,12.9967],[101.589,12.9964],[101.5884,12.9964]],[[101.5876,12.9956],[101.5884,12.9959],[101.5884,12.9956],[101.5876,12.9956]],[[101.5873,12.9954],[101.5876,12.9956],[101.5876,12.9954],[101.5873,12.9954]],[[101.5884,12.9954],[101.5887,12.9956],[101.5887,12.9954],[101.5884,12.9954]],[[101.5892,12.994],[101.5906,12.9945],[101.5911,12.9937],[101.59,12.9929],[101.5881,12.9927],[101.5881,12.9932],[101.5889,12.9932],[101.5892,12.994]],[[101.5848,12.9924],[101.5853,12.9927],[101.5853,12.9924],[101.5848,12.9924]],[[101.5886,12.9905],[101.5889,12.9908],[101.5889,12.9905],[101.5886,12.9905]]]}},{"type":"Feature","properties":{"kind":"seasonal","area_km2":0.684,"date":"2026-10-09"},"geometry":{"type":"Polygon","coordinates":[[[101.5921,13.0045],[101.5921,13.004],[101.591,13.0035],[101.5909,13.0024],[101.5923,13.0024],[101.5929,13.0029],[101.5937,13.0026],[101.594,13.001],[101.5934,13.0005],[101.5942,13.0005],[101.5943,13.0013],[101.5954,13.0004],[101.6086,13.0003],[101.6086,13.0009],[101.6072,13.0009],[101.6064,13.0014],[101.6064,13.0044],[101.5921,13.0045]]]}},{"type":"Feature","properties":{"kind":"seasonal","area_km2":0.624,"date":"2026-10-09"},"geometry":{"type":"Polygon","coordinates":[[[101.2713,12.9596],[101.2699,12.958],[101.2693,12.958],[101.2691,12.9569],[101.2685,12.9566],[101.2685,12.9558],[101.269,12.9561],[101.2691,12.9566],[101.2696,12.9566],[101.2696,12.9577],[101.2718,12.9579],[101.2718,12.956],[101.2726,12.9552],[101.2732,12.9552],[101.2732,12.9539],[101.2748,12.9533],[101.2773,12.9546],[101.2779,12.9565],[101.2784,12.9565],[101.2782,12.9546],[101.2787,12.9535],[101.2795,12.953],[101.2795,12.9522],[101.2784,12.9525],[101.2776,12.9514],[101.2776,12.9506],[101.2762,12.9498],[101.2762,12.9487],[101.2767,12.9479],[101.2784,12.9473],[101.2784,12.9481],[101.2789,12.9487],[101.2798,12.9486],[101.2806,12.9484],[101.2808,12.947],[101.2817,12.9467],[101.2822,12.9475],[101.2822,12.9486],[101.2834,12.9486],[101.2836,12.9492],[101.2845,12.9491],[101.2859,12.95],[101.2878,12.9494],[101.2864,12.9483],[101.2861,12.9467],[101.2866,12.9461],[101.288,12.9459],[101.2889,12.9461],[101.2889,12.9469],[101.29,12.9477],[101.2902,12.9472],[101.2897,12.9467],[101.2897,12.945],[101.2905,12.9448],[101.2905,12.9442],[101.2911,12.9442],[101.2916,12.9434],[101.2905,12.9426],[101.2899,12.9431],[101.2894,12.9421],[101.2899,12.9421],[101.2899,12.9415],[101.2913,12.9412],[101.2913,12.9407],[101.2927,12.9401],[101.2924,12.9396],[101.2929,12.9393],[101.2924,12.9393],[101.2924,12.9385],[101.2935,12.9393],[101.2935,12.9409],[101.293,12.9409],[101.2927,12.9418],[101.291,12.9418],[101.2913,12.9423],[101.2919,12.942],[101.2924,12.9431],[101.2924,12.9445],[101.2913,12.9445],[101.2905,12.945],[101.2905,12.9467],[101.2916,12.9472],[101.2914,12.9488],[101.29,12.9488],[101.2883,12.9464],[101.2869,12.9467],[101.2869,12.9478],[101.2883,12.9488],[101.2883,12.9499],[101.2875,12.9499],[101.2872,12.9505],[101.2853,12.9505],[101.2839,12.9494],[101.2825,12.9494],[101.2817,12.9478],[101.2806,12.9495],[101.2787,12.9492],[101.2781,12.9484],[101.2775,12.9484],[101.2773,12.9495],[101.2781,12.95],[101.2784,12.9514],[101.2803,12.9519],[101.2801,12.9538],[101.2793,12.9549],[101.2793,12.9573],[101.2799,12.9592],[101.2787,12.959],[101.2787,12.9584],[101.2779,12.9579],[101.2773,12.9557],[101.2765,12.9549],[101.2746,12.9544],[101.274,12.9549],[101.274,12.9557],[101.2724,12.9566],[101.2724,12.9593],[101.2713,12.9596]],[[101.2913,12.9429],[101.2916,12.9431],[101.2916,12.9429],[101.2913,12.9429]],[[101.2919,12.9412],[101.2921,12.9415],[101.2921,12.9412],[101.2919,12.9412]]]}},{"type":"Feature","properties":{"kind":"seasonal","area_km2":0.379,"date":"2026-10-09"},"geometry":{"type":"Polygon","coordinates":[[[101.2565,12.9781],[101.256,12.977],[101.2549,12.9771],[101.2546,12.9757],[101.2537,12.9757],[101.2532,12.9765],[101.2521,12.9768],[101.2521,12.976],[101.2515,12.976],[101.2513,12.9752],[101.2512,12.9741],[101.2518,12.9736],[101.2529,12.9736],[101.2532,12.9744],[101.2551,12.9752],[101.2584,12.9751],[101.2584,12.9746],[101.2598,12.9746],[101.2598,12.974],[101.2604,12.9743],[101.2615,12.9721],[101.2626,12.9713],[101.2634,12.9713],[101.2634,12.9707],[101.2642,12.9705],[101.2645,12.9683],[101.265,12.968],[101.265,12.9675],[101.2672,12.9672],[101.2675,12.965],[101.2686,12.9645],[101.2683,12.9634],[101.2691,12.9634],[101.2694,12.965],[101.2683,12.9653],[101.268,12.9669],[101.2653,12.9688],[101.265,12.9707],[101.2639,12.9713],[101.2631,12.9726],[101.2617,12.9732],[101.2615,12.9751],[101.2609,12.9757],[101.2593,12.9754],[101.2576,12.977],[101.2576,12.9781],[101.2565,12.9781]]]}},{"type":"Feature","properties":{"kind":"seasonal","area_km2":0.352,"date":"2026-10-09"},"geometry":{"type":"Polygon","coordinates":[[[101.1908,12.8898],[101.1908,12.8892],[101.19,12.8892],[101.1888,12.8879],[101.1877,12.8874],[101.1877,12.8855],[101.1919,12.886],[101.1922,12.8865],[101.1927,12.886],[101.1927,12.8851],[101.191,12.883],[101.1907,12.8814],[101.1888,12.8803],[101.1888,12.8787],[101.1913,12.8787],[101.1915,12.8797],[101.1926,12.88],[101.1924,12.8808],[101.1935,12.8811],[101.1935,12.8827],[101.1954,12.8838],[101.1957,12.8851],[101.1974,12.887],[101.2002,12.8873],[101.201,12.8867],[101.201,12.8872],[101.1999,12.8878],[101.1977,12.8875],[101.1969,12.8867],[101.196,12.8867],[101.1957,12.8854],[101.1949,12.8849],[101.1949,12.8843],[101.1938,12.8838],[101.1938,12.8835],[101.1935,12.8835],[101.1935,12.8832],[101.1932,12.8832],[101.1932,12.883],[101.1929,12.883],[101.193,12.8849],[101.1935,12.8851],[101.1938,12.8862],[101.1935,12.887],[101.1894,12.8871],[101.1886,12.8863],[101.1891,12.8879],[101.1911,12.889],[101.1908,12.8898]],[[101.1921,12.8827],[101.1929,12.8827],[101.1921,12.8822],[101.1921,12.8827]]]}},{"type":"Feature","properties":{"kind":"seasonal","area_km2":0.3,"date":"2026-10-09"},"geometry":{"type":"Polygon","coordinates":[[[101.5567,13.0049],[101.5561,13.0044],[101.5561,13.0035],[101.5572,13.003],[101.5569,13.0003],[101.5616,13.0005],[101.5616,13.0013],[101.563,13.0013],[101.563,13.0018],[101.5622,13.0021],[101.5633,13.0027],[101.5636,13.0037],[101.563,13.0037],[101.563,13.004],[101.5628,13.004],[101.5625,13.0046],[101.5619,13.0043],[101.562,13.0048],[101.5567,13.0049]],[[101.5625,13.0038],[101.5628,13.004],[101.5628,13.0037],[101.5625,13.0038]],[[101.5625,13.0035],[101.563,13.0035],[101.563,13.0029],[101.5625,13.0029],[101.5625,13.0035]]]}},{"type":"Feature","properties":{"kind":"seasonal","area_km2":0.292,"date":"2026-10-09"},"geometry":{"type":"Polygon","coordinates":[[[101.3333,12.9728],[101.3333,12.9718],[101.3325,12.971],[101.3319,12.971],[101.3311,12.9699],[101.33,12.9699],[101.3294,12.9694],[101.3291,12.968],[101.3283,12.9675],[101.3283,12.9667],[101.3291,12.9664],[101.3297,12.9656],[101.331,12.9655],[101.3313,12.9666],[101.3327,12.9674],[101.3327,12.968],[101.3322,12.9682],[101.3325,12.9691],[101.333,12.9685],[101.3347,12.9682],[101.3347,12.9698],[101.3355,12.9707],[101.3355,12.9723],[101.335,12.9728],[101.3333,12.9728]],[[101.3308,12.9666],[101.3311,12.9669],[101.3311,12.9666],[101.3308,12.9666]]]}},{"type":"Feature","properties":{"kind":"seasonal","area_km2":0.25,"date":"2026-10-09"},"geometry":{"type":"Polygon","coordinates":[[[101.2392,12.9585],[101.2365,12.9582],[101.2362,12.9577],[101.2356,12.9582],[101.2342,12.9583],[101.234,12.9577],[101.2326,12.9572],[101.2339,12.9566],[101.2345,12.9574],[101.2375,12.9574],[101.2376,12.958],[101.2387,12.958],[101.2387,12.9574],[101.2398,12.9571],[101.2411,12.9552],[101.2431,12.9552],[101.2431,12.9547],[101.245,12.9525],[101.2466,12.9527],[101.2472,12.9506],[101.2488,12.9508],[101.2491,12.9503],[101.251,12.9503],[101.2521,12.9489],[101.2543,12.9486],[101.253,12.9497],[101.2516,12.95],[101.2516,12.9505],[101.2497,12.9514],[101.2488,12.9524],[101.2469,12.9527],[101.2442,12.9552],[101.2425,12.956],[101.2414,12.956],[101.2392,12.9585]]]}},{"type":"Feature","properties":{"kind":"seasonal","area_km2":0.211,"date":"2026-10-09"},"geometry":{"type":"Polygon","coordinates":[[[101.1716,12.9119],[101.1716,12.9111],[101.1727,12.9097],[101.1727,12.9086],[101.1744,12.9086],[101.1755,12.907],[101.1771,12.9072],[101.1793,12.9053],[101.184,12.9053],[101.1826,12.9061],[101.1813,12.9056],[101.1793,12.9059],[101.1777,12.9075],[101.176,12.9075],[101.176,12.9083],[101.1771,12.9089],[101.1763,12.9097],[101.1763,12.9102],[101.1755,12.9105],[101.175,12.9113],[101.1739,12.9113],[101.1736,12.9119],[101.1716,12.9119]]]}},{"type":"Feature","properties":{"kind":"seasonal","area_km2":0.194,"date":"2026-10-09"},"geometry":{"type":"Polygon","coordinates":[[[101.915,12.7014],[101.9152,12.7006],[101.9141,12.7004],[101.9141,12.7009],[101.9136,12.7009],[101.913,12.7001],[101.9116,12.6998],[101.9116,12.6988],[101.9144,12.6974],[101.9146,12.6968],[101.9155,12.6968],[101.9174,12.6976],[101.9174,12.6984],[101.9166,12.6995],[101.9166,12.7003],[101.9161,12.7006],[101.9161,12.7014],[101.915,12.7014]]]}},{"type":"Feature","properties":{"kind":"seasonal","area_km2":0.179,"date":"2026-10-09"},"geometry":{"type":"Polygon","coordinates":[[[101.2298,12.9548],[101.2292,12.9542],[101.2292,12.9534],[101.2309,12.9531],[101.2303,12.9526],[101.2295,12.9526],[101.2297,12.9507],[101.2284,12.9496],[101.2281,12.9483],[101.2297,12.9483],[101.2303,12.9491],[101.2317,12.9493],[101.232,12.9504],[101.2309,12.9504],[101.2309,12.9518],[101.2317,12.9526],[101.2331,12.9528],[101.2331,12.9537],[101.2336,12.9537],[101.2334,12.9542],[101.2312,12.9542],[101.2309,12.9548],[101.2298,12.9548]]]}},{"type":"Feature","properties":{"kind":"seasonal","area_km2":0.166,"date":"2026-10-09"},"geometry":{"type":"Polygon","coordinates":[[[101.0018,12.6885],[101.0002,12.6885],[101.0001,12.6793],[101.0009,12.6795],[101.001,12.6814],[101.0018,12.6817],[101.0021,12.6849],[101.0018,12.6885]]]}},{"type":"Feature","properties":{"kind":"seasonal","area_km2":0.16,"date":"2026-10-09"},"geometry":{"type":"Polygon","coordinates":[[[101.0165,12.796],[101.0162,12.7938],[101.0151,12.7917],[101.0145,12.7914],[101.0145,12.7903],[101.0153,12.789],[101.0162,12.789],[101.0167,12.7895],[101.0173,12.7927],[101.0179,12.7936],[101.0179,12.796],[101.0165,12.796]]]}},{"type":"Feature","properties":{"kind":"seasonal","area_km2":0.149,"date":"2026-10-09"},"geometry":{"type":"Polygon","coordinates":[[[101.2322,12.952],[101.232,12.9504],[101.2325,12.9504],[101.2325,12.9491],[101.2347,12.9488],[101.2347,12.9482],[101.2353,12.9482],[101.2355,12.9477],[101.2377,12.9471],[101.2383,12.946],[101.241,12.9455],[101.2416,12.9446],[101.2427,12.9444],[101.2427,12.9449],[101.2413,12.9463],[101.2394,12.9466],[101.2386,12.9474],[101.2377,12.9474],[101.2375,12.9482],[101.2369,12.9482],[101.2366,12.9488],[101.2347,12.949],[101.2347,12.9499],[101.2339,12.9504],[101.2339,12.9509],[101.2325,12.951],[101.2328,12.952],[101.2322,12.952]]]}},{"type":"Feature","properties":{"kind":"seasonal","area_km2":0.141,"date":"2026-10-09"},"geometry":{"type":"Polygon","coordinates":[[[101.8214,12.7274],[101.82,12.7268],[101.8186,12.7269],[101.8178,12.7261],[101.8181,12.7239],[101.8172,12.7228],[101.8167,12.7231],[101.8155,12.722],[101.8155,12.7198],[101.8169,12.7201],[101.8172,12.7223],[101.8186,12.7231],[101.8186,12.7236],[101.8192,12.7239],[101.8192,12.725],[101.82,12.7255],[101.82,12.726],[101.8214,12.7266],[101.8214,12.7274]],[[101.8183,12.7258],[101.8186,12.726],[101.8186,12.7258],[101.8183,12.7258]]]}},{"type":"Feature","properties":{"kind":"seasonal","area_km2":0.134,"date":"2026-10-09"},"geometry":{"type":"Polygon","coordinates":[[[101.1888,12.9126],[101.1902,12.9112],[101.191,12.9112],[101.1913,12.9106],[101.1926,12.9106],[101.1929,12.9095],[101.1937,12.9087],[101.1954,12.9087],[101.1954,12.9079],[101.1973,12.9068],[101.1995,12.907],[101.1998,12.9062],[101.2009,12.9054],[101.2025,12.9057],[101.2034,12.9067],[101.2031,12.9073],[101.2023,12.9062],[101.2012,12.9062],[101.1998,12.9073],[101.1968,12.9076],[101.1968,12.9082],[101.1962,12.9082],[101.1957,12.9092],[101.194,12.9095],[101.1929,12.9112],[101.1918,12.9112],[101.1907,12.9123],[101.1888,12.9126]]]}},{"type":"Feature","properties":{"kind":"seasonal","area_km2":0.12,"date":"2026-10-09"},"geometry":{"type":"Polygon","coordinates":[[[101.9511,12.7043],[101.9506,12.7037],[101.9478,12.7038],[101.9478,12.7032],[101.9486,12.7024],[101.9486,12.7],[101.9505,12.6997],[101.9522,12.7007],[101.9511,12.701],[101.9511,12.7016],[101.9506,12.7016],[101.9506,12.7024],[101.9498,12.7032],[101.9506,12.7035],[101.9511,12.7024],[101.9511,12.7037],[101.952,12.7037],[101.952,12.7043],[101.9511,12.7043]],[[101.9489,12.7021],[101.9495,12.7021],[101.9497,12.7016],[101.9489,12.7016],[101.9489,12.7021]],[[101.9506,12.701],[101.9511,12.701],[101.9514,12.7005],[101.9508,12.7005],[101.9506,12.701]],[[101.9489,12.7002],[101.9492,12.7005],[101.9492,12.7002],[101.9489,12.7002]]]}},{"type":"Feature","properties":{"kind":"seasonal","area_km2":0.118,"date":"2026-10-09"},"geometry":{"type":"Polygon","coordinates":[[[101.5778,12.9892],[101.5778,12.9887],[101.577,12.9887],[101.577,12.9879],[101.5764,12.9879],[101.5761,12.9857],[101.5753,12.9857],[101.5764,12.9852],[101.5761,12.9841],[101.5767,12.9836],[101.5764,12.9819],[101.5758,12.9814],[101.5764,12.9814],[101.5769,12.9822],[101.5783,12.9819],[101.5783,12.983],[101.5772,12.9838],[101.5772,12.9844],[101.5781,12.9846],[101.5781,12.986],[101.5772,12.9865],[101.5773,12.9879],[101.5784,12.9884],[101.5778,12.9892]]]}},{"type":"Feature","properties":{"kind":"seasonal","area_km2":0.116,"date":"2026-10-09"},"geometry":{"type":"Polygon","coordinates":[[[101.1238,12.9787],[101.123,12.9776],[101.1189,12.9777],[101.1189,12.9768],[101.1208,12.9757],[101.1241,12.9757],[101.1247,12.9787],[101.1238,12.9787]],[[101.1202,12.9774],[101.1208,12.9774],[101.1216,12.9766],[101.1197,12.9766],[101.1202,12.9774]],[[101.1219,12.9768],[101.1224,12.9768],[101.1224,12.9765],[101.1219,12.9763],[101.1219,12.9768]]]}},{"type":"Feature","properties":{"kind":"seasonal","area_km2":0.113,"date":"2026-10-09"},"geometry":{"type":"Polygon","coordinates":[[[101.6872,12.8044],[101.6864,12.803],[101.6864,12.8001],[101.6875,12.8],[101.6877,12.8009],[101.6891,12.8011],[101.6892,12.8038],[101.6872,12.8044]]]}},{"type":"Feature","properties":{"kind":"seasonal","area_km2":0.109,"date":"2026-10-09"},"geometry":{"type":"Polygon","coordinates":[[[101.2523,12.9646],[101.252,12.9624],[101.2528,12.9616],[101.2528,12.96],[101.2536,12.9597],[101.2538,12.9565],[101.2544,12.9562],[101.2552,12.9529],[101.2571,12.9513],[101.2571,12.9524],[101.256,12.9527],[101.2555,12.9535],[101.2555,12.9554],[101.2541,12.9567],[101.2541,12.9575],[101.2547,12.9578],[101.2544,12.96],[101.2533,12.9605],[101.2536,12.9613],[101.2531,12.9624],[101.2525,12.9624],[101.2525,12.9641],[101.2531,12.9641],[101.2531,12.9646],[101.2523,12.9646]]]}},{"type":"Feature","properties":{"kind":"seasonal","area_km2":0.108,"date":"2026-10-09"},"geometry":{"type":"Polygon","coordinates":[[[101.2577,12.9497],[101.2576,12.9475],[101.2554,12.9486],[101.2543,12.9483],[101.2549,12.9483],[101.2551,12.9475],[101.2565,12.9475],[101.2593,12.9458],[101.2615,12.9456],[101.2618,12.9466],[101.2601,12.9477],[101.2601,12.9485],[101.2588,12.9486],[101.2577,12.9497]],[[101.259,12.9477],[101.2601,12.9475],[101.2609,12.9466],[101.2609,12.9461],[101.2601,12.9458],[101.2596,12.9467],[101.2582,12.9472],[101.259,12.9477]]]}},{"type":"Feature","properties":{"kind":"seasonal","area_km2":0.104,"date":"2026-10-09"},"geometry":{"type":"Polygon","coordinates":[[[101.5239,12.6512],[101.5239,12.6501],[101.523,12.6499],[101.523,12.6483],[101.5244,12.6482],[101.5252,12.649],[101.5261,12.649],[101.5263,12.6477],[101.5271,12.6477],[101.5274,12.6496],[101.5269,12.6498],[101.5269,12.6504],[101.5252,12.6504],[101.5244,12.6512],[101.5239,12.6512]]]}},{"type":"Feature","properties":{"kind":"seasonal","area_km2":0.1,"date":"2026-10-09"},"geometry":{"type":"Polygon","coordinates":[[[101.3485,12.8795],[101.3485,12.8781],[101.3501,12.8767],[101.3518,12.8764],[101.3529,12.8775],[101.3526,12.8789],[101.3512,12.8786],[101.3485,12.8795]],[[101.3493,12.8784],[101.3499,12.8786],[101.3499,12.8784],[101.3493,12.8784]],[[101.349,12.8781],[101.3493,12.8784],[101.3493,12.8781],[101.349,12.8781]],[[101.3498,12.8775],[101.3501,12.8778],[101.3501,12.8775],[101.3498,12.8775]]]}}]}
