{"type":"FeatureCollection","properties":{"v":3,"id":"t101_19","name":"น่าน","aoi":[101.0,19.0,101.346,19.6311],"date":"2026-10-04","dates":["2026-10-04"],"baseline_years":3,"has_seasonal":false,"totals":{"flood_high":0.0,"flood_low":0.0,"seasonal":0.0},"provinces":[],"scenes":{"2026-10-04":2},"baseline_dates":["2025-10-08","2024-10-07","2023-10-10"],"threshold_db":-15.0,"auto":true,"source":"Sentinel-1 RTC (Copernicus/ESA) via Microsoft Planetary Computer; JRC Global Surface Water; Copernicus DEM","method":"ChatGeo v3: Otsu threshold on VV dB; minus JRC permanent water and slope > 5 deg; unusual = water not present in most of the previous 3 years (same season)","added":"2026-10-09T17:06+07:00"},"features":[]}
