{"type":"FeatureCollection","properties":{"v":3,"id":"t101_18","name":"น่าน · เลย · อุตรดิตถ์","aoi":[101.0,18.0,102.0,19.0],"date":"2026-10-08","dates":["2026-10-08","2026-10-04"],"baseline_years":3,"has_seasonal":true,"totals":{"flood_high":0.0,"flood_low":0.0,"seasonal":4.3},"provinces":[{"name":"เลย","zone":"th-ne","flood_high":0.0,"flood_low":0.0,"seasonal":4.3}],"scenes":{"2026-10-08":1,"2026-10-04":1},"baseline_dates":["2025-10-08","2024-10-07","2023-10-10"],"threshold_db":-15.0,"auto":true,"source":"Sentinel-1 RTC (Copernicus/ESA) via Microsoft Planetary Computer; JRC Global Surface Water; Copernicus DEM","method":"ChatGeo v3: Otsu threshold on VV dB; minus JRC permanent water and slope > 5 deg; unusual = water not present in most of the previous 3 years (same season)","added":"2026-10-10T03:24+07:00"},"features":[{"type":"Feature","properties":{"kind":"seasonal","area_km2":0.882,"date":"2026-10-08"},"geometry":{"type":"Polygon","coordinates":[[[102.002,18.1315],[102.0014,18.1313],[102.0014,18.1302],[102.0005,18.1294],[101.998,18.1294],[101.998,18.1289],[101.9965,18.1273],[101.9954,18.127],[101.9942,18.1254],[101.9934,18.1254],[101.9939,18.1252],[101.9939,18.1243],[101.9928,18.1241],[101.993,18.1222],[101.9914,18.1225],[101.9908,18.1217],[101.9902,18.1217],[101.9899,18.1203],[101.9868,18.1209],[101.9865,18.1201],[101.9856,18.1199],[101.9851,18.1188],[101.9836,18.1177],[101.9839,18.1169],[101.9847,18.1169],[101.985,18.1177],[101.987,18.118],[101.987,18.1185],[101.9882,18.1185],[101.9885,18.119],[101.9904,18.1187],[101.9907,18.1193],[101.9919,18.1192],[101.991,18.119],[101.9907,18.1176],[101.989,18.1182],[101.9882,18.1177],[101.9881,18.1171],[101.987,18.1171],[101.9867,18.1158],[101.987,18.1147],[101.987,18.1155],[101.9876,18.1155],[101.9878,18.116],[101.9884,18.1152],[101.9884,18.1158],[101.9895,18.1158],[101.9898,18.1163],[101.991,18.1165],[101.9913,18.1173],[101.9921,18.1173],[101.9921,18.1184],[101.9927,18.1181],[101.9933,18.1189],[101.9933,18.12],[101.9922,18.1206],[101.9922,18.1211],[101.9939,18.1216],[101.9944,18.1205],[101.995,18.1205],[101.9962,18.1219],[101.9967,18.1219],[101.9985,18.1235],[101.999,18.1235],[101.999,18.124],[102.0002,18.1243],[102.0002,18.1261],[102.0008,18.1261],[102.0016,18.1269],[102.0016,18.1278],[102.0022,18.128],[102.002,18.1315]],[[101.9988,18.127],[101.9996,18.1267],[101.9993,18.1259],[101.9985,18.1262],[101.9988,18.127]],[[101.9956,18.1246],[101.9959,18.1251],[101.9959,18.1246],[101.9956,18.1246]]]}},{"type":"Feature","properties":{"kind":"seasonal","area_km2":0.754,"date":"2026-10-04"},"geometry":{"type":"Polygon","coordinates":[[[101.913,18.0462],[101.9125,18.0457],[101.9125,18.0449],[101.9133,18.0449],[101.9138,18.043],[101.913,18.0424],[101.913,18.0416],[101.9124,18.0416],[101.9124,18.0405],[101.911,18.0403],[101.911,18.0398],[101.9112,18.04],[101.9121,18.0397],[101.9109,18.0392],[101.9115,18.0381],[101.9103,18.0365],[101.9106,18.0349],[101.9097,18.0349],[101.9097,18.0338],[101.908,18.0322],[101.9074,18.0322],[101.9069,18.0314],[101.9017,18.0299],[101.8972,18.0299],[101.8952,18.0294],[101.8952,18.03],[101.8964,18.0305],[101.8986,18.0307],[101.9015,18.0331],[101.9007,18.0331],[101.8995,18.0321],[101.8984,18.0324],[101.8984,18.0313],[101.8967,18.0313],[101.8964,18.0321],[101.8964,18.0316],[101.8947,18.0313],[101.8944,18.0308],[101.8938,18.0313],[101.8944,18.0297],[101.8941,18.0284],[101.8935,18.0284],[101.8935,18.03],[101.893,18.0311],[101.891,18.0306],[101.8907,18.03],[101.8901,18.03],[101.8898,18.029],[101.8867,18.0285],[101.8864,18.0255],[101.8887,18.0265],[101.8895,18.0263],[101.8895,18.0268],[101.8889,18.0268],[101.889,18.0276],[101.8901,18.0279],[101.8901,18.0284],[101.8926,18.0284],[101.8926,18.0278],[101.8943,18.0275],[101.8943,18.0286],[101.8952,18.0289],[101.8966,18.0283],[101.8997,18.0285],[101.9009,18.0291],[101.9048,18.0296],[101.9054,18.0301],[101.9065,18.0301],[101.9088,18.0311],[101.91,18.0322],[101.9103,18.0343],[101.9109,18.0338],[101.9112,18.0351],[101.9117,18.0354],[101.9117,18.0365],[101.9129,18.0376],[101.9129,18.0384],[101.9135,18.0386],[101.9144,18.0411],[101.9155,18.0421],[101.9155,18.0435],[101.9147,18.0438],[101.9144,18.0446],[101.9139,18.0446],[101.913,18.0462]],[[101.8961,18.0305],[101.8964,18.0308],[101.8964,18.0305],[101.8961,18.0305]],[[101.8997,18.0294],[101.9,18.0296],[101.9,18.0294],[101.8997,18.0294]]]}},{"type":"Feature","properties":{"kind":"seasonal","area_km2":0.696,"date":"2026-10-04"},"geometry":{"type":"Polygon","coordinates":[[[101.7892,18.073],[101.788,18.0714],[101.788,18.0706],[101.7891,18.07],[101.7894,18.0711],[101.7911,18.0708],[101.7914,18.0697],[101.7908,18.0694],[101.7908,18.0686],[101.7928,18.0686],[101.7939,18.068],[101.7939,18.0675],[101.7928,18.068],[101.7922,18.0675],[101.7922,18.067],[101.7927,18.067],[101.793,18.0675],[101.7942,18.0672],[101.7939,18.0659],[101.7927,18.0662],[101.7938,18.0651],[101.7944,18.0653],[101.7955,18.0648],[101.7992,18.0644],[101.8015,18.0647],[101.8015,18.0655],[101.8009,18.0655],[101.8015,18.0685],[101.8007,18.0685],[101.8007,18.0693],[101.7999,18.0693],[101.7956,18.0715],[101.7945,18.0715],[101.7942,18.0721],[101.7925,18.0718],[101.7925,18.0727],[101.7917,18.0727],[101.7914,18.0719],[101.7908,18.0719],[101.7911,18.0724],[101.79,18.0724],[101.7897,18.073],[101.7892,18.073]],[[101.7945,18.0686],[101.795,18.0688],[101.795,18.0686],[101.7945,18.0686]]]}},{"type":"Feature","properties":{"kind":"seasonal","area_km2":0.49,"date":"2026-10-04"},"geometry":{"type":"Polygon","coordinates":[[[101.8608,18.0389],[101.8608,18.0367],[101.8619,18.0353],[101.8633,18.0353],[101.8636,18.0348],[101.863,18.0345],[101.863,18.0334],[101.8652,18.0323],[101.8652,18.0318],[101.8635,18.0323],[101.8635,18.0313],[101.8641,18.0312],[101.8672,18.0285],[101.8694,18.0274],[101.87,18.0276],[101.8708,18.0271],[101.8725,18.0271],[101.8739,18.0265],[101.8765,18.0265],[101.8762,18.0275],[101.8745,18.0273],[101.8745,18.0278],[101.8734,18.0281],[101.8728,18.0289],[101.8709,18.0298],[101.8703,18.0309],[101.8686,18.0306],[101.8681,18.0312],[101.8672,18.0312],[101.8669,18.032],[101.8675,18.0325],[101.8661,18.0326],[101.8658,18.0331],[101.8667,18.0334],[101.8661,18.0334],[101.8658,18.0342],[101.8647,18.0342],[101.8647,18.0356],[101.8636,18.0359],[101.8639,18.0364],[101.8636,18.0369],[101.8631,18.037],[101.8628,18.038],[101.8622,18.0386],[101.8608,18.0389]],[[101.8675,18.0298],[101.868,18.0301],[101.868,18.0298],[101.8675,18.0298]],[[101.8754,18.027],[101.8756,18.0273],[101.8756,18.027],[101.8754,18.027]]]}},{"type":"Feature","properties":{"kind":"seasonal","area_km2":0.383,"date":"2026-10-04"},"geometry":{"type":"Polygon","coordinates":[[[101.8201,18.0598],[101.8201,18.0593],[101.8173,18.059],[101.8178,18.0574],[101.8164,18.0577],[101.817,18.0588],[101.8153,18.0585],[101.8136,18.0591],[101.8136,18.0585],[101.813,18.0585],[101.8127,18.0591],[101.8113,18.0594],[101.811,18.0583],[101.8121,18.058],[101.8124,18.0572],[101.8135,18.0566],[101.815,18.0569],[101.8172,18.0566],[101.8175,18.056],[101.8181,18.056],[101.8183,18.0549],[101.8172,18.055],[101.8172,18.0541],[101.8189,18.0544],[101.8192,18.0549],[101.8211,18.0546],[101.8217,18.0549],[101.8215,18.0573],[101.8226,18.0576],[101.8226,18.0584],[101.8232,18.0589],[101.8215,18.0598],[101.8201,18.0598]],[[101.82,18.0557],[101.8203,18.056],[101.8203,18.0557],[101.82,18.0557]]]}},{"type":"Feature","properties":{"kind":"seasonal","area_km2":0.324,"date":"2026-10-04"},"geometry":{"type":"Polygon","coordinates":[[[101.8066,18.0662],[101.8063,18.0635],[101.8054,18.063],[101.8054,18.0624],[101.8074,18.0624],[101.8077,18.0619],[101.8097,18.0621],[101.8102,18.0618],[101.8099,18.0613],[101.8116,18.061],[101.8127,18.0599],[101.8153,18.0599],[101.8153,18.0593],[101.8167,18.0593],[101.8167,18.0598],[101.8173,18.0601],[101.8193,18.0603],[101.819,18.0609],[101.817,18.0615],[101.8164,18.062],[101.8139,18.0618],[101.8139,18.061],[101.8125,18.0607],[101.8125,18.0613],[101.8136,18.0612],[101.8131,18.0634],[101.8122,18.0634],[101.8116,18.0621],[101.8105,18.0616],[101.8102,18.0635],[101.8111,18.0634],[101.8111,18.0643],[101.8103,18.0643],[101.8102,18.0637],[101.8085,18.0638],[101.8086,18.0646],[101.8071,18.0646],[101.8075,18.0662],[101.8066,18.0662]]]}},{"type":"Feature","properties":{"kind":"seasonal","area_km2":0.198,"date":"2026-10-04"},"geometry":{"type":"Polygon","coordinates":[[[101.7747,18.0526],[101.7738,18.0507],[101.7732,18.0505],[101.7732,18.0499],[101.7726,18.0496],[101.7726,18.0491],[101.7692,18.0448],[101.7689,18.0437],[101.7671,18.0419],[101.768,18.0416],[101.7674,18.0413],[101.7674,18.0405],[101.7682,18.0405],[101.7683,18.0413],[101.7688,18.0413],[101.7694,18.044],[101.7703,18.0434],[101.7703,18.0443],[101.7717,18.0453],[101.7717,18.0459],[101.7723,18.0459],[101.7738,18.0485],[101.7743,18.0488],[101.7743,18.0502],[101.7749,18.051],[101.7747,18.0526]],[[101.7703,18.0459],[101.7709,18.0459],[101.7709,18.0453],[101.7703,18.0453],[101.7703,18.0459]]]}},{"type":"Feature","properties":{"kind":"seasonal","area_km2":0.185,"date":"2026-10-04"},"geometry":{"type":"Polygon","coordinates":[[[101.864,18.0402],[101.8639,18.0396],[101.8654,18.0391],[101.8653,18.0385],[101.8659,18.0383],[101.8656,18.0372],[101.8673,18.0369],[101.8667,18.0366],[101.867,18.0347],[101.8684,18.0344],[101.8684,18.0339],[101.8692,18.0339],[101.8695,18.0333],[101.8706,18.033],[101.8706,18.0325],[101.8715,18.0325],[101.8718,18.0319],[101.8723,18.0319],[101.8723,18.0314],[101.8734,18.0314],[101.8743,18.0306],[101.8754,18.0305],[101.8754,18.03],[101.8782,18.0297],[101.8757,18.0305],[101.874,18.0314],[101.8732,18.0325],[101.8712,18.0328],[101.8706,18.0336],[101.8692,18.0341],[101.8692,18.0347],[101.8681,18.035],[101.8676,18.0361],[101.869,18.036],[101.869,18.0366],[101.8684,18.0369],[101.8687,18.0374],[101.8696,18.0374],[101.8698,18.0366],[101.8707,18.0366],[101.8707,18.0371],[101.864,18.0402]],[[101.8665,18.0383],[101.8673,18.0382],[101.8676,18.0374],[101.8667,18.0372],[101.8665,18.0383]],[[101.8676,18.0363],[101.8679,18.0366],[101.8679,18.0363],[101.8676,18.0363]],[[101.8673,18.0361],[101.8676,18.0363],[101.8676,18.0361],[101.8673,18.0361]]]}},{"type":"Feature","properties":{"kind":"seasonal","area_km2":0.176,"date":"2026-10-04"},"geometry":{"type":"Polygon","coordinates":[[[101.7944,18.064],[101.7944,18.0634],[101.7949,18.0631],[101.7983,18.0634],[101.7989,18.0615],[101.802,18.0609],[101.8023,18.0603],[101.8014,18.0601],[101.8014,18.0593],[101.8034,18.0587],[101.8034,18.0609],[101.8028,18.0609],[101.8028,18.0614],[101.8037,18.0614],[101.804,18.0625],[101.8029,18.0628],[101.8026,18.0636],[101.8023,18.0625],[101.8029,18.0622],[101.802,18.062],[101.8003,18.0625],[101.8006,18.0639],[101.7944,18.064]]]}},{"type":"Feature","properties":{"kind":"seasonal","area_km2":0.167,"date":"2026-10-04"},"geometry":{"type":"Polygon","coordinates":[[[101.9825,18.1167],[101.9822,18.1159],[101.979,18.1132],[101.9784,18.1116],[101.9796,18.1116],[101.9796,18.1127],[101.9816,18.1124],[101.9815,18.1118],[101.983,18.1121],[101.983,18.114],[101.9838,18.1142],[101.9844,18.1153],[101.9845,18.1166],[101.9836,18.1167],[101.9833,18.1156],[101.983,18.1167],[101.9825,18.1167]],[[101.981,18.114],[101.9816,18.1142],[101.9816,18.114],[101.981,18.114]],[[101.9807,18.1134],[101.9813,18.1134],[101.9813,18.1129],[101.9807,18.1129],[101.9807,18.1134]],[[101.9813,18.1126],[101.9816,18.1129],[101.9816,18.1126],[101.9813,18.1126]]]}}]}
