{"type":"FeatureCollection","properties":{"v":3,"id":"t101_17","name":"เลย · หนองบัวลำภู · พิษณุโลก","aoi":[101.0,17.0,102.0,18.0],"date":"2026-10-09","dates":["2026-10-09","2026-10-08","2026-10-04"],"baseline_years":3,"has_seasonal":true,"totals":{"flood_high":0.0,"flood_low":0.1,"seasonal":3.5},"provinces":[{"name":"เลย","zone":"th-ne","flood_high":0.0,"flood_low":0.1,"seasonal":3.5}],"scenes":{"2026-10-09":2,"2026-10-08":1,"2026-10-04":2},"baseline_dates":["2025-10-08","2024-10-07","2023-10-10"],"threshold_db":-15.0,"auto":true,"source":"Sentinel-1 RTC (Copernicus/ESA) via Microsoft Planetary Computer; JRC Global Surface Water; Copernicus DEM","method":"ChatGeo v3: Otsu threshold on VV dB; minus JRC permanent water and slope > 5 deg; unusual = water not present in most of the previous 3 years (same season)","added":"2026-10-10T16:37+07:00"},"features":[{"type":"Feature","properties":{"kind":"flood","area_km2":0.097,"conf":"low","date":"2026-10-04"},"geometry":{"type":"Polygon","coordinates":[[[101.7201,17.3108],[101.7199,17.3103],[101.7184,17.3097],[101.7181,17.3076],[101.7198,17.3073],[101.7204,17.3062],[101.7212,17.3062],[101.7212,17.3073],[101.7204,17.3073],[101.7201,17.3081],[101.719,17.3078],[101.7195,17.3081],[101.7196,17.3086],[101.7201,17.3084],[101.7201,17.3092],[101.7221,17.3091],[101.721,17.3108],[101.7201,17.3108]]]}},{"type":"Feature","properties":{"kind":"seasonal","area_km2":1.138,"date":"2026-10-04"},"geometry":{"type":"Polygon","coordinates":[[[101.6284,17.0451],[101.6284,17.0443],[101.6273,17.0441],[101.6281,17.0435],[101.6281,17.0419],[101.6278,17.0413],[101.6269,17.0411],[101.6267,17.0416],[101.6264,17.0411],[101.6269,17.0405],[101.6269,17.0397],[101.6272,17.0408],[101.6278,17.0405],[101.6272,17.0389],[101.6286,17.0397],[101.6286,17.0403],[101.628,17.0403],[101.6281,17.0411],[101.6286,17.0405],[101.6292,17.0421],[101.6303,17.0421],[101.6311,17.0405],[101.6317,17.0405],[101.6328,17.0391],[101.6342,17.0394],[101.6342,17.0402],[101.6362,17.0399],[101.6365,17.0404],[101.6376,17.0401],[101.6382,17.0409],[101.6399,17.0409],[101.6407,17.0401],[101.6416,17.0404],[101.6418,17.039],[101.6427,17.0387],[101.6424,17.0403],[101.641,17.0414],[101.6413,17.0423],[101.6427,17.0409],[101.6433,17.0414],[101.643,17.0422],[101.6436,17.0422],[101.6433,17.0406],[101.6438,17.0395],[101.6449,17.0392],[101.6475,17.0397],[101.6469,17.0387],[101.6461,17.0387],[101.6461,17.0392],[101.6446,17.039],[101.6444,17.0379],[101.6455,17.0379],[101.6457,17.0362],[101.6454,17.0354],[101.6449,17.0354],[101.6449,17.0349],[101.6443,17.0346],[101.6443,17.0341],[101.6449,17.0335],[101.6446,17.0327],[101.6451,17.0325],[101.6451,17.03],[101.6445,17.0298],[101.6445,17.0287],[101.6453,17.0281],[101.645,17.0268],[101.6476,17.0267],[101.6476,17.0275],[101.6468,17.0284],[101.6468,17.03],[101.6476,17.0308],[101.6476,17.0321],[101.6471,17.0324],[101.6471,17.0346],[101.6474,17.0346],[101.648,17.0362],[101.6485,17.0357],[101.6497,17.0362],[101.6497,17.0375],[101.6505,17.0375],[101.6508,17.0381],[101.65,17.0394],[101.6498,17.0416],[101.6492,17.0408],[101.6486,17.0411],[101.6486,17.0403],[101.648,17.04],[101.6483,17.0411],[101.6478,17.0414],[101.6484,17.0419],[101.6489,17.0416],[101.6492,17.0422],[101.6492,17.0427],[101.6486,17.0427],[101.6489,17.0435],[101.6481,17.043],[101.6472,17.0433],[101.6475,17.0422],[101.6455,17.0419],[101.6453,17.0427],[101.6444,17.0428],[101.6441,17.0433],[101.643,17.0428],[101.6419,17.0436],[101.6416,17.0428],[101.6405,17.0428],[101.6405,17.0434],[101.6391,17.0439],[101.6399,17.0431],[101.6394,17.0428],[101.6391,17.0434],[101.638,17.0434],[101.6374,17.0439],[101.6374,17.0426],[101.6368,17.0423],[101.6368,17.0431],[101.6317,17.0429],[101.6318,17.0435],[101.6329,17.0432],[101.6326,17.0437],[101.6332,17.044],[101.6321,17.0451],[101.6315,17.044],[101.6306,17.0443],[101.6315,17.0427],[101.632,17.0426],[101.6312,17.0424],[101.6298,17.0432],[101.6298,17.0438],[101.629,17.0446],[101.6292,17.0451],[101.6284,17.0451]],[[101.6287,17.0446],[101.6289,17.0427],[101.6284,17.0422],[101.6284,17.0435],[101.6287,17.0446]],[[101.6281,17.0438],[101.6284,17.044],[101.6284,17.0438],[101.6281,17.0438]],[[101.6399,17.0425],[101.6402,17.0428],[101.6402,17.0425],[101.6399,17.0425]],[[101.6484,17.0424],[101.6486,17.0427],[101.6486,17.0424],[101.6484,17.0424]],[[101.6334,17.0426],[101.6346,17.0423],[101.6337,17.0421],[101.6331,17.041],[101.6326,17.041],[101.6334,17.0426]],[[101.6357,17.0423],[101.6362,17.0426],[101.6362,17.0423],[101.6357,17.0423]],[[101.6402,17.0423],[101.6405,17.0425],[101.6405,17.0423],[101.6402,17.0423]],[[101.641,17.0423],[101.6413,17.0425],[101.6413,17.0423],[101.641,17.0423]],[[101.6396,17.0417],[101.6402,17.042],[101.6402,17.0417],[101.6396,17.0417]],[[101.6281,17.0419],[101.6286,17.0419],[101.6286,17.0413],[101.6281,17.0413],[101.6281,17.0419]],[[101.6343,17.0415],[101.6348,17.0418],[101.6348,17.0415],[101.6343,17.0415]],[[101.6357,17.0415],[101.636,17.0418],[101.636,17.0415],[101.6357,17.0415]],[[101.6317,17.0413],[101.632,17.0416],[101.632,17.0413],[101.6317,17.0413]],[[101.6275,17.0408],[101.6278,17.0411],[101.6278,17.0408],[101.6275,17.0408]],[[101.6331,17.0407],[101.6337,17.041],[101.6337,17.0407],[101.6331,17.0407]],[[101.6478,17.0405],[101.6481,17.0408],[101.648,17.0405],[101.6478,17.0405]],[[101.6472,17.0403],[101.6478,17.0405],[101.6478,17.0403],[101.6472,17.0403]],[[101.6469,17.04],[101.6472,17.0403],[101.6472,17.04],[101.6469,17.04]],[[101.628,17.0397],[101.6283,17.04],[101.6283,17.0397],[101.628,17.0397]],[[101.6455,17.0387],[101.6458,17.0389],[101.6458,17.0387],[101.6455,17.0387]],[[101.6489,17.0389],[101.6494,17.0386],[101.6494,17.0381],[101.6486,17.0381],[101.6489,17.0389]],[[101.6475,17.0384],[101.6477,17.0387],[101.6477,17.0384],[101.6475,17.0384]],[[101.6455,17.0379],[101.6458,17.0381],[101.6458,17.0379],[101.6455,17.0379]],[[101.646,17.0381],[101.6466,17.0379],[101.6463,17.0373],[101.646,17.0373],[101.646,17.0381]],[[101.6486,17.0367],[101.6488,17.037],[101.6488,17.0367],[101.6486,17.0367]],[[101.6474,17.0357],[101.6477,17.0359],[101.6477,17.0357],[101.6474,17.0357]],[[101.646,17.0349],[101.6463,17.0351],[101.6463,17.0349],[101.646,17.0349]],[[101.646,17.0341],[101.6463,17.0343],[101.6463,17.0341],[101.646,17.0341]],[[101.646,17.0335],[101.6463,17.0338],[101.6463,17.0335],[101.646,17.0335]],[[101.6463,17.0333],[101.6465,17.0335],[101.6465,17.0332],[101.6463,17.0333]],[[101.6462,17.0322],[101.6465,17.0324],[101.6465,17.0322],[101.6462,17.0322]],[[101.6468,17.0308],[101.6471,17.0311],[101.6471,17.0308],[101.6468,17.0308]]]}},{"type":"Feature","properties":{"kind":"seasonal","area_km2":0.862,"date":"2026-10-04"},"geometry":{"type":"Polygon","coordinates":[[[101.617,17.5127],[101.617,17.5116],[101.6175,17.5113],[101.6181,17.5094],[101.6172,17.5091],[101.6166,17.5097],[101.6155,17.5097],[101.6155,17.5086],[101.6161,17.5086],[101.6166,17.5078],[101.6175,17.5078],[101.6175,17.5072],[101.618,17.5083],[101.6189,17.508],[101.6189,17.5088],[101.6197,17.5083],[101.6192,17.508],[101.6197,17.5075],[101.6197,17.5067],[101.6214,17.5064],[101.6214,17.5058],[101.6222,17.5055],[101.6217,17.5045],[101.6208,17.5045],[101.6214,17.5039],[101.6205,17.5031],[101.6197,17.5037],[101.6182,17.5032],[101.6174,17.5024],[101.6174,17.5013],[101.6159,17.5005],[101.6154,17.5008],[101.6151,17.5002],[101.6143,17.5005],[101.6143,17.501],[101.6148,17.5013],[101.614,17.5013],[101.6137,17.5008],[101.6137,17.5013],[101.6129,17.5016],[101.6123,17.5032],[101.6112,17.5043],[101.6089,17.5041],[101.6078,17.503],[101.6078,17.5017],[101.6069,17.5017],[101.6061,17.5025],[101.605,17.5028],[101.605,17.5047],[101.6056,17.505],[101.6056,17.5077],[101.6045,17.5088],[101.6048,17.5104],[101.6039,17.5104],[101.6037,17.5112],[101.6031,17.5112],[101.6028,17.5085],[101.6042,17.5071],[101.6044,17.505],[101.6039,17.5047],[101.6039,17.5036],[101.6019,17.5023],[101.6018,17.5015],[101.603,17.5015],[101.6035,17.4998],[101.6041,17.4996],[101.6063,17.4993],[101.6072,17.5003],[101.608,17.5006],[101.6117,17.4984],[101.6128,17.4984],[101.6145,17.5],[101.6159,17.4999],[101.6171,17.5007],[101.6179,17.5007],[101.6179,17.5013],[101.6185,17.5013],[101.6185,17.5023],[101.6191,17.5031],[101.6208,17.5026],[101.6211,17.5034],[101.6225,17.5042],[101.6228,17.5058],[101.6236,17.5058],[101.6242,17.5074],[101.6231,17.5082],[101.6229,17.5093],[101.6217,17.5093],[101.6217,17.5083],[101.6223,17.5083],[101.6223,17.5074],[101.6211,17.5069],[101.6206,17.5075],[101.6209,17.5096],[101.6195,17.5105],[101.6195,17.5124],[101.6178,17.5121],[101.6175,17.5127],[101.617,17.5127]],[[101.6217,17.5058],[101.622,17.5064],[101.6222,17.5058],[101.6217,17.5058]],[[101.6098,17.5027],[101.6106,17.5027],[101.6115,17.5022],[101.6109,17.5016],[101.6095,17.5017],[101.6098,17.5027]],[[101.6112,17.5014],[101.6129,17.5011],[101.6128,17.5005],[101.6134,17.5002],[101.6131,17.4989],[101.6111,17.4992],[101.6109,17.5003],[101.6103,17.5003],[101.6112,17.5014]],[[101.6047,17.5006],[101.6049,17.5009],[101.6049,17.5006],[101.6047,17.5006]],[[101.6055,17.5006],[101.6058,17.5009],[101.6058,17.5006],[101.6055,17.5006]],[[101.61,17.5006],[101.6103,17.5008],[101.6103,17.5006],[101.61,17.5006]],[[101.614,17.5002],[101.6143,17.5005],[101.6143,17.5002],[101.614,17.5002]],[[101.6137,17.5],[101.614,17.5002],[101.614,17.5],[101.6137,17.5]],[[101.6134,17.4997],[101.6137,17.5],[101.6137,17.4997],[101.6134,17.4997]]]}},{"type":"Feature","properties":{"kind":"seasonal","area_km2":0.311,"date":"2026-10-04"},"geometry":{"type":"Polygon","coordinates":[[[101.6419,17.6941],[101.6411,17.6933],[101.641,17.6925],[101.6416,17.6922],[101.6416,17.6906],[101.6396,17.6896],[101.6396,17.689],[101.639,17.6887],[101.639,17.6877],[101.6401,17.6876],[101.641,17.6887],[101.6424,17.6892],[101.6449,17.687],[101.6458,17.687],[101.645,17.6895],[101.6461,17.6905],[101.6461,17.6919],[101.645,17.693],[101.6439,17.6933],[101.6439,17.6938],[101.6419,17.6941]]]}},{"type":"Feature","properties":{"kind":"seasonal","area_km2":0.309,"date":"2026-10-04"},"geometry":{"type":"Polygon","coordinates":[[[101.6461,17.2218],[101.6455,17.2208],[101.6461,17.2207],[101.6469,17.2197],[101.6469,17.2186],[101.6463,17.2183],[101.6463,17.2178],[101.6477,17.2177],[101.648,17.2172],[101.6494,17.2169],[101.6503,17.2158],[101.6499,17.2142],[101.648,17.2131],[101.648,17.2126],[101.6513,17.2125],[101.6522,17.2133],[101.653,17.2133],[101.6531,17.2155],[101.6517,17.2158],[101.6517,17.2177],[101.6506,17.2185],[101.6506,17.2199],[101.6469,17.2199],[101.6472,17.2215],[101.6461,17.2218]]]}},{"type":"Feature","properties":{"kind":"seasonal","area_km2":0.177,"date":"2026-10-04"},"geometry":{"type":"Polygon","coordinates":[[[101.7221,17.9095],[101.7206,17.9082],[101.7184,17.9076],[101.7181,17.9068],[101.7175,17.9071],[101.7163,17.9058],[101.7152,17.9055],[101.7155,17.9047],[101.7175,17.9055],[101.7175,17.9047],[101.7158,17.9039],[101.716,17.9031],[101.7172,17.9031],[101.7172,17.9039],[101.7186,17.9039],[101.7192,17.9044],[101.7197,17.9057],[101.7203,17.9057],[101.72,17.9071],[101.7206,17.9076],[101.7218,17.9076],[101.7226,17.9084],[101.7229,17.9095],[101.7221,17.9095]],[[101.7189,17.9063],[101.7192,17.9068],[101.7192,17.9063],[101.7189,17.9063]],[[101.7186,17.906],[101.7189,17.9063],[101.7189,17.906],[101.7186,17.906]]]}},{"type":"Feature","properties":{"kind":"seasonal","area_km2":0.123,"date":"2026-10-08"},"geometry":{"type":"Polygon","coordinates":[[[101.8056,17.1021],[101.8053,17.101],[101.8067,17.1005],[101.8063,17.098],[101.8086,17.0977],[101.8086,17.101],[101.8078,17.1018],[101.8056,17.1021]]]}},{"type":"Feature","properties":{"kind":"seasonal","area_km2":0.121,"date":"2026-10-09"},"geometry":{"type":"Polygon","coordinates":[[[101.0739,17.463],[101.0725,17.4627],[101.0724,17.4608],[101.0736,17.4608],[101.0741,17.4592],[101.0752,17.4594],[101.0766,17.4567],[101.0778,17.4567],[101.0778,17.4575],[101.0761,17.4592],[101.0761,17.4605],[101.0755,17.4605],[101.075,17.4616],[101.0739,17.4619],[101.0739,17.463]]]}},{"type":"Feature","properties":{"kind":"seasonal","area_km2":0.121,"date":"2026-10-08"},"geometry":{"type":"Polygon","coordinates":[[[101.842,17.3465],[101.8422,17.3446],[101.8428,17.3443],[101.8425,17.3432],[101.843,17.3427],[101.843,17.3419],[101.8442,17.3416],[101.8453,17.3421],[101.8453,17.3437],[101.8448,17.344],[101.8442,17.3459],[101.842,17.3465]]]}},{"type":"Feature","properties":{"kind":"seasonal","area_km2":0.11,"date":"2026-10-04"},"geometry":{"type":"Polygon","coordinates":[[[101.8392,17.4944],[101.8389,17.4917],[101.8394,17.4909],[101.8408,17.4909],[101.8405,17.4893],[101.8414,17.4893],[101.8414,17.4901],[101.8422,17.4909],[101.8411,17.4912],[101.8425,17.4914],[101.8425,17.4922],[101.8406,17.4922],[101.8403,17.4928],[101.8409,17.4931],[101.8409,17.4939],[101.8403,17.4944],[101.8392,17.4944]]]}},{"type":"Feature","properties":{"kind":"seasonal","area_km2":0.105,"date":"2026-10-04"},"geometry":{"type":"Polygon","coordinates":[[[101.8636,17.6141],[101.8636,17.6125],[101.8642,17.6114],[101.8661,17.6092],[101.867,17.6092],[101.8673,17.6111],[101.8659,17.6122],[101.8659,17.6127],[101.8648,17.613],[101.8648,17.6141],[101.8636,17.6141]]]}},{"type":"Feature","properties":{"kind":"seasonal","area_km2":0.1,"date":"2026-10-08"},"geometry":{"type":"Polygon","coordinates":[[[101.8368,17.1943],[101.8362,17.1938],[101.8362,17.1919],[101.8373,17.1913],[101.8402,17.191],[101.8402,17.1921],[101.8396,17.1926],[101.8385,17.1927],[101.8388,17.1943],[101.8368,17.1943]]]}}]}
