{"type":"FeatureCollection","properties":{"v":3,"id":"t101_16","name":"เพชรบูรณ์ · ชัยภูมิ · เลย","aoi":[101.0,16.0,102.0,17.0],"date":"2026-10-09","dates":["2026-10-09","2026-10-08","2026-10-04"],"baseline_years":3,"has_seasonal":true,"totals":{"flood_high":1.5,"flood_low":1.5,"seasonal":14.0},"provinces":[{"name":"ชัยภูมิ","zone":"th-ne","flood_high":1.5,"flood_low":0.9,"seasonal":4.2},{"name":"เพชรบูรณ์","zone":"th-c","flood_high":0.0,"flood_low":0.5,"seasonal":9.0},{"name":"ขอนแก่น","zone":"th-ne","flood_high":0.0,"flood_low":0.1,"seasonal":0.5},{"name":"เลย","zone":"th-ne","flood_high":0.0,"flood_low":0.0,"seasonal":0.2}],"scenes":{"2026-10-09":1,"2026-10-08":1,"2026-10-04":2},"baseline_dates":["2025-10-08","2024-10-07","2023-10-10"],"threshold_db":-15.0,"auto":true,"source":"Sentinel-1 RTC (Copernicus/ESA) via Microsoft Planetary Computer; JRC Global Surface Water; Copernicus DEM","method":"ChatGeo v3: Otsu threshold on VV dB; minus JRC permanent water and slope > 5 deg; unusual = water not present in most of the previous 3 years (same season)","added":"2026-10-10T16:37+07:00"},"features":[{"type":"Feature","properties":{"kind":"flood","area_km2":1.536,"conf":"high","date":"2026-10-04"},"geometry":{"type":"Polygon","coordinates":[[[101.4944,16.0913],[101.4944,16.0892],[101.4938,16.0886],[101.4924,16.0889],[101.4918,16.087],[101.4907,16.0868],[101.4896,16.0871],[101.4907,16.0873],[101.4904,16.0879],[101.4896,16.0876],[101.4899,16.0881],[101.4904,16.0881],[101.4904,16.0887],[101.4896,16.089],[101.4896,16.09],[101.4891,16.0906],[101.4882,16.0906],[101.4879,16.0884],[101.4893,16.0871],[101.489,16.0857],[101.4898,16.0857],[101.4898,16.0846],[101.489,16.0841],[101.4887,16.0833],[101.4881,16.0833],[101.4881,16.0827],[101.4862,16.0828],[101.4862,16.0849],[101.4868,16.0852],[101.4868,16.086],[101.4862,16.086],[101.4865,16.0866],[101.4854,16.0863],[101.4859,16.0868],[101.4857,16.0877],[101.4862,16.0882],[101.4854,16.0879],[101.4854,16.0871],[101.4848,16.0874],[101.4834,16.0863],[101.4826,16.0869],[101.4829,16.0877],[101.4817,16.0874],[101.4801,16.0891],[101.4795,16.0891],[101.4798,16.0874],[101.4789,16.0869],[101.4789,16.0861],[101.4795,16.0858],[101.48,16.0866],[101.4812,16.0869],[101.4809,16.0864],[101.4814,16.0863],[101.4817,16.0855],[101.4823,16.0853],[101.4817,16.0834],[101.4806,16.0836],[101.4808,16.082],[101.4794,16.082],[101.4794,16.0804],[101.4802,16.0793],[101.4802,16.0785],[101.4791,16.0777],[101.4793,16.075],[101.4813,16.0747],[101.4813,16.0742],[101.4821,16.0736],[101.4824,16.072],[101.4835,16.0722],[101.4841,16.0738],[101.4852,16.0746],[101.4855,16.076],[101.4872,16.0771],[101.4869,16.0779],[101.4878,16.0784],[101.4878,16.079],[101.4884,16.0795],[101.4889,16.0792],[101.4898,16.08],[101.4906,16.08],[101.4912,16.0811],[101.492,16.0813],[101.4918,16.0819],[101.4926,16.0824],[101.4932,16.084],[101.494,16.0846],[101.494,16.0854],[101.4952,16.087],[101.4952,16.0881],[101.496,16.0881],[101.4961,16.0889],[101.4972,16.0894],[101.4972,16.0908],[101.4964,16.0908],[101.4963,16.0902],[101.4955,16.09],[101.4958,16.0911],[101.4944,16.0913]],[[101.4924,16.0873],[101.4927,16.0876],[101.4927,16.0873],[101.4924,16.0873]],[[101.4848,16.0866],[101.4851,16.0868],[101.4851,16.0866],[101.4848,16.0866]],[[101.4915,16.0865],[101.4918,16.0868],[101.4918,16.0865],[101.4915,16.0865]],[[101.482,16.0863],[101.4823,16.0866],[101.4823,16.0863],[101.482,16.0863]],[[101.4845,16.0863],[101.4848,16.0866],[101.4848,16.0863],[101.4845,16.0863]],[[101.4899,16.0862],[101.4901,16.0865],[101.4901,16.0862],[101.4899,16.0862]],[[101.4918,16.0862],[101.4921,16.0865],[101.4921,16.0862],[101.4918,16.0862]],[[101.4848,16.086],[101.4851,16.0863],[101.4851,16.086],[101.4848,16.086]],[[101.4842,16.086],[101.4848,16.086],[101.4856,16.0852],[101.4848,16.0852],[101.4842,16.086]],[[101.482,16.0855],[101.4823,16.0858],[101.4823,16.0855],[101.482,16.0855]],[[101.4834,16.0855],[101.4837,16.085],[101.4831,16.0847],[101.4831,16.0852],[101.4834,16.0855]],[[101.4926,16.0843],[101.4929,16.0846],[101.4929,16.0843],[101.4926,16.0843]],[[101.4831,16.0842],[101.4837,16.0844],[101.4837,16.0842],[101.4831,16.0842]],[[101.4823,16.0836],[101.4825,16.0839],[101.4825,16.0836],[101.4823,16.0836]],[[101.4851,16.0836],[101.4853,16.0839],[101.4853,16.0836],[101.4851,16.0836]],[[101.4921,16.0838],[101.4926,16.0835],[101.4923,16.083],[101.4918,16.0832],[101.4921,16.0838]],[[101.4817,16.0831],[101.4822,16.0834],[101.4822,16.0831],[101.4817,16.0831]],[[101.4839,16.0833],[101.4845,16.0833],[101.4842,16.0825],[101.4836,16.0825],[101.4839,16.0833]],[[101.4845,16.0825],[101.4848,16.0831],[101.4848,16.0825],[101.4845,16.0825]],[[101.485,16.0817],[101.4853,16.082],[101.4853,16.0817],[101.485,16.0817]],[[101.4808,16.0815],[101.4817,16.0817],[101.4817,16.0815],[101.4808,16.0815]],[[101.4803,16.0812],[101.4805,16.0815],[101.4805,16.0812],[101.4803,16.0812]],[[101.4853,16.0814],[101.4856,16.0809],[101.485,16.0806],[101.485,16.0812],[101.4853,16.0814]],[[101.4845,16.0809],[101.4847,16.0812],[101.4847,16.0809],[101.4845,16.0809]],[[101.4833,16.0806],[101.4836,16.0809],[101.4836,16.0806],[101.4833,16.0806]],[[101.4889,16.0806],[101.4892,16.0808],[101.4892,16.0806],[101.4889,16.0806]],[[101.48,16.0804],[101.4803,16.0807],[101.4802,16.0804],[101.48,16.0804]],[[101.4836,16.0806],[101.4845,16.0803],[101.4844,16.0801],[101.4836,16.0801],[101.4836,16.0806]],[[101.4847,16.0801],[101.485,16.0803],[101.485,16.0801],[101.4847,16.0801]],[[101.4808,16.0798],[101.4811,16.0801],[101.4811,16.0798],[101.4808,16.0798]],[[101.4825,16.0798],[101.4828,16.0801],[101.4828,16.0798],[101.4825,16.0798]],[[101.483,16.0801],[101.4833,16.0795],[101.4828,16.0793],[101.4827,16.0782],[101.4811,16.0774],[101.483,16.0801]],[[101.485,16.0795],[101.4853,16.0801],[101.4856,16.0795],[101.485,16.0795]],[[101.4856,16.0798],[101.4859,16.0801],[101.4858,16.0798],[101.4856,16.0798]],[[101.487,16.0798],[101.4873,16.08],[101.4872,16.0798],[101.487,16.0798]],[[101.4836,16.0798],[101.4842,16.0798],[101.4839,16.079],[101.4836,16.079],[101.4836,16.0798]],[[101.4858,16.0792],[101.4864,16.0795],[101.4864,16.0792],[101.4858,16.0792]],[[101.4839,16.0787],[101.4841,16.0776],[101.4827,16.0768],[101.4824,16.0758],[101.481,16.0752],[101.4808,16.0763],[101.4822,16.076],[101.4825,16.0774],[101.483,16.0774],[101.4839,16.0782],[101.4839,16.0787]],[[101.481,16.0766],[101.4813,16.0769],[101.4813,16.0766],[101.481,16.0766]],[[101.483,16.0755],[101.4833,16.0749],[101.4827,16.0747],[101.4827,16.0752],[101.483,16.0755]],[[101.4821,16.075],[101.4824,16.0752],[101.4824,16.075],[101.4821,16.075]],[[101.4819,16.0747],[101.4821,16.075],[101.4821,16.0747],[101.4819,16.0747]],[[101.483,16.0722],[101.4832,16.0725],[101.4832,16.0722],[101.483,16.0722]]]}},{"type":"Feature","properties":{"kind":"flood","area_km2":0.409,"conf":"low","date":"2026-10-04"},"geometry":{"type":"Polygon","coordinates":[[[101.68,16.1753],[101.6783,16.175],[101.678,16.1737],[101.6768,16.1734],[101.6763,16.1726],[101.6771,16.1718],[101.6768,16.1699],[101.6774,16.1699],[101.6762,16.1691],[101.6762,16.1669],[101.677,16.1666],[101.6776,16.1691],[101.6779,16.1685],[101.6785,16.1685],[101.6785,16.1693],[101.679,16.1696],[101.679,16.1671],[101.6776,16.1672],[101.6776,16.1661],[101.6779,16.1666],[101.6787,16.1663],[101.6787,16.1669],[101.6801,16.1669],[101.6812,16.1658],[101.681,16.169],[101.6832,16.169],[101.6838,16.1695],[101.6835,16.1712],[101.6844,16.1711],[101.6846,16.1692],[101.6855,16.1692],[101.6855,16.17],[101.6863,16.1706],[101.6863,16.1714],[101.683,16.172],[101.683,16.1709],[101.6821,16.1706],[101.6824,16.1698],[101.6818,16.1695],[101.6807,16.1704],[101.6813,16.172],[101.6807,16.1715],[101.6805,16.1715],[101.6805,16.1717],[101.6799,16.1717],[101.6799,16.1726],[101.6794,16.1726],[101.6794,16.1723],[101.6791,16.1723],[101.6791,16.172],[101.6788,16.172],[101.6794,16.1731],[101.6788,16.1731],[101.6785,16.1737],[101.6799,16.1744],[101.68,16.1753]],[[101.6785,16.1745],[101.6788,16.1747],[101.6788,16.1745],[101.6785,16.1745]],[[101.6785,16.1712],[101.6788,16.172],[101.6788,16.1712],[101.6785,16.1712]],[[101.6802,16.1712],[101.6805,16.1715],[101.6805,16.1712],[101.6802,16.1712]],[[101.6799,16.1712],[101.6802,16.1707],[101.6799,16.1707],[101.6799,16.1704],[101.6796,16.1704],[101.6799,16.1712]],[[101.6793,16.1701],[101.6796,16.1704],[101.6796,16.1701],[101.6793,16.1701]],[[101.6776,16.1699],[101.6779,16.1701],[101.6779,16.1699],[101.6776,16.1699]],[[101.679,16.1699],[101.6793,16.1701],[101.6793,16.1699],[101.679,16.1699]],[[101.6782,16.1696],[101.6788,16.1699],[101.6788,16.1696],[101.6782,16.1696]]]}},{"type":"Feature","properties":{"kind":"flood","area_km2":0.202,"conf":"low","date":"2026-10-04"},"geometry":{"type":"Polygon","coordinates":[[[101.6853,16.1771],[101.6828,16.1758],[101.6811,16.1758],[101.6819,16.1739],[101.6813,16.1739],[101.6799,16.1726],[101.681,16.172],[101.681,16.1731],[101.6816,16.1733],[101.6813,16.1728],[101.6816,16.172],[101.6822,16.1731],[101.6864,16.1733],[101.6869,16.1738],[101.687,16.1754],[101.6853,16.1755],[101.6858,16.1757],[101.6856,16.1765],[101.6864,16.1763],[101.6864,16.1771],[101.6853,16.1771]],[[101.6842,16.176],[101.6845,16.1763],[101.6844,16.176],[101.6842,16.176]],[[101.6828,16.1755],[101.6833,16.1755],[101.6833,16.1752],[101.683,16.175],[101.6825,16.175],[101.6828,16.1755]],[[101.6833,16.1747],[101.6836,16.1752],[101.6839,16.1747],[101.6833,16.1747]],[[101.6822,16.175],[101.6825,16.1744],[101.6819,16.1742],[101.6819,16.1747],[101.6822,16.175]],[[101.6816,16.1733],[101.6819,16.1736],[101.6819,16.1733],[101.6816,16.1733]]]}},{"type":"Feature","properties":{"kind":"flood","area_km2":0.158,"conf":"low","date":"2026-10-09"},"geometry":{"type":"Polygon","coordinates":[[[101.2036,16.5558],[101.2038,16.5548],[101.203,16.5548],[101.2033,16.5531],[101.2066,16.5526],[101.2066,16.5534],[101.2075,16.5534],[101.2075,16.5525],[101.2083,16.5525],[101.2083,16.5555],[101.2075,16.5555],[101.2075,16.555],[101.2069,16.555],[101.2053,16.5558],[101.2036,16.5558]],[[101.205,16.5542],[101.2052,16.5547],[101.2052,16.5542],[101.205,16.5542]]]}},{"type":"Feature","properties":{"kind":"flood","area_km2":0.137,"conf":"low","date":"2026-10-04"},"geometry":{"type":"Polygon","coordinates":[[[101.6882,16.1603],[101.6882,16.1597],[101.6895,16.1589],[101.6895,16.1581],[101.6901,16.1581],[101.6895,16.1573],[101.687,16.1573],[101.6867,16.1581],[101.685,16.1579],[101.6864,16.1576],[101.6873,16.1565],[101.6898,16.157],[101.6912,16.1564],[101.6934,16.1567],[101.6935,16.1575],[101.6926,16.1567],[101.6929,16.1578],[101.6926,16.1578],[101.6926,16.158],[101.6923,16.158],[101.6915,16.1589],[101.6912,16.1597],[101.6882,16.1603]],[[101.6915,16.158],[101.6923,16.158],[101.6918,16.1578],[101.6923,16.1575],[101.692,16.157],[101.6912,16.1575],[101.6915,16.158]],[[101.6901,16.1573],[101.6904,16.1578],[101.6906,16.1572],[101.6901,16.1573]]]}},{"type":"Feature","properties":{"kind":"flood","area_km2":0.077,"conf":"low","date":"2026-10-09"},"geometry":{"type":"Polygon","coordinates":[[[101.2022,16.5594],[101.2022,16.558],[101.2033,16.5577],[101.2073,16.5582],[101.207,16.5593],[101.2022,16.5594]]]}},{"type":"Feature","properties":{"kind":"flood","area_km2":0.071,"conf":"low","date":"2026-10-09"},"geometry":{"type":"Polygon","coordinates":[[[101.2084,16.4636],[101.2084,16.4628],[101.209,16.4623],[101.2087,16.4609],[101.2098,16.4601],[101.2106,16.4601],[101.2104,16.4633],[101.2084,16.4636]]]}},{"type":"Feature","properties":{"kind":"flood","area_km2":0.065,"conf":"low","date":"2026-10-04"},"geometry":{"type":"Polygon","coordinates":[[[101.9253,16.645],[101.923,16.6448],[101.9236,16.6432],[101.9224,16.6434],[101.9219,16.6432],[101.9219,16.6424],[101.9241,16.6421],[101.9241,16.6431],[101.9253,16.6442],[101.9253,16.645]]]}},{"type":"Feature","properties":{"kind":"flood","area_km2":0.065,"conf":"low","date":"2026-10-04"},"geometry":{"type":"Polygon","coordinates":[[[101.8513,16.3304],[101.8515,16.3288],[101.8532,16.3288],[101.8532,16.3277],[101.8537,16.3272],[101.8551,16.3271],[101.8551,16.3279],[101.8535,16.3291],[101.8532,16.3301],[101.8513,16.3304]],[[101.8524,16.3291],[101.8529,16.3296],[101.8529,16.3291],[101.8524,16.3291]]]}},{"type":"Feature","properties":{"kind":"flood","area_km2":0.065,"conf":"low","date":"2026-10-09"},"geometry":{"type":"Polygon","coordinates":[[[101.1206,16.2897],[101.1206,16.2886],[101.1211,16.2884],[101.1211,16.2878],[101.1231,16.2878],[101.1234,16.2883],[101.1245,16.2883],[101.1245,16.2894],[101.1226,16.2892],[101.1206,16.2897]]]}},{"type":"Feature","properties":{"kind":"flood","area_km2":0.065,"conf":"low","date":"2026-10-09"},"geometry":{"type":"Polygon","coordinates":[[[101.1032,16.1845],[101.1021,16.1839],[101.1001,16.1839],[101.0998,16.1821],[101.1009,16.182],[101.1009,16.1826],[101.1018,16.1831],[101.1021,16.1823],[101.1029,16.1823],[101.1029,16.1834],[101.1035,16.1834],[101.1038,16.1842],[101.1032,16.1845]]]}},{"type":"Feature","properties":{"kind":"flood","area_km2":0.056,"conf":"low","date":"2026-10-04"},"geometry":{"type":"Polygon","coordinates":[[[101.6888,16.1624],[101.6882,16.1619],[101.689,16.1608],[101.6907,16.1605],[101.691,16.1613],[101.6915,16.1613],[101.6915,16.1608],[101.6924,16.1607],[101.6921,16.1618],[101.6888,16.1624]]]}},{"type":"Feature","properties":{"kind":"flood","area_km2":0.055,"conf":"low","date":"2026-10-04"},"geometry":{"type":"Polygon","coordinates":[[[101.2569,16.8645],[101.2552,16.864],[101.2552,16.8632],[101.2561,16.8626],[101.2563,16.861],[101.2572,16.861],[101.2572,16.864],[101.2569,16.8645]]]}},{"type":"Feature","properties":{"kind":"flood","area_km2":0.051,"conf":"low","date":"2026-10-09"},"geometry":{"type":"Polygon","coordinates":[[[101.2011,16.5616],[101.2011,16.561],[101.2,16.5613],[101.2,16.5589],[101.2005,16.5586],[101.2014,16.5586],[101.2014,16.5599],[101.2019,16.5605],[101.202,16.5615],[101.2011,16.5616]]]}},{"type":"Feature","properties":{"kind":"seasonal","area_km2":1.07,"date":"2026-10-04"},"geometry":{"type":"Polygon","coordinates":[[[101.6094,16.6037],[101.6094,16.6026],[101.608,16.6027],[101.608,16.6016],[101.6065,16.6013],[101.6065,16.5983],[101.6059,16.5986],[101.606,16.5997],[101.6046,16.6],[101.6046,16.6011],[101.6035,16.6011],[101.6034,16.5992],[101.6029,16.5992],[101.6023,16.6003],[101.6015,16.6003],[101.6012,16.5989],[101.6012,16.5981],[101.6017,16.5981],[101.6026,16.5973],[101.602,16.5954],[101.6025,16.5954],[101.6028,16.5949],[101.6039,16.5948],[101.6039,16.5943],[101.6048,16.5938],[101.6045,16.5919],[101.605,16.5916],[101.6056,16.59],[101.6039,16.5894],[101.6038,16.5886],[101.6058,16.5881],[101.6058,16.5859],[101.606,16.5848],[101.6066,16.5845],[101.6066,16.5829],[101.606,16.5824],[101.606,16.5815],[101.6054,16.5813],[101.6051,16.5799],[101.6032,16.5797],[101.6032,16.5791],[101.6046,16.5783],[101.6045,16.5775],[101.6057,16.5778],[101.6063,16.5807],[101.6074,16.5813],[101.6074,16.5821],[101.6085,16.5823],[101.6094,16.5823],[101.6094,16.5815],[101.6085,16.581],[101.6091,16.5796],[101.609,16.5777],[101.6099,16.5777],[101.6099,16.5782],[101.6105,16.5785],[101.6116,16.5774],[101.6113,16.5793],[101.6105,16.5804],[101.6096,16.5804],[101.6102,16.5807],[101.6102,16.5826],[101.6097,16.5831],[101.6074,16.5829],[101.6072,16.5864],[101.6066,16.5864],[101.6072,16.5878],[101.6069,16.5891],[101.6064,16.5891],[101.6061,16.5913],[101.6075,16.5888],[101.6077,16.5848],[101.6091,16.5845],[101.6091,16.5853],[101.6083,16.5853],[101.6077,16.5861],[101.6078,16.5891],[101.6072,16.5905],[101.6092,16.5899],[101.6095,16.591],[101.6112,16.5907],[101.6112,16.5929],[101.6118,16.5934],[101.6126,16.5931],[101.6143,16.5936],[101.6146,16.5928],[101.6154,16.5928],[101.6152,16.5939],[101.616,16.595],[101.616,16.5958],[101.6149,16.5958],[101.6146,16.5947],[101.6135,16.5945],[101.6129,16.5937],[101.6115,16.5939],[101.6112,16.5945],[101.6101,16.5945],[101.6095,16.5932],[101.6084,16.5932],[101.6081,16.5926],[101.6064,16.5929],[101.6065,16.5943],[101.6062,16.5943],[101.6062,16.5954],[101.6053,16.5959],[101.6042,16.5959],[101.604,16.5965],[101.6048,16.5975],[101.6054,16.5975],[101.6065,16.5967],[101.6065,16.5962],[101.6073,16.5962],[101.607,16.5967],[101.6076,16.5967],[101.6076,16.5975],[101.6082,16.598],[101.609,16.5978],[101.609,16.5991],[101.6079,16.5994],[101.6082,16.6013],[101.6091,16.6013],[101.6093,16.6007],[101.6108,16.6007],[101.611,16.6013],[101.6105,16.6034],[101.6094,16.6037]],[[101.604,16.5989],[101.6043,16.5992],[101.6043,16.5989],[101.604,16.5989]],[[101.6034,16.5959],[101.6037,16.5965],[101.6037,16.5959],[101.6034,16.5959]],[[101.6048,16.5951],[101.6051,16.5954],[101.6051,16.5951],[101.6048,16.5951]],[[101.6051,16.5948],[101.6056,16.5951],[101.6056,16.5948],[101.6051,16.5948]],[[101.6059,16.5935],[101.6062,16.5943],[101.6062,16.5935],[101.6059,16.5935]],[[101.6059,16.5929],[101.6062,16.5932],[101.6062,16.5929],[101.6059,16.5929]],[[101.6056,16.5929],[101.6061,16.5924],[101.6061,16.5916],[101.6056,16.5924],[101.605,16.5924],[101.6056,16.5929]],[[101.609,16.5926],[101.6092,16.5929],[101.6092,16.5926],[101.609,16.5926]],[[101.6092,16.5926],[101.6098,16.5926],[101.6098,16.5923],[101.6095,16.5923],[101.6095,16.5921],[101.6092,16.5921],[101.6092,16.5926]],[[101.6064,16.5921],[101.607,16.5924],[101.607,16.5921],[101.6064,16.5921]],[[101.6098,16.5921],[101.6101,16.5923],[101.6101,16.5921],[101.6098,16.5921]],[[101.607,16.5918],[101.6073,16.5921],[101.6073,16.5918],[101.607,16.5918]],[[101.6089,16.5918],[101.6092,16.5921],[101.6092,16.5918],[101.6089,16.5918]],[[101.6101,16.5918],[101.6104,16.5921],[101.6104,16.5918],[101.6101,16.5918]],[[101.6073,16.5918],[101.6081,16.5918],[101.6084,16.591],[101.6075,16.5913],[101.6073,16.5918]],[[101.6103,16.5912],[101.6106,16.5915],[101.6106,16.5912],[101.6103,16.5912]],[[101.6084,16.5907],[101.6089,16.591],[101.6089,16.5907],[101.6084,16.5907]]]}},{"type":"Feature","properties":{"kind":"seasonal","area_km2":1.041,"date":"2026-10-09"},"geometry":{"type":"Polygon","coordinates":[[[101.1331,16.0139],[101.1305,16.0137],[101.1302,16.0115],[101.1314,16.0112],[101.1314,16.0118],[101.1319,16.0118],[101.1319,16.0091],[101.1313,16.0088],[101.1313,16.0077],[101.1319,16.0069],[101.1307,16.005],[101.1299,16.005],[101.1299,16.0056],[101.1307,16.0061],[101.1308,16.0072],[101.1296,16.0072],[101.1291,16.0067],[101.129,16.0042],[101.1299,16.0026],[101.1299,16.0015],[101.131,16.0015],[101.1307,16.0026],[101.1313,16.0028],[101.1313,16.0039],[101.1307,16.0042],[101.1307,16.0047],[101.1316,16.0045],[101.1321,16.0026],[101.1313,16.002],[101.1313,16.0012],[101.1307,16.0007],[101.1307,15.9988],[101.1321,15.9985],[101.1332,16.0001],[101.134,16.0001],[101.1343,15.9993],[101.1352,15.9993],[101.1352,15.9998],[101.1357,16.0001],[101.1352,16.0028],[101.1369,16.0031],[101.1377,16.0044],[101.1383,16.0044],[101.1391,16.0052],[101.14,16.0052],[101.14,16.006],[101.1389,16.0068],[101.1392,16.0082],[101.1367,16.0098],[101.1367,16.0112],[101.1345,16.012],[101.1345,16.0126],[101.1331,16.0139]],[[101.1356,16.0101],[101.1358,16.0107],[101.1358,16.0101],[101.1356,16.0101]],[[101.133,16.0093],[101.1336,16.0096],[101.1336,16.0093],[101.133,16.0093]],[[101.1344,16.0063],[101.1352,16.0063],[101.1347,16.0053],[101.1341,16.0055],[101.1344,16.0063]]]}},{"type":"Feature","properties":{"kind":"seasonal","area_km2":0.879,"date":"2026-10-09"},"geometry":{"type":"Polygon","coordinates":[[[101.2339,16.0124],[101.2331,16.0108],[101.2317,16.0108],[101.2306,16.0102],[101.2311,16.0089],[101.23,16.0073],[101.2286,16.0076],[101.2285,16.0048],[101.2299,16.0046],[101.2302,16.0024],[101.231,16.0024],[101.2313,16.0035],[101.2327,16.0037],[101.2333,16.0051],[101.2347,16.005],[101.235,16.004],[101.2358,16.0034],[101.2352,16.0007],[101.2363,16.0007],[101.2369,16.0001],[101.2369,15.9991],[101.2388,15.9988],[101.2391,15.9974],[101.2427,15.9974],[101.243,15.9993],[101.24,15.9993],[101.2383,16.0001],[101.2383,16.002],[101.2375,16.0026],[101.2375,16.0039],[101.2381,16.0042],[101.2381,16.0056],[101.2392,16.0055],[101.2395,16.0064],[101.2381,16.0064],[101.2375,16.0069],[101.2375,16.0075],[101.237,16.0077],[101.2373,16.0091],[101.2364,16.0094],[101.2364,16.011],[101.2359,16.011],[101.2351,16.0121],[101.2339,16.0124]]]}},{"type":"Feature","properties":{"kind":"seasonal","area_km2":0.728,"date":"2026-10-09"},"geometry":{"type":"Polygon","coordinates":[[[101.113,16.0776],[101.1133,16.0762],[101.1164,16.0762],[101.1163,16.0756],[101.1135,16.0754],[101.1135,16.0743],[101.113,16.074],[101.1132,16.0727],[101.1124,16.0722],[101.1124,16.0713],[101.1138,16.0711],[101.114,16.0697],[101.1149,16.0697],[101.1152,16.0702],[101.1149,16.0719],[101.1157,16.0716],[101.1163,16.0694],[101.1191,16.0699],[101.1196,16.0694],[101.1191,16.0686],[101.1177,16.0691],[101.1157,16.0686],[101.116,16.0672],[101.1188,16.0672],[101.1194,16.068],[101.1202,16.0683],[101.1202,16.0691],[101.1211,16.0702],[101.1211,16.0718],[101.1205,16.0732],[101.1211,16.0753],[101.1172,16.0754],[101.1172,16.0762],[101.1217,16.0761],[101.1217,16.0769],[101.1211,16.0769],[101.1211,16.0775],[101.113,16.0776]],[[101.118,16.0737],[101.1191,16.0737],[101.1194,16.0729],[101.1183,16.0732],[101.118,16.0737]]]}},{"type":"Feature","properties":{"kind":"seasonal","area_km2":0.554,"date":"2026-10-09"},"geometry":{"type":"Polygon","coordinates":[[[101.1541,16.8046],[101.1524,16.8038],[101.1524,16.803],[101.1512,16.8017],[101.1512,16.8009],[101.1518,16.8006],[101.1515,16.7995],[101.1493,16.7998],[101.1478,16.7979],[101.1473,16.7979],[101.1467,16.7987],[101.1461,16.7982],[101.1453,16.7982],[101.1442,16.7993],[101.1425,16.7993],[101.1445,16.7985],[101.1444,16.7974],[101.1439,16.7969],[101.1441,16.7961],[101.1453,16.796],[101.1458,16.7952],[101.1469,16.7949],[101.1484,16.7949],[101.1489,16.7957],[101.1509,16.7949],[101.1517,16.7965],[101.1529,16.7968],[101.1534,16.7976],[101.1546,16.7976],[101.1549,16.8043],[101.1541,16.8046]],[[101.1459,16.7977],[101.1467,16.7971],[101.1464,16.7966],[101.1456,16.7969],[101.1459,16.7977]],[[101.1492,16.7957],[101.1495,16.796],[101.1495,16.7957],[101.1492,16.7957]]]}},{"type":"Feature","properties":{"kind":"seasonal","area_km2":0.547,"date":"2026-10-04"},"geometry":{"type":"Polygon","coordinates":[[[101.681,16.169],[101.6812,16.1658],[101.6801,16.1669],[101.6787,16.1669],[101.6787,16.1663],[101.6782,16.1663],[101.6781,16.1655],[101.6784,16.165],[101.6793,16.1652],[101.6792,16.1644],[101.6809,16.1636],[101.6812,16.1631],[101.6775,16.1634],[101.6776,16.1639],[101.6767,16.1642],[101.6776,16.165],[101.6776,16.1658],[101.6773,16.1666],[101.6765,16.1666],[101.6759,16.1661],[101.6759,16.1653],[101.6756,16.1658],[101.6751,16.1658],[101.6748,16.1648],[101.6742,16.1645],[101.6742,16.1637],[101.6736,16.1637],[101.6739,16.1629],[101.6747,16.1629],[101.6747,16.1623],[101.6742,16.1623],[101.6747,16.1621],[101.6742,16.1612],[101.675,16.1607],[101.675,16.1602],[101.673,16.1613],[101.6733,16.1604],[101.675,16.1596],[101.6755,16.1596],[101.6753,16.1601],[101.68,16.1595],[101.68,16.1601],[101.6812,16.1606],[101.6806,16.1609],[101.6812,16.1628],[101.6817,16.1625],[101.682,16.1633],[101.6823,16.1625],[101.6831,16.1628],[101.6829,16.1644],[101.6823,16.1647],[101.6824,16.166],[101.6826,16.1666],[101.6843,16.1668],[101.6843,16.1673],[101.6832,16.1671],[101.6821,16.1682],[101.6832,16.1682],[101.6832,16.169],[101.681,16.169]],[[101.6821,16.1671],[101.6824,16.1676],[101.6824,16.1671],[101.6821,16.1671]],[[101.6824,16.1666],[101.6826,16.1668],[101.6826,16.1666],[101.6824,16.1666]],[[101.677,16.1653],[101.6773,16.1655],[101.6773,16.1653],[101.677,16.1653]],[[101.6767,16.165],[101.677,16.1653],[101.677,16.165],[101.6767,16.165]],[[101.6764,16.1647],[101.6767,16.165],[101.6767,16.1647],[101.6764,16.1647]],[[101.6801,16.1644],[101.6804,16.1647],[101.6804,16.1644],[101.6801,16.1644]],[[101.6753,16.1642],[101.6756,16.1645],[101.6756,16.1642],[101.6753,16.1642]],[[101.675,16.1639],[101.6756,16.1639],[101.6756,16.1634],[101.6753,16.1634],[101.675,16.1639]],[[101.6823,16.1633],[101.6826,16.1636],[101.6826,16.1633],[101.6823,16.1633]],[[101.6747,16.1629],[101.675,16.1631],[101.675,16.1629],[101.6747,16.1629]],[[101.6759,16.1631],[101.6764,16.1628],[101.6764,16.1623],[101.6759,16.1626],[101.6759,16.1631]],[[101.6764,16.1628],[101.6767,16.1631],[101.6767,16.1628],[101.6764,16.1628]],[[101.6767,16.1626],[101.6773,16.1628],[101.6773,16.1626],[101.6767,16.1626]],[[101.6806,16.1622],[101.6809,16.1625],[101.6809,16.1622],[101.6806,16.1622]],[[101.6767,16.162],[101.6773,16.1623],[101.6773,16.162],[101.6767,16.162]],[[101.6753,16.1618],[101.6756,16.162],[101.6756,16.1618],[101.6753,16.1618]],[[101.6781,16.1598],[101.6783,16.1601],[101.6783,16.1598],[101.6781,16.1598]]]}},{"type":"Feature","properties":{"kind":"seasonal","area_km2":0.532,"date":"2026-10-04"},"geometry":{"type":"Polygon","coordinates":[[[101.324,16.474],[101.3229,16.4738],[101.3228,16.4722],[101.3209,16.4714],[101.32,16.4706],[101.32,16.47],[101.3211,16.47],[101.3239,16.4675],[101.3236,16.4665],[101.3242,16.4662],[101.3242,16.4656],[101.325,16.4654],[101.325,16.4648],[101.3264,16.4648],[101.3272,16.4637],[101.3278,16.4637],[101.3289,16.4642],[101.3287,16.465],[101.3306,16.4667],[101.3295,16.4667],[101.3289,16.4659],[101.3278,16.4661],[101.3276,16.4708],[101.3282,16.471],[101.3279,16.4716],[101.3273,16.471],[101.3268,16.471],[101.327,16.4716],[101.3265,16.4716],[101.3265,16.4705],[101.3259,16.47],[101.3254,16.4705],[101.3256,16.4716],[101.3268,16.4718],[101.3271,16.4724],[101.3257,16.4724],[101.3265,16.4727],[101.3265,16.4735],[101.324,16.474]],[[101.3245,16.473],[101.3254,16.4732],[101.3254,16.4729],[101.3245,16.473]],[[101.3248,16.4724],[101.3251,16.4727],[101.3251,16.4724],[101.3248,16.4724]]]}},{"type":"Feature","properties":{"kind":"seasonal","area_km2":0.53,"date":"2026-10-09"},"geometry":{"type":"Polygon","coordinates":[[[101.1003,16.4943],[101.0998,16.494],[101.0998,16.4932],[101.1006,16.4921],[101.1006,16.491],[101.1014,16.491],[101.1014,16.4905],[101.1003,16.49],[101.1003,16.4891],[101.0989,16.4892],[101.0989,16.4883],[101.1,16.4875],[101.0994,16.4873],[101.0994,16.4862],[101.0988,16.4862],[101.0977,16.4848],[101.0971,16.4851],[101.0971,16.4846],[101.0991,16.4846],[101.0997,16.4835],[101.1011,16.4837],[101.1027,16.4832],[101.103,16.4826],[101.1039,16.4826],[101.1039,16.4834],[101.105,16.4842],[101.1047,16.485],[101.1056,16.4858],[101.1056,16.4864],[101.1053,16.4869],[101.1045,16.4869],[101.1045,16.4886],[101.1037,16.4894],[101.1031,16.4918],[101.1009,16.4929],[101.1009,16.4937],[101.1003,16.4943]]]}},{"type":"Feature","properties":{"kind":"seasonal","area_km2":0.486,"date":"2026-10-09"},"geometry":{"type":"Polygon","coordinates":[[[101.1237,16.1054],[101.1237,16.1038],[101.1223,16.1035],[101.1216,16.0989],[101.1233,16.0973],[101.1236,16.0959],[101.125,16.0959],[101.1258,16.0972],[101.1258,16.0986],[101.1244,16.0986],[101.1244,16.0991],[101.1256,16.0991],[101.1256,16.101],[101.1262,16.101],[101.1264,16.0999],[101.127,16.0997],[101.127,16.0975],[101.1264,16.0975],[101.1264,16.0964],[101.1272,16.0964],[101.1272,16.0972],[101.1284,16.0975],[101.1284,16.0988],[101.1278,16.0991],[101.1278,16.0996],[101.1298,16.0996],[101.1295,16.1015],[101.1278,16.1015],[101.1273,16.1021],[101.1278,16.1026],[101.1279,16.1034],[101.1273,16.1034],[101.127,16.104],[101.1253,16.1037],[101.1256,16.1016],[101.125,16.1016],[101.1245,16.1054],[101.1237,16.1054]]]}},{"type":"Feature","properties":{"kind":"seasonal","area_km2":0.435,"date":"2026-10-09"},"geometry":{"type":"Polygon","coordinates":[[[101.1239,16.2875],[101.1237,16.2867],[101.122,16.2865],[101.1211,16.284],[101.1211,16.2824],[101.1244,16.2813],[101.1244,16.2807],[101.1227,16.281],[101.1227,16.2797],[101.1236,16.2794],[101.1233,16.2783],[101.1238,16.2772],[101.125,16.2772],[101.1255,16.2764],[101.1266,16.2764],[101.1266,16.2772],[101.1258,16.2775],[101.1264,16.2794],[101.1255,16.2796],[101.125,16.2807],[101.1264,16.2821],[101.127,16.2859],[101.1259,16.287],[101.1239,16.2875]],[[101.1236,16.2864],[101.1239,16.2867],[101.1239,16.2864],[101.1236,16.2864]],[[101.1245,16.2845],[101.125,16.2845],[101.125,16.284],[101.1259,16.284],[101.1259,16.2834],[101.1242,16.2832],[101.1245,16.2845]]]}},{"type":"Feature","properties":{"kind":"seasonal","area_km2":0.412,"date":"2026-10-04"},"geometry":{"type":"Polygon","coordinates":[[[101.7946,16.4274],[101.7945,16.4249],[101.794,16.4249],[101.7939,16.4241],[101.7945,16.4241],[101.7948,16.4236],[101.7965,16.4241],[101.7956,16.4244],[101.7954,16.4252],[101.7948,16.4252],[101.7948,16.4263],[101.7954,16.426],[101.7954,16.4255],[101.7968,16.4255],[101.7967,16.4238],[101.7962,16.4233],[101.7973,16.423],[101.7992,16.4203],[101.7998,16.4203],[101.7995,16.4211],[101.8001,16.4211],[101.8001,16.4219],[101.8026,16.4221],[101.8026,16.421],[101.8018,16.4211],[101.8006,16.42],[101.8003,16.4186],[101.7998,16.4186],[101.7997,16.4176],[101.8003,16.4178],[101.8015,16.4202],[101.8032,16.4205],[101.8037,16.4213],[101.8054,16.4215],[101.8057,16.4242],[101.8052,16.4243],[101.8049,16.4251],[101.8041,16.4251],[101.8038,16.4243],[101.8029,16.424],[101.8024,16.4232],[101.801,16.4238],[101.8007,16.4257],[101.7987,16.4257],[101.7987,16.4243],[101.7979,16.4241],[101.7979,16.4257],[101.7973,16.4263],[101.7959,16.426],[101.7954,16.4274],[101.7946,16.4274]],[[101.7945,16.4249],[101.7951,16.4249],[101.7951,16.4244],[101.7945,16.4244],[101.7945,16.4249]],[[101.8001,16.4232],[101.8007,16.4235],[101.8007,16.4232],[101.8001,16.4232]],[[101.7998,16.4219],[101.8001,16.4222],[101.8001,16.4219],[101.7998,16.4219]]]}},{"type":"Feature","properties":{"kind":"seasonal","area_km2":0.361,"date":"2026-10-09"},"geometry":{"type":"Polygon","coordinates":[[[101.097,16.1813],[101.0964,16.1769],[101.0986,16.1769],[101.0989,16.1764],[101.1017,16.1763],[101.1026,16.1771],[101.1045,16.1771],[101.1046,16.1801],[101.1029,16.1796],[101.1023,16.1807],[101.1006,16.181],[101.0992,16.181],[101.0992,16.1802],[101.0989,16.1802],[101.099,16.1812],[101.097,16.1813]],[[101.0984,16.1802],[101.0989,16.1802],[101.0989,16.1794],[101.0984,16.1794],[101.0984,16.1802]],[[101.1006,16.1791],[101.1012,16.1791],[101.1012,16.178],[101.1006,16.178],[101.1006,16.1791]]]}},{"type":"Feature","properties":{"kind":"seasonal","area_km2":0.336,"date":"2026-10-09"},"geometry":{"type":"Polygon","coordinates":[[[101.2568,16.0051],[101.2568,16.0045],[101.256,16.0048],[101.2557,16.0043],[101.2549,16.0043],[101.2551,16.0037],[101.2546,16.0035],[101.2549,16.0029],[101.2543,16.0021],[101.2543,16.0],[101.2531,15.9994],[101.2523,15.9981],[101.2503,15.9981],[101.2484,15.9992],[101.2467,15.9979],[101.2467,15.9973],[101.2576,15.9972],[101.2573,15.998],[101.2565,15.998],[101.2559,15.9986],[101.2562,16.001],[101.2557,16.0016],[101.2565,16.0032],[101.2591,16.0034],[101.2596,16.004],[101.2596,16.0048],[101.2585,16.0045],[101.2585,16.0051],[101.2568,16.0051]]]}},{"type":"Feature","properties":{"kind":"seasonal","area_km2":0.318,"date":"2026-10-04"},"geometry":{"type":"Polygon","coordinates":[[[101.7937,16.4279],[101.7906,16.4277],[101.7903,16.4272],[101.7898,16.4272],[101.7898,16.4266],[101.7886,16.4261],[101.7886,16.425],[101.7881,16.425],[101.7878,16.4242],[101.7878,16.4231],[101.7892,16.4228],[101.7902,16.4207],[101.7916,16.4198],[101.7919,16.4187],[101.7911,16.4185],[101.7913,16.4171],[101.7919,16.4171],[101.7913,16.4182],[101.7933,16.4182],[101.7933,16.419],[101.7925,16.4201],[101.7928,16.4206],[101.7914,16.4206],[101.7922,16.4217],[101.7931,16.4217],[101.7934,16.4222],[101.7928,16.4228],[101.7903,16.4231],[101.7914,16.4239],[101.7914,16.425],[101.792,16.425],[101.792,16.4258],[101.7914,16.4261],[101.7931,16.426],[101.7937,16.4279]],[[101.7892,16.4234],[101.7897,16.4236],[101.7897,16.4234],[101.7892,16.4234]]]}},{"type":"Feature","properties":{"kind":"seasonal","area_km2":0.309,"date":"2026-10-04"},"geometry":{"type":"Polygon","coordinates":[[[101.9792,16.3698],[101.9792,16.3661],[101.9803,16.3652],[101.9805,16.3639],[101.9814,16.3628],[101.9836,16.3627],[101.9839,16.3641],[101.9845,16.3644],[101.9845,16.3654],[101.9837,16.3665],[101.9834,16.3684],[101.9792,16.3698]],[[101.9814,16.363],[101.9817,16.3639],[101.9816,16.363],[101.9814,16.363]]]}},{"type":"Feature","properties":{"kind":"seasonal","area_km2":0.269,"date":"2026-10-04"},"geometry":{"type":"Polygon","coordinates":[[[101.6139,16.5646],[101.6142,16.5625],[101.6153,16.5625],[101.6156,16.563],[101.6161,16.563],[101.6164,16.5616],[101.617,16.5611],[101.6184,16.5611],[101.6184,16.5605],[101.6189,16.5602],[101.618,16.5575],[101.6192,16.5575],[101.6195,16.5586],[101.6203,16.5589],[101.6206,16.5581],[101.6217,16.5578],[101.622,16.5567],[101.6225,16.557],[101.6231,16.5564],[101.6231,16.5559],[101.6225,16.5556],[101.6228,16.5542],[101.6245,16.5542],[101.625,16.5529],[101.6241,16.5504],[101.625,16.5507],[101.6252,16.5501],[101.6286,16.5501],[101.6278,16.5504],[101.6278,16.5512],[101.6269,16.5507],[101.6253,16.551],[101.625,16.552],[101.6256,16.5531],[101.625,16.5531],[101.625,16.5537],[101.6256,16.5545],[101.625,16.555],[101.6233,16.555],[101.6236,16.5569],[101.6234,16.5575],[101.6223,16.5575],[101.6223,16.5591],[101.6209,16.5589],[101.6209,16.5597],[101.62,16.56],[101.6192,16.5616],[101.6173,16.5622],[101.617,16.5633],[101.6159,16.5635],[101.6159,16.5641],[101.6145,16.5641],[101.6148,16.5646],[101.6139,16.5646]],[[101.6197,16.5592],[101.62,16.56],[101.62,16.5591],[101.6197,16.5592]]]}},{"type":"Feature","properties":{"kind":"seasonal","area_km2":0.267,"date":"2026-10-04"},"geometry":{"type":"Polygon","coordinates":[[[101.6834,16.1628],[101.682,16.1617],[101.682,16.1609],[101.6809,16.1601],[101.6809,16.1595],[101.6823,16.159],[101.6839,16.1592],[101.6842,16.1584],[101.6848,16.1589],[101.6853,16.1587],[101.6853,16.1581],[101.6867,16.1581],[101.6862,16.1587],[101.6867,16.1589],[101.6873,16.1581],[101.6879,16.1581],[101.6876,16.1573],[101.6895,16.1573],[101.6895,16.1589],[101.689,16.1594],[101.6879,16.1594],[101.6882,16.1605],[101.6871,16.1611],[101.6868,16.1622],[101.6854,16.1622],[101.6848,16.1617],[101.684,16.1617],[101.6845,16.1625],[101.6834,16.1628]],[[101.6834,16.1619],[101.684,16.1622],[101.684,16.1619],[101.6834,16.1619]],[[101.6829,16.1617],[101.6831,16.1619],[101.6831,16.1617],[101.6829,16.1617]],[[101.6837,16.1614],[101.684,16.1617],[101.684,16.1614],[101.6837,16.1614]],[[101.684,16.1614],[101.6848,16.1614],[101.6854,16.1608],[101.6845,16.1608],[101.684,16.1614]],[[101.6856,16.1603],[101.6859,16.1606],[101.6859,16.1603],[101.6856,16.1603]],[[101.6831,16.1598],[101.6834,16.16],[101.6834,16.1598],[101.6831,16.1598]],[[101.6873,16.1597],[101.6876,16.16],[101.6876,16.1597],[101.6873,16.1597]],[[101.6867,16.1592],[101.6873,16.1595],[101.6873,16.1592],[101.6867,16.1592]],[[101.6873,16.1589],[101.6876,16.1592],[101.6876,16.1589],[101.6873,16.1589]],[[101.6884,16.1586],[101.6887,16.1589],[101.6887,16.1586],[101.6884,16.1586]],[[101.6887,16.1584],[101.689,16.1586],[101.689,16.1583],[101.6887,16.1584]]]}},{"type":"Feature","properties":{"kind":"seasonal","area_km2":0.257,"date":"2026-10-09"},"geometry":{"type":"Polygon","coordinates":[[[101.1167,16.161],[101.1161,16.1583],[101.1172,16.1572],[101.1169,16.1521],[101.1174,16.1521],[101.1183,16.1531],[101.1194,16.1531],[101.12,16.1542],[101.12,16.1556],[101.1186,16.1567],[101.12,16.1585],[101.12,16.1596],[101.1181,16.1599],[101.1175,16.161],[101.1167,16.161]]]}},{"type":"Feature","properties":{"kind":"seasonal","area_km2":0.255,"date":"2026-10-04"},"geometry":{"type":"Polygon","coordinates":[[[101.6288,16.5636],[101.6285,16.5615],[101.6293,16.5615],[101.6299,16.5607],[101.6296,16.559],[101.6282,16.5588],[101.627,16.5577],[101.6256,16.5585],[101.6253,16.558],[101.6262,16.5577],[101.6267,16.5566],[101.6273,16.5569],[101.6289,16.5533],[101.6306,16.5528],[101.6306,16.5541],[101.6289,16.5542],[101.6298,16.5558],[101.6293,16.5558],[101.6293,16.5563],[101.6284,16.5563],[101.6281,16.5569],[101.6287,16.5569],[101.629,16.5577],[101.6293,16.5571],[101.6301,16.5571],[101.6304,16.5579],[101.6312,16.5579],[101.6313,16.5587],[101.6324,16.5593],[101.6324,16.5601],[101.6313,16.5601],[101.6307,16.5606],[101.6305,16.5636],[101.6288,16.5636]]]}},{"type":"Feature","properties":{"kind":"seasonal","area_km2":0.249,"date":"2026-10-09"},"geometry":{"type":"Polygon","coordinates":[[[101.0279,16.2833],[101.0271,16.2817],[101.0259,16.2812],[101.0248,16.2814],[101.0242,16.2806],[101.0234,16.2806],[101.0231,16.2815],[101.0223,16.2823],[101.0217,16.2823],[101.0217,16.2817],[101.0206,16.2809],[101.0195,16.2791],[101.0183,16.2793],[101.0186,16.278],[101.0194,16.2777],[101.0214,16.2796],[101.0234,16.2796],[101.0245,16.2787],[101.0256,16.2787],[101.0279,16.2809],[101.0293,16.2814],[101.0293,16.2825],[101.0288,16.2828],[101.0288,16.2833],[101.0279,16.2833]]]}},{"type":"Feature","properties":{"kind":"seasonal","area_km2":0.248,"date":"2026-10-04"},"geometry":{"type":"Polygon","coordinates":[[[101.9776,16.6318],[101.9756,16.6302],[101.9756,16.6281],[101.9781,16.6256],[101.9803,16.6255],[101.9809,16.6264],[101.9809,16.6274],[101.9804,16.6283],[101.9793,16.6288],[101.9787,16.6299],[101.979,16.6318],[101.9776,16.6318]]]}},{"type":"Feature","properties":{"kind":"seasonal","area_km2":0.243,"date":"2026-10-09"},"geometry":{"type":"Polygon","coordinates":[[[101.1365,16.2812],[101.1365,16.2803],[101.1345,16.2798],[101.1348,16.2787],[101.1339,16.2787],[101.1328,16.2769],[101.1328,16.2758],[101.1342,16.2755],[101.1336,16.2747],[101.1331,16.2747],[101.1333,16.2728],[101.1344,16.2728],[101.1345,16.2733],[101.135,16.2736],[101.135,16.2747],[101.1362,16.2755],[101.1378,16.2752],[101.137,16.2776],[101.1359,16.2779],[101.1359,16.2785],[101.1365,16.2787],[101.1365,16.2801],[101.1373,16.2801],[101.1373,16.2812],[101.1365,16.2812]]]}},{"type":"Feature","properties":{"kind":"seasonal","area_km2":0.231,"date":"2026-10-04"},"geometry":{"type":"Polygon","coordinates":[[[101.2921,16.4142],[101.2918,16.4129],[101.2899,16.414],[101.2873,16.4137],[101.2867,16.4116],[101.2876,16.4116],[101.2879,16.4132],[101.289,16.4129],[101.2884,16.4129],[101.2879,16.4113],[101.2878,16.4091],[101.2867,16.4091],[101.2859,16.4086],[101.2853,16.4089],[101.2853,16.4097],[101.2845,16.41],[101.2856,16.4075],[101.2864,16.4075],[101.2867,16.4083],[101.2881,16.4083],[101.2881,16.4091],[101.2895,16.4099],[101.2895,16.411],[101.2884,16.4113],[101.2884,16.4118],[101.289,16.4118],[101.2893,16.4124],[101.2907,16.4121],[101.2901,16.4118],[101.2901,16.4113],[101.2912,16.411],[101.2926,16.4123],[101.2949,16.4126],[101.2946,16.4142],[101.2921,16.4142]]]}},{"type":"Feature","properties":{"kind":"seasonal","area_km2":0.216,"date":"2026-10-04"},"geometry":{"type":"Polygon","coordinates":[[[101.8682,16.0845],[101.8673,16.084],[101.8673,16.0821],[101.8676,16.0815],[101.8681,16.0815],[101.8678,16.0807],[101.8692,16.0796],[101.8706,16.0796],[101.8709,16.0807],[101.8715,16.0806],[101.8723,16.0817],[101.8724,16.0836],[101.871,16.0836],[101.8699,16.0845],[101.8682,16.0845]],[[101.8698,16.0828],[101.8704,16.0831],[101.8704,16.0828],[101.8698,16.0828]]]}},{"type":"Feature","properties":{"kind":"seasonal","area_km2":0.211,"date":"2026-10-09"},"geometry":{"type":"Polygon","coordinates":[[[101.1608,16.4522],[101.1608,16.4457],[101.1591,16.4452],[101.1591,16.4436],[101.1596,16.443],[101.1619,16.4433],[101.1616,16.4471],[101.1628,16.4484],[101.1631,16.4503],[101.1631,16.4519],[101.1608,16.4522]]]}},{"type":"Feature","properties":{"kind":"seasonal","area_km2":0.204,"date":"2026-10-04"},"geometry":{"type":"Polygon","coordinates":[[[101.8875,16.898],[101.8864,16.8972],[101.8864,16.8967],[101.8849,16.8964],[101.8849,16.8948],[101.8838,16.8948],[101.8841,16.8943],[101.8835,16.8932],[101.8829,16.8946],[101.8824,16.8946],[101.8826,16.893],[101.8843,16.891],[101.8849,16.891],[101.8849,16.8916],[101.8854,16.8916],[101.8857,16.8924],[101.8863,16.8921],[101.8874,16.8926],[101.8863,16.8951],[101.8877,16.8956],[101.8883,16.898],[101.8875,16.898]],[[101.8843,16.8932],[101.8846,16.8935],[101.8846,16.8932],[101.8843,16.8932]],[[101.8841,16.8929],[101.8843,16.8932],[101.8843,16.8929],[101.8841,16.8929]],[[101.8866,16.8929],[101.8869,16.8932],[101.8869,16.8929],[101.8866,16.8929]],[[101.8843,16.8927],[101.8846,16.8929],[101.8846,16.8927],[101.8843,16.8927]],[[101.8846,16.8927],[101.8855,16.8926],[101.8854,16.8924],[101.8849,16.8924],[101.8846,16.8918],[101.8846,16.8927]],[[101.8835,16.8921],[101.8838,16.8924],[101.8838,16.8921],[101.8835,16.8921]]]}},{"type":"Feature","properties":{"kind":"seasonal","area_km2":0.193,"date":"2026-10-09"},"geometry":{"type":"Polygon","coordinates":[[[101.1189,16.2347],[101.1191,16.2328],[101.1183,16.2323],[101.1169,16.2326],[101.1169,16.229],[101.1185,16.2293],[101.1186,16.2301],[101.1214,16.2301],[101.1214,16.2312],[101.1208,16.2314],[101.1208,16.232],[101.1228,16.2322],[101.1225,16.2331],[101.1203,16.2328],[101.12,16.2347],[101.1189,16.2347]]]}},{"type":"Feature","properties":{"kind":"seasonal","area_km2":0.181,"date":"2026-10-09"},"geometry":{"type":"Polygon","coordinates":[[[101.0808,16.456],[101.0805,16.4544],[101.0794,16.4544],[101.0788,16.4549],[101.078,16.4541],[101.0774,16.4547],[101.0769,16.4541],[101.076,16.4542],[101.0755,16.4531],[101.0743,16.4525],[101.0749,16.4506],[101.0777,16.4498],[101.078,16.452],[101.0771,16.4522],[101.0771,16.4531],[101.0786,16.4536],[101.0805,16.4533],[101.0808,16.4546],[101.0814,16.4546],[101.0808,16.456]]]}},{"type":"Feature","properties":{"kind":"seasonal","area_km2":0.172,"date":"2026-10-04"},"geometry":{"type":"Polygon","coordinates":[[[101.8532,16.3315],[101.8532,16.3304],[101.8526,16.3301],[101.8532,16.3301],[101.8535,16.3291],[101.8551,16.3279],[101.8551,16.3271],[101.8523,16.3272],[101.8523,16.3261],[101.8543,16.3258],[101.8543,16.3266],[101.856,16.3263],[101.8565,16.3268],[101.8571,16.3266],[101.8571,16.326],[101.8579,16.326],[101.8585,16.3265],[101.8582,16.3279],[101.8574,16.3285],[101.8568,16.3282],[101.8563,16.3287],[101.8554,16.3288],[101.8554,16.3293],[101.8563,16.3296],[101.8546,16.3301],[101.8541,16.3315],[101.8532,16.3315]],[[101.8563,16.3271],[101.8568,16.3274],[101.8568,16.3271],[101.8563,16.3271]]]}},{"type":"Feature","properties":{"kind":"seasonal","area_km2":0.166,"date":"2026-10-09"},"geometry":{"type":"Polygon","coordinates":[[[101.0903,16.7909],[101.0901,16.7904],[101.0889,16.7904],[101.0903,16.7879],[101.0909,16.7885],[101.092,16.7879],[101.094,16.7879],[101.0943,16.7884],[101.0954,16.7884],[101.0957,16.7879],[101.0951,16.7876],[101.0951,16.7871],[101.0959,16.7863],[101.0956,16.7854],[101.0968,16.7857],[101.0971,16.7871],[101.0965,16.7873],[101.0965,16.7892],[101.096,16.7898],[101.0937,16.7898],[101.0931,16.789],[101.0926,16.7895],[101.0917,16.7895],[101.0909,16.789],[101.0909,16.7904],[101.0903,16.7909]]]}},{"type":"Feature","properties":{"kind":"seasonal","area_km2":0.165,"date":"2026-10-09"},"geometry":{"type":"Polygon","coordinates":[[[101.122,16.2363],[101.122,16.235],[101.1209,16.235],[101.1208,16.2336],[101.1234,16.2336],[101.1234,16.2344],[101.1242,16.2344],[101.1242,16.2303],[101.1256,16.2303],[101.1265,16.2341],[101.1259,16.2341],[101.1253,16.2349],[101.1242,16.2349],[101.1228,16.2363],[101.122,16.2363]]]}},{"type":"Feature","properties":{"kind":"seasonal","area_km2":0.161,"date":"2026-10-04"},"geometry":{"type":"Polygon","coordinates":[[[101.3798,16.8336],[101.3798,16.8317],[101.3778,16.8279],[101.3783,16.8279],[101.3798,16.8295],[101.3798,16.8282],[101.3806,16.8281],[101.3809,16.8271],[101.3817,16.827],[101.3823,16.8279],[101.3823,16.8297],[101.3812,16.8306],[101.381,16.8336],[101.3798,16.8336]],[[101.3798,16.8295],[101.3801,16.8298],[101.3801,16.8295],[101.3798,16.8295]]]}},{"type":"Feature","properties":{"kind":"seasonal","area_km2":0.153,"date":"2026-10-04"},"geometry":{"type":"Polygon","coordinates":[[[101.6188,16.5703],[101.6188,16.5692],[101.6176,16.5687],[101.6187,16.5684],[101.6179,16.5678],[101.6182,16.5659],[101.6187,16.5657],[101.6181,16.5651],[101.6181,16.5638],[101.6206,16.5632],[101.6206,16.5627],[101.6212,16.5624],[101.6223,16.5624],[101.6204,16.564],[101.619,16.5643],[101.619,16.5659],[101.6184,16.5662],[101.6184,16.5668],[101.6201,16.5678],[101.6207,16.5673],[101.6215,16.5673],[101.6216,16.5686],[101.6205,16.5703],[101.6188,16.5703]]]}},{"type":"Feature","properties":{"kind":"seasonal","area_km2":0.151,"date":"2026-10-04"},"geometry":{"type":"Polygon","coordinates":[[[101.9174,16.737],[101.9171,16.7364],[101.9154,16.7365],[101.9154,16.7354],[101.916,16.7348],[101.9182,16.7345],[101.9182,16.7351],[101.9188,16.7353],[101.9196,16.7342],[101.9227,16.7342],[101.9227,16.7358],[101.9219,16.7358],[101.9219,16.7364],[101.921,16.7364],[101.9199,16.7353],[101.9199,16.7364],[101.9174,16.737]]]}},{"type":"Feature","properties":{"kind":"seasonal","area_km2":0.151,"date":"2026-10-09"},"geometry":{"type":"Polygon","coordinates":[[[101.1313,16.4967],[101.1304,16.4953],[101.1282,16.4959],[101.1282,16.4946],[101.1296,16.4948],[101.1298,16.4937],[101.1307,16.4937],[101.1315,16.4945],[101.1326,16.4945],[101.134,16.494],[101.1346,16.4929],[101.1357,16.4929],[101.1363,16.4934],[101.1363,16.4939],[101.1355,16.4942],[101.1355,16.4956],[101.1349,16.4956],[101.1349,16.495],[101.1338,16.495],[101.1329,16.4953],[101.1324,16.4964],[101.1313,16.4967]]]}},{"type":"Feature","properties":{"kind":"seasonal","area_km2":0.14,"date":"2026-10-09"},"geometry":{"type":"Polygon","coordinates":[[[101.1027,16.1869],[101.1027,16.1858],[101.1041,16.1858],[101.1032,16.1815],[101.104,16.1804],[101.1048,16.1804],[101.1057,16.1855],[101.1049,16.1866],[101.1027,16.1869]]]}},{"type":"Feature","properties":{"kind":"seasonal","area_km2":0.139,"date":"2026-10-04"},"geometry":{"type":"Polygon","coordinates":[[[101.9508,16.6411],[101.9499,16.6395],[101.9499,16.6384],[101.9513,16.6376],[101.9544,16.6373],[101.9544,16.6381],[101.9538,16.6384],[101.953,16.6408],[101.9508,16.6411]]]}},{"type":"Feature","properties":{"kind":"seasonal","area_km2":0.131,"date":"2026-10-04"},"geometry":{"type":"Polygon","coordinates":[[[101.9078,16.3242],[101.9073,16.3237],[101.9047,16.324],[101.9028,16.3238],[101.9022,16.3232],[101.9008,16.3233],[101.9008,16.3222],[101.9042,16.3221],[101.9033,16.3232],[101.907,16.3229],[101.9075,16.3234],[101.9081,16.3234],[101.9084,16.3226],[101.9072,16.3221],[101.9089,16.3221],[101.9092,16.3226],[101.9098,16.3226],[101.9098,16.3231],[101.9103,16.3231],[101.9104,16.3239],[101.9078,16.3242]]]}},{"type":"Feature","properties":{"kind":"seasonal","area_km2":0.126,"date":"2026-10-09"},"geometry":{"type":"Polygon","coordinates":[[[101.1219,16.2241],[101.1216,16.2228],[101.121,16.2233],[101.1199,16.2233],[101.1193,16.2228],[101.1193,16.2217],[101.1227,16.2211],[101.1235,16.2219],[101.1235,16.2206],[101.1243,16.2206],[101.1243,16.2211],[101.1249,16.2211],[101.1249,16.2219],[101.1235,16.2227],[101.1235,16.2236],[101.1219,16.2241]]]}},{"type":"Feature","properties":{"kind":"seasonal","area_km2":0.119,"date":"2026-10-04"},"geometry":{"type":"Polygon","coordinates":[[[101.6053,16.5732],[101.6053,16.5726],[101.6045,16.5721],[101.6047,16.5705],[101.6075,16.5701],[101.6067,16.5674],[101.6083,16.5677],[101.6089,16.5669],[101.6095,16.5669],[101.6095,16.5677],[101.6106,16.5682],[101.6095,16.5682],[101.6092,16.569],[101.6084,16.5691],[101.6078,16.5685],[101.6084,16.5701],[101.6078,16.5704],[101.6078,16.571],[101.6067,16.571],[101.6067,16.5715],[101.6056,16.5721],[101.6062,16.5731],[101.6053,16.5732]]]}},{"type":"Feature","properties":{"kind":"seasonal","area_km2":0.117,"date":"2026-10-09"},"geometry":{"type":"Polygon","coordinates":[[[101.0884,16.4527],[101.0884,16.4521],[101.0895,16.4513],[101.0892,16.4497],[101.0886,16.4494],[101.0889,16.4483],[101.088,16.4478],[101.088,16.4483],[101.0872,16.4486],[101.0869,16.4473],[101.0858,16.447],[101.0855,16.4465],[101.0849,16.444],[101.0843,16.444],[101.0838,16.4451],[101.083,16.4451],[101.0827,16.4462],[101.0821,16.4465],[101.0824,16.4449],[101.083,16.4449],[101.0832,16.4441],[101.0843,16.4432],[101.0852,16.4432],[101.086,16.4448],[101.0861,16.4462],[101.0875,16.4475],[101.0886,16.4475],[101.0894,16.4481],[101.0892,16.4494],[101.09,16.4499],[101.09,16.4513],[101.0898,16.4521],[101.0889,16.4521],[101.0884,16.4527]]]}},{"type":"Feature","properties":{"kind":"seasonal","area_km2":0.116,"date":"2026-10-09"},"geometry":{"type":"Polygon","coordinates":[[[101.1992,16.6396],[101.1994,16.6353],[101.2008,16.635],[101.2028,16.6363],[101.2028,16.6372],[101.2003,16.6396],[101.1992,16.6396]],[[101.2003,16.6372],[101.2011,16.6369],[101.2011,16.6364],[101.1997,16.6358],[101.1997,16.6366],[101.2003,16.6366],[101.2003,16.6372]],[[101.2017,16.6366],[101.202,16.6369],[101.202,16.6366],[101.2017,16.6366]]]}},{"type":"Feature","properties":{"kind":"seasonal","area_km2":0.116,"date":"2026-10-09"},"geometry":{"type":"Polygon","coordinates":[[[101.0982,16.1878],[101.0979,16.1842],[101.097,16.1829],[101.0973,16.1818],[101.099,16.1818],[101.099,16.1853],[101.0998,16.1853],[101.0996,16.1875],[101.0982,16.1878]]]}},{"type":"Feature","properties":{"kind":"seasonal","area_km2":0.11,"date":"2026-10-09"},"geometry":{"type":"Polygon","coordinates":[[[101.1282,16.0845],[101.1249,16.0845],[101.1248,16.0831],[101.1237,16.0818],[101.1237,16.0807],[101.1257,16.0807],[101.1257,16.0815],[101.1265,16.0818],[101.126,16.0829],[101.1268,16.0834],[101.1282,16.0834],[101.1282,16.0845]]]}},{"type":"Feature","properties":{"kind":"seasonal","area_km2":0.106,"date":"2026-10-09"},"geometry":{"type":"Polygon","coordinates":[[[101.1168,16.1675],[101.1165,16.167],[101.1154,16.167],[101.1145,16.1662],[101.1142,16.1648],[101.1148,16.1643],[101.1181,16.1648],[101.1179,16.1672],[101.1168,16.1675]]]}},{"type":"Feature","properties":{"kind":"seasonal","area_km2":0.101,"date":"2026-10-09"},"geometry":{"type":"Polygon","coordinates":[[[101.1028,16.5959],[101.1026,16.5954],[101.1034,16.5948],[101.1034,16.5943],[101.102,16.5932],[101.1022,16.5927],[101.1028,16.5932],[101.1048,16.5926],[101.1056,16.5937],[101.1062,16.5934],[101.1059,16.5929],[101.1087,16.5931],[101.1076,16.5942],[101.1054,16.5943],[101.104,16.5954],[101.1034,16.5951],[101.1034,16.5959],[101.1028,16.5959]],[[101.1065,16.5932],[101.1068,16.5934],[101.1067,16.5932],[101.1065,16.5932]],[[101.107,16.5932],[101.1079,16.5934],[101.1079,16.5932],[101.107,16.5932]]]}}]}
