{"type":"FeatureCollection","properties":{"v":3,"id":"t101_5","name":"ยะลา · นราธิวาส","aoi":[101.0,5.618,101.9749,6.0],"date":"2026-10-09","dates":["2026-10-09","2026-10-02"],"baseline_years":3,"has_seasonal":false,"totals":{"flood_high":0.0,"flood_low":0.0,"seasonal":0.0},"provinces":[],"scenes":{"2026-10-09":1,"2026-10-02":1},"baseline_dates":["2025-10-07","2024-10-06","2023-10-11"],"threshold_db":-15.0,"auto":true,"source":"Sentinel-1 RTC (Copernicus/ESA) via Microsoft Planetary Computer; JRC Global Surface Water; Copernicus DEM","method":"ChatGeo v3: Otsu threshold on VV dB; minus JRC permanent water and slope > 5 deg; unusual = water not present in most of the previous 3 years (same season)","added":"2026-10-10T16:37+07:00"},"features":[]}
