{"type":"FeatureCollection","properties":{"v":3,"id":"t102_13","name":"สระแก้ว · จันทบุรี · ปราจีนบุรี","aoi":[102.0,13.0,102.866,14.0],"date":"2026-10-04","dates":["2026-10-04"],"baseline_years":3,"has_seasonal":true,"totals":{"flood_high":0.0,"flood_low":1.3,"seasonal":20.1},"provinces":[{"name":"สระแก้ว","zone":"th-e","flood_high":0.0,"flood_low":1.3,"seasonal":16.8},{"name":"จันทบุรี","zone":"th-e","flood_high":0.0,"flood_low":0.0,"seasonal":3.3}],"scenes":{"2026-10-04":2},"baseline_dates":["2025-10-08","2024-10-07","2023-10-05"],"threshold_db":-15.0,"auto":true,"source":"Sentinel-1 RTC (Copernicus/ESA) via Microsoft Planetary Computer; JRC Global Surface Water; Copernicus DEM","method":"ChatGeo v3: Otsu threshold on VV dB; minus JRC permanent water and slope > 5 deg; unusual = water not present in most of the previous 3 years (same season)","added":"2026-10-09T17:06+07:00"},"features":[{"type":"Feature","properties":{"kind":"flood","area_km2":0.459,"conf":"low","date":"2026-10-04"},"geometry":{"type":"Polygon","coordinates":[[[102.4018,13.6005],[102.4012,13.5988],[102.3984,13.5993],[102.3982,13.5983],[102.3971,13.5982],[102.3971,13.5977],[102.3965,13.5974],[102.3963,13.5958],[102.3952,13.5955],[102.3949,13.595],[102.3935,13.595],[102.3935,13.5963],[102.3946,13.5969],[102.3949,13.5985],[102.3948,13.5993],[102.3937,13.5996],[102.3937,13.599],[102.3926,13.5982],[102.3921,13.596],[102.3913,13.5955],[102.3916,13.5939],[102.3908,13.593],[102.3908,13.5909],[102.3919,13.5911],[102.3924,13.5928],[102.3935,13.5928],[102.3941,13.592],[102.3958,13.5917],[102.396,13.5928],[102.3946,13.5928],[102.3941,13.5941],[102.396,13.5936],[102.3966,13.5947],[102.3966,13.5939],[102.3974,13.5939],[102.3979,13.5945],[102.3977,13.5964],[102.3982,13.5969],[102.4024,13.5972],[102.4029,13.6002],[102.4018,13.6005]]]}},{"type":"Feature","properties":{"kind":"flood","area_km2":0.14,"conf":"low","date":"2026-10-04"},"geometry":{"type":"Polygon","coordinates":[[[102.0311,13.8854],[102.0317,13.8822],[102.0339,13.8819],[102.0342,13.8833],[102.0358,13.8836],[102.0361,13.8855],[102.0344,13.8849],[102.0311,13.8854]]]}},{"type":"Feature","properties":{"kind":"flood","area_km2":0.132,"conf":"low","date":"2026-10-04"},"geometry":{"type":"Polygon","coordinates":[[[102.0101,13.9225],[102.0096,13.922],[102.0096,13.9212],[102.0118,13.9207],[102.0124,13.9201],[102.0121,13.9185],[102.0129,13.9177],[102.014,13.9177],[102.014,13.9196],[102.0146,13.9199],[102.0146,13.9207],[102.0135,13.9207],[102.0129,13.9215],[102.0121,13.9215],[102.0118,13.9226],[102.0101,13.9225]],[[102.0124,13.9201],[102.0126,13.9204],[102.0126,13.9201],[102.0124,13.9201]]]}},{"type":"Feature","properties":{"kind":"flood","area_km2":0.127,"conf":"low","date":"2026-10-04"},"geometry":{"type":"Polygon","coordinates":[[[102.0613,13.8866],[102.0608,13.8858],[102.0608,13.8841],[102.06,13.8836],[102.06,13.882],[102.0594,13.8817],[102.0597,13.8801],[102.0608,13.8804],[102.0611,13.882],[102.0622,13.882],[102.0622,13.8828],[102.0616,13.8828],[102.0616,13.8833],[102.0622,13.8833],[102.0622,13.8852],[102.0627,13.8855],[102.0627,13.8866],[102.0613,13.8866]]]}},{"type":"Feature","properties":{"kind":"flood","area_km2":0.09,"conf":"low","date":"2026-10-04"},"geometry":{"type":"Polygon","coordinates":[[[102.6597,13.969],[102.6583,13.9687],[102.658,13.9673],[102.6558,13.9676],[102.6555,13.967],[102.655,13.967],[102.655,13.9659],[102.6564,13.9654],[102.6569,13.9657],[102.6569,13.9665],[102.6575,13.967],[102.6597,13.9671],[102.6597,13.9665],[102.6603,13.9663],[102.6602,13.9679],[102.6597,13.969]]]}},{"type":"Feature","properties":{"kind":"flood","area_km2":0.083,"conf":"low","date":"2026-10-04"},"geometry":{"type":"Polygon","coordinates":[[[102.0079,13.9244],[102.0068,13.9233],[102.0068,13.9209],[102.009,13.9212],[102.009,13.9223],[102.0084,13.9223],[102.0082,13.9228],[102.0093,13.9233],[102.0092,13.9244],[102.0079,13.9244]]]}},{"type":"Feature","properties":{"kind":"flood","area_km2":0.068,"conf":"low","date":"2026-10-04"},"geometry":{"type":"Polygon","coordinates":[[[102.0773,13.3991],[102.0768,13.3988],[102.0768,13.398],[102.0757,13.3972],[102.0762,13.3972],[102.0765,13.3961],[102.0785,13.3961],[102.0793,13.395],[102.0798,13.395],[102.0798,13.3956],[102.0787,13.3961],[102.0787,13.3972],[102.0776,13.398],[102.0773,13.3991]]]}},{"type":"Feature","properties":{"kind":"flood","area_km2":0.067,"conf":"low","date":"2026-10-04"},"geometry":{"type":"Polygon","coordinates":[[[102.0043,13.923],[102.0043,13.9217],[102.0048,13.9214],[102.0043,13.9195],[102.0057,13.9195],[102.0062,13.9209],[102.0059,13.923],[102.0043,13.923]]]}},{"type":"Feature","properties":{"kind":"flood","area_km2":0.066,"conf":"low","date":"2026-10-04"},"geometry":{"type":"Polygon","coordinates":[[[102.353,13.9712],[102.3527,13.9701],[102.3533,13.9701],[102.3533,13.9693],[102.358,13.9699],[102.3594,13.9689],[102.3588,13.9705],[102.3549,13.9702],[102.3538,13.9712],[102.353,13.9712]]]}},{"type":"Feature","properties":{"kind":"flood","area_km2":0.059,"conf":"low","date":"2026-10-04"},"geometry":{"type":"Polygon","coordinates":[[[102.0846,13.8855],[102.0846,13.885],[102.0835,13.8844],[102.0821,13.8847],[102.0821,13.8852],[102.0816,13.8852],[102.0813,13.8841],[102.0824,13.8833],[102.0835,13.8833],[102.0844,13.8842],[102.0855,13.8842],[102.0855,13.8855],[102.0846,13.8855]]]}},{"type":"Feature","properties":{"kind":"flood","area_km2":0.057,"conf":"low","date":"2026-10-04"},"geometry":{"type":"Polygon","coordinates":[[[102.6508,13.7713],[102.6503,13.7705],[102.6503,13.7694],[102.6509,13.7688],[102.6517,13.7688],[102.652,13.768],[102.6525,13.768],[102.6522,13.771],[102.6508,13.7713]]]}},{"type":"Feature","properties":{"kind":"seasonal","area_km2":10.979,"date":"2026-10-04"},"geometry":{"type":"Polygon","coordinates":[[[102.0989,13.4259],[102.0958,13.4229],[102.0953,13.4228],[102.0953,13.4223],[102.0936,13.4215],[102.092,13.4193],[102.0909,13.419],[102.0909,13.4185],[102.0904,13.4185],[102.0904,13.4176],[102.0898,13.4179],[102.0893,13.4168],[102.0884,13.4168],[102.0871,13.4154],[102.0843,13.4151],[102.0796,13.4159],[102.0746,13.4158],[102.0741,13.4164],[102.071,13.4166],[102.0685,13.4166],[102.0685,13.4158],[102.0671,13.4157],[102.0674,13.4144],[102.0697,13.4142],[102.0697,13.4125],[102.0686,13.4125],[102.0677,13.4114],[102.0678,13.4106],[102.0689,13.4095],[102.0705,13.4098],[102.0703,13.4077],[102.0695,13.4071],[102.0684,13.4071],[102.0684,13.406],[102.0678,13.4055],[102.0673,13.4055],[102.067,13.4063],[102.0653,13.406],[102.065,13.4068],[102.0642,13.4068],[102.0642,13.4051],[102.0634,13.4046],[102.062,13.4046],[102.0617,13.4059],[102.0603,13.4059],[102.0604,13.4043],[102.0579,13.404],[102.057,13.4056],[102.0556,13.4059],[102.0551,13.4053],[102.0551,13.4037],[102.0562,13.4034],[102.0568,13.4021],[102.0573,13.4021],[102.0571,13.4007],[102.0587,13.4005],[102.0607,13.401],[102.0621,13.3997],[102.0621,13.3989],[102.0613,13.3983],[102.061,13.3967],[102.0605,13.3962],[102.058,13.3956],[102.0577,13.395],[102.056,13.395],[102.0561,13.3939],[102.0597,13.3937],[102.0605,13.3945],[102.0616,13.3946],[102.0621,13.394],[102.0622,13.3932],[102.0613,13.3929],[102.0602,13.3913],[102.0586,13.3905],[102.0589,13.3888],[102.0581,13.388],[102.0581,13.3872],[102.0586,13.3872],[102.0584,13.3858],[102.0595,13.3859],[102.06,13.3872],[102.0608,13.3872],[102.0608,13.3878],[102.0619,13.3878],[102.0622,13.3897],[102.0633,13.3897],[102.0639,13.3905],[102.0644,13.3905],[102.0644,13.3916],[102.0658,13.3924],[102.066,13.3938],[102.066,13.3919],[102.0672,13.3919],[102.0674,13.3908],[102.0672,13.3892],[102.0666,13.3886],[102.0667,13.3873],[102.0675,13.3873],[102.0683,13.3887],[102.0713,13.3892],[102.0716,13.3901],[102.0722,13.3895],[102.0722,13.3874],[102.0738,13.3876],[102.075,13.3858],[102.0761,13.3858],[102.0763,13.3879],[102.0758,13.389],[102.0769,13.389],[102.0769,13.3901],[102.0774,13.3909],[102.0785,13.391],[102.0788,13.3904],[102.0799,13.3904],[102.0805,13.391],[102.0829,13.3907],[102.0829,13.3921],[102.0821,13.3923],[102.0824,13.3932],[102.0832,13.3932],[102.0835,13.3921],[102.0849,13.3921],[102.0848,13.3943],[102.0837,13.3943],[102.0829,13.3951],[102.0815,13.3951],[102.0815,13.394],[102.0807,13.394],[102.0807,13.3948],[102.0801,13.3945],[102.0785,13.3961],[102.0765,13.3958],[102.0762,13.3972],[102.0757,13.3972],[102.0743,13.3988],[102.0734,13.399],[102.0737,13.4007],[102.0751,13.4007],[102.0762,13.4004],[102.0765,13.3988],[102.0773,13.3988],[102.0776,13.3999],[102.0781,13.4002],[102.0781,13.4012],[102.0776,13.4015],[102.0773,13.4026],[102.0784,13.4034],[102.0786,13.4042],[102.0795,13.4042],[102.0797,13.4048],[102.0803,13.4045],[102.0811,13.4053],[102.082,13.4043],[102.0817,13.4024],[102.0828,13.4021],[102.0839,13.4029],[102.0844,13.4043],[102.0853,13.4046],[102.0852,13.4065],[102.0858,13.407],[102.0877,13.4065],[102.0877,13.406],[102.0883,13.4057],[102.0883,13.4046],[102.0872,13.4041],[102.0872,13.4032],[102.0875,13.4011],[102.0884,13.4003],[102.0887,13.3989],[102.09,13.3987],[102.0906,13.3979],[102.0914,13.3979],[102.0917,13.3995],[102.0925,13.4003],[102.0933,13.4001],[102.0934,13.3995],[102.0953,13.3977],[102.0954,13.3941],[102.0965,13.3939],[102.097,13.3952],[102.097,13.3969],[102.0978,13.3971],[102.0978,13.3982],[102.0975,13.3996],[102.0964,13.4001],[102.0961,13.4023],[102.0969,13.4025],[102.0966,13.4031],[102.0975,13.4031],[102.0975,13.402],[102.0991,13.4023],[102.0994,13.4045],[102.0999,13.4047],[102.0999,13.4061],[102.0988,13.4066],[102.0988,13.4088],[102.0996,13.4091],[102.0996,13.4099],[102.1007,13.4091],[102.1021,13.4091],[102.1032,13.408],[102.1035,13.4067],[102.1043,13.4067],[102.1052,13.4054],[102.1063,13.4054],[102.1063,13.4083],[102.1076,13.4084],[102.1074,13.4062],[102.1079,13.4062],[102.1082,13.4054],[102.1091,13.4054],[102.1099,13.4062],[102.1099,13.4073],[102.1104,13.4065],[102.1113,13.4065],[102.1115,13.4073],[102.1138,13.4068],[102.1137,13.4079],[102.1129,13.4079],[102.1137,13.4082],[102.1137,13.409],[102.1115,13.4098],[102.1115,13.4114],[102.1098,13.4146],[102.1078,13.4146],[102.1075,13.417],[102.107,13.417],[102.107,13.4176],[102.1064,13.4176],[102.1059,13.4184],[102.1042,13.4192],[102.1044,13.4208],[102.1056,13.4211],[102.1058,13.4222],[102.105,13.423],[102.1025,13.4229],[102.1025,13.4224],[102.1019,13.4221],[102.1017,13.4227],[102.1006,13.4226],[102.1005,13.4248],[102.0997,13.4251],[102.0997,13.4259],[102.0989,13.4259]],[[102.0785,13.4153],[102.0791,13.4151],[102.0788,13.4145],[102.0782,13.4148],[102.0785,13.4153]],[[102.0758,13.4126],[102.0769,13.4132],[102.0771,13.4126],[102.0758,13.4126]],[[102.0777,13.4129],[102.078,13.4132],[102.078,13.4129],[102.0777,13.4129]],[[102.0774,13.4126],[102.0777,13.4129],[102.0777,13.4126],[102.0774,13.4126]],[[102.0755,13.4121],[102.0758,13.4126],[102.0758,13.4121],[102.0755,13.4121]],[[102.0758,13.4112],[102.0761,13.4115],[102.0761,13.4112],[102.0758,13.4112]],[[102.0758,13.411],[102.0763,13.411],[102.0761,13.4102],[102.0758,13.4102],[102.0758,13.411]],[[102.1035,13.4113],[102.1043,13.4113],[102.1043,13.4105],[102.104,13.411],[102.1035,13.4108],[102.1035,13.4113]],[[102.0755,13.4102],[102.0758,13.4096],[102.0755,13.4096],[102.0755,13.4093],[102.0752,13.4093],[102.0755,13.4102]],[[102.083,13.41],[102.0833,13.4102],[102.0833,13.41],[102.083,13.41]],[[102.0816,13.4094],[102.0819,13.4097],[102.0819,13.4094],[102.0816,13.4094]],[[102.075,13.4091],[102.0752,13.4093],[102.0752,13.4091],[102.075,13.4091]],[[102.0827,13.4092],[102.0836,13.4089],[102.0827,13.4086],[102.0825,13.4078],[102.0827,13.4092]],[[102.0747,13.4085],[102.0753,13.4085],[102.0753,13.408],[102.0747,13.408],[102.0747,13.4085]],[[102.0755,13.408],[102.0758,13.4085],[102.0758,13.408],[102.0755,13.408]],[[102.0797,13.4086],[102.0802,13.4086],[102.08,13.4078],[102.0797,13.4078],[102.0797,13.4086]],[[102.0941,13.4087],[102.0949,13.4082],[102.0949,13.4077],[102.0944,13.4082],[102.0938,13.4079],[102.0941,13.4087]],[[102.0747,13.4077],[102.0753,13.4077],[102.075,13.4069],[102.0744,13.4069],[102.0747,13.4077]],[[102.0814,13.4072],[102.0816,13.4075],[102.0816,13.4072],[102.0814,13.4072]],[[102.0739,13.4066],[102.0744,13.4069],[102.0744,13.4066],[102.0739,13.4066]],[[102.072,13.4066],[102.0725,13.4066],[102.0728,13.4061],[102.072,13.4061],[102.0714,13.4044],[102.0703,13.4036],[102.0703,13.4041],[102.0711,13.405],[102.0711,13.4058],[102.072,13.4066]],[[102.0733,13.4063],[102.0736,13.4066],[102.0736,13.4063],[102.0733,13.4063]],[[102.1082,13.4065],[102.1085,13.4067],[102.1085,13.4065],[102.1082,13.4065]],[[102.0808,13.4062],[102.0811,13.4056],[102.08,13.4051],[102.08,13.4053],[102.0808,13.4062]],[[102.0648,13.4049],[102.0651,13.4052],[102.0651,13.4049],[102.0648,13.4049]],[[102.0651,13.4041],[102.0653,13.4043],[102.0653,13.4041],[102.0651,13.4041]],[[102.0618,13.4038],[102.0623,13.404],[102.0623,13.4038],[102.0618,13.4038]],[[102.0623,13.4035],[102.0626,13.4038],[102.0626,13.4035],[102.0623,13.4035]],[[102.0631,13.4032],[102.0634,13.4035],[102.0634,13.4032],[102.0631,13.4032]],[[102.0692,13.4036],[102.0698,13.4036],[102.0701,13.403],[102.0698,13.4022],[102.0687,13.4028],[102.0692,13.4036]],[[102.0665,13.4027],[102.0667,13.403],[102.0667,13.4027],[102.0665,13.4027]],[[102.067,13.4025],[102.0676,13.4017],[102.0665,13.4017],[102.0659,13.4011],[102.0659,13.4016],[102.067,13.4025]],[[102.0698,13.4017],[102.0701,13.402],[102.0701,13.4017],[102.0698,13.4017]],[[102.0687,13.4017],[102.0701,13.4014],[102.069,13.4011],[102.0701,13.4003],[102.0696,13.3995],[102.0698,13.3982],[102.0685,13.3984],[102.0684,13.3992],[102.0695,13.3998],[102.0695,13.4003],[102.0684,13.4009],[102.0687,13.4017]],[[102.0701,13.4014],[102.0704,13.4017],[102.0704,13.4014],[102.0701,13.4014]],[[102.0712,13.4014],[102.0715,13.4017],[102.0715,13.4014],[102.0712,13.4014]],[[102.072,13.4014],[102.0723,13.4017],[102.0723,13.4014],[102.072,13.4014]],[[102.0723,13.4012],[102.0726,13.4015],[102.0726,13.4012],[102.0723,13.4012]],[[102.0765,13.4004],[102.0776,13.4015],[102.0773,13.4004],[102.0765,13.4004]],[[102.0726,13.3979],[102.0729,13.3982],[102.0729,13.3979],[102.0726,13.3979]],[[102.0674,13.3976],[102.0676,13.3979],[102.0676,13.3976],[102.0674,13.3976]],[[102.0712,13.3976],[102.0726,13.3979],[102.0726,13.3977],[102.0712,13.3976]],[[102.0696,13.3968],[102.0699,13.3971],[102.0699,13.3968],[102.0696,13.3968]],[[102.0693,13.3963],[102.0696,13.3968],[102.0696,13.3963],[102.0693,13.3963]],[[102.069,13.396],[102.0693,13.3963],[102.0693,13.396],[102.069,13.396]],[[102.0682,13.3957],[102.0685,13.396],[102.0685,13.3957],[102.0682,13.3957]],[[102.0696,13.396],[102.0702,13.3957],[102.0704,13.3947],[102.0696,13.3952],[102.0696,13.396]],[[102.0762,13.3955],[102.0765,13.395],[102.076,13.3947],[102.076,13.3953],[102.0762,13.3955]],[[102.0768,13.395],[102.0771,13.3953],[102.0771,13.395],[102.0768,13.395]],[[102.0674,13.3946],[102.0677,13.3949],[102.0677,13.3946],[102.0674,13.3946]],[[102.0671,13.3943],[102.0674,13.3946],[102.0674,13.3943],[102.0671,13.3943]],[[102.0682,13.3944],[102.0685,13.3946],[102.0685,13.3944],[102.0682,13.3944]],[[102.0704,13.3944],[102.0707,13.3947],[102.0707,13.3944],[102.0704,13.3944]],[[102.0666,13.3943],[102.0671,13.3943],[102.0671,13.3941],[102.0663,13.3938],[102.0666,13.3943]],[[102.0696,13.3938],[102.0704,13.3944],[102.0702,13.3936],[102.0707,13.3933],[102.0705,13.3925],[102.0685,13.3911],[102.0674,13.3911],[102.0677,13.3916],[102.0685,13.3917],[102.0699,13.3925],[102.0702,13.3933],[102.0696,13.3938]],[[102.0826,13.3943],[102.0829,13.3945],[102.0829,13.3943],[102.0826,13.3943]],[[102.071,13.3936],[102.0713,13.3939],[102.0713,13.3936],[102.071,13.3936]],[[102.0754,13.3936],[102.0757,13.3939],[102.0757,13.3936],[102.0754,13.3936]],[[102.0674,13.3933],[102.0677,13.3935],[102.0677,13.3933],[102.0674,13.3933]],[[102.0796,13.3934],[102.0799,13.3937],[102.0799,13.3934],[102.0796,13.3934]],[[102.0685,13.3933],[102.0688,13.3927],[102.068,13.3927],[102.068,13.393],[102.0685,13.3933]],[[102.0757,13.3931],[102.076,13.3934],[102.076,13.3931],[102.0757,13.3931]],[[102.0754,13.3928],[102.0757,13.3931],[102.0757,13.3928],[102.0754,13.3928]],[[102.0782,13.3928],[102.0785,13.3931],[102.0785,13.3929],[102.0782,13.3928]],[[102.0683,13.3922],[102.0685,13.3925],[102.0685,13.3922],[102.0683,13.3922]],[[102.0754,13.3925],[102.0771,13.3926],[102.0771,13.392],[102.0755,13.392],[102.0754,13.3925]],[[102.0705,13.3909],[102.0708,13.3911],[102.0708,13.3909],[102.0705,13.3909]],[[102.0708,13.3903],[102.071,13.3906],[102.071,13.3903],[102.0708,13.3903]],[[102.0711,13.3901],[102.0713,13.3903],[102.0713,13.3901],[102.0711,13.3901]],[[102.06,13.3886],[102.0608,13.3889],[102.0608,13.3883],[102.06,13.3886]]]}},{"type":"Feature","properties":{"kind":"seasonal","area_km2":3.287,"date":"2026-10-04"},"geometry":{"type":"Polygon","coordinates":[[[102.3033,13.0363],[102.3027,13.0354],[102.3025,13.0333],[102.3019,13.033],[102.3019,13.0325],[102.3011,13.0322],[102.3014,13.0306],[102.3022,13.0306],[102.3028,13.0308],[102.3028,13.0314],[102.3036,13.0314],[102.3036,13.0306],[102.3028,13.0303],[102.3042,13.0303],[102.3056,13.0314],[102.3058,13.0303],[102.3081,13.0304],[102.3083,13.0298],[102.3089,13.0304],[102.3097,13.0304],[102.3097,13.0298],[102.3106,13.0293],[102.3095,13.0287],[102.3095,13.0279],[102.3106,13.0277],[102.3095,13.0277],[102.3097,13.0271],[102.3092,13.0271],[102.3092,13.0279],[102.3081,13.0276],[102.3078,13.0282],[102.3075,13.0276],[102.3064,13.0274],[102.307,13.0268],[102.3059,13.0263],[102.3064,13.026],[102.3062,13.0244],[102.307,13.0244],[102.307,13.0238],[102.3073,13.0244],[102.3076,13.0238],[102.3081,13.0241],[102.3079,13.023],[102.3062,13.023],[102.3062,13.0225],[102.3081,13.0228],[102.3082,13.0198],[102.3087,13.0198],[102.309,13.0193],[102.3085,13.019],[102.3093,13.0187],[102.3076,13.0182],[102.3079,13.0176],[102.3074,13.0176],[102.3076,13.0168],[102.3071,13.0165],[102.3065,13.0165],[102.3063,13.0176],[102.3057,13.0173],[102.3054,13.0181],[102.3049,13.0181],[102.3049,13.0176],[102.3043,13.0176],[102.3041,13.0162],[102.303,13.0162],[102.3035,13.0151],[102.3024,13.0151],[102.3024,13.0146],[102.303,13.0146],[102.3027,13.0135],[102.3024,13.014],[102.3019,13.0135],[102.3019,13.014],[102.3013,13.0143],[102.3016,13.0132],[102.3011,13.0129],[102.3011,13.0121],[102.3002,13.0118],[102.3,13.0127],[102.2986,13.0124],[102.2991,13.0118],[102.298,13.0118],[102.298,13.0126],[102.2966,13.0121],[102.2966,13.0124],[102.2964,13.0123],[102.2961,13.0132],[102.2969,13.0134],[102.2969,13.014],[102.2972,13.0134],[102.2977,13.014],[102.2972,13.0151],[102.2971,13.0164],[102.2947,13.0161],[102.2947,13.0172],[102.2969,13.0172],[102.2969,13.018],[102.2955,13.0183],[102.2952,13.0194],[102.2943,13.0196],[102.2946,13.0202],[102.2938,13.021],[102.2941,13.0215],[102.2935,13.0218],[102.2935,13.0223],[102.2943,13.0218],[102.2946,13.0226],[102.2954,13.0226],[102.2957,13.0216],[102.2963,13.0218],[102.2962,13.0237],[102.2951,13.0237],[102.2951,13.0232],[102.2943,13.0232],[102.2937,13.0242],[102.2926,13.025],[102.2926,13.0256],[102.2912,13.0256],[102.291,13.0239],[102.2896,13.0239],[102.2893,13.0245],[102.2877,13.0239],[102.2877,13.0247],[102.2863,13.0247],[102.2863,13.0228],[102.2871,13.0228],[102.2871,13.0236],[102.2877,13.0236],[102.288,13.0223],[102.2885,13.0223],[102.2885,13.0218],[102.2891,13.0215],[102.2891,13.0207],[102.2913,13.0204],[102.2919,13.0196],[102.2927,13.0196],[102.2927,13.0207],[102.2932,13.0207],[102.2935,13.0194],[102.2924,13.0191],[102.2922,13.0183],[102.2913,13.0177],[102.2914,13.0158],[102.2947,13.0159],[102.2947,13.015],[102.2919,13.015],[102.2919,13.0142],[102.2925,13.0142],[102.2922,13.0134],[102.2916,13.0145],[102.2889,13.0139],[102.2889,13.0115],[102.2909,13.0109],[102.2911,13.0096],[102.2912,13.008],[102.2898,13.0077],[102.2898,13.0066],[102.2917,13.0063],[102.2917,13.0077],[102.2923,13.0077],[102.2923,13.005],[102.2945,13.005],[102.2945,13.0064],[102.295,13.0064],[102.2964,13.0058],[102.2965,13.0042],[102.2984,13.0045],[102.2995,13.0037],[102.2995,13.0029],[102.3012,13.0026],[102.3014,13.0021],[102.3026,13.0024],[102.3028,13.0018],[102.3037,13.0019],[102.3034,13.0043],[102.3014,13.0048],[102.3006,13.0056],[102.3006,13.007],[102.2989,13.0083],[102.2981,13.0083],[102.2978,13.0097],[102.2983,13.0102],[102.2983,13.011],[102.2978,13.011],[102.2978,13.0115],[102.2991,13.0113],[102.2992,13.0102],[102.3027,13.0097],[102.3039,13.0089],[102.3055,13.0089],[102.3055,13.0108],[102.3047,13.0113],[102.3047,13.0127],[102.3063,13.0143],[102.3068,13.0144],[102.3071,13.0138],[102.3082,13.0138],[102.3085,13.0144],[102.3104,13.0147],[102.3107,13.013],[102.3149,13.0128],[102.3149,13.0139],[102.3138,13.0144],[102.3137,13.0158],[102.314,13.0163],[102.3146,13.0163],[102.3143,13.0177],[102.3115,13.0187],[102.3109,13.0193],[102.3112,13.0209],[102.309,13.0222],[102.309,13.0233],[102.3095,13.0233],[102.3092,13.0249],[102.3109,13.0255],[102.3108,13.0274],[102.3116,13.0304],[102.3116,13.032],[102.3111,13.032],[102.31,13.0334],[102.3102,13.0353],[102.308,13.0352],[102.308,13.0363],[102.3072,13.0363],[102.3069,13.0358],[102.3052,13.0363],[102.3033,13.0363]],[[102.3047,13.0317],[102.3053,13.032],[102.3053,13.0317],[102.3047,13.0317]],[[102.3069,13.0317],[102.3078,13.0317],[102.3078,13.0309],[102.3072,13.0309],[102.3069,13.0317]],[[102.3058,13.0309],[102.3061,13.0311],[102.3061,13.0309],[102.3058,13.0309]],[[102.31,13.0271],[102.3106,13.0271],[102.3106,13.0266],[102.3098,13.0266],[102.31,13.0271]],[[102.3087,13.0263],[102.3089,13.0268],[102.3092,13.0263],[102.3087,13.0263]],[[102.307,13.0266],[102.3081,13.0263],[102.3081,13.0257],[102.3076,13.0255],[102.307,13.0266]],[[102.3098,13.0258],[102.31,13.026],[102.31,13.0258],[102.3098,13.0258]],[[102.3065,13.0249],[102.3073,13.0252],[102.3073,13.0249],[102.3065,13.0249]],[[102.2902,13.0223],[102.2918,13.0218],[102.2916,13.0207],[102.2913,13.0212],[102.2902,13.0215],[102.2902,13.0223]],[[102.2932,13.021],[102.2935,13.0213],[102.2935,13.021],[102.2932,13.021]],[[102.309,13.0195],[102.3093,13.0198],[102.3093,13.0195],[102.309,13.0195]],[[102.3085,13.0179],[102.3087,13.0182],[102.3087,13.0179],[102.3085,13.0179]],[[102.3046,13.0168],[102.3049,13.0173],[102.3049,13.0168],[102.3046,13.0168]],[[102.3054,13.0168],[102.306,13.0168],[102.306,13.0162],[102.3054,13.0162],[102.3054,13.0168]],[[102.2955,13.0153],[102.2958,13.0156],[102.2958,13.0153],[102.2955,13.0153]],[[102.2969,13.0148],[102.2972,13.0151],[102.2972,13.0148],[102.2969,13.0148]],[[102.2963,13.014],[102.2966,13.0142],[102.2966,13.014],[102.2963,13.014]],[[102.2944,13.0131],[102.2947,13.0134],[102.2947,13.0131],[102.2944,13.0131]],[[102.3027,13.0132],[102.303,13.0135],[102.303,13.0132],[102.3027,13.0132]],[[102.2955,13.0123],[102.2961,13.0126],[102.2961,13.0123],[102.2955,13.0123]],[[102.2961,13.0121],[102.2964,13.0123],[102.2964,13.0121],[102.2961,13.0121]],[[102.3013,13.0124],[102.3019,13.0124],[102.3019,13.0116],[102.3013,13.0119],[102.3013,13.0124]],[[102.2928,13.0118],[102.2936,13.0118],[102.2936,13.0115],[102.2928,13.0112],[102.2928,13.0118]],[[102.2964,13.0118],[102.2969,13.0118],[102.2969,13.0113],[102.2967,13.0113],[102.2964,13.0118]],[[102.295,13.0107],[102.2955,13.0113],[102.2956,13.0107],[102.295,13.0107]],[[102.2925,13.0099],[102.2931,13.0099],[102.2931,13.0091],[102.2925,13.0093],[102.2925,13.0099]],[[102.2939,13.0072],[102.2942,13.0074],[102.2942,13.0072],[102.2939,13.0072]],[[102.2934,13.0069],[102.2939,13.0069],[102.2939,13.0066],[102.2934,13.0064],[102.2934,13.0069]],[[102.2986,13.0064],[102.2992,13.0064],[102.2992,13.0059],[102.2989,13.0059],[102.2986,13.0064]]]}},{"type":"Feature","properties":{"kind":"seasonal","area_km2":1.125,"date":"2026-10-04"},"geometry":{"type":"Polygon","coordinates":[[[102.6575,13.967],[102.6569,13.9665],[102.6569,13.9657],[102.6561,13.9654],[102.6561,13.9643],[102.6556,13.9643],[102.6556,13.9616],[102.6545,13.9616],[102.6545,13.961],[102.6534,13.9608],[102.6528,13.9602],[102.6528,13.9589],[102.654,13.9586],[102.654,13.9575],[102.6559,13.9575],[102.6562,13.9565],[102.6576,13.9565],[102.6581,13.9562],[102.6581,13.9557],[102.6606,13.9557],[102.6609,13.9546],[102.6634,13.9546],[102.6637,13.9552],[102.6643,13.9552],[102.6648,13.9544],[102.6659,13.9538],[102.6662,13.953],[102.6673,13.953],[102.6679,13.9541],[102.6687,13.9547],[102.6695,13.9566],[102.6714,13.9588],[102.6714,13.9593],[102.6733,13.9615],[102.6733,13.9634],[102.6744,13.9639],[102.6744,13.965],[102.6725,13.9647],[102.6722,13.9653],[102.6714,13.9653],[102.6705,13.9663],[102.6694,13.9663],[102.6694,13.9658],[102.6689,13.9655],[102.6689,13.965],[102.6694,13.9647],[102.6692,13.9639],[102.6672,13.9636],[102.6667,13.9641],[102.665,13.9641],[102.6647,13.9647],[102.6636,13.9647],[102.663,13.9652],[102.6608,13.9657],[102.6597,13.9665],[102.6597,13.9671],[102.6575,13.967]],[[102.6705,13.965],[102.6717,13.9642],[102.6717,13.9637],[102.6722,13.9637],[102.6722,13.9609],[102.6717,13.9607],[102.6717,13.9601],[102.6709,13.9593],[102.6709,13.9585],[102.6701,13.9579],[102.6701,13.9574],[102.6695,13.9574],[102.6692,13.9563],[102.6684,13.9555],[102.6654,13.9549],[102.6654,13.9555],[102.6642,13.9557],[102.6642,13.9563],[102.662,13.9557],[102.6617,13.9565],[102.6623,13.9571],[102.6606,13.957],[102.6606,13.9565],[102.6601,13.9565],[102.6601,13.957],[102.659,13.9576],[102.6595,13.9581],[102.659,13.9581],[102.6584,13.9589],[102.6587,13.96],[102.6595,13.9603],[102.6595,13.9611],[102.66,13.9616],[102.6614,13.9619],[102.6606,13.9635],[102.6636,13.9638],[102.6639,13.9633],[102.6658,13.9628],[102.6672,13.9631],[102.6678,13.9623],[102.6686,13.9623],[102.6703,13.9628],[102.6705,13.965]],[[102.6733,13.9648],[102.6739,13.9648],[102.6739,13.9642],[102.6733,13.9642],[102.6733,13.9648]],[[102.6545,13.9589],[102.6548,13.9592],[102.6548,13.9589],[102.6545,13.9589]]]}},{"type":"Feature","properties":{"kind":"seasonal","area_km2":0.654,"date":"2026-10-04"},"geometry":{"type":"Polygon","coordinates":[[[102.2582,13.9821],[102.2577,13.9802],[102.2585,13.9797],[102.256,13.9794],[102.256,13.9783],[102.2575,13.9769],[102.2591,13.9761],[102.2594,13.9772],[102.2605,13.9775],[102.2608,13.9789],[102.2602,13.9789],[102.2594,13.9799],[102.2605,13.9802],[102.2607,13.9808],[102.261,13.98],[102.2627,13.9797],[102.2621,13.9792],[102.263,13.9784],[102.2638,13.9784],[102.2636,13.977],[102.2641,13.9765],[102.2661,13.9762],[102.2664,13.9751],[102.2672,13.9754],[102.2675,13.9762],[102.268,13.976],[102.268,13.9749],[102.2694,13.9752],[102.2694,13.9746],[102.2683,13.9738],[102.2686,13.9727],[102.2692,13.9727],[102.2694,13.9722],[102.2705,13.9725],[102.2708,13.9719],[102.2714,13.9722],[102.2717,13.9717],[102.2731,13.9714],[102.2731,13.9706],[102.272,13.9706],[102.2717,13.9711],[102.2717,13.9703],[102.2711,13.9701],[102.2734,13.9698],[102.2736,13.9693],[102.2745,13.9693],[102.2753,13.9679],[102.2764,13.9679],[102.2772,13.9701],[102.277,13.9707],[102.2758,13.9706],[102.2753,13.9712],[102.2767,13.9715],[102.2769,13.9726],[102.2758,13.9725],[102.2755,13.9736],[102.2741,13.9736],[102.2742,13.9725],[102.2736,13.972],[102.2719,13.972],[102.2711,13.9728],[102.2711,13.9733],[102.2694,13.9736],[102.2694,13.9744],[102.2711,13.9763],[102.271,13.9774],[102.2677,13.9771],[102.2674,13.9765],[102.2666,13.9765],[102.2647,13.9781],[102.2646,13.9789],[102.2635,13.9792],[102.2632,13.9805],[102.2627,13.9811],[102.2629,13.9819],[102.2613,13.9819],[102.2605,13.981],[102.2604,13.9819],[102.2593,13.9816],[102.2591,13.9821],[102.2582,13.9821]],[[102.2613,13.9805],[102.2616,13.9808],[102.2616,13.9805],[102.2613,13.9805]],[[102.2594,13.9802],[102.2596,13.9805],[102.2596,13.9802],[102.2594,13.9802]],[[102.2585,13.9794],[102.2588,13.9797],[102.2588,13.9794],[102.2585,13.9794]],[[102.2694,13.9752],[102.2697,13.9757],[102.2697,13.9752],[102.2694,13.9752]]]}},{"type":"Feature","properties":{"kind":"seasonal","area_km2":0.481,"date":"2026-10-04"},"geometry":{"type":"Polygon","coordinates":[[[102.3915,13.6025],[102.3893,13.6006],[102.3893,13.5995],[102.3904,13.5993],[102.3904,13.5984],[102.3913,13.5979],[102.3926,13.5979],[102.3937,13.599],[102.3937,13.5996],[102.3948,13.5993],[102.3946,13.5969],[102.3935,13.5963],[102.3935,13.595],[102.3949,13.595],[102.3952,13.5955],[102.396,13.5955],[102.3965,13.5974],[102.3971,13.5977],[102.3971,13.5982],[102.3982,13.5983],[102.3984,13.5993],[102.4012,13.5988],[102.4018,13.5997],[102.4015,13.6007],[102.3995,13.6015],[102.399,13.6015],[102.399,13.601],[102.4004,13.6004],[102.399,13.6002],[102.3984,13.601],[102.3987,13.6018],[102.3976,13.602],[102.397,13.6015],[102.397,13.6007],[102.3976,13.6001],[102.3962,13.5993],[102.3959,13.6007],[102.3965,13.6015],[102.3965,13.6026],[102.3956,13.6023],[102.3954,13.6009],[102.3948,13.6009],[102.3937,13.602],[102.3915,13.6025]]]}},{"type":"Feature","properties":{"kind":"seasonal","area_km2":0.409,"date":"2026-10-04"},"geometry":{"type":"Polygon","coordinates":[[[102.6544,13.7721],[102.6533,13.771],[102.6522,13.7707],[102.6525,13.7678],[102.6542,13.7672],[102.6564,13.7656],[102.6573,13.7656],[102.6573,13.7662],[102.6584,13.7673],[102.6598,13.7676],[102.6597,13.77],[102.6589,13.77],[102.6592,13.7719],[102.6575,13.7719],[102.6569,13.7705],[102.6564,13.7708],[102.6561,13.7719],[102.6544,13.7721]]]}},{"type":"Feature","properties":{"kind":"seasonal","area_km2":0.342,"date":"2026-10-04"},"geometry":{"type":"Polygon","coordinates":[[[102.4546,13.9924],[102.4546,13.9894],[102.4538,13.9886],[102.4544,13.9864],[102.4538,13.9861],[102.4536,13.9845],[102.453,13.984],[102.4539,13.9831],[102.4541,13.9837],[102.4577,13.9845],[102.4577,13.9851],[102.4583,13.9854],[102.4583,13.9845],[102.4577,13.984],[102.4583,13.9835],[102.4577,13.9835],[102.4572,13.9821],[102.4564,13.9815],[102.4564,13.9805],[102.4558,13.9796],[102.4561,13.9791],[102.4575,13.9788],[102.4569,13.981],[102.458,13.9821],[102.4608,13.9829],[102.4608,13.9843],[102.46,13.9846],[102.4594,13.9862],[102.4577,13.9864],[102.4572,13.9859],[102.4572,13.9867],[102.4569,13.9864],[102.4555,13.9864],[102.4555,13.9861],[102.4552,13.9861],[102.4552,13.988],[102.4546,13.9886],[102.4557,13.9894],[102.4557,13.9908],[102.4554,13.9924],[102.4546,13.9924]],[[102.4549,13.9859],[102.4552,13.9861],[102.4552,13.9859],[102.4549,13.9859]]]}},{"type":"Feature","properties":{"kind":"seasonal","area_km2":0.237,"date":"2026-10-04"},"geometry":{"type":"Polygon","coordinates":[[[102.532,13.8677],[102.5311,13.8669],[102.5312,13.8655],[102.5298,13.8647],[102.5295,13.863],[102.5317,13.8631],[102.5326,13.862],[102.5343,13.8617],[102.5348,13.8658],[102.5334,13.8661],[102.5334,13.8677],[102.532,13.8677]]]}},{"type":"Feature","properties":{"kind":"seasonal","area_km2":0.228,"date":"2026-10-04"},"geometry":{"type":"Polygon","coordinates":[[[102.5263,13.985],[102.5255,13.9844],[102.5255,13.9836],[102.5238,13.9839],[102.5238,13.9825],[102.5249,13.9825],[102.5252,13.9831],[102.5263,13.9834],[102.5263,13.9828],[102.528,13.9817],[102.5316,13.9812],[102.5319,13.9818],[102.5327,13.9818],[102.5341,13.9829],[102.5338,13.984],[102.5332,13.984],[102.5329,13.9845],[102.5318,13.9845],[102.5318,13.9837],[102.531,13.9837],[102.5307,13.9829],[102.5302,13.9829],[102.5299,13.9834],[102.5288,13.9831],[102.5288,13.9842],[102.5282,13.9847],[102.5263,13.985]],[[102.528,13.9831],[102.5282,13.9836],[102.5282,13.9831],[102.528,13.9831]],[[102.5249,13.9831],[102.5252,13.9833],[102.5252,13.9831],[102.5249,13.9831]],[[102.5274,13.9823],[102.5282,13.9826],[102.5283,13.9823],[102.5274,13.9823]]]}},{"type":"Feature","properties":{"kind":"seasonal","area_km2":0.173,"date":"2026-10-04"},"geometry":{"type":"Polygon","coordinates":[[[102.2479,13.6798],[102.2471,13.679],[102.2457,13.679],[102.2457,13.6774],[102.2444,13.6757],[102.2447,13.6738],[102.2441,13.6738],[102.2441,13.6727],[102.2452,13.6728],[102.2452,13.6733],[102.246,13.6739],[102.246,13.6744],[102.2482,13.6771],[102.2488,13.6782],[102.2487,13.6798],[102.2479,13.6798]],[[102.2474,13.6777],[102.2476,13.6782],[102.2477,13.6777],[102.2474,13.6777]],[[102.2471,13.6777],[102.2474,13.6768],[102.2471,13.6763],[102.2466,13.6763],[102.2465,13.6774],[102.2471,13.6777]]]}},{"type":"Feature","properties":{"kind":"seasonal","area_km2":0.166,"date":"2026-10-04"},"geometry":{"type":"Polygon","coordinates":[[[102.3508,13.9701],[102.3508,13.969],[102.3519,13.9688],[102.3519,13.9677],[102.3525,13.9672],[102.3527,13.9677],[102.3522,13.968],[102.3522,13.9693],[102.3516,13.9696],[102.3524,13.9696],[102.353,13.9685],[102.3541,13.9683],[102.355,13.9683],[102.3555,13.9688],[102.3577,13.9688],[102.3586,13.968],[102.3591,13.968],[102.3592,13.9645],[102.3597,13.9645],[102.3597,13.9632],[102.3608,13.9624],[102.3603,13.9613],[102.3611,13.9616],[102.3611,13.9626],[102.36,13.9637],[102.3603,13.9643],[102.3597,13.9648],[102.3597,13.968],[102.3585,13.9697],[102.3563,13.9699],[102.3533,13.9693],[102.3533,13.9701],[102.3508,13.9701]]]}},{"type":"Feature","properties":{"kind":"seasonal","area_km2":0.155,"date":"2026-10-04"},"geometry":{"type":"Polygon","coordinates":[[[102.6057,13.8237],[102.6032,13.8229],[102.6032,13.8218],[102.6037,13.8215],[102.6037,13.8207],[102.6049,13.8199],[102.6049,13.8191],[102.606,13.8191],[102.6085,13.8202],[102.6085,13.821],[102.6062,13.8215],[102.6057,13.8223],[102.6057,13.8237]]]}},{"type":"Feature","properties":{"kind":"seasonal","area_km2":0.153,"date":"2026-10-04"},"geometry":{"type":"Polygon","coordinates":[[[102.2329,13.561],[102.2327,13.5599],[102.2321,13.5599],[102.2316,13.5591],[102.228,13.559],[102.228,13.5585],[102.2294,13.5588],[102.2297,13.5577],[102.2274,13.5579],[102.2274,13.5566],[102.228,13.556],[102.2291,13.5561],[102.2294,13.5571],[102.233,13.5575],[102.2338,13.5599],[102.2338,13.561],[102.2329,13.561]],[[102.2302,13.5574],[102.2305,13.5577],[102.2305,13.5574],[102.2302,13.5574]],[[102.228,13.5566],[102.2283,13.5569],[102.2283,13.5566],[102.228,13.5566]]]}},{"type":"Feature","properties":{"kind":"seasonal","area_km2":0.15,"date":"2026-10-04"},"geometry":{"type":"Polygon","coordinates":[[[102.1895,13.7897],[102.1895,13.7887],[102.1887,13.7881],[102.1884,13.7862],[102.1904,13.7851],[102.1915,13.7852],[102.1926,13.7865],[102.1926,13.7876],[102.1912,13.7881],[102.1909,13.7898],[102.1895,13.7897]]]}},{"type":"Feature","properties":{"kind":"seasonal","area_km2":0.135,"date":"2026-10-04"},"geometry":{"type":"Polygon","coordinates":[[[102.7581,13.9824],[102.7567,13.981],[102.7542,13.9812],[102.7537,13.9796],[102.7551,13.9788],[102.7584,13.9791],[102.7589,13.9821],[102.7581,13.9824]],[[102.7567,13.9802],[102.7581,13.9802],[102.7581,13.9796],[102.7573,13.9796],[102.7567,13.9802]],[[102.7556,13.9793],[102.7564,13.9796],[102.7564,13.9794],[102.7556,13.9793]]]}},{"type":"Feature","properties":{"kind":"seasonal","area_km2":0.135,"date":"2026-10-04"},"geometry":{"type":"Polygon","coordinates":[[[102.2876,13.9637],[102.2854,13.9634],[102.2851,13.9621],[102.2843,13.9623],[102.2843,13.9613],[102.2826,13.9612],[102.2821,13.9607],[102.2823,13.9601],[102.284,13.9596],[102.2851,13.961],[102.2851,13.9618],[102.2868,13.9626],[102.287,13.9618],[102.2865,13.961],[102.2865,13.9597],[102.2871,13.9594],[102.2874,13.958],[102.2865,13.9583],[102.2865,13.9578],[102.2868,13.9567],[102.2874,13.9567],[102.2879,13.9583],[102.2873,13.9613],[102.2876,13.9637]]]}},{"type":"Feature","properties":{"kind":"seasonal","area_km2":0.134,"date":"2026-10-04"},"geometry":{"type":"Polygon","coordinates":[[[102.4292,14.0051],[102.427,14.0043],[102.427,14.0037],[102.4259,14.0032],[102.4256,14.0024],[102.4273,14.0024],[102.4273,14.001],[102.4267,14.0007],[102.4279,14.0008],[102.4289,14.0021],[102.4309,14.0027],[102.4309,14.0051],[102.4292,14.0051]],[[102.4284,14.0043],[102.4286,14.0046],[102.4286,14.0043],[102.4284,14.0043]],[[102.4287,14.004],[102.4292,14.0038],[102.4287,14.0027],[102.4273,14.0024],[102.4273,14.0029],[102.4281,14.0032],[102.4287,14.004]],[[102.4292,14.0038],[102.4295,14.004],[102.4295,14.0038],[102.4292,14.0038]],[[102.43,14.0032],[102.4303,14.0035],[102.4303,14.0032],[102.43,14.0032]]]}},{"type":"Feature","properties":{"kind":"seasonal","area_km2":0.127,"date":"2026-10-04"},"geometry":{"type":"Polygon","coordinates":[[[102.4112,13.748],[102.4113,13.745],[102.4149,13.7451],[102.4149,13.7467],[102.414,13.7469],[102.4135,13.748],[102.4112,13.748]]]}},{"type":"Feature","properties":{"kind":"seasonal","area_km2":0.125,"date":"2026-10-04"},"geometry":{"type":"Polygon","coordinates":[[[102.0021,13.5943],[102.0018,13.5927],[102.0002,13.5924],[102.0002,13.5892],[102.0008,13.5892],[102.001,13.5897],[102.0038,13.5898],[102.0038,13.5927],[102.0032,13.5933],[102.0032,13.5941],[102.0021,13.5943]],[[102.0024,13.593],[102.0029,13.593],[102.0029,13.5922],[102.0035,13.5922],[102.0032,13.5903],[102.0024,13.5903],[102.0021,13.5914],[102.0016,13.5914],[102.0024,13.593]]]}},{"type":"Feature","properties":{"kind":"seasonal","area_km2":0.119,"date":"2026-10-04"},"geometry":{"type":"Polygon","coordinates":[[[102.5897,13.7826],[102.5889,13.7821],[102.5889,13.7802],[102.5928,13.7802],[102.593,13.7826],[102.5897,13.7826]]]}},{"type":"Feature","properties":{"kind":"seasonal","area_km2":0.114,"date":"2026-10-04"},"geometry":{"type":"Polygon","coordinates":[[[102.406,13.8666],[102.4058,13.8661],[102.4041,13.8653],[102.4041,13.8645],[102.4061,13.8642],[102.4063,13.865],[102.4072,13.8653],[102.408,13.865],[102.408,13.864],[102.4099,13.8642],[102.4097,13.8661],[102.408,13.8659],[102.4077,13.8664],[102.406,13.8666]]]}},{"type":"Feature","properties":{"kind":"seasonal","area_km2":0.113,"date":"2026-10-04"},"geometry":{"type":"Polygon","coordinates":[[[102.5414,13.6816],[102.5409,13.6813],[102.5411,13.6805],[102.5406,13.6789],[102.5439,13.6778],[102.5445,13.6811],[102.5428,13.681],[102.5414,13.6816]],[[102.5414,13.681],[102.5425,13.6808],[102.5425,13.6805],[102.5414,13.6805],[102.5414,13.681]],[[102.5428,13.6805],[102.5431,13.6808],[102.5431,13.6805],[102.5428,13.6805]],[[102.5425,13.6802],[102.5428,13.6805],[102.5428,13.6802],[102.5425,13.6802]]]}},{"type":"Feature","properties":{"kind":"seasonal","area_km2":0.11,"date":"2026-10-04"},"geometry":{"type":"Polygon","coordinates":[[[102.4504,13.9907],[102.4505,13.9899],[102.4485,13.988],[102.4471,13.988],[102.4472,13.9871],[102.4488,13.9874],[102.4499,13.9888],[102.4497,13.9864],[102.4524,13.9869],[102.4524,13.9875],[102.4516,13.988],[102.4524,13.988],[102.4527,13.9888],[102.451,13.9888],[102.4513,13.9907],[102.4504,13.9907]]]}},{"type":"Feature","properties":{"kind":"seasonal","area_km2":0.109,"date":"2026-10-04"},"geometry":{"type":"Polygon","coordinates":[[[102.1831,13.6748],[102.1829,13.674],[102.1815,13.6739],[102.1815,13.6731],[102.1809,13.6728],[102.1804,13.6731],[102.1801,13.6742],[102.1798,13.6707],[102.1782,13.6706],[102.1771,13.6698],[102.1782,13.6696],[102.1787,13.6701],[102.1804,13.6704],[102.1804,13.672],[102.1809,13.6726],[102.1848,13.6724],[102.1848,13.6734],[102.184,13.6734],[102.184,13.6745],[102.1831,13.6748]],[[102.182,13.6729],[102.1826,13.6731],[102.1826,13.6729],[102.182,13.6729]]]}},{"type":"Feature","properties":{"kind":"seasonal","area_km2":0.109,"date":"2026-10-04"},"geometry":{"type":"Polygon","coordinates":[[[102.3109,13.4515],[102.3106,13.451],[102.3073,13.451],[102.3073,13.4496],[102.3079,13.4493],[102.3079,13.4488],[102.3098,13.4485],[102.3104,13.4494],[102.3112,13.4494],[102.3112,13.4502],[102.312,13.4505],[102.312,13.4513],[102.3109,13.4515]]]}},{"type":"Feature","properties":{"kind":"seasonal","area_km2":0.103,"date":"2026-10-04"},"geometry":{"type":"Polygon","coordinates":[[[102.3196,13.5121],[102.3194,13.5099],[102.3213,13.508],[102.3227,13.508],[102.3227,13.5113],[102.3219,13.5113],[102.3222,13.5099],[102.3216,13.5094],[102.321,13.5096],[102.3208,13.5107],[102.321,13.5118],[102.3196,13.5121]]]}},{"type":"Feature","properties":{"kind":"seasonal","area_km2":0.103,"date":"2026-10-04"},"geometry":{"type":"Polygon","coordinates":[[[102.4644,13.7328],[102.4644,13.7317],[102.4649,13.7315],[102.4647,13.7277],[102.4661,13.7274],[102.4666,13.7285],[102.4666,13.7301],[102.466,13.7301],[102.4663,13.7326],[102.4644,13.7328]]]}}]}
