{"type":"FeatureCollection","properties":{"v":3,"id":"t102_15","name":"นครราชสีมา · ชัยภูมิ · บุรีรัมย์","aoi":[102.0,15.0,103.0,16.0],"date":"2026-10-04","dates":["2026-10-04"],"baseline_years":3,"has_seasonal":true,"totals":{"flood_high":7.4,"flood_low":7.7,"seasonal":24.5},"provinces":[{"name":"นครราชสีมา","zone":"th-ne","flood_high":4.2,"flood_low":7.0,"seasonal":19.5},{"name":"บุรีรัมย์","zone":"th-ne","flood_high":3.3,"flood_low":0.5,"seasonal":0.9},{"name":"ชัยภูมิ","zone":"th-ne","flood_high":0.0,"flood_low":0.1,"seasonal":2.6},{"name":"ขอนแก่น","zone":"th-ne","flood_high":0.0,"flood_low":0.0,"seasonal":1.4}],"scenes":{"2026-10-04":1},"baseline_dates":["2025-10-08","2024-10-07","2023-10-05"],"threshold_db":-15.0,"auto":true,"source":"Sentinel-1 RTC (Copernicus/ESA) via Microsoft Planetary Computer; JRC Global Surface Water; Copernicus DEM","method":"ChatGeo v3: Otsu threshold on VV dB; minus JRC permanent water and slope > 5 deg; unusual = water not present in most of the previous 3 years (same season)","added":"2026-10-09T17:06+07:00"},"features":[{"type":"Feature","properties":{"kind":"flood","area_km2":2.261,"conf":"high","date":"2026-10-04"},"geometry":{"type":"Polygon","coordinates":[[[102.7807,15.0598],[102.7807,15.0584],[102.7815,15.0574],[102.781,15.0571],[102.7807,15.0576],[102.7799,15.0576],[102.7799,15.0571],[102.7788,15.056],[102.7788,15.0546],[102.7793,15.0538],[102.7788,15.0533],[102.7785,15.0514],[102.7822,15.0511],[102.7816,15.0506],[102.7816,15.0495],[102.7825,15.0492],[102.7825,15.0482],[102.7833,15.0482],[102.7833,15.0471],[102.7842,15.0457],[102.785,15.0457],[102.7861,15.0466],[102.7878,15.0466],[102.7886,15.0458],[102.7886,15.0452],[102.7906,15.0447],[102.7928,15.0453],[102.7928,15.0458],[102.7934,15.0461],[102.7934,15.0455],[102.7945,15.045],[102.7945,15.0431],[102.7942,15.0418],[102.794,15.0428],[102.7931,15.0428],[102.7937,15.0407],[102.7931,15.0404],[102.7932,15.0393],[102.7946,15.0391],[102.7962,15.0396],[102.7957,15.0391],[102.7957,15.0377],[102.7949,15.0372],[102.7954,15.0347],[102.7949,15.0347],[102.7949,15.0342],[102.7941,15.0334],[102.7941,15.0325],[102.7952,15.0317],[102.7958,15.0301],[102.7955,15.0285],[102.7963,15.028],[102.7963,15.0274],[102.7969,15.0274],[102.7969,15.0266],[102.7991,15.0269],[102.7991,15.028],[102.7986,15.028],[102.7985,15.0304],[102.7991,15.0304],[102.8002,15.0291],[102.8002,15.0283],[102.7997,15.028],[102.8,15.0269],[102.8014,15.0269],[102.803,15.028],[102.8039,15.028],[102.8039,15.0294],[102.8047,15.0299],[102.8047,15.0316],[102.8041,15.0321],[102.8041,15.0329],[102.8033,15.0337],[102.8024,15.0337],[102.8024,15.0329],[102.8019,15.0329],[102.801,15.0337],[102.8007,15.0356],[102.8002,15.0356],[102.7999,15.0367],[102.7979,15.0369],[102.7993,15.0372],[102.7993,15.038],[102.7971,15.0383],[102.7971,15.0396],[102.7965,15.0396],[102.7968,15.0415],[102.7965,15.0421],[102.7959,15.042],[102.7967,15.0429],[102.7967,15.044],[102.7959,15.0445],[102.7953,15.0467],[102.7936,15.048],[102.7936,15.0496],[102.7908,15.0499],[102.7903,15.0493],[102.7889,15.0504],[102.7872,15.0498],[102.7872,15.0506],[102.7863,15.0517],[102.7863,15.0533],[102.7858,15.0536],[102.7857,15.0552],[102.7846,15.056],[102.7846,15.0571],[102.7832,15.0568],[102.7818,15.0595],[102.7807,15.0598]],[[102.7799,15.0519],[102.7802,15.0522],[102.7802,15.0519],[102.7799,15.0519]],[[102.7844,15.0484],[102.785,15.0482],[102.7847,15.0476],[102.7844,15.0476],[102.7844,15.0484]],[[102.7906,15.0477],[102.7911,15.048],[102.7911,15.0477],[102.7906,15.0477]],[[102.7979,15.035],[102.7999,15.0353],[102.7999,15.0345],[102.7985,15.0348],[102.7985,15.0342],[102.7979,15.0342],[102.7979,15.035]],[[102.7977,15.0315],[102.7983,15.0315],[102.7983,15.031],[102.798,15.031],[102.7977,15.0315]],[[102.7969,15.0304],[102.7974,15.0301],[102.7972,15.0296],[102.7966,15.0299],[102.7969,15.0304]]]}},{"type":"Feature","properties":{"kind":"flood","area_km2":1.563,"conf":"high","date":"2026-10-04"},"geometry":{"type":"Polygon","coordinates":[[[102.776,15.0844],[102.776,15.0828],[102.774,15.083],[102.7735,15.0825],[102.7735,15.0817],[102.774,15.0817],[102.774,15.0811],[102.7754,15.0814],[102.7757,15.0803],[102.7766,15.0795],[102.7746,15.0803],[102.7726,15.08],[102.7727,15.079],[102.7735,15.0787],[102.7735,15.0779],[102.773,15.0776],[102.773,15.076],[102.7744,15.0754],[102.7744,15.0749],[102.7749,15.0746],[102.7777,15.0747],[102.7783,15.0741],[102.7791,15.0741],[102.7791,15.0722],[102.7805,15.0725],[102.7805,15.0714],[102.7811,15.0706],[102.7828,15.0712],[102.7834,15.0701],[102.7861,15.0701],[102.7867,15.0707],[102.7878,15.0704],[102.7881,15.0699],[102.7892,15.0699],[102.7895,15.0694],[102.7889,15.0694],[102.789,15.068],[102.7895,15.0677],[102.7901,15.0661],[102.7915,15.0664],[102.7929,15.0653],[102.7929,15.0645],[102.794,15.0645],[102.7946,15.0651],[102.7965,15.0651],[102.7965,15.0673],[102.7948,15.0672],[102.7945,15.0686],[102.794,15.0686],[102.7945,15.0691],[102.7945,15.0702],[102.794,15.0702],[102.7936,15.0727],[102.792,15.0724],[102.792,15.0735],[102.7911,15.0734],[102.7911,15.0726],[102.7903,15.0726],[102.7895,15.0713],[102.7892,15.0732],[102.7881,15.0731],[102.7878,15.0721],[102.7858,15.0726],[102.7858,15.072],[102.7847,15.0709],[102.7842,15.0715],[102.7833,15.0715],[102.7839,15.0726],[102.7836,15.0739],[102.7842,15.0739],[102.7842,15.0734],[102.785,15.0734],[102.785,15.0747],[102.7855,15.0747],[102.7861,15.0764],[102.7844,15.0766],[102.7844,15.0761],[102.7827,15.0761],[102.783,15.078],[102.7821,15.0788],[102.7824,15.0804],[102.7796,15.0807],[102.778,15.0798],[102.7782,15.0812],[102.7777,15.0814],[102.7776,15.0823],[102.7788,15.0825],[102.7788,15.0834],[102.7782,15.0833],[102.7779,15.0842],[102.776,15.0844]],[[102.7805,15.0788],[102.7816,15.0785],[102.7816,15.078],[102.781,15.078],[102.781,15.0771],[102.7822,15.0753],[102.7805,15.0758],[102.7802,15.075],[102.7802,15.0763],[102.7791,15.0763],[102.7794,15.0779],[102.7785,15.0779],[102.7785,15.0785],[102.7805,15.0782],[102.7805,15.0788]],[[102.7769,15.0757],[102.7774,15.076],[102.7774,15.0758],[102.7769,15.0757]],[[102.7822,15.075],[102.7825,15.0753],[102.7825,15.075],[102.7822,15.075]],[[102.79,15.0705],[102.7903,15.071],[102.7903,15.0705],[102.79,15.0705]],[[102.7931,15.0699],[102.7937,15.0702],[102.7937,15.0699],[102.7931,15.0699]]]}},{"type":"Feature","properties":{"kind":"flood","area_km2":1.107,"conf":"high","date":"2026-10-04"},"geometry":{"type":"Polygon","coordinates":[[[102.7513,15.0988],[102.7493,15.0974],[102.7493,15.0966],[102.751,15.0966],[102.7507,15.0953],[102.751,15.0945],[102.7519,15.0942],[102.7519,15.0937],[102.7513,15.0937],[102.7513,15.0931],[102.7508,15.0928],[102.7508,15.092],[102.7519,15.092],[102.7524,15.0931],[102.753,15.0931],[102.753,15.0937],[102.7535,15.0939],[102.7549,15.094],[102.7538,15.0929],[102.7538,15.0921],[102.7555,15.0915],[102.7564,15.0907],[102.7564,15.0894],[102.7572,15.0894],[102.7569,15.0877],[102.7581,15.0878],[102.7581,15.0872],[102.7589,15.0872],[102.7592,15.088],[102.76,15.0883],[102.76,15.0867],[102.7614,15.0867],[102.7622,15.0875],[102.7628,15.0875],[102.7628,15.0848],[102.7665,15.0846],[102.7665,15.0854],[102.7656,15.0854],[102.7653,15.0865],[102.7645,15.0865],[102.7645,15.087],[102.765,15.0873],[102.765,15.0884],[102.7659,15.0884],[102.7667,15.0876],[102.7667,15.0868],[102.7676,15.0868],[102.7673,15.0895],[102.7659,15.0895],[102.7658,15.0905],[102.765,15.0911],[102.7647,15.0919],[102.7639,15.0919],[102.7642,15.0908],[102.7639,15.09],[102.7639,15.0905],[102.7633,15.0905],[102.7633,15.0913],[102.7625,15.0913],[102.7625,15.0921],[102.7616,15.0924],[102.7616,15.0935],[102.7608,15.0935],[102.7605,15.0943],[102.7597,15.0943],[102.7594,15.0954],[102.7585,15.0959],[102.7582,15.0967],[102.756,15.0964],[102.7555,15.0967],[102.7554,15.0975],[102.7549,15.098],[102.7532,15.0977],[102.7526,15.0985],[102.7513,15.0988]],[[102.7543,15.0967],[102.7552,15.0964],[102.7552,15.0956],[102.7541,15.0958],[102.7543,15.0967]],[[102.7569,15.0951],[102.7574,15.0956],[102.7574,15.0951],[102.7569,15.0951]],[[102.7549,15.0948],[102.7555,15.0948],[102.7555,15.0942],[102.7549,15.0942],[102.7549,15.0948]],[[102.758,15.0926],[102.7586,15.0926],[102.7586,15.0924],[102.758,15.0921],[102.758,15.0926]],[[102.7597,15.0916],[102.7611,15.0913],[102.76,15.0891],[102.7594,15.0908],[102.7597,15.0916]],[[102.7583,15.091],[102.7589,15.0905],[102.7586,15.0899],[102.7578,15.0899],[102.7583,15.091]],[[102.7619,15.0902],[102.7628,15.09],[102.7628,15.0889],[102.7636,15.0886],[102.7634,15.0881],[102.7617,15.0886],[102.7619,15.0902]]]}},{"type":"Feature","properties":{"kind":"flood","area_km2":1.04,"conf":"high","date":"2026-10-04"},"geometry":{"type":"Polygon","coordinates":[[[102.806,15.0107],[102.806,15.0102],[102.8052,15.0102],[102.8052,15.0088],[102.8046,15.0085],[102.8044,15.0072],[102.8038,15.0069],[102.8036,15.0039],[102.803,15.0031],[102.8031,14.9979],[102.8064,14.998],[102.8067,14.9985],[102.8072,14.998],[102.8123,14.998],[102.8123,14.9988],[102.8117,14.9988],[102.812,15.0002],[102.8111,15.0002],[102.8111,15.0032],[102.8097,15.0029],[102.8097,15.0037],[102.8127,15.0056],[102.8127,15.007],[102.8122,15.0072],[102.8122,15.0078],[102.8111,15.0075],[102.8094,15.008],[102.8082,15.0091],[102.8082,15.0096],[102.8071,15.0102],[102.8071,15.0107],[102.806,15.0107]],[[102.8085,15.0072],[102.8097,15.0069],[102.8099,15.0064],[102.8086,15.0064],[102.8085,15.0072]],[[102.8066,15.0028],[102.8069,15.0034],[102.8069,15.0029],[102.8066,15.0028]],[[102.8086,15.001],[102.8092,15.001],[102.8095,15.0004],[102.8086,15.0004],[102.8086,15.001]],[[102.8106,14.9999],[102.8111,14.9999],[102.8111,14.9996],[102.8106,14.9994],[102.8106,14.9999]]]}},{"type":"Feature","properties":{"kind":"flood","area_km2":0.682,"conf":"low","date":"2026-10-04"},"geometry":{"type":"Polygon","coordinates":[[[102.7313,15.113],[102.731,15.1119],[102.7277,15.1121],[102.728,15.1102],[102.7291,15.1102],[102.7291,15.1094],[102.7299,15.1094],[102.7305,15.1103],[102.7319,15.1108],[102.7327,15.1092],[102.7311,15.1092],[102.7311,15.1084],[102.7319,15.1078],[102.7319,15.1073],[102.7327,15.1073],[102.7328,15.1062],[102.7347,15.1062],[102.7342,15.1057],[102.7342,15.1041],[102.7386,15.1038],[102.7386,15.1046],[102.737,15.1049],[102.7395,15.1055],[102.7397,15.109],[102.7386,15.1098],[102.7383,15.1109],[102.7358,15.1111],[102.7358,15.1125],[102.7346,15.1125],[102.7344,15.113],[102.7313,15.113]],[[102.7341,15.1108],[102.7344,15.1111],[102.7344,15.1108],[102.7341,15.1108]],[[102.7366,15.1092],[102.7369,15.1095],[102.7369,15.1092],[102.7366,15.1092]],[[102.7327,15.1086],[102.7338,15.1087],[102.7341,15.1073],[102.7327,15.1073],[102.7327,15.1086]],[[102.7355,15.1065],[102.7364,15.1065],[102.7364,15.106],[102.7356,15.1057],[102.7355,15.1065]]]}},{"type":"Feature","properties":{"kind":"flood","area_km2":0.535,"conf":"high","date":"2026-10-04"},"geometry":{"type":"Polygon","coordinates":[[[102.742,15.1063],[102.7409,15.1052],[102.7397,15.1055],[102.7398,15.1044],[102.7406,15.1036],[102.7414,15.1036],[102.7414,15.103],[102.7403,15.1028],[102.7398,15.1019],[102.7384,15.1022],[102.7381,15.1011],[102.7392,15.1009],[102.7392,15.1003],[102.7401,15.1003],[102.7406,15.0995],[102.7415,15.0995],[102.7415,15.1001],[102.7426,15.1001],[102.744,15.099],[102.7473,15.0993],[102.7476,15.1007],[102.7487,15.1009],[102.7492,15.1037],[102.7478,15.1039],[102.7476,15.1028],[102.747,15.1028],[102.747,15.1034],[102.7476,15.1036],[102.7476,15.105],[102.7467,15.105],[102.7465,15.1036],[102.7459,15.1036],[102.7456,15.1031],[102.7454,15.1006],[102.7448,15.1006],[102.7442,15.1014],[102.7445,15.1028],[102.7451,15.1028],[102.7451,15.1036],[102.7439,15.1047],[102.7442,15.1058],[102.742,15.1063]],[[102.7428,15.1041],[102.7431,15.1044],[102.7431,15.1041],[102.7428,15.1041]]]}},{"type":"Feature","properties":{"kind":"flood","area_km2":0.464,"conf":"low","date":"2026-10-04"},"geometry":{"type":"Polygon","coordinates":[[[102.7171,15.1104],[102.7171,15.1096],[102.7157,15.1098],[102.7157,15.1087],[102.7149,15.1087],[102.7149,15.1082],[102.7143,15.1082],[102.7143,15.1087],[102.7132,15.1087],[102.7118,15.1084],[102.7113,15.1079],[102.7113,15.1071],[102.7118,15.1068],[102.7118,15.1055],[102.713,15.1052],[102.713,15.1057],[102.7135,15.1057],[102.7135,15.1038],[102.7149,15.1039],[102.7152,15.1049],[102.7152,15.1036],[102.7183,15.1034],[102.7188,15.1039],[102.7188,15.105],[102.7177,15.1052],[102.7174,15.1058],[102.7188,15.1058],[102.7194,15.1066],[102.7199,15.1066],[102.7199,15.1077],[102.718,15.1074],[102.7177,15.1082],[102.7182,15.1088],[102.7207,15.1091],[102.7207,15.1104],[102.7171,15.1104]]]}},{"type":"Feature","properties":{"kind":"flood","area_km2":0.344,"conf":"low","date":"2026-10-04"},"geometry":{"type":"Polygon","coordinates":[[[102.6747,15.1623],[102.6747,15.1615],[102.6741,15.1609],[102.6727,15.1606],[102.6728,15.1593],[102.6739,15.1585],[102.6739,15.1576],[102.675,15.156],[102.6761,15.156],[102.677,15.1544],[102.6784,15.1542],[102.6775,15.1574],[102.6784,15.1577],[102.6783,15.1588],[102.6789,15.1593],[102.6803,15.1596],[102.6803,15.1604],[102.6769,15.1609],[102.6769,15.1623],[102.6747,15.1623]],[[102.6761,15.1607],[102.6766,15.1607],[102.6767,15.1601],[102.6761,15.1601],[102.6761,15.1607]],[[102.6761,15.1585],[102.6769,15.1585],[102.677,15.158],[102.6758,15.1571],[102.6756,15.1579],[102.6761,15.1585]]]}},{"type":"Feature","properties":{"kind":"flood","area_km2":0.32,"conf":"low","date":"2026-10-04"},"geometry":{"type":"Polygon","coordinates":[[[102.0285,15.0626],[102.0285,15.0617],[102.0294,15.0609],[102.0294,15.0599],[102.028,15.0579],[102.0294,15.0577],[102.0294,15.0572],[102.0302,15.058],[102.0319,15.058],[102.0325,15.0577],[102.0325,15.0572],[102.033,15.0575],[102.0325,15.0564],[102.0303,15.0561],[102.0311,15.0558],[102.0311,15.0553],[102.0306,15.055],[102.0311,15.0531],[102.032,15.0545],[102.0333,15.055],[102.0359,15.0551],[102.0359,15.0545],[102.0373,15.0548],[102.0367,15.057],[102.0355,15.057],[102.0347,15.058],[102.0325,15.0585],[102.0302,15.0607],[102.0299,15.062],[102.0293,15.0626],[102.0285,15.0626]]]}},{"type":"Feature","properties":{"kind":"flood","area_km2":0.285,"conf":"low","date":"2026-10-04"},"geometry":{"type":"Polygon","coordinates":[[[102.654,15.2117],[102.6535,15.2073],[102.6541,15.2065],[102.6547,15.2065],[102.6544,15.2054],[102.6552,15.2052],[102.6538,15.2049],[102.6538,15.2041],[102.655,15.203],[102.6564,15.203],[102.656,15.2063],[102.6569,15.2068],[102.6563,15.2068],[102.656,15.2073],[102.6585,15.2084],[102.6585,15.2093],[102.656,15.2114],[102.6554,15.2114],[102.6554,15.2111],[102.6552,15.2111],[102.6552,15.2117],[102.654,15.2117]],[[102.6549,15.2108],[102.6552,15.2111],[102.6552,15.2108],[102.6549,15.2108]],[[102.6558,15.2049],[102.6561,15.2052],[102.6561,15.2049],[102.6558,15.2049]]]}},{"type":"Feature","properties":{"kind":"flood","area_km2":0.282,"conf":"low","date":"2026-10-04"},"geometry":{"type":"Polygon","coordinates":[[[102.6917,15.1584],[102.692,15.1562],[102.6915,15.1567],[102.6895,15.1562],[102.6895,15.1546],[102.6904,15.154],[102.6904,15.1535],[102.6937,15.1538],[102.6935,15.153],[102.6924,15.153],[102.6926,15.1519],[102.6918,15.1516],[102.6918,15.1508],[102.6932,15.1508],[102.694,15.1516],[102.6952,15.1516],[102.6951,15.153],[102.6946,15.1541],[102.6957,15.1546],[102.6957,15.1557],[102.6954,15.1565],[102.6946,15.1565],[102.6948,15.1554],[102.6943,15.1554],[102.694,15.1565],[102.6929,15.1565],[102.6934,15.157],[102.6934,15.1581],[102.6917,15.1584]],[[102.692,15.1559],[102.6929,15.1559],[102.6932,15.1551],[102.6923,15.1551],[102.692,15.1559]]]}},{"type":"Feature","properties":{"kind":"flood","area_km2":0.276,"conf":"high","date":"2026-10-04"},"geometry":{"type":"Polygon","coordinates":[[[102.7994,15.0255],[102.7966,15.0255],[102.7967,15.0244],[102.7975,15.0239],[102.7975,15.0231],[102.7983,15.0228],[102.7989,15.022],[102.7986,15.0209],[102.7992,15.0204],[102.7992,15.019],[102.8003,15.0182],[102.8003,15.0177],[102.8029,15.0183],[102.8028,15.0191],[102.8023,15.0196],[102.8023,15.0215],[102.8011,15.0215],[102.8011,15.022],[102.8023,15.0223],[102.8022,15.0231],[102.8011,15.0231],[102.8006,15.0237],[102.8006,15.0245],[102.7997,15.0245],[102.7997,15.0239],[102.7983,15.0236],[102.798,15.025],[102.7994,15.0247],[102.7994,15.0255]]]}},{"type":"Feature","properties":{"kind":"flood","area_km2":0.226,"conf":"low","date":"2026-10-04"},"geometry":{"type":"Polygon","coordinates":[[[102.6838,15.1466],[102.6838,15.1456],[102.6832,15.145],[102.6833,15.1434],[102.6841,15.1423],[102.6838,15.1407],[102.6847,15.1407],[102.6863,15.1423],[102.6877,15.1423],[102.6883,15.1415],[102.6891,15.1415],[102.6894,15.1434],[102.6885,15.144],[102.688,15.1456],[102.6871,15.1456],[102.6866,15.1448],[102.6866,15.144],[102.6874,15.144],[102.6874,15.1434],[102.686,15.1434],[102.686,15.1445],[102.6846,15.145],[102.6846,15.1466],[102.6838,15.1466]]]}},{"type":"Feature","properties":{"kind":"flood","area_km2":0.217,"conf":"high","date":"2026-10-04"},"geometry":{"type":"Polygon","coordinates":[[[102.7929,15.0623],[102.7924,15.0618],[102.7915,15.0618],[102.7918,15.0599],[102.7899,15.0593],[102.7896,15.0574],[102.7907,15.0566],[102.791,15.0558],[102.7938,15.0564],[102.7938,15.0586],[102.7929,15.0596],[102.7932,15.0602],[102.7941,15.0602],[102.794,15.0624],[102.7929,15.0623]],[[102.7919,15.0569],[102.7921,15.0575],[102.7921,15.0569],[102.7919,15.0569]]]}},{"type":"Feature","properties":{"kind":"flood","area_km2":0.197,"conf":"low","date":"2026-10-04"},"geometry":{"type":"Polygon","coordinates":[[[102.7658,15.0708],[102.7655,15.0702],[102.7638,15.0694],[102.7638,15.0686],[102.7644,15.0686],[102.765,15.0675],[102.7661,15.0672],[102.7661,15.0667],[102.7667,15.0667],[102.7672,15.0656],[102.7681,15.0656],[102.7683,15.0675],[102.7689,15.0686],[102.7697,15.0686],[102.7703,15.0692],[102.7702,15.07],[102.7686,15.0697],[102.7666,15.0702],[102.7666,15.0708],[102.7658,15.0708]],[[102.7669,15.0675],[102.7675,15.0675],[102.7675,15.067],[102.7669,15.067],[102.7669,15.0675]]]}},{"type":"Feature","properties":{"kind":"flood","area_km2":0.178,"conf":"high","date":"2026-10-04"},"geometry":{"type":"Polygon","coordinates":[[[102.7684,15.087],[102.7667,15.0843],[102.7668,15.0835],[102.7676,15.0835],[102.7676,15.0841],[102.7682,15.0832],[102.7707,15.0838],[102.7707,15.083],[102.7712,15.083],[102.7718,15.0822],[102.7726,15.0822],[102.7726,15.0838],[102.7721,15.0838],[102.772,15.0849],[102.7712,15.0849],[102.7712,15.086],[102.7701,15.086],[102.7701,15.0868],[102.7684,15.087]],[[102.7707,15.0838],[102.7709,15.0844],[102.7709,15.0838],[102.7707,15.0838]]]}},{"type":"Feature","properties":{"kind":"flood","area_km2":0.175,"conf":"low","date":"2026-10-04"},"geometry":{"type":"Polygon","coordinates":[[[102.687,15.1575],[102.6867,15.1553],[102.6862,15.1553],[102.6862,15.1559],[102.6853,15.1559],[102.6854,15.1553],[102.684,15.155],[102.684,15.1542],[102.6834,15.1542],[102.6828,15.1553],[102.6817,15.1553],[102.6817,15.1537],[102.6834,15.1534],[102.684,15.1531],[102.6843,15.1521],[102.6851,15.1521],[102.6851,15.1537],[102.6854,15.1532],[102.6862,15.1532],[102.6865,15.154],[102.6882,15.154],[102.6878,15.1575],[102.687,15.1575]]]}},{"type":"Feature","properties":{"kind":"flood","area_km2":0.17,"conf":"low","date":"2026-10-04"},"geometry":{"type":"Polygon","coordinates":[[[102.7123,15.1364],[102.7126,15.1347],[102.7115,15.1347],[102.7115,15.1339],[102.7127,15.1334],[102.7127,15.1326],[102.7132,15.132],[102.7143,15.1318],[102.7144,15.1304],[102.7155,15.1304],[102.7163,15.1312],[102.7169,15.1313],[102.7169,15.1321],[102.7157,15.1321],[102.7157,15.1329],[102.7171,15.1332],[102.7171,15.134],[102.7154,15.134],[102.7155,15.1329],[102.7143,15.1331],[102.7143,15.1348],[102.7135,15.1347],[102.7135,15.1353],[102.7143,15.1356],[102.7143,15.1364],[102.7123,15.1364]]]}},{"type":"Feature","properties":{"kind":"flood","area_km2":0.169,"conf":"low","date":"2026-10-04"},"geometry":{"type":"Polygon","coordinates":[[[102.5077,15.0515],[102.5041,15.0507],[102.5038,15.0491],[102.5047,15.0482],[102.5058,15.0483],[102.5069,15.0491],[102.5088,15.0491],[102.51,15.0497],[102.5099,15.0516],[102.5077,15.0515]]]}},{"type":"Feature","properties":{"kind":"flood","area_km2":0.166,"conf":"low","date":"2026-10-04"},"geometry":{"type":"Polygon","coordinates":[[[102.6974,15.1514],[102.6971,15.15],[102.6982,15.15],[102.6991,15.1492],[102.6997,15.1471],[102.7047,15.1477],[102.7044,15.1487],[102.705,15.1488],[102.705,15.1496],[102.7036,15.1496],[102.7033,15.1487],[102.7024,15.1493],[102.6999,15.1492],[102.6999,15.1501],[102.6991,15.1509],[102.6974,15.1514]]]}},{"type":"Feature","properties":{"kind":"flood","area_km2":0.158,"conf":"low","date":"2026-10-04"},"geometry":{"type":"Polygon","coordinates":[[[102.6774,15.2921],[102.6763,15.2918],[102.6763,15.291],[102.6755,15.2907],[102.6755,15.2899],[102.6766,15.2899],[102.6766,15.2894],[102.675,15.2894],[102.675,15.2875],[102.6761,15.2875],[102.6761,15.288],[102.6778,15.2886],[102.6786,15.287],[102.6797,15.287],[102.68,15.2881],[102.6789,15.2886],[102.6794,15.2908],[102.6777,15.2908],[102.6774,15.2921]]]}},{"type":"Feature","properties":{"kind":"flood","area_km2":0.157,"conf":"low","date":"2026-10-04"},"geometry":{"type":"Polygon","coordinates":[[[102.0373,15.0524],[102.0348,15.051],[102.0345,15.0504],[102.034,15.0504],[102.0337,15.0496],[102.0315,15.0488],[102.0309,15.0482],[102.0312,15.0469],[102.0321,15.0466],[102.0321,15.0472],[102.0315,15.0472],[102.0315,15.0482],[102.0334,15.0483],[102.0337,15.0466],[102.0346,15.0472],[102.0346,15.0477],[102.0354,15.0475],[102.0354,15.0488],[102.0359,15.0488],[102.0362,15.0502],[102.037,15.0502],[102.0367,15.0516],[102.0381,15.0516],[102.0381,15.0524],[102.0373,15.0524]],[[102.034,15.0485],[102.0345,15.0488],[102.0345,15.0486],[102.034,15.0485]]]}},{"type":"Feature","properties":{"kind":"flood","area_km2":0.149,"conf":"low","date":"2026-10-04"},"geometry":{"type":"Polygon","coordinates":[[[102.6608,15.2285],[102.6608,15.2274],[102.662,15.2275],[102.6628,15.2266],[102.6639,15.2267],[102.665,15.2275],[102.6648,15.2261],[102.6662,15.2264],[102.6664,15.2256],[102.6678,15.2256],[102.6687,15.2262],[102.6686,15.2281],[102.662,15.228],[102.6617,15.2285],[102.6608,15.2285]]]}},{"type":"Feature","properties":{"kind":"flood","area_km2":0.148,"conf":"low","date":"2026-10-04"},"geometry":{"type":"Polygon","coordinates":[[[102.7129,15.1136],[102.7126,15.112],[102.7112,15.1122],[102.7112,15.1109],[102.7121,15.1106],[102.7121,15.1101],[102.7112,15.1098],[102.7112,15.1087],[102.7121,15.1087],[102.7121,15.1093],[102.7132,15.1093],[102.7135,15.1098],[102.7154,15.1101],[102.7154,15.1109],[102.7148,15.1112],[102.7146,15.1123],[102.7148,15.1133],[102.7129,15.1136]]]}},{"type":"Feature","properties":{"kind":"flood","area_km2":0.138,"conf":"low","date":"2026-10-04"},"geometry":{"type":"Polygon","coordinates":[[[102.0373,15.0502],[102.0373,15.0483],[102.0368,15.0483],[102.0368,15.0472],[102.0382,15.047],[102.0376,15.047],[102.0377,15.0456],[102.0371,15.0448],[102.0393,15.0443],[102.0405,15.0448],[102.0404,15.0465],[102.0396,15.0465],[102.0399,15.0478],[102.0393,15.0481],[102.0393,15.0486],[102.0379,15.0483],[102.0376,15.0497],[102.0382,15.0497],[102.0382,15.0502],[102.0373,15.0502]],[[102.0385,15.0464],[102.0388,15.0467],[102.0388,15.0464],[102.0385,15.0464]]]}},{"type":"Feature","properties":{"kind":"flood","area_km2":0.136,"conf":"low","date":"2026-10-04"},"geometry":{"type":"Polygon","coordinates":[[[102.8095,15.0191],[102.809,15.0186],[102.8073,15.0186],[102.8068,15.018],[102.8051,15.018],[102.8043,15.0175],[102.802,15.0172],[102.8018,15.0161],[102.8051,15.0169],[102.8054,15.0161],[102.8068,15.0159],[102.8079,15.0175],[102.8098,15.0175],[102.8104,15.0181],[102.8104,15.0191],[102.8095,15.0191]]]}},{"type":"Feature","properties":{"kind":"flood","area_km2":0.132,"conf":"low","date":"2026-10-04"},"geometry":{"type":"Polygon","coordinates":[[[102.72,15.0985],[102.7197,15.0979],[102.7181,15.0974],[102.7178,15.0958],[102.7178,15.0949],[102.7189,15.0952],[102.7189,15.0944],[102.7195,15.0941],[102.7206,15.0942],[102.7214,15.0958],[102.7214,15.0966],[102.7203,15.0969],[102.7206,15.0974],[102.7214,15.0974],[102.7214,15.0982],[102.72,15.0985]]]}},{"type":"Feature","properties":{"kind":"flood","area_km2":0.131,"conf":"low","date":"2026-10-04"},"geometry":{"type":"Polygon","coordinates":[[[102.3362,15.7964],[102.3362,15.7956],[102.3334,15.7953],[102.3334,15.7931],[102.3354,15.7934],[102.3354,15.7929],[102.3362,15.7926],[102.3371,15.7926],[102.3376,15.7932],[102.3379,15.7945],[102.3371,15.7948],[102.337,15.7956],[102.3376,15.7956],[102.3376,15.7961],[102.3362,15.7964]]]}},{"type":"Feature","properties":{"kind":"flood","area_km2":0.131,"conf":"low","date":"2026-10-04"},"geometry":{"type":"Polygon","coordinates":[[[102.6988,15.1547],[102.6988,15.1538],[102.6977,15.1536],[102.6977,15.1522],[102.6985,15.1522],[102.6985,15.1528],[102.6993,15.153],[102.6999,15.1525],[102.7018,15.1525],[102.7021,15.1514],[102.7041,15.1517],[102.7041,15.1528],[102.7021,15.1533],[102.7015,15.1547],[102.6988,15.1547]]]}},{"type":"Feature","properties":{"kind":"flood","area_km2":0.114,"conf":"low","date":"2026-10-04"},"geometry":{"type":"Polygon","coordinates":[[[102.6854,15.3077],[102.6851,15.306],[102.6823,15.3057],[102.682,15.3046],[102.6848,15.3049],[102.6849,15.3033],[102.686,15.3033],[102.6865,15.3055],[102.6876,15.3058],[102.6876,15.3066],[102.6865,15.3063],[102.6862,15.3077],[102.6854,15.3077]]]}},{"type":"Feature","properties":{"kind":"flood","area_km2":0.106,"conf":"low","date":"2026-10-04"},"geometry":{"type":"Polygon","coordinates":[[[102.6665,15.2435],[102.6654,15.2427],[102.6643,15.2427],[102.6643,15.2413],[102.6632,15.2407],[102.6632,15.2399],[102.6641,15.2394],[102.6641,15.2375],[102.6652,15.2375],[102.6652,15.2391],[102.6646,15.2394],[102.6643,15.2408],[102.6649,15.2413],[102.6677,15.2413],[102.6677,15.2419],[102.6682,15.2422],[102.6679,15.2435],[102.6665,15.2435]],[[102.666,15.2429],[102.6674,15.243],[102.6674,15.2416],[102.666,15.2416],[102.666,15.2429]]]}},{"type":"Feature","properties":{"kind":"flood","area_km2":0.106,"conf":"low","date":"2026-10-04"},"geometry":{"type":"Polygon","coordinates":[[[102.5114,15.0654],[102.5115,15.0643],[102.5076,15.0643],[102.5078,15.0632],[102.5087,15.0635],[102.509,15.0629],[102.5101,15.0627],[102.5131,15.0627],[102.5134,15.0649],[102.5114,15.0654]]]}},{"type":"Feature","properties":{"kind":"flood","area_km2":0.104,"conf":"low","date":"2026-10-04"},"geometry":{"type":"Polygon","coordinates":[[[102.3843,15.5786],[102.3849,15.5769],[102.3874,15.5767],[102.388,15.5743],[102.3888,15.5743],[102.3888,15.5778],[102.3877,15.5783],[102.3843,15.5786]]]}},{"type":"Feature","properties":{"kind":"flood","area_km2":0.103,"conf":"low","date":"2026-10-04"},"geometry":{"type":"Polygon","coordinates":[[[102.7983,15.0521],[102.7981,15.0507],[102.7995,15.051],[102.8006,15.0505],[102.8023,15.0483],[102.8039,15.0481],[102.8039,15.0492],[102.8023,15.0494],[102.8025,15.0508],[102.8017,15.0516],[102.7983,15.0521]]]}},{"type":"Feature","properties":{"kind":"flood","area_km2":0.102,"conf":"low","date":"2026-10-04"},"geometry":{"type":"Polygon","coordinates":[[[102.6621,15.2383],[102.6621,15.2378],[102.6604,15.2377],[102.6602,15.2364],[102.6596,15.2361],[102.6596,15.2356],[102.661,15.2356],[102.661,15.2345],[102.6619,15.2345],[102.6619,15.2361],[102.663,15.2361],[102.6635,15.2356],[102.6649,15.2359],[102.6649,15.2367],[102.6624,15.2372],[102.6621,15.2383]]]}},{"type":"Feature","properties":{"kind":"flood","area_km2":0.101,"conf":"low","date":"2026-10-04"},"geometry":{"type":"Polygon","coordinates":[[[102.8403,15.097],[102.8403,15.0934],[102.8442,15.094],[102.8439,15.0956],[102.8431,15.0956],[102.8417,15.097],[102.8403,15.097]],[[102.8406,15.0959],[102.842,15.0959],[102.842,15.0945],[102.8406,15.0945],[102.8406,15.0959]]]}},{"type":"Feature","properties":{"kind":"flood","area_km2":0.1,"conf":"high","date":"2026-10-04"},"geometry":{"type":"Polygon","coordinates":[[[102.7974,15.0651],[102.794,15.064],[102.794,15.0624],[102.7971,15.0624],[102.7977,15.0629],[102.7976,15.0637],[102.7985,15.064],[102.7985,15.0648],[102.7974,15.0651]],[[102.7957,15.0637],[102.7963,15.0637],[102.7963,15.0632],[102.7957,15.0632],[102.7957,15.0637]]]}},{"type":"Feature","properties":{"kind":"flood","area_km2":0.099,"conf":"low","date":"2026-10-04"},"geometry":{"type":"Polygon","coordinates":[[[102.5048,15.0594],[102.5048,15.0583],[102.5043,15.0583],[102.5046,15.0542],[102.5074,15.0537],[102.508,15.054],[102.5079,15.0551],[102.5085,15.0551],[102.5085,15.0561],[102.5074,15.0561],[102.5071,15.0553],[102.5051,15.0553],[102.5048,15.0594]]]}},{"type":"Feature","properties":{"kind":"flood","area_km2":0.095,"conf":"low","date":"2026-10-04"},"geometry":{"type":"Polygon","coordinates":[[[102.8034,15.0478],[102.8031,15.047],[102.802,15.0464],[102.802,15.0448],[102.8037,15.0448],[102.8043,15.044],[102.8051,15.044],[102.8051,15.0457],[102.8045,15.0457],[102.8048,15.0476],[102.8034,15.0478]]]}},{"type":"Feature","properties":{"kind":"flood","area_km2":0.095,"conf":"low","date":"2026-10-04"},"geometry":{"type":"Polygon","coordinates":[[[102.6615,15.3963],[102.6618,15.3939],[102.6624,15.3931],[102.6632,15.3931],[102.6648,15.3944],[102.6654,15.3944],[102.6651,15.3955],[102.6623,15.3958],[102.6623,15.3963],[102.6615,15.3963]]]}},{"type":"Feature","properties":{"kind":"flood","area_km2":0.094,"conf":"low","date":"2026-10-04"},"geometry":{"type":"Polygon","coordinates":[[[102.894,15.3891],[102.8938,15.384],[102.8946,15.384],[102.8949,15.3854],[102.896,15.3867],[102.896,15.3883],[102.8948,15.3891],[102.894,15.3891]]]}},{"type":"Feature","properties":{"kind":"flood","area_km2":0.091,"conf":"low","date":"2026-10-04"},"geometry":{"type":"Polygon","coordinates":[[[102.1443,15.7725],[102.1409,15.7722],[102.141,15.7695],[102.1429,15.7698],[102.1443,15.7717],[102.1443,15.7725]]]}},{"type":"Feature","properties":{"kind":"flood","area_km2":0.09,"conf":"low","date":"2026-10-04"},"geometry":{"type":"Polygon","coordinates":[[[102.76,15.3821],[102.7597,15.3816],[102.758,15.3818],[102.758,15.3808],[102.7592,15.3794],[102.7608,15.3792],[102.7614,15.3797],[102.7617,15.3816],[102.7611,15.3821],[102.76,15.3821]],[[102.76,15.3813],[102.7603,15.3816],[102.7603,15.3813],[102.76,15.3813]],[[102.7608,15.3808],[102.7611,15.3811],[102.7611,15.3808],[102.7608,15.3808]],[[102.7611,15.3805],[102.7614,15.3808],[102.7614,15.3805],[102.7611,15.3805]],[[102.7608,15.38],[102.7611,15.3803],[102.7611,15.38],[102.7608,15.38]]]}},{"type":"Feature","properties":{"kind":"flood","area_km2":0.086,"conf":"low","date":"2026-10-04"},"geometry":{"type":"Polygon","coordinates":[[[102.6649,15.2351],[102.6633,15.2342],[102.6633,15.2337],[102.6616,15.2334],[102.6619,15.2318],[102.6627,15.2318],[102.6633,15.2323],[102.6633,15.2334],[102.6647,15.2332],[102.665,15.2337],[102.665,15.2332],[102.6658,15.2332],[102.6661,15.2337],[102.6666,15.2337],[102.6666,15.2351],[102.6649,15.2351]]]}},{"type":"Feature","properties":{"kind":"flood","area_km2":0.084,"conf":"low","date":"2026-10-04"},"geometry":{"type":"Polygon","coordinates":[[[102.0738,15.6147],[102.0738,15.6139],[102.073,15.6139],[102.073,15.6134],[102.0716,15.6134],[102.0716,15.6123],[102.073,15.6118],[102.0727,15.6107],[102.0741,15.6104],[102.0746,15.6148],[102.0738,15.6147]]]}},{"type":"Feature","properties":{"kind":"flood","area_km2":0.083,"conf":"low","date":"2026-10-04"},"geometry":{"type":"Polygon","coordinates":[[[102.6603,15.1995],[102.66,15.1979],[102.6617,15.1982],[102.662,15.1987],[102.6631,15.1985],[102.6631,15.196],[102.6643,15.196],[102.6642,15.1985],[102.6634,15.1987],[102.6634,15.1993],[102.6603,15.1995]]]}},{"type":"Feature","properties":{"kind":"flood","area_km2":0.083,"conf":"high","date":"2026-10-04"},"geometry":{"type":"Polygon","coordinates":[[[102.7829,15.0614],[102.7829,15.0606],[102.7843,15.0593],[102.7843,15.0574],[102.7852,15.0574],[102.7854,15.0588],[102.7865,15.0598],[102.7865,15.0609],[102.7854,15.0609],[102.7854,15.0604],[102.7846,15.0604],[102.7837,15.0614],[102.7829,15.0614]]]}},{"type":"Feature","properties":{"kind":"flood","area_km2":0.082,"conf":"low","date":"2026-10-04"},"geometry":{"type":"Polygon","coordinates":[[[102.4899,15.3275],[102.4894,15.3269],[102.4894,15.3226],[102.4903,15.3226],[102.4902,15.3251],[102.4919,15.3259],[102.4919,15.327],[102.4913,15.3275],[102.4899,15.3275]]]}},{"type":"Feature","properties":{"kind":"flood","area_km2":0.082,"conf":"low","date":"2026-10-04"},"geometry":{"type":"Polygon","coordinates":[[[102.679,15.152],[102.6784,15.1506],[102.6787,15.1493],[102.6798,15.1493],[102.6821,15.1504],[102.6818,15.1518],[102.6801,15.1515],[102.6798,15.152],[102.679,15.152]]]}},{"type":"Feature","properties":{"kind":"flood","area_km2":0.08,"conf":"low","date":"2026-10-04"},"geometry":{"type":"Polygon","coordinates":[[[102.0688,15.6152],[102.0679,15.6147],[102.0679,15.6136],[102.0674,15.6133],[102.0674,15.6125],[102.0682,15.6122],[102.0683,15.6112],[102.0696,15.6114],[102.0693,15.6144],[102.0699,15.6144],[102.0699,15.6152],[102.0688,15.6152]]]}},{"type":"Feature","properties":{"kind":"flood","area_km2":0.076,"conf":"low","date":"2026-10-04"},"geometry":{"type":"Polygon","coordinates":[[[102.7228,15.1232],[102.7225,15.1221],[102.7234,15.1218],[102.7228,15.1202],[102.7234,15.1197],[102.7242,15.1197],[102.7245,15.1208],[102.7251,15.121],[102.7251,15.1227],[102.7228,15.1232]]]}},{"type":"Feature","properties":{"kind":"flood","area_km2":0.074,"conf":"low","date":"2026-10-04"},"geometry":{"type":"Polygon","coordinates":[[[102.7395,15.0979],[102.7373,15.0976],[102.737,15.0965],[102.7371,15.0949],[102.7379,15.0943],[102.739,15.0943],[102.7387,15.0957],[102.739,15.0971],[102.7396,15.0971],[102.7395,15.0979]]]}},{"type":"Feature","properties":{"kind":"flood","area_km2":0.073,"conf":"low","date":"2026-10-04"},"geometry":{"type":"Polygon","coordinates":[[[102.662,15.2223],[102.6598,15.2217],[102.6578,15.222],[102.6581,15.2204],[102.6595,15.2204],[102.6598,15.2209],[102.6623,15.2207],[102.662,15.2223]]]}},{"type":"Feature","properties":{"kind":"flood","area_km2":0.072,"conf":"low","date":"2026-10-04"},"geometry":{"type":"Polygon","coordinates":[[[102.6585,15.2084],[102.6588,15.2071],[102.6586,15.2049],[102.658,15.2046],[102.658,15.203],[102.6589,15.203],[102.6597,15.2047],[102.6597,15.2082],[102.6585,15.2084]]]}},{"type":"Feature","properties":{"kind":"flood","area_km2":0.071,"conf":"low","date":"2026-10-04"},"geometry":{"type":"Polygon","coordinates":[[[102.723,15.1053],[102.7197,15.1047],[102.7197,15.1036],[102.7233,15.1034],[102.7236,15.1048],[102.723,15.1053]]]}},{"type":"Feature","properties":{"kind":"flood","area_km2":0.07,"conf":"high","date":"2026-10-04"},"geometry":{"type":"Polygon","coordinates":[[[102.7775,15.0684],[102.7772,15.0673],[102.7778,15.0674],[102.7778,15.0668],[102.7787,15.066],[102.7792,15.066],[102.7798,15.0671],[102.7811,15.0674],[102.7811,15.0682],[102.7806,15.0685],[102.7775,15.0684]]]}},{"type":"Feature","properties":{"kind":"flood","area_km2":0.068,"conf":"low","date":"2026-10-04"},"geometry":{"type":"Polygon","coordinates":[[[102.6977,15.2265],[102.6971,15.2259],[102.6972,15.2232],[102.698,15.2232],[102.698,15.2238],[102.6994,15.224],[102.6994,15.2259],[102.6977,15.2265]],[[102.6988,15.2246],[102.6991,15.2249],[102.6991,15.2246],[102.6988,15.2246]]]}},{"type":"Feature","properties":{"kind":"flood","area_km2":0.068,"conf":"low","date":"2026-10-04"},"geometry":{"type":"Polygon","coordinates":[[[102.6604,15.2204],[102.6607,15.2182],[102.664,15.2191],[102.664,15.2199],[102.6634,15.2204],[102.6623,15.2204],[102.662,15.2199],[102.6604,15.2204]]]}},{"type":"Feature","properties":{"kind":"flood","area_km2":0.065,"conf":"low","date":"2026-10-04"},"geometry":{"type":"Polygon","coordinates":[[[102.7248,15.0969],[102.7245,15.0958],[102.7228,15.0953],[102.7228,15.0939],[102.7237,15.0939],[102.7237,15.0945],[102.7248,15.0945],[102.7253,15.0956],[102.7265,15.0956],[102.7262,15.0969],[102.7248,15.0969]]]}},{"type":"Feature","properties":{"kind":"flood","area_km2":0.065,"conf":"low","date":"2026-10-04"},"geometry":{"type":"Polygon","coordinates":[[[102.7326,15.0937],[102.7323,15.0929],[102.7298,15.0929],[102.7298,15.0921],[102.7346,15.0919],[102.7346,15.0929],[102.7337,15.0937],[102.7326,15.0937]]]}},{"type":"Feature","properties":{"kind":"flood","area_km2":0.059,"conf":"low","date":"2026-10-04"},"geometry":{"type":"Polygon","coordinates":[[[102.6597,15.2028],[102.6592,15.2022],[102.6589,15.2003],[102.6611,15.1998],[102.6611,15.2017],[102.6606,15.202],[102.6606,15.2028],[102.6597,15.2028]]]}},{"type":"Feature","properties":{"kind":"flood","area_km2":0.057,"conf":"low","date":"2026-10-04"},"geometry":{"type":"Polygon","coordinates":[[[102.6916,15.3991],[102.6914,15.398],[102.6919,15.3974],[102.6947,15.3972],[102.6944,15.3985],[102.6916,15.3991]]]}},{"type":"Feature","properties":{"kind":"flood","area_km2":0.057,"conf":"low","date":"2026-10-04"},"geometry":{"type":"Polygon","coordinates":[[[102.6516,15.2008],[102.6517,15.2],[102.6522,15.1997],[102.6528,15.1984],[102.6542,15.1984],[102.6542,15.2005],[102.6516,15.2008]]]}},{"type":"Feature","properties":{"kind":"flood","area_km2":0.056,"conf":"low","date":"2026-10-04"},"geometry":{"type":"Polygon","coordinates":[[[102.5098,15.0608],[102.5098,15.06],[102.5087,15.0599],[102.5093,15.0594],[102.5093,15.0583],[102.5104,15.0586],[102.511,15.0578],[102.5118,15.0578],[102.5118,15.0594],[102.5107,15.0597],[102.5098,15.0608]]]}},{"type":"Feature","properties":{"kind":"flood","area_km2":0.053,"conf":"low","date":"2026-10-04"},"geometry":{"type":"Polygon","coordinates":[[[102.2135,15.7244],[102.2135,15.7236],[102.2129,15.723],[102.2146,15.7231],[102.2149,15.7223],[102.2163,15.7215],[102.2166,15.7231],[102.2135,15.7244]]]}},{"type":"Feature","properties":{"kind":"flood","area_km2":0.053,"conf":"low","date":"2026-10-04"},"geometry":{"type":"Polygon","coordinates":[[[102.708,15.1282],[102.7057,15.1276],[102.706,15.1257],[102.7077,15.1257],[102.708,15.1282]]]}},{"type":"Feature","properties":{"kind":"flood","area_km2":0.052,"conf":"low","date":"2026-10-04"},"geometry":{"type":"Polygon","coordinates":[[[102.8068,15.0427],[102.8068,15.0419],[102.8057,15.0419],[102.8057,15.0408],[102.8085,15.0405],[102.8079,15.0424],[102.8068,15.0427]]]}},{"type":"Feature","properties":{"kind":"flood","area_km2":0.051,"conf":"low","date":"2026-10-04"},"geometry":{"type":"Polygon","coordinates":[[[102.3115,15.8424],[102.3115,15.8416],[102.3107,15.8411],[102.3107,15.8402],[102.3138,15.8405],[102.3138,15.8416],[102.3124,15.8419],[102.3124,15.8424],[102.3115,15.8424]],[[102.3121,15.8411],[102.3124,15.8416],[102.3124,15.8411],[102.3121,15.8411]]]}},{"type":"Feature","properties":{"kind":"flood","area_km2":0.05,"conf":"low","date":"2026-10-04"},"geometry":{"type":"Polygon","coordinates":[[[102.7106,15.1404],[102.7104,15.1382],[102.7126,15.1383],[102.7129,15.1396],[102.7118,15.1396],[102.7115,15.1404],[102.7106,15.1404]]]}},{"type":"Feature","properties":{"kind":"seasonal","area_km2":2.476,"date":"2026-10-04"},"geometry":{"type":"Polygon","coordinates":[[[102.7298,15.5632],[102.7298,15.5623],[102.7287,15.5618],[102.7267,15.5618],[102.7265,15.5604],[102.7251,15.5604],[102.7251,15.5588],[102.7237,15.5588],[102.7229,15.5577],[102.722,15.5577],[102.7217,15.5571],[102.7184,15.5563],[102.7181,15.5546],[102.7162,15.5535],[102.7162,15.5527],[102.7154,15.5527],[102.7148,15.5516],[102.7137,15.5511],[102.7137,15.5497],[102.7129,15.5486],[102.7135,15.5465],[102.7146,15.5462],[102.7154,15.5454],[102.7166,15.5454],[102.7165,15.547],[102.716,15.5478],[102.7165,15.5478],[102.7168,15.5484],[102.7179,15.5484],[102.7191,15.5471],[102.7207,15.5463],[102.7205,15.5438],[102.7213,15.5438],[102.7213,15.5449],[102.7221,15.5455],[102.7222,15.5438],[102.725,15.5441],[102.7255,15.5436],[102.7264,15.5436],[102.7266,15.5442],[102.7272,15.5442],[102.7275,15.545],[102.7294,15.5447],[102.7294,15.5453],[102.7303,15.5453],[102.7308,15.5458],[102.7308,15.5466],[102.7316,15.5466],[102.7322,15.5472],[102.7322,15.5485],[102.7333,15.5483],[102.7336,15.5488],[102.7344,15.5488],[102.7366,15.5516],[102.738,15.5519],[102.7377,15.5532],[102.7383,15.5532],[102.7383,15.5527],[102.7391,15.5527],[102.7393,15.5589],[102.7385,15.5589],[102.7388,15.56],[102.7365,15.5605],[102.736,15.5611],[102.7348,15.561],[102.7343,15.5618],[102.7323,15.5616],[102.7312,15.5629],[102.7298,15.5632]],[[102.7329,15.5602],[102.7332,15.561],[102.7334,15.5602],[102.7329,15.5602]],[[102.7287,15.5588],[102.729,15.5583],[102.7301,15.5588],[102.7301,15.5583],[102.7307,15.5583],[102.7312,15.5575],[102.734,15.5575],[102.7343,15.5581],[102.7354,15.5581],[102.7357,15.5575],[102.7363,15.5575],[102.7366,15.5567],[102.7377,15.5565],[102.7374,15.5548],[102.7366,15.5546],[102.736,15.5556],[102.7355,15.5551],[102.7341,15.5553],[102.7338,15.5545],[102.7346,15.5535],[102.7344,15.5526],[102.7321,15.5523],[102.7316,15.5515],[102.7296,15.5512],[102.7299,15.5523],[102.7282,15.5531],[102.7277,15.5518],[102.7254,15.5506],[102.7254,15.5501],[102.7227,15.5493],[102.721,15.5495],[102.7204,15.5487],[102.7199,15.5487],[102.7199,15.5492],[102.7193,15.5492],[102.7196,15.5506],[102.719,15.5506],[102.719,15.5511],[102.7196,15.5514],[102.719,15.5514],[102.7187,15.5533],[102.7201,15.5536],[102.7204,15.5547],[102.722,15.5552],[102.7229,15.556],[102.7229,15.5566],[102.7254,15.5563],[102.7254,15.5569],[102.7265,15.5569],[102.7257,15.5563],[102.7276,15.5564],[102.7273,15.5569],[102.7279,15.5569],[102.729,15.5564],[102.7293,15.5575],[102.7298,15.5577],[102.7282,15.558],[102.7282,15.5585],[102.7287,15.5588]],[[102.7324,15.558],[102.7326,15.5583],[102.7326,15.558],[102.7324,15.558]],[[102.7335,15.558],[102.7337,15.5583],[102.7338,15.558],[102.7335,15.558]],[[102.7287,15.5569],[102.729,15.5575],[102.729,15.5569],[102.7287,15.5569]],[[102.7349,15.5545],[102.7355,15.5548],[102.7355,15.5545],[102.7349,15.5545]],[[102.7355,15.554],[102.7357,15.5545],[102.7358,15.554],[102.7355,15.554]],[[102.7346,15.554],[102.7355,15.554],[102.7358,15.5532],[102.7349,15.5532],[102.7346,15.554]],[[102.717,15.553],[102.7179,15.5527],[102.7179,15.5519],[102.7173,15.5516],[102.7168,15.5516],[102.7162,15.5524],[102.717,15.553]],[[102.7288,15.552],[102.7291,15.5526],[102.7293,15.552],[102.7288,15.552]],[[102.7185,15.5498],[102.7187,15.55],[102.7187,15.5498],[102.7185,15.5498]],[[102.7288,15.5496],[102.7291,15.5501],[102.7291,15.5496],[102.7288,15.5496]],[[102.7246,15.5496],[102.7252,15.5498],[102.7252,15.5496],[102.7246,15.5496]],[[102.7151,15.5486],[102.7154,15.5489],[102.7154,15.5486],[102.7151,15.5486]],[[102.7218,15.5474],[102.7227,15.5471],[102.7227,15.5463],[102.7219,15.5465],[102.7218,15.5474]],[[102.7302,15.5466],[102.7308,15.5472],[102.7308,15.5466],[102.7302,15.5466]],[[102.7286,15.5455],[102.7291,15.5461],[102.7291,15.5455],[102.7286,15.5455]]]}},{"type":"Feature","properties":{"kind":"seasonal","area_km2":1.359,"date":"2026-10-04"},"geometry":{"type":"Polygon","coordinates":[[[102.2865,15.4682],[102.2862,15.4676],[102.2851,15.4676],[102.2848,15.4671],[102.2826,15.466],[102.2826,15.4649],[102.2832,15.4646],[102.2841,15.4622],[102.2816,15.4608],[102.2805,15.4584],[102.2788,15.4586],[102.2788,15.4572],[102.2797,15.4573],[102.28,15.4567],[102.2791,15.4562],[102.2794,15.4548],[102.2786,15.4548],[102.2786,15.454],[102.2797,15.454],[102.2797,15.4532],[102.2806,15.4529],[102.2803,15.4524],[102.2789,15.4526],[102.2789,15.4518],[102.2797,15.4518],[102.2795,15.4502],[102.2775,15.4491],[102.277,15.4491],[102.2772,15.4507],[102.2758,15.4507],[102.2758,15.4502],[102.2747,15.4499],[102.2747,15.4491],[102.2767,15.4491],[102.2767,15.4483],[102.2773,15.4477],[102.2792,15.4475],[102.2795,15.4483],[102.2812,15.4481],[102.285,15.4516],[102.2848,15.4522],[102.2845,15.4516],[102.2837,15.4516],[102.2834,15.4508],[102.2834,15.453],[102.2822,15.4532],[102.2817,15.4546],[102.2822,15.4546],[102.2822,15.454],[102.2842,15.4543],[102.2847,15.456],[102.2844,15.4568],[102.285,15.4579],[102.2858,15.4581],[102.2858,15.4587],[102.2869,15.459],[102.2866,15.4601],[102.2872,15.4603],[102.2872,15.4609],[102.2891,15.4609],[102.2891,15.4614],[102.29,15.4615],[102.2911,15.4609],[102.2908,15.459],[102.2914,15.4593],[102.2913,15.4626],[102.2902,15.4652],[102.2902,15.4674],[102.2882,15.4677],[102.2879,15.4682],[102.2865,15.4682]],[[102.2809,15.451],[102.2828,15.4511],[102.2831,15.45],[102.2828,15.4505],[102.2823,15.4505],[102.282,15.45],[102.282,15.4505],[102.2809,15.451]],[[102.2809,15.4505],[102.282,15.45],[102.2817,15.4492],[102.2806,15.4491],[102.2809,15.4505]]]}},{"type":"Feature","properties":{"kind":"seasonal","area_km2":1.058,"date":"2026-10-04"},"geometry":{"type":"Polygon","coordinates":[[[102.5944,15.475],[102.5933,15.4739],[102.5916,15.4739],[102.5913,15.4744],[102.5893,15.4741],[102.5885,15.4733],[102.5877,15.4733],[102.5869,15.4717],[102.5844,15.4705],[102.5844,15.4695],[102.5838,15.4695],[102.5835,15.4678],[102.5822,15.467],[102.5825,15.4654],[102.5833,15.4648],[102.5833,15.464],[102.5844,15.4632],[102.5845,15.4619],[102.587,15.4619],[102.587,15.463],[102.5889,15.463],[102.5889,15.4625],[102.5898,15.4625],[102.59,15.4646],[102.5911,15.4652],[102.5911,15.466],[102.5889,15.466],[102.5886,15.4665],[102.5875,15.4662],[102.5866,15.4687],[102.5888,15.4709],[102.5894,15.4709],[102.591,15.4722],[102.5919,15.4723],[102.5924,15.4717],[102.5927,15.4704],[102.5939,15.4704],[102.5939,15.4698],[102.5927,15.4693],[102.593,15.4682],[102.5914,15.4674],[102.5911,15.4663],[102.5917,15.4658],[102.5942,15.4658],[102.5947,15.4655],[102.5948,15.465],[102.5961,15.4653],[102.5961,15.468],[102.595,15.4688],[102.5947,15.4707],[102.5961,15.4723],[102.5963,15.4737],[102.5974,15.4742],[102.5974,15.475],[102.5944,15.475]],[[102.593,15.4734],[102.5935,15.4736],[102.5935,15.4734],[102.593,15.4734]],[[102.5858,15.4651],[102.5861,15.4646],[102.585,15.4638],[102.585,15.4643],[102.5858,15.4651]]]}},{"type":"Feature","properties":{"kind":"seasonal","area_km2":1.048,"date":"2026-10-04"},"geometry":{"type":"Polygon","coordinates":[[[102.4708,15.3156],[102.4689,15.3148],[102.4666,15.3142],[102.4672,15.3137],[102.4658,15.3134],[102.4661,15.3118],[102.4656,15.3118],[102.4656,15.3112],[102.4647,15.3109],[102.4642,15.3093],[102.4631,15.3088],[102.4642,15.3053],[102.4657,15.3034],[102.4657,15.3028],[102.4646,15.3023],[102.4646,15.3012],[102.4651,15.3007],[102.4662,15.3007],[102.4663,15.3001],[102.4671,15.3001],[102.4673,15.3023],[102.4665,15.3028],[102.4662,15.3036],[102.4676,15.3047],[102.4676,15.3053],[102.4682,15.3037],[102.4684,15.3053],[102.4698,15.3056],[102.4704,15.3059],[102.4704,15.3064],[102.4715,15.307],[102.472,15.3067],[102.4726,15.307],[102.4726,15.3075],[102.4731,15.3073],[102.4743,15.3081],[102.4739,15.3121],[102.4731,15.3127],[102.4728,15.314],[102.4722,15.3143],[102.4717,15.3156],[102.4714,15.3151],[102.4708,15.3151],[102.4708,15.3156]],[[102.47,15.3148],[102.4708,15.3151],[102.4708,15.3148],[102.47,15.3148]],[[102.4694,15.3145],[102.47,15.3148],[102.47,15.3145],[102.4694,15.3145]],[[102.4714,15.3143],[102.4717,15.3146],[102.4717,15.3143],[102.4714,15.3143]],[[102.4675,15.314],[102.4678,15.3142],[102.4678,15.314],[102.4675,15.314]],[[102.4717,15.3137],[102.4719,15.314],[102.472,15.3137],[102.4717,15.3137]],[[102.472,15.3135],[102.4722,15.3137],[102.4722,15.3135],[102.472,15.3135]],[[102.4722,15.3129],[102.4725,15.3132],[102.4725,15.3129],[102.4722,15.3129]],[[102.4661,15.3126],[102.4664,15.3129],[102.4664,15.3126],[102.4661,15.3126]],[[102.4731,15.3119],[102.4734,15.3121],[102.4734,15.3119],[102.4731,15.3119]],[[102.4731,15.31],[102.4737,15.31],[102.4737,15.3097],[102.4731,15.3094],[102.4731,15.31]],[[102.4695,15.3059],[102.4698,15.3061],[102.4698,15.3059],[102.4695,15.3059]]]}},{"type":"Feature","properties":{"kind":"seasonal","area_km2":0.888,"date":"2026-10-04"},"geometry":{"type":"Polygon","coordinates":[[[102.237,15.7819],[102.2371,15.7811],[102.239,15.7795],[102.239,15.7786],[102.2402,15.7773],[102.2402,15.7754],[102.2408,15.7749],[102.2408,15.7733],[102.2417,15.7716],[102.2417,15.7697],[102.2448,15.7698],[102.247,15.7693],[102.247,15.7698],[102.2478,15.7701],[102.2478,15.7693],[102.2487,15.7693],[102.2509,15.7709],[102.2509,15.7718],[102.2492,15.7728],[102.2492,15.7736],[102.2478,15.775],[102.2472,15.775],[102.2447,15.7776],[102.2441,15.7776],[102.2418,15.7798],[102.2418,15.7803],[102.2401,15.7806],[102.2398,15.7819],[102.237,15.7819]]]}},{"type":"Feature","properties":{"kind":"seasonal","area_km2":0.725,"date":"2026-10-04"},"geometry":{"type":"Polygon","coordinates":[[[102.2014,15.6432],[102.197,15.6426],[102.2006,15.6424],[102.2001,15.6411],[102.2001,15.6381],[102.2007,15.6378],[102.2007,15.6373],[102.2012,15.6373],[102.2013,15.6359],[102.2024,15.6351],[102.2024,15.634],[102.2035,15.6338],[102.2033,15.6319],[102.2022,15.6319],[102.2019,15.6308],[102.2041,15.6308],[102.2042,15.6292],[102.2039,15.6286],[102.2033,15.6292],[102.2008,15.6289],[102.1999,15.6305],[102.1994,15.6305],[102.1982,15.6315],[102.198,15.6307],[102.1991,15.6302],[102.1991,15.6294],[102.1997,15.6291],[102.2,15.628],[102.2022,15.6283],[102.2033,15.627],[102.2039,15.627],[102.2042,15.6251],[102.207,15.6249],[102.2081,15.6271],[102.2087,15.6271],[102.2089,15.6265],[102.2112,15.6271],[102.2114,15.6293],[102.2108,15.6304],[102.208,15.6306],[102.2075,15.6314],[102.2058,15.6319],[102.2055,15.6335],[102.2035,15.6349],[102.2035,15.6359],[102.2024,15.6359],[102.2018,15.6365],[102.2018,15.6376],[102.2004,15.6389],[102.2004,15.6408],[102.2009,15.6413],[102.202,15.6413],[102.202,15.6424],[102.2014,15.6432]]]}},{"type":"Feature","properties":{"kind":"seasonal","area_km2":0.665,"date":"2026-10-04"},"geometry":{"type":"Polygon","coordinates":[[[102.0777,15.6172],[102.0771,15.6167],[102.0763,15.6167],[102.0763,15.6156],[102.0771,15.6153],[102.0766,15.6142],[102.0744,15.6142],[102.0741,15.6104],[102.0747,15.6104],[102.0752,15.6112],[102.0758,15.6107],[102.075,15.6102],[102.0736,15.6101],[102.0739,15.6074],[102.0725,15.6074],[102.0719,15.6069],[102.0714,15.6042],[102.0723,15.6042],[102.0725,15.6047],[102.0742,15.6047],[102.0745,15.6061],[102.077,15.6059],[102.0773,15.6072],[102.077,15.6086],[102.0764,15.6091],[102.0781,15.6091],[102.0781,15.6097],[102.0792,15.6105],[102.08,15.6105],[102.0803,15.6091],[102.0811,15.6092],[102.0805,15.6124],[102.0813,15.6148],[102.0802,15.6148],[102.0791,15.6137],[102.0785,15.6148],[102.0797,15.6154],[102.0796,15.6173],[102.0777,15.6172]]]}},{"type":"Feature","properties":{"kind":"seasonal","area_km2":0.565,"date":"2026-10-04"},"geometry":{"type":"Polygon","coordinates":[[[102.0354,15.6389],[102.0332,15.6378],[102.0332,15.6367],[102.0318,15.6364],[102.0321,15.638],[102.0312,15.638],[102.0301,15.6372],[102.0301,15.6366],[102.0288,15.6361],[102.029,15.6355],[102.0282,15.6355],[102.0282,15.635],[102.0291,15.635],[102.0293,15.6339],[102.0285,15.6334],[102.0274,15.6334],[102.0266,15.6325],[102.0269,15.6293],[102.0277,15.6293],[102.0286,15.6301],[102.0302,15.6301],[102.0305,15.6307],[102.0316,15.6307],[102.0316,15.6329],[102.0322,15.6329],[102.0321,15.6337],[102.0341,15.6343],[102.0363,15.6343],[102.0363,15.6351],[102.0358,15.6351],[102.0358,15.6356],[102.038,15.6378],[102.0379,15.6389],[102.0354,15.6389]],[[102.0302,15.6342],[102.031,15.6342],[102.0305,15.6329],[102.0302,15.6329],[102.0302,15.6342]]]}},{"type":"Feature","properties":{"kind":"seasonal","area_km2":0.482,"date":"2026-10-04"},"geometry":{"type":"Polygon","coordinates":[[[102.5022,15.0726],[102.5024,15.0718],[102.5036,15.071],[102.5036,15.0705],[102.5041,15.0705],[102.5041,15.0697],[102.5053,15.0694],[102.5061,15.0686],[102.5061,15.0678],[102.507,15.0675],[102.5067,15.067],[102.5061,15.067],[102.5061,15.0662],[102.507,15.0662],[102.5062,15.0645],[102.5064,15.0634],[102.5051,15.0632],[102.5059,15.0626],[102.5073,15.0626],[102.5073,15.0599],[102.5065,15.0599],[102.5068,15.061],[102.5062,15.0613],[102.5062,15.0624],[102.5053,15.0623],[102.5051,15.061],[102.5054,15.0594],[102.5059,15.0594],[102.5059,15.0588],[102.5051,15.0583],[102.5051,15.0553],[102.5071,15.0553],[102.5076,15.057],[102.5085,15.057],[102.5085,15.0578],[102.5093,15.0578],[102.5093,15.0594],[102.5087,15.0599],[102.5098,15.06],[102.5098,15.0616],[102.5084,15.0621],[102.5076,15.0643],[102.5115,15.0643],[102.5114,15.0654],[102.5087,15.0656],[102.5081,15.0662],[102.5081,15.0675],[102.5075,15.0675],[102.5064,15.0686],[102.5064,15.0694],[102.505,15.0697],[102.5047,15.0707],[102.5038,15.071],[102.5027,15.0726],[102.5022,15.0726]]]}},{"type":"Feature","properties":{"kind":"seasonal","area_km2":0.455,"date":"2026-10-04"},"geometry":{"type":"Polygon","coordinates":[[[102.8969,15.377],[102.8955,15.3764],[102.8958,15.3751],[102.8972,15.3748],[102.8975,15.3753],[102.8994,15.3754],[102.8983,15.3745],[102.8983,15.3735],[102.8989,15.3735],[102.8986,15.3729],[102.8992,15.3718],[102.8989,15.3716],[102.8992,15.3694],[102.8984,15.3691],[102.8984,15.3683],[102.8976,15.3672],[102.8965,15.3669],[102.8962,15.3664],[102.8951,15.3667],[102.8945,15.3656],[102.8948,15.3645],[102.8959,15.3645],[102.8962,15.365],[102.8976,15.3648],[102.8987,15.367],[102.8998,15.367],[102.9007,15.3662],[102.9018,15.3662],[102.9018,15.367],[102.9004,15.3681],[102.9003,15.3702],[102.9017,15.3711],[102.902,15.3721],[102.9034,15.3722],[102.9034,15.3716],[102.9042,15.3716],[102.9034,15.3732],[102.9014,15.3738],[102.9017,15.3743],[102.9023,15.3743],[102.9022,15.3751],[102.9008,15.3751],[102.8997,15.3765],[102.8989,15.3764],[102.8986,15.377],[102.8969,15.377]],[[102.9006,15.3751],[102.9009,15.374],[102.9,15.3737],[102.8997,15.3743],[102.9003,15.3743],[102.9006,15.3751]],[[102.8992,15.3743],[102.8995,15.3748],[102.8995,15.3743],[102.8992,15.3743]],[[102.9011,15.3746],[102.9014,15.3748],[102.9014,15.3746],[102.9011,15.3746]],[[102.8992,15.3702],[102.8995,15.3705],[102.8995,15.3702],[102.8992,15.3702]],[[102.8987,15.3683],[102.899,15.3686],[102.899,15.3683],[102.8987,15.3683]],[[102.9001,15.3675],[102.9004,15.3681],[102.9004,15.3675],[102.9001,15.3675]]]}},{"type":"Feature","properties":{"kind":"seasonal","area_km2":0.416,"date":"2026-10-04"},"geometry":{"type":"Polygon","coordinates":[[[102.5326,15.8719],[102.5326,15.8703],[102.5335,15.8694],[102.5335,15.8689],[102.5329,15.8686],[102.5335,15.8667],[102.5391,15.8668],[102.5391,15.8663],[102.5422,15.866],[102.545,15.8671],[102.545,15.868],[102.5444,15.8685],[102.5368,15.8684],[102.5368,15.8717],[102.5326,15.8719]]]}},{"type":"Feature","properties":{"kind":"seasonal","area_km2":0.395,"date":"2026-10-04"},"geometry":{"type":"Polygon","coordinates":[[[102.2176,15.7274],[102.2177,15.7261],[102.2188,15.7258],[102.2188,15.725],[102.218,15.7242],[102.218,15.7234],[102.2174,15.7234],[102.218,15.7223],[102.2169,15.7228],[102.2163,15.7223],[102.2172,15.719],[102.2164,15.7182],[102.2158,15.7166],[102.2217,15.7167],[102.2225,15.7177],[102.2231,15.7178],[102.2231,15.7188],[102.2219,15.7191],[102.2217,15.7185],[102.2206,15.7183],[102.22,15.7191],[102.218,15.7196],[102.218,15.7204],[102.2191,15.7207],[102.2191,15.7201],[102.2203,15.7202],[102.2205,15.721],[102.22,15.7212],[102.2208,15.7212],[102.2202,15.7215],[102.2202,15.7226],[102.2197,15.7223],[102.2194,15.7229],[102.2188,15.7228],[102.2193,15.7261],[102.2199,15.7256],[102.2207,15.7256],[102.221,15.7264],[102.2227,15.7264],[102.2227,15.727],[102.2221,15.7275],[102.2207,15.7275],[102.2202,15.7269],[102.2176,15.7274]],[[102.2196,15.7261],[102.2199,15.7264],[102.2199,15.7261],[102.2196,15.7261]],[[102.218,15.7223],[102.2185,15.7223],[102.2188,15.7215],[102.2183,15.7215],[102.218,15.7223]]]}},{"type":"Feature","properties":{"kind":"seasonal","area_km2":0.384,"date":"2026-10-04"},"geometry":{"type":"Polygon","coordinates":[[[102.6603,15.2554],[102.66,15.2524],[102.6606,15.2524],[102.6606,15.2513],[102.66,15.2513],[102.66,15.2518],[102.6592,15.2518],[102.6586,15.2507],[102.6564,15.2491],[102.657,15.2469],[102.6548,15.2464],[102.6548,15.2442],[102.6576,15.2448],[102.6579,15.2453],[102.6601,15.2459],[102.6601,15.2472],[102.662,15.2475],[102.662,15.2481],[102.6626,15.2483],[102.6626,15.2491],[102.6617,15.2497],[102.6628,15.2502],[102.6628,15.2516],[102.6617,15.2527],[102.6617,15.254],[102.6611,15.254],[102.6603,15.2554]],[[102.6608,15.2526],[102.6617,15.2524],[102.6614,15.2505],[102.6609,15.2505],[102.6608,15.2526]],[[102.66,15.2505],[102.6606,15.2505],[102.6606,15.2497],[102.6598,15.2499],[102.66,15.2505]],[[102.6589,15.2491],[102.662,15.2491],[102.662,15.2489],[102.6601,15.2475],[102.6587,15.2475],[102.6589,15.2491]]]}},{"type":"Feature","properties":{"kind":"seasonal","area_km2":0.366,"date":"2026-10-04"},"geometry":{"type":"Polygon","coordinates":[[[102.341,15.9008],[102.3404,15.9002],[102.3407,15.8975],[102.3397,15.894],[102.3444,15.8935],[102.3449,15.8997],[102.3438,15.9008],[102.341,15.9008]]]}},{"type":"Feature","properties":{"kind":"seasonal","area_km2":0.353,"date":"2026-10-04"},"geometry":{"type":"Polygon","coordinates":[[[102.4737,15.1948],[102.4723,15.194],[102.4723,15.1923],[102.4715,15.1923],[102.472,15.1896],[102.4709,15.1893],[102.4709,15.1885],[102.4726,15.1869],[102.4749,15.1875],[102.4751,15.1869],[102.4774,15.1864],[102.4779,15.1872],[102.4779,15.1889],[102.4776,15.1894],[102.4765,15.1894],[102.476,15.1886],[102.4748,15.1891],[102.4737,15.1918],[102.4756,15.1921],[102.4756,15.194],[102.475,15.1948],[102.4737,15.1948]]]}},{"type":"Feature","properties":{"kind":"seasonal","area_km2":0.349,"date":"2026-10-04"},"geometry":{"type":"Polygon","coordinates":[[[102.372,15.9889],[102.3723,15.987],[102.3698,15.9857],[102.369,15.9857],[102.369,15.9846],[102.3732,15.9852],[102.3738,15.983],[102.3766,15.983],[102.3766,15.9841],[102.3774,15.9847],[102.3777,15.9874],[102.3765,15.9885],[102.372,15.9889]],[[102.3737,15.9879],[102.3751,15.9882],[102.3757,15.9876],[102.3737,15.9879]]]}},{"type":"Feature","properties":{"kind":"seasonal","area_km2":0.318,"date":"2026-10-04"},"geometry":{"type":"Polygon","coordinates":[[[102.2865,15.7841],[102.2855,15.7819],[102.2832,15.7819],[102.2832,15.7811],[102.2824,15.7808],[102.2824,15.7797],[102.2841,15.7789],[102.2841,15.7784],[102.2852,15.7776],[102.2855,15.7768],[102.2894,15.7766],[102.2897,15.7777],[102.2886,15.7779],[102.2872,15.7793],[102.2871,15.7811],[102.2874,15.7817],[102.288,15.7817],[102.288,15.7831],[102.2874,15.7841],[102.2865,15.7841]]]}},{"type":"Feature","properties":{"kind":"seasonal","area_km2":0.311,"date":"2026-10-04"},"geometry":{"type":"Polygon","coordinates":[[[102.3339,15.1436],[102.3334,15.1428],[102.3323,15.1422],[102.332,15.1409],[102.3329,15.1395],[102.3329,15.1384],[102.3334,15.1382],[102.334,15.136],[102.3346,15.1355],[102.3354,15.1355],[102.3365,15.136],[102.3365,15.1368],[102.3374,15.1374],[102.3373,15.1385],[102.3356,15.1414],[102.3353,15.1431],[102.3348,15.1436],[102.3339,15.1436]],[[102.3359,15.1385],[102.3365,15.1387],[102.3365,15.1385],[102.3359,15.1385]]]}},{"type":"Feature","properties":{"kind":"seasonal","area_km2":0.303,"date":"2026-10-04"},"geometry":{"type":"Polygon","coordinates":[[[102.1942,15.6426],[102.1925,15.641],[102.1925,15.6404],[102.1914,15.6401],[102.1911,15.6396],[102.1912,15.6388],[102.194,15.6385],[102.1937,15.6353],[102.1926,15.6345],[102.1918,15.6344],[102.1918,15.6301],[102.193,15.6301],[102.1935,15.6309],[102.1943,15.6312],[102.1949,15.6323],[102.1963,15.6326],[102.1977,15.6318],[102.1974,15.6337],[102.1979,15.6337],[102.1982,15.6343],[102.1979,15.6351],[102.1971,15.6351],[102.1965,15.6337],[102.1949,15.6334],[102.1946,15.6329],[102.1937,15.6334],[102.1937,15.6342],[102.1946,15.6348],[102.1951,15.6358],[102.1948,15.6385],[102.1945,15.6391],[102.194,15.6391],[102.1939,15.6396],[102.1925,15.6399],[102.1934,15.6399],[102.1934,15.6407],[102.1942,15.6412],[102.1947,15.6423],[102.1959,15.6424],[102.1942,15.6426]]]}},{"type":"Feature","properties":{"kind":"seasonal","area_km2":0.3,"date":"2026-10-04"},"geometry":{"type":"Polygon","coordinates":[[[102.0677,15.7653],[102.0675,15.7648],[102.0666,15.7647],[102.0655,15.7639],[102.0649,15.7639],[102.0647,15.7647],[102.0627,15.7641],[102.0619,15.7633],[102.0622,15.7617],[102.0627,15.7612],[102.065,15.7612],[102.0683,15.7623],[102.0686,15.7629],[102.0714,15.7632],[102.0719,15.7637],[102.0716,15.7653],[102.0677,15.7653]],[[102.0636,15.7617],[102.0639,15.762],[102.0639,15.7617],[102.0636,15.7617]]]}},{"type":"Feature","properties":{"kind":"seasonal","area_km2":0.277,"date":"2026-10-04"},"geometry":{"type":"Polygon","coordinates":[[[102.6985,15.5837],[102.6983,15.5823],[102.6977,15.5823],[102.6974,15.5831],[102.6963,15.5831],[102.6963,15.5807],[102.6972,15.5807],[102.6974,15.5813],[102.698,15.5804],[102.7013,15.5808],[102.7016,15.5799],[102.7041,15.5805],[102.7041,15.5835],[102.6985,15.5837]]]}},{"type":"Feature","properties":{"kind":"seasonal","area_km2":0.259,"date":"2026-10-04"},"geometry":{"type":"Polygon","coordinates":[[[102.1901,15.6748],[102.1899,15.6718],[102.1924,15.6718],[102.1932,15.671],[102.1941,15.6711],[102.1974,15.6722],[102.1971,15.6741],[102.196,15.6741],[102.1943,15.6748],[102.1901,15.6748]],[[102.194,15.6735],[102.1946,15.6732],[102.1943,15.6727],[102.1938,15.6729],[102.194,15.6735]]]}},{"type":"Feature","properties":{"kind":"seasonal","area_km2":0.258,"date":"2026-10-04"},"geometry":{"type":"Polygon","coordinates":[[[102.8396,15.078],[102.8394,15.0769],[102.8408,15.0769],[102.8416,15.0764],[102.8394,15.0761],[102.8394,15.072],[102.8408,15.072],[102.8422,15.0737],[102.845,15.074],[102.8449,15.0767],[102.8435,15.0764],[102.8433,15.0769],[102.8421,15.0769],[102.8413,15.078],[102.8396,15.078]]]}},{"type":"Feature","properties":{"kind":"seasonal","area_km2":0.254,"date":"2026-10-04"},"geometry":{"type":"Polygon","coordinates":[[[102.4851,15.08],[102.4851,15.0795],[102.4859,15.0787],[102.487,15.0787],[102.4879,15.0779],[102.4879,15.0757],[102.489,15.0752],[102.4904,15.0736],[102.491,15.0736],[102.4913,15.0725],[102.4924,15.0711],[102.4922,15.0695],[102.4927,15.0693],[102.4936,15.0671],[102.4944,15.0671],[102.495,15.0652],[102.4958,15.0647],[102.497,15.0647],[102.4969,15.0655],[102.4961,15.0658],[102.4958,15.0671],[102.4952,15.0671],[102.4952,15.0677],[102.4941,15.0685],[102.4938,15.0714],[102.493,15.0717],[102.493,15.0722],[102.4921,15.073],[102.4921,15.0739],[102.489,15.0757],[102.489,15.0776],[102.4881,15.0781],[102.4881,15.0792],[102.4856,15.0795],[102.4851,15.08]]]}},{"type":"Feature","properties":{"kind":"seasonal","area_km2":0.247,"date":"2026-10-04"},"geometry":{"type":"Polygon","coordinates":[[[102.0468,15.645],[102.0468,15.6442],[102.0479,15.6437],[102.048,15.642],[102.0471,15.6415],[102.0469,15.6407],[102.0457,15.6404],[102.0458,15.6393],[102.0452,15.639],[102.0452,15.6382],[102.0464,15.6363],[102.0472,15.6363],[102.0478,15.6372],[102.0483,15.6372],[102.0483,15.6377],[102.0489,15.6377],[102.0489,15.6383],[102.0494,15.6383],[102.0494,15.6388],[102.05,15.6391],[102.0496,15.6415],[102.0488,15.642],[102.0488,15.6442],[102.0482,15.645],[102.0468,15.645]]]}},{"type":"Feature","properties":{"kind":"seasonal","area_km2":0.239,"date":"2026-10-04"},"geometry":{"type":"Polygon","coordinates":[[[102.3032,15.8369],[102.3029,15.8347],[102.3035,15.8331],[102.31,15.8332],[102.3097,15.8351],[102.3074,15.8345],[102.3069,15.835],[102.3068,15.8364],[102.3063,15.8369],[102.3032,15.8369]]]}},{"type":"Feature","properties":{"kind":"seasonal","area_km2":0.227,"date":"2026-10-04"},"geometry":{"type":"Polygon","coordinates":[[[102.286,15.1414],[102.2852,15.1406],[102.2846,15.1406],[102.2846,15.14],[102.284,15.14],[102.2835,15.1389],[102.2835,15.1373],[102.2844,15.136],[102.2852,15.136],[102.288,15.1392],[102.2899,15.1398],[102.2899,15.1409],[102.2893,15.1414],[102.286,15.1414]],[[102.2888,15.1406],[102.2893,15.1406],[102.2893,15.1398],[102.2885,15.1401],[102.2888,15.1406]],[[102.2871,15.1395],[102.2874,15.1401],[102.2877,15.1395],[102.2871,15.1395]]]}},{"type":"Feature","properties":{"kind":"seasonal","area_km2":0.227,"date":"2026-10-04"},"geometry":{"type":"Polygon","coordinates":[[[102.0385,15.0684],[102.0376,15.0676],[102.0377,15.0662],[102.039,15.0662],[102.0393,15.0657],[102.0449,15.0655],[102.0457,15.0669],[102.0468,15.0669],[102.0465,15.0679],[102.0443,15.0679],[102.044,15.0674],[102.044,15.0679],[102.0427,15.0676],[102.0413,15.0679],[102.0407,15.0684],[102.0385,15.0684]],[[102.0454,15.0671],[102.0466,15.0674],[102.0466,15.0671],[102.0454,15.0671]]]}},{"type":"Feature","properties":{"kind":"seasonal","area_km2":0.21,"date":"2026-10-04"},"geometry":{"type":"Polygon","coordinates":[[[102.0367,15.0516],[102.037,15.0502],[102.0362,15.0502],[102.0359,15.0488],[102.0354,15.0488],[102.0354,15.0475],[102.0337,15.0466],[102.0334,15.0483],[102.0315,15.0482],[102.0315,15.0472],[102.0321,15.0472],[102.0321,15.0464],[102.0343,15.0445],[102.0352,15.0445],[102.0354,15.0456],[102.0365,15.0456],[102.0366,15.0448],[102.0374,15.0451],[102.0374,15.0456],[102.0368,15.0456],[102.0368,15.0483],[102.0373,15.0483],[102.0373,15.0502],[102.0382,15.0502],[102.0381,15.0516],[102.0367,15.0516]]]}},{"type":"Feature","properties":{"kind":"seasonal","area_km2":0.208,"date":"2026-10-04"},"geometry":{"type":"Polygon","coordinates":[[[102.8418,15.0246],[102.8416,15.0227],[102.8421,15.0219],[102.8488,15.022],[102.8488,15.0244],[102.846,15.0244],[102.846,15.0236],[102.8455,15.0235],[102.8455,15.0241],[102.8418,15.0246]]]}},{"type":"Feature","properties":{"kind":"seasonal","area_km2":0.202,"date":"2026-10-04"},"geometry":{"type":"Polygon","coordinates":[[[102.0277,15.0579],[102.0277,15.0574],[102.0261,15.0552],[102.0261,15.053],[102.0267,15.0522],[102.0278,15.0525],[102.0278,15.0542],[102.0286,15.0552],[102.0294,15.0553],[102.0303,15.0561],[102.0325,15.0564],[102.0325,15.0577],[102.0319,15.058],[102.0302,15.058],[102.0297,15.0572],[102.0288,15.058],[102.0277,15.0579]]]}},{"type":"Feature","properties":{"kind":"seasonal","area_km2":0.201,"date":"2026-10-04"},"geometry":{"type":"Polygon","coordinates":[[[102.3827,15.1293],[102.3824,15.1263],[102.3813,15.1263],[102.3813,15.1246],[102.383,15.1247],[102.383,15.1238],[102.3816,15.1238],[102.3819,15.1225],[102.3827,15.1225],[102.383,15.1236],[102.3841,15.1236],[102.3847,15.1241],[102.3847,15.1252],[102.3863,15.1252],[102.3863,15.1263],[102.3857,15.1274],[102.3849,15.1279],[102.3849,15.1285],[102.3838,15.1285],[102.3835,15.1293],[102.3827,15.1293]],[[102.3841,15.1263],[102.3846,15.126],[102.3847,15.1252],[102.3833,15.1252],[102.3833,15.1257],[102.3838,15.1257],[102.3841,15.1263]]]}},{"type":"Feature","properties":{"kind":"seasonal","area_km2":0.196,"date":"2026-10-04"},"geometry":{"type":"Polygon","coordinates":[[[102.0333,15.055],[102.0314,15.0539],[102.0314,15.0528],[102.0326,15.051],[102.0342,15.051],[102.0351,15.0521],[102.0359,15.0524],[102.0359,15.0529],[102.0373,15.0532],[102.037,15.0545],[102.0359,15.0545],[102.0359,15.0551],[102.0333,15.055]]]}},{"type":"Feature","properties":{"kind":"seasonal","area_km2":0.193,"date":"2026-10-04"},"geometry":{"type":"Polygon","coordinates":[[[102.041,15.0432],[102.0402,15.0424],[102.0411,15.0394],[102.0408,15.0383],[102.0431,15.0378],[102.0436,15.0373],[102.0437,15.0354],[102.045,15.0354],[102.0447,15.0373],[102.0442,15.0378],[102.0442,15.0387],[102.0436,15.0389],[102.0436,15.0403],[102.043,15.0405],[102.043,15.0413],[102.0424,15.0419],[102.0424,15.043],[102.041,15.0432]]]}},{"type":"Feature","properties":{"kind":"seasonal","area_km2":0.191,"date":"2026-10-04"},"geometry":{"type":"Polygon","coordinates":[[[102.5846,15.4229],[102.5844,15.4212],[102.583,15.4207],[102.583,15.4199],[102.5847,15.4185],[102.5858,15.4185],[102.5864,15.4177],[102.588,15.418],[102.5886,15.4188],[102.5883,15.421],[102.5866,15.4207],[102.5855,15.4229],[102.5846,15.4229]]]}},{"type":"Feature","properties":{"kind":"seasonal","area_km2":0.189,"date":"2026-10-04"},"geometry":{"type":"Polygon","coordinates":[[[102.7429,15.6904],[102.7424,15.6899],[102.7424,15.6877],[102.743,15.6872],[102.743,15.6834],[102.7455,15.6831],[102.7458,15.6845],[102.7452,15.685],[102.7452,15.6861],[102.7441,15.6861],[102.7449,15.6864],[102.7446,15.6896],[102.7443,15.6904],[102.7429,15.6904]]]}},{"type":"Feature","properties":{"kind":"seasonal","area_km2":0.187,"date":"2026-10-04"},"geometry":{"type":"Polygon","coordinates":[[[102.3958,15.6001],[102.3952,15.599],[102.3919,15.5995],[102.3916,15.5982],[102.393,15.5982],[102.3939,15.5963],[102.3955,15.5963],[102.397,15.5947],[102.3981,15.5947],[102.3972,15.5993],[102.3966,15.6001],[102.3958,15.6001]],[[102.3958,15.5996],[102.3969,15.599],[102.3969,15.598],[102.3964,15.5977],[102.3958,15.5977],[102.3955,15.5982],[102.3958,15.5996]]]}},{"type":"Feature","properties":{"kind":"seasonal","area_km2":0.185,"date":"2026-10-04"},"geometry":{"type":"Polygon","coordinates":[[[102.7116,15.486],[102.7108,15.4852],[102.7108,15.4846],[102.7102,15.4846],[102.7091,15.4835],[102.7091,15.4822],[102.71,15.4816],[102.71,15.4806],[102.712,15.4806],[102.7133,15.4828],[102.7133,15.4844],[102.7127,15.4849],[102.7127,15.4857],[102.7116,15.486]]]}},{"type":"Feature","properties":{"kind":"seasonal","area_km2":0.18,"date":"2026-10-04"},"geometry":{"type":"Polygon","coordinates":[[[102.1522,15.0885],[102.1522,15.0877],[102.1528,15.0872],[102.1523,15.0866],[102.1523,15.0858],[102.1528,15.0856],[102.1534,15.0823],[102.1532,15.0807],[102.1521,15.0809],[102.1518,15.0804],[102.1535,15.0802],[102.1546,15.0815],[102.1545,15.0826],[102.1554,15.0832],[102.1556,15.0859],[102.1545,15.0859],[102.1539,15.0861],[102.1539,15.0867],[102.1531,15.0866],[102.1545,15.0869],[102.1545,15.0878],[102.1533,15.0885],[102.1522,15.0885]],[[102.1528,15.088],[102.1534,15.0877],[102.1534,15.0872],[102.1528,15.0875],[102.1528,15.088]]]}},{"type":"Feature","properties":{"kind":"seasonal","area_km2":0.178,"date":"2026-10-04"},"geometry":{"type":"Polygon","coordinates":[[[102.5233,15.5029],[102.5225,15.5018],[102.5203,15.5015],[102.5203,15.4994],[102.5217,15.4994],[102.5217,15.4972],[102.5228,15.4981],[102.5242,15.4981],[102.5242,15.4992],[102.5225,15.4994],[102.5225,15.5005],[102.5231,15.501],[102.5245,15.5005],[102.5256,15.5008],[102.5253,15.5027],[102.5233,15.5029]]]}},{"type":"Feature","properties":{"kind":"seasonal","area_km2":0.177,"date":"2026-10-04"},"geometry":{"type":"Polygon","coordinates":[[[102.2494,15.1908],[102.2488,15.1903],[102.2466,15.1897],[102.2458,15.1886],[102.2458,15.1878],[102.2463,15.1872],[102.2505,15.1876],[102.2513,15.1884],[102.2513,15.1897],[102.2507,15.1908],[102.2494,15.1908]]]}},{"type":"Feature","properties":{"kind":"seasonal","area_km2":0.177,"date":"2026-10-04"},"geometry":{"type":"Polygon","coordinates":[[[102.5059,15.084],[102.504,15.0837],[102.504,15.0832],[102.5034,15.0832],[102.5034,15.0824],[102.5046,15.0824],[102.5043,15.0808],[102.5054,15.0805],[102.5054,15.0794],[102.5049,15.0789],[102.5046,15.0775],[102.5052,15.0773],[102.5054,15.0789],[102.5068,15.0786],[102.5071,15.0792],[102.5077,15.0792],[102.5076,15.0824],[102.5059,15.084]]]}},{"type":"Feature","properties":{"kind":"seasonal","area_km2":0.176,"date":"2026-10-04"},"geometry":{"type":"Polygon","coordinates":[[[102.6609,15.2434],[102.6598,15.2426],[102.6598,15.2415],[102.6612,15.2418],[102.6615,15.2407],[102.661,15.2396],[102.6599,15.2391],[102.6599,15.238],[102.6604,15.2383],[102.6607,15.2377],[102.6621,15.2378],[102.6621,15.2394],[102.6632,15.2399],[102.6632,15.2407],[102.6638,15.2413],[102.6643,15.2413],[102.6643,15.2427],[102.6635,15.2435],[102.6609,15.2434]]]}},{"type":"Feature","properties":{"kind":"seasonal","area_km2":0.172,"date":"2026-10-04"},"geometry":{"type":"Polygon","coordinates":[[[102.0415,15.6474],[102.0412,15.6468],[102.0395,15.646],[102.0395,15.6452],[102.0421,15.6447],[102.0435,15.6431],[102.0443,15.6431],[102.0449,15.6444],[102.0457,15.645],[102.0457,15.6458],[102.0448,15.6466],[102.0429,15.6463],[102.0423,15.6474],[102.0415,15.6474]]]}},{"type":"Feature","properties":{"kind":"seasonal","area_km2":0.168,"date":"2026-10-04"},"geometry":{"type":"Polygon","coordinates":[[[102.82,15.6215],[102.8161,15.6212],[102.8161,15.6207],[102.8156,15.6207],[102.8156,15.6201],[102.815,15.6201],[102.8148,15.6188],[102.8139,15.6177],[102.8139,15.6169],[102.8148,15.6163],[102.8162,15.6166],[102.817,15.6191],[102.8175,15.6196],[102.8187,15.6196],[102.8181,15.6202],[102.8189,15.6202],[102.8189,15.6196],[102.8203,15.6199],[102.82,15.6215]],[[102.817,15.6204],[102.8175,15.6207],[102.8175,15.6204],[102.817,15.6204]],[[102.8159,15.6201],[102.8164,15.6201],[102.8162,15.6188],[102.8156,15.6188],[102.8159,15.6201]]]}},{"type":"Feature","properties":{"kind":"seasonal","area_km2":0.167,"date":"2026-10-04"},"geometry":{"type":"Polygon","coordinates":[[[102.3284,15.2541],[102.3284,15.2533],[102.3306,15.253],[102.3312,15.2519],[102.3326,15.2522],[102.3331,15.252],[102.3331,15.2514],[102.3354,15.2515],[102.3362,15.252],[102.3362,15.2534],[102.3356,15.2534],[102.3356,15.2539],[102.3351,15.2542],[102.3284,15.2541]],[[102.3342,15.2536],[102.3348,15.2536],[102.3351,15.2528],[102.3342,15.2528],[102.3342,15.2536]]]}},{"type":"Feature","properties":{"kind":"seasonal","area_km2":0.159,"date":"2026-10-04"},"geometry":{"type":"Polygon","coordinates":[[[102.7092,15.4773],[102.7092,15.4759],[102.7106,15.4754],[102.7112,15.4727],[102.7118,15.4724],[102.7121,15.47],[102.7115,15.47],[102.7115,15.4692],[102.7124,15.4692],[102.7124,15.4697],[102.7129,15.4697],[102.7137,15.4708],[102.714,15.4725],[102.7117,15.4749],[102.7112,15.4768],[102.7106,15.4773],[102.7092,15.4773]]]}},{"type":"Feature","properties":{"kind":"seasonal","area_km2":0.158,"date":"2026-10-04"},"geometry":{"type":"Polygon","coordinates":[[[102.7839,15.729],[102.7836,15.728],[102.7842,15.7253],[102.7851,15.7253],[102.7854,15.7247],[102.787,15.7247],[102.7876,15.7256],[102.7882,15.7256],[102.7884,15.7269],[102.7879,15.7275],[102.7859,15.7274],[102.7859,15.7291],[102.7839,15.729]],[[102.785,15.7285],[102.7853,15.7288],[102.7853,15.7285],[102.785,15.7285]]]}},{"type":"Feature","properties":{"kind":"seasonal","area_km2":0.156,"date":"2026-10-04"},"geometry":{"type":"Polygon","coordinates":[[[102.4997,15.0658],[102.5,15.0642],[102.5011,15.0639],[102.5014,15.0626],[102.5009,15.0626],[102.5009,15.0637],[102.497,15.0639],[102.497,15.0628],[102.4961,15.0625],[102.4961,15.062],[102.5003,15.0623],[102.5006,15.0612],[102.5015,15.0612],[102.5014,15.0623],[102.504,15.0618],[102.5034,15.0621],[102.5034,15.0631],[102.5028,15.0631],[102.5028,15.0637],[102.5025,15.0629],[102.502,15.0629],[102.5011,15.0656],[102.4997,15.0658]]]}},{"type":"Feature","properties":{"kind":"seasonal","area_km2":0.155,"date":"2026-10-04"},"geometry":{"type":"Polygon","coordinates":[[[102.7842,16.0082],[102.7826,16.006],[102.7826,16.0047],[102.7809,16.0047],[102.7809,16.0039],[102.7818,16.0028],[102.7829,16.0028],[102.7834,16.0044],[102.7851,16.0044],[102.7857,16.0053],[102.7859,16.0074],[102.7856,16.008],[102.7842,16.0082]]]}},{"type":"Feature","properties":{"kind":"seasonal","area_km2":0.155,"date":"2026-10-04"},"geometry":{"type":"Polygon","coordinates":[[[102.4747,15.2002],[102.4744,15.1989],[102.4756,15.1989],[102.4758,15.1983],[102.4781,15.1984],[102.4789,15.1959],[102.4801,15.1959],[102.4809,15.1968],[102.4809,15.1981],[102.4795,15.1995],[102.4783,15.1994],[102.4781,15.2],[102.4775,15.1997],[102.4767,15.2002],[102.4747,15.2002]]]}},{"type":"Feature","properties":{"kind":"seasonal","area_km2":0.148,"date":"2026-10-04"},"geometry":{"type":"Polygon","coordinates":[[[102.3995,15.4614],[102.3964,15.4592],[102.3967,15.4568],[102.3979,15.4568],[102.3987,15.4579],[102.4009,15.4584],[102.4009,15.459],[102.4001,15.4592],[102.4001,15.4601],[102.4009,15.4606],[102.4009,15.4614],[102.3995,15.4614]]]}},{"type":"Feature","properties":{"kind":"seasonal","area_km2":0.146,"date":"2026-10-04"},"geometry":{"type":"Polygon","coordinates":[[[102.7852,15.6586],[102.7819,15.6583],[102.7808,15.6572],[102.7802,15.6553],[102.7839,15.6551],[102.7852,15.6578],[102.7852,15.6586]]]}},{"type":"Feature","properties":{"kind":"seasonal","area_km2":0.142,"date":"2026-10-04"},"geometry":{"type":"Polygon","coordinates":[[[102.1472,15.0923],[102.1463,15.0906],[102.1458,15.0906],[102.1449,15.092],[102.1441,15.092],[102.1447,15.0893],[102.1469,15.0893],[102.1472,15.0906],[102.1486,15.0907],[102.1503,15.0899],[102.1503,15.0877],[102.1508,15.0877],[102.1517,15.0888],[102.1516,15.0912],[102.1511,15.0912],[102.1514,15.0907],[102.1511,15.0901],[102.1505,15.0901],[102.1508,15.091],[102.1483,15.0909],[102.1483,15.0923],[102.1472,15.0923]],[[102.1472,15.0915],[102.1474,15.0917],[102.1474,15.0915],[102.1472,15.0915]],[[102.1472,15.0909],[102.1475,15.0912],[102.1475,15.0909],[102.1472,15.0909]]]}},{"type":"Feature","properties":{"kind":"seasonal","area_km2":0.137,"date":"2026-10-04"},"geometry":{"type":"Polygon","coordinates":[[[102.0632,15.2177],[102.0612,15.2169],[102.0613,15.2147],[102.0618,15.2144],[102.0621,15.2134],[102.0638,15.2134],[102.0646,15.215],[102.0643,15.2177],[102.0632,15.2177]]]}},{"type":"Feature","properties":{"kind":"seasonal","area_km2":0.137,"date":"2026-10-04"},"geometry":{"type":"Polygon","coordinates":[[[102.4289,15.1339],[102.4289,15.1314],[102.4295,15.1314],[102.432,15.1287],[102.4331,15.1288],[102.4334,15.1298],[102.4329,15.1301],[102.4317,15.1323],[102.4306,15.1328],[102.43,15.1339],[102.4289,15.1339]]]}},{"type":"Feature","properties":{"kind":"seasonal","area_km2":0.135,"date":"2026-10-04"},"geometry":{"type":"Polygon","coordinates":[[[102.3455,15.9618],[102.3455,15.961],[102.3438,15.9612],[102.3438,15.9607],[102.3433,15.9604],[102.3433,15.9591],[102.3436,15.9585],[102.3441,15.9585],[102.3447,15.9574],[102.3464,15.9577],[102.3469,15.9583],[102.3469,15.9607],[102.3461,15.961],[102.3461,15.9618],[102.3455,15.9618]]]}},{"type":"Feature","properties":{"kind":"seasonal","area_km2":0.133,"date":"2026-10-04"},"geometry":{"type":"Polygon","coordinates":[[[102.0121,15.0418],[102.0101,15.0415],[102.0096,15.0404],[102.0104,15.0379],[102.0118,15.038],[102.0121,15.039],[102.0129,15.0396],[102.0143,15.0393],[102.0143,15.0404],[102.0137,15.041],[102.0126,15.041],[102.0121,15.0418]]]}},{"type":"Feature","properties":{"kind":"seasonal","area_km2":0.132,"date":"2026-10-04"},"geometry":{"type":"Polygon","coordinates":[[[102.3123,15.1539],[102.312,15.1534],[102.3104,15.1531],[102.3104,15.1517],[102.311,15.1514],[102.3112,15.1504],[102.3132,15.1504],[102.3132,15.1515],[102.314,15.1515],[102.3149,15.1523],[102.3148,15.1534],[102.3123,15.1539]]]}},{"type":"Feature","properties":{"kind":"seasonal","area_km2":0.13,"date":"2026-10-04"},"geometry":{"type":"Polygon","coordinates":[[[102.5851,15.5028],[102.5834,15.5022],[102.5832,15.5014],[102.5812,15.5011],[102.5815,15.4995],[102.5851,15.4996],[102.5857,15.5023],[102.5851,15.5028]]]}},{"type":"Feature","properties":{"kind":"seasonal","area_km2":0.13,"date":"2026-10-04"},"geometry":{"type":"Polygon","coordinates":[[[102.4441,15.2408],[102.4436,15.2378],[102.4472,15.2376],[102.4474,15.2389],[102.4469,15.2406],[102.4441,15.2408]]]}},{"type":"Feature","properties":{"kind":"seasonal","area_km2":0.13,"date":"2026-10-04"},"geometry":{"type":"Polygon","coordinates":[[[102.4139,15.1976],[102.4128,15.1968],[102.4131,15.1938],[102.4165,15.1944],[102.4164,15.1963],[102.4159,15.1974],[102.4139,15.1976]]]}},{"type":"Feature","properties":{"kind":"seasonal","area_km2":0.128,"date":"2026-10-04"},"geometry":{"type":"Polygon","coordinates":[[[102.3594,15.9682],[102.3572,15.9665],[102.3572,15.966],[102.3561,15.9652],[102.3558,15.9644],[102.355,15.9641],[102.3547,15.9627],[102.3561,15.9627],[102.357,15.9636],[102.357,15.9641],[102.3575,15.9641],[102.3575,15.9646],[102.3608,15.9674],[102.3608,15.9682],[102.3594,15.9682]]]}},{"type":"Feature","properties":{"kind":"seasonal","area_km2":0.128,"date":"2026-10-04"},"geometry":{"type":"Polygon","coordinates":[[[102.7717,15.386],[102.7722,15.3852],[102.7711,15.385],[102.7714,15.3858],[102.7705,15.3855],[102.7706,15.3847],[102.7711,15.3847],[102.7703,15.3836],[102.7706,15.382],[102.7731,15.3825],[102.7742,15.3839],[102.7733,15.3858],[102.7717,15.386]],[[102.7711,15.3841],[102.7714,15.3844],[102.7714,15.3841],[102.7711,15.3841]]]}},{"type":"Feature","properties":{"kind":"seasonal","area_km2":0.124,"date":"2026-10-04"},"geometry":{"type":"Polygon","coordinates":[[[102.2238,15.7259],[102.2238,15.7253],[102.2227,15.7253],[102.2236,15.7245],[102.2227,15.7237],[102.223,15.7229],[102.2225,15.7229],[102.2225,15.7224],[102.2219,15.7223],[102.2216,15.7215],[102.2225,15.7213],[102.2233,15.7229],[102.2241,15.7229],[102.2241,15.7245],[102.2247,15.7245],[102.2244,15.7207],[102.2258,15.7205],[102.2255,15.7221],[102.2261,15.7224],[102.2261,15.724],[102.225,15.7245],[102.2249,15.7256],[102.2238,15.7259]]]}},{"type":"Feature","properties":{"kind":"seasonal","area_km2":0.124,"date":"2026-10-04"},"geometry":{"type":"Polygon","coordinates":[[[102.7125,15.5034],[102.7114,15.502],[102.7103,15.5014],[102.7103,15.5006],[102.7115,15.5004],[102.712,15.4996],[102.7129,15.4996],[102.7148,15.502],[102.7148,15.5028],[102.7142,15.5034],[102.7137,15.5031],[102.7134,15.5031],[102.7134,15.5034],[102.7125,15.5034]],[[102.7131,15.5028],[102.7134,15.5031],[102.7134,15.5028],[102.7131,15.5028]]]}},{"type":"Feature","properties":{"kind":"seasonal","area_km2":0.124,"date":"2026-10-04"},"geometry":{"type":"Polygon","coordinates":[[[102.2822,15.1102],[102.2819,15.108],[102.2825,15.108],[102.2825,15.1064],[102.2856,15.1064],[102.2842,15.107],[102.2842,15.1089],[102.2847,15.1083],[102.2847,15.1072],[102.2859,15.1075],[102.2858,15.1089],[102.2847,15.1091],[102.2844,15.1102],[102.2822,15.1102]],[[102.2836,15.1091],[102.2839,15.1086],[102.2831,15.1078],[102.283,15.1088],[102.2836,15.1091]]]}},{"type":"Feature","properties":{"kind":"seasonal","area_km2":0.124,"date":"2026-10-04"},"geometry":{"type":"Polygon","coordinates":[[[102.2256,15.0642],[102.2254,15.0623],[102.2234,15.0621],[102.2229,15.061],[102.2268,15.061],[102.2282,15.0616],[102.2287,15.0632],[102.2256,15.0642]]]}},{"type":"Feature","properties":{"kind":"seasonal","area_km2":0.123,"date":"2026-10-04"},"geometry":{"type":"Polygon","coordinates":[[[102.5917,15.8018],[102.5911,15.8013],[102.5911,15.7996],[102.5925,15.7988],[102.5928,15.7975],[102.5939,15.7975],[102.5939,15.7999],[102.595,15.8002],[102.595,15.801],[102.5936,15.8013],[102.5931,15.8018],[102.5917,15.8018]]]}},{"type":"Feature","properties":{"kind":"seasonal","area_km2":0.12,"date":"2026-10-04"},"geometry":{"type":"Polygon","coordinates":[[[102.3602,15.9075],[102.3602,15.9067],[102.3597,15.9064],[102.3597,15.9051],[102.3611,15.9048],[102.3617,15.9043],[102.3631,15.9043],[102.3636,15.9067],[102.3625,15.9075],[102.3602,15.9075]]]}},{"type":"Feature","properties":{"kind":"seasonal","area_km2":0.118,"date":"2026-10-04"},"geometry":{"type":"Polygon","coordinates":[[[102.9173,15.5143],[102.9162,15.5135],[102.9168,15.5111],[102.9174,15.5111],[102.9185,15.5097],[102.921,15.5097],[102.9218,15.5106],[102.9218,15.5114],[102.9188,15.5124],[102.9182,15.513],[102.9182,15.5143],[102.9173,15.5143]],[[102.9176,15.5124],[102.9182,15.5124],[102.9182,15.5119],[102.9188,15.5116],[102.9213,15.5114],[102.9213,15.5106],[102.9207,15.51],[102.9196,15.51],[102.9193,15.5108],[102.9182,15.5111],[102.9182,15.5116],[102.9174,15.5119],[102.9176,15.5124]]]}},{"type":"Feature","properties":{"kind":"seasonal","area_km2":0.117,"date":"2026-10-04"},"geometry":{"type":"Polygon","coordinates":[[[102.8924,15.5163],[102.8916,15.5146],[102.8919,15.5125],[102.8928,15.5125],[102.8927,15.513],[102.8933,15.5133],[102.8967,15.5136],[102.8967,15.5141],[102.8958,15.5138],[102.8958,15.5147],[102.895,15.5147],[102.8938,15.5152],[102.8933,15.5163],[102.8924,15.5163]]]}},{"type":"Feature","properties":{"kind":"seasonal","area_km2":0.116,"date":"2026-10-04"},"geometry":{"type":"Polygon","coordinates":[[[102.361,15.5414],[102.358,15.539],[102.3571,15.5389],[102.3569,15.5376],[102.3586,15.5373],[102.3599,15.539],[102.3616,15.5395],[102.3627,15.5406],[102.3627,15.5415],[102.361,15.5414]]]}},{"type":"Feature","properties":{"kind":"seasonal","area_km2":0.115,"date":"2026-10-04"},"geometry":{"type":"Polygon","coordinates":[[[102.7762,15.3809],[102.7762,15.3801],[102.7742,15.3804],[102.774,15.3788],[102.7745,15.3782],[102.7759,15.3782],[102.7757,15.3766],[102.7773,15.3766],[102.7776,15.378],[102.7768,15.3782],[102.7768,15.3788],[102.7776,15.3788],[102.7776,15.3799],[102.7767,15.3804],[102.7767,15.381],[102.7762,15.3809]]]}},{"type":"Feature","properties":{"kind":"seasonal","area_km2":0.115,"date":"2026-10-04"},"geometry":{"type":"Polygon","coordinates":[[[102.1221,15.3352],[102.1216,15.3347],[102.1216,15.3336],[102.1199,15.3331],[102.1205,15.3312],[102.1216,15.3312],[102.1219,15.332],[102.1241,15.3323],[102.1232,15.335],[102.1221,15.3352]]]}},{"type":"Feature","properties":{"kind":"seasonal","area_km2":0.114,"date":"2026-10-04"},"geometry":{"type":"Polygon","coordinates":[[[102.5309,15.8735],[102.5289,15.8726],[102.5289,15.8718],[102.5298,15.8718],[102.5298,15.8694],[102.5315,15.8694],[102.532,15.87],[102.532,15.8732],[102.5309,15.8735]]]}},{"type":"Feature","properties":{"kind":"seasonal","area_km2":0.114,"date":"2026-10-04"},"geometry":{"type":"Polygon","coordinates":[[[102.4898,15.1971],[102.4904,15.1969],[102.4904,15.1961],[102.4915,15.1961],[102.4918,15.1953],[102.4896,15.1955],[102.489,15.195],[102.4893,15.1936],[102.4926,15.1936],[102.4935,15.1942],[102.4935,15.195],[102.4926,15.1955],[102.4946,15.1961],[102.4923,15.1961],[102.4921,15.1966],[102.4907,15.1963],[102.4906,15.1971],[102.4898,15.1971]]]}},{"type":"Feature","properties":{"kind":"seasonal","area_km2":0.113,"date":"2026-10-04"},"geometry":{"type":"Polygon","coordinates":[[[102.1209,15.8662],[102.1206,15.8654],[102.1195,15.8657],[102.1195,15.863],[102.1209,15.8622],[102.1223,15.8622],[102.1229,15.8633],[102.1231,15.8625],[102.1231,15.8636],[102.1214,15.8649],[102.1217,15.8663],[102.1209,15.8662]]]}},{"type":"Feature","properties":{"kind":"seasonal","area_km2":0.113,"date":"2026-10-04"},"geometry":{"type":"Polygon","coordinates":[[[102.496,15.427],[102.4955,15.4254],[102.4946,15.4248],[102.4947,15.4238],[102.4983,15.4233],[102.4983,15.4243],[102.4977,15.4249],[102.4977,15.4268],[102.496,15.427]]]}},{"type":"Feature","properties":{"kind":"seasonal","area_km2":0.111,"date":"2026-10-04"},"geometry":{"type":"Polygon","coordinates":[[[102.7811,15.6534],[102.7806,15.651],[102.78,15.6509],[102.7789,15.652],[102.7778,15.652],[102.7772,15.6515],[102.7772,15.6504],[102.7814,15.6501],[102.7817,15.651],[102.7825,15.6515],[102.7828,15.6534],[102.7811,15.6534]]]}},{"type":"Feature","properties":{"kind":"seasonal","area_km2":0.111,"date":"2026-10-04"},"geometry":{"type":"Polygon","coordinates":[[[102.771,15.6346],[102.771,15.6332],[102.7699,15.6327],[102.7699,15.6319],[102.7704,15.6297],[102.7721,15.6297],[102.7724,15.6343],[102.771,15.6346]]]}},{"type":"Feature","properties":{"kind":"seasonal","area_km2":0.109,"date":"2026-10-04"},"geometry":{"type":"Polygon","coordinates":[[[102.7084,15.2184],[102.7078,15.2179],[102.7079,15.2163],[102.7084,15.2165],[102.7084,15.2138],[102.709,15.2133],[102.7098,15.2133],[102.7101,15.2136],[102.7098,15.216],[102.7112,15.216],[102.7112,15.2171],[102.7109,15.2177],[102.7084,15.2184]],[[102.7081,15.2179],[102.709,15.2176],[102.7084,15.2168],[102.7081,15.2168],[102.7081,15.2179]],[[102.7087,15.2171],[102.7095,15.2171],[102.7093,15.2163],[102.7087,15.2166],[102.7087,15.2171]],[[102.7096,15.2138],[102.7098,15.2141],[102.7098,15.2139],[102.7096,15.2138]]]}},{"type":"Feature","properties":{"kind":"seasonal","area_km2":0.108,"date":"2026-10-04"},"geometry":{"type":"Polygon","coordinates":[[[102.7397,15.4979],[102.7372,15.4974],[102.7372,15.4949],[102.7392,15.495],[102.7397,15.4955],[102.7411,15.4958],[102.7411,15.4966],[102.7403,15.4974],[102.7397,15.4974],[102.7397,15.4979]]]}},{"type":"Feature","properties":{"kind":"seasonal","area_km2":0.108,"date":"2026-10-04"},"geometry":{"type":"Polygon","coordinates":[[[102.3826,15.1344],[102.382,15.1339],[102.3826,15.1322],[102.3837,15.1317],[102.3846,15.1306],[102.386,15.1306],[102.3865,15.1312],[102.3865,15.1323],[102.3846,15.1331],[102.3834,15.1344],[102.3826,15.1344]]]}},{"type":"Feature","properties":{"kind":"seasonal","area_km2":0.107,"date":"2026-10-04"},"geometry":{"type":"Polygon","coordinates":[[[102.1543,15.227],[102.1543,15.2257],[102.1579,15.2249],[102.1582,15.2244],[102.1599,15.2244],[102.1596,15.226],[102.1582,15.226],[102.1576,15.2265],[102.1568,15.2265],[102.1565,15.227],[102.1543,15.227]]]}},{"type":"Feature","properties":{"kind":"seasonal","area_km2":0.106,"date":"2026-10-04"},"geometry":{"type":"Polygon","coordinates":[[[102.3436,15.7875],[102.3425,15.787],[102.3425,15.7862],[102.3439,15.7859],[102.3442,15.7865],[102.3447,15.7857],[102.3456,15.7857],[102.3461,15.7851],[102.3467,15.7838],[102.3476,15.7838],[102.3475,15.7862],[102.3453,15.7876],[102.3436,15.7875]]]}},{"type":"Feature","properties":{"kind":"seasonal","area_km2":0.103,"date":"2026-10-04"},"geometry":{"type":"Polygon","coordinates":[[[102.4184,15.6275],[102.4184,15.6237],[102.4204,15.6234],[102.4203,15.6272],[102.4184,15.6275]]]}},{"type":"Feature","properties":{"kind":"seasonal","area_km2":0.103,"date":"2026-10-04"},"geometry":{"type":"Polygon","coordinates":[[[102.7678,15.489],[102.7678,15.4885],[102.7672,15.4885],[102.7669,15.4876],[102.7647,15.4876],[102.7642,15.4871],[102.7642,15.4863],[102.7661,15.486],[102.7689,15.4866],[102.7692,15.4882],[102.7686,15.4885],[102.7686,15.489],[102.7678,15.489]]]}},{"type":"Feature","properties":{"kind":"seasonal","area_km2":0.103,"date":"2026-10-04"},"geometry":{"type":"Polygon","coordinates":[[[102.8779,15.3779],[102.876,15.3776],[102.8757,15.3765],[102.8751,15.3762],[102.8751,15.3754],[102.8754,15.376],[102.8763,15.376],[102.8768,15.3754],[102.8768,15.3749],[102.8763,15.3746],[102.8785,15.3741],[102.8788,15.3763],[102.8779,15.3779]]]}},{"type":"Feature","properties":{"kind":"seasonal","area_km2":0.102,"date":"2026-10-04"},"geometry":{"type":"Polygon","coordinates":[[[102.0602,15.5696],[102.0602,15.5691],[102.0591,15.5685],[102.0585,15.5669],[102.0586,15.565],[102.0594,15.5639],[102.0608,15.5636],[102.0614,15.5645],[102.0613,15.5658],[102.0619,15.5661],[102.0622,15.5675],[102.063,15.568],[102.063,15.5688],[102.0616,15.5696],[102.0602,15.5696]],[[102.0605,15.5691],[102.0619,15.5691],[102.0624,15.5683],[102.0619,15.568],[102.0616,15.5666],[102.0608,15.5661],[102.0605,15.5647],[102.0594,15.5647],[102.0594,15.5674],[102.0605,15.5691]]]}},{"type":"Feature","properties":{"kind":"seasonal","area_km2":0.102,"date":"2026-10-04"},"geometry":{"type":"Polygon","coordinates":[[[102.7209,15.3031],[102.7209,15.3026],[102.7217,15.3023],[102.7223,15.3013],[102.7231,15.301],[102.7231,15.3005],[102.7243,15.3005],[102.7243,15.2996],[102.7234,15.2991],[102.7243,15.2975],[102.724,15.2956],[102.7257,15.2948],[102.7257,15.2953],[102.7251,15.2956],[102.7251,15.2975],[102.7246,15.2986],[102.7248,15.3007],[102.724,15.301],[102.724,15.3015],[102.7228,15.3021],[102.7226,15.3029],[102.7209,15.3031]]]}},{"type":"Feature","properties":{"kind":"seasonal","area_km2":0.102,"date":"2026-10-04"},"geometry":{"type":"Polygon","coordinates":[[[102.2909,15.0412],[102.2906,15.0404],[102.2895,15.0398],[102.2895,15.0377],[102.2887,15.0374],[102.2881,15.0363],[102.2884,15.0352],[102.2896,15.0352],[102.2904,15.0368],[102.2901,15.0377],[102.2906,15.0382],[102.2912,15.0379],[102.2906,15.0398],[102.2926,15.0401],[102.2923,15.0412],[102.2909,15.0412]]]}},{"type":"Feature","properties":{"kind":"seasonal","area_km2":0.101,"date":"2026-10-04"},"geometry":{"type":"Polygon","coordinates":[[[102.0628,15.3234],[102.0611,15.3228],[102.0612,15.3196],[102.0631,15.3196],[102.0637,15.3199],[102.0637,15.3223],[102.0628,15.3234]]]}},{"type":"Feature","properties":{"kind":"seasonal","area_km2":0.1,"date":"2026-10-04"},"geometry":{"type":"Polygon","coordinates":[[[102.441,15.4006],[102.4393,15.3998],[102.4396,15.3985],[102.4388,15.3985],[102.4391,15.3971],[102.4408,15.3971],[102.4419,15.3979],[102.4421,15.4004],[102.441,15.4006]]]}}]}
