{"type":"FeatureCollection","properties":{"v":3,"id":"t102_12","name":"ตราด · จันทบุรี","aoi":[102.0,12.0,102.8025,13.0],"date":"2026-10-09","dates":["2026-10-09","2026-10-08","2026-10-04"],"baseline_years":3,"has_seasonal":true,"totals":{"flood_high":0.0,"flood_low":0.1,"seasonal":14.0},"provinces":[{"name":"จันทบุรี","zone":"th-e","flood_high":0.0,"flood_low":0.1,"seasonal":2.5},{"name":"ตราด","zone":"th-e","flood_high":0.0,"flood_low":0.0,"seasonal":11.1}],"scenes":{"2026-10-09":2,"2026-10-08":1,"2026-10-04":1},"baseline_dates":["2025-10-08","2024-10-07","2023-10-06"],"threshold_db":-15.0,"auto":true,"source":"Sentinel-1 RTC (Copernicus/ESA) via Microsoft Planetary Computer; JRC Global Surface Water; Copernicus DEM","method":"ChatGeo v3: Otsu threshold on VV dB; minus JRC permanent water and slope > 5 deg; unusual = water not present in most of the previous 3 years (same season)","added":"2026-10-10T16:37+07:00"},"features":[{"type":"Feature","properties":{"kind":"flood","area_km2":0.059,"conf":"low","date":"2026-10-04"},"geometry":{"type":"Polygon","coordinates":[[[102.1179,12.4677],[102.1179,12.4668],[102.1171,12.4668],[102.1171,12.4655],[102.1179,12.4655],[102.1179,12.466],[102.1188,12.466],[102.1188,12.4655],[102.1199,12.4655],[102.1201,12.4674],[102.1179,12.4677]]]}},{"type":"Feature","properties":{"kind":"flood","area_km2":0.051,"conf":"low","date":"2026-10-04"},"geometry":{"type":"Polygon","coordinates":[[[102.3353,12.4845],[102.3354,12.4824],[102.3376,12.4824],[102.3381,12.4829],[102.3381,12.4846],[102.337,12.4843],[102.337,12.4832],[102.3356,12.4832],[102.3353,12.4845]]]}},{"type":"Feature","properties":{"kind":"seasonal","area_km2":4.788,"date":"2026-10-04"},"geometry":{"type":"Polygon","coordinates":[[[102.6274,12.5518],[102.6271,12.5507],[102.6277,12.5483],[102.6272,12.5477],[102.6263,12.5477],[102.6263,12.5469],[102.6255,12.5466],[102.6258,12.5461],[102.6252,12.5453],[102.6269,12.5453],[102.6272,12.5442],[102.6286,12.5445],[102.6291,12.5439],[102.6294,12.5415],[102.6283,12.5409],[102.6286,12.5399],[102.6275,12.539],[102.6267,12.539],[102.6258,12.5398],[102.6267,12.5409],[102.6267,12.5423],[102.6258,12.542],[102.6255,12.5428],[102.625,12.5428],[102.6247,12.5434],[102.6242,12.5433],[102.6239,12.5417],[102.6256,12.5415],[102.6253,12.5404],[102.6245,12.5406],[102.6245,12.5398],[102.6256,12.5393],[102.6256,12.5379],[102.625,12.5374],[102.6237,12.5379],[102.6225,12.5401],[102.6209,12.5409],[102.6209,12.5393],[102.622,12.5387],[102.622,12.5374],[102.6226,12.5363],[102.6223,12.5352],[102.6229,12.5349],[102.6223,12.5333],[102.6209,12.5327],[102.6212,12.5303],[102.6196,12.5289],[102.6188,12.5297],[102.6188,12.5292],[102.6179,12.5284],[102.616,12.5281],[102.6149,12.5284],[102.6152,12.5305],[102.6135,12.53],[102.613,12.5289],[102.6116,12.5286],[102.6116,12.5278],[102.6111,12.5272],[102.61,12.5272],[102.6091,12.5264],[102.6081,12.5226],[102.6092,12.521],[102.6125,12.5213],[102.6128,12.5207],[102.6139,12.5208],[102.6142,12.5213],[102.6158,12.5213],[102.6164,12.5221],[102.6172,12.5221],[102.6169,12.52],[102.6183,12.5194],[102.6191,12.5178],[102.62,12.5178],[102.6203,12.5173],[102.6214,12.517],[102.6225,12.5154],[102.623,12.5154],[102.623,12.5168],[102.6238,12.5176],[102.6249,12.5176],[102.6252,12.5171],[102.6277,12.5176],[102.6288,12.5168],[102.6299,12.5168],[102.6305,12.5163],[102.631,12.5144],[102.6319,12.5147],[102.6333,12.5139],[102.633,12.5125],[102.6333,12.512],[102.6338,12.512],[102.6338,12.5112],[102.6349,12.5112],[102.6355,12.5106],[102.6352,12.5101],[102.6361,12.5098],[102.6358,12.509],[102.6372,12.5093],[102.6377,12.5077],[102.6391,12.5082],[102.6388,12.5096],[102.6369,12.5104],[102.6369,12.5109],[102.6358,12.5117],[102.6352,12.5139],[102.6344,12.5144],[102.6343,12.515],[102.6349,12.5152],[102.6349,12.5163],[102.6354,12.5166],[102.6354,12.5174],[102.6332,12.5163],[102.6332,12.5177],[102.6329,12.5182],[102.6318,12.5185],[102.6318,12.5193],[102.6329,12.5193],[102.6348,12.5212],[102.636,12.5207],[102.6359,12.5212],[102.6373,12.5226],[102.639,12.5223],[102.6395,12.5234],[102.6412,12.5234],[102.6423,12.5248],[102.6434,12.5248],[102.6425,12.5256],[102.6406,12.5256],[102.6409,12.5278],[102.6414,12.5278],[102.6414,12.5294],[102.6406,12.5299],[102.6405,12.531],[102.6389,12.531],[102.6386,12.5321],[102.6391,12.5337],[102.638,12.5345],[102.638,12.5351],[102.6397,12.5364],[102.6399,12.5389],[102.6408,12.5392],[102.6405,12.5408],[102.641,12.5411],[102.641,12.5421],[102.6402,12.5427],[102.6402,12.5435],[102.6396,12.5435],[102.6382,12.5421],[102.6383,12.541],[102.6372,12.5397],[102.6375,12.5378],[102.6369,12.5372],[102.6369,12.5364],[102.6355,12.5361],[102.6353,12.5353],[102.6355,12.5348],[102.6367,12.5348],[102.6378,12.5334],[102.6375,12.531],[102.6381,12.5294],[102.6395,12.5294],[102.6395,12.5288],[102.6381,12.5286],[102.6384,12.5272],[102.6378,12.5269],[102.6378,12.5264],[102.6365,12.5264],[102.6359,12.5272],[102.6351,12.5272],[102.6351,12.5264],[102.6337,12.5247],[102.6318,12.5244],[102.6307,12.5236],[102.6304,12.5217],[102.6296,12.5204],[102.628,12.5206],[102.6274,12.5211],[102.6274,12.5222],[102.6263,12.5228],[102.6252,12.5225],[102.6241,12.523],[102.6232,12.5222],[102.6227,12.523],[102.6216,12.523],[102.6216,12.5238],[102.6229,12.5252],[102.6229,12.5268],[102.6235,12.5271],[102.6246,12.5293],[102.6284,12.529],[102.6292,12.5298],[102.6292,12.5304],[102.6284,12.5312],[102.6284,12.5323],[102.6295,12.5334],[102.6306,12.5334],[102.6306,12.5361],[102.6319,12.5364],[102.6325,12.5369],[102.6325,12.5375],[102.6317,12.5383],[102.6319,12.5399],[102.6325,12.5402],[102.6324,12.5418],[102.6319,12.5421],[102.6324,12.5426],[102.6324,12.544],[102.6316,12.544],[102.6308,12.5429],[102.6299,12.5439],[102.6302,12.5453],[102.6291,12.5453],[102.6283,12.5461],[102.628,12.5474],[102.6288,12.5475],[102.6291,12.5485],[102.6288,12.5504],[102.6282,12.5515],[102.6274,12.5518]],[[102.6292,12.5361],[102.6297,12.5361],[102.63,12.5355],[102.6298,12.5345],[102.6289,12.535],[102.6292,12.5361]],[[102.6276,12.5339],[102.6287,12.5339],[102.6287,12.5334],[102.6276,12.5331],[102.6276,12.5339]]]}},{"type":"Feature","properties":{"kind":"seasonal","area_km2":1.209,"date":"2026-10-04"},"geometry":{"type":"Polygon","coordinates":[[[102.6902,12.4444],[102.6896,12.4431],[102.6888,12.4431],[102.6885,12.4422],[102.6874,12.442],[102.6874,12.4412],[102.6883,12.4412],[102.6885,12.442],[102.6896,12.442],[102.6896,12.4406],[102.6891,12.4401],[102.6877,12.4403],[102.6877,12.4398],[102.6869,12.4393],[102.6852,12.4395],[102.6852,12.4382],[102.6861,12.4379],[102.6858,12.4363],[102.6864,12.4363],[102.6866,12.4371],[102.6875,12.4371],[102.6875,12.4382],[102.6877,12.4376],[102.6883,12.4382],[102.6894,12.4379],[102.6894,12.4374],[102.6883,12.4368],[102.6886,12.436],[102.6883,12.4352],[102.6875,12.4347],[102.6875,12.4338],[102.6864,12.4336],[102.6864,12.4317],[102.6872,12.4314],[102.6883,12.4322],[102.688,12.4336],[102.6897,12.4336],[102.6897,12.4374],[102.6922,12.4374],[102.6921,12.4385],[102.6935,12.439],[102.6944,12.438],[102.6924,12.4377],[102.6924,12.4369],[102.693,12.4358],[102.6952,12.4355],[102.695,12.4317],[102.6941,12.4315],[102.6936,12.4323],[102.6919,12.4328],[102.6914,12.4339],[102.6903,12.4339],[102.6911,12.4336],[102.6908,12.4328],[102.6903,12.4328],[102.6914,12.4322],[102.6914,12.4314],[102.6908,12.4312],[102.6914,12.4306],[102.693,12.4304],[102.6933,12.4298],[102.6944,12.4298],[102.695,12.4306],[102.6963,12.4307],[102.6961,12.4285],[102.698,12.4285],[102.6988,12.4296],[102.6997,12.4296],[102.6991,12.4318],[102.6977,12.4318],[102.6966,12.4312],[102.6961,12.432],[102.6972,12.4331],[102.6994,12.4326],[102.6991,12.4342],[102.6996,12.4342],[102.6999,12.4364],[102.6991,12.4366],[102.6985,12.4375],[102.6999,12.4377],[102.6999,12.4386],[102.6985,12.4402],[102.6976,12.4402],[102.6976,12.441],[102.6968,12.441],[102.6968,12.4415],[102.6974,12.4415],[102.6973,12.4423],[102.6962,12.4423],[102.696,12.441],[102.6938,12.4412],[102.6929,12.4417],[102.6929,12.4423],[102.6921,12.4423],[102.6918,12.4407],[102.6913,12.4404],[102.691,12.4444],[102.6902,12.4444]],[[102.6902,12.4404],[102.6907,12.4406],[102.6907,12.4404],[102.6902,12.4404]],[[102.6907,12.4404],[102.6913,12.4398],[102.691,12.4393],[102.6908,12.4393],[102.6907,12.4404]],[[102.6899,12.4393],[102.6908,12.4393],[102.6908,12.4385],[102.6902,12.4385],[102.6899,12.4393]],[[102.6916,12.4382],[102.6919,12.4385],[102.6919,12.4382],[102.6916,12.4382]],[[102.6944,12.4382],[102.6946,12.4385],[102.6946,12.4382],[102.6944,12.4382]],[[102.6946,12.4382],[102.6952,12.438],[102.6952,12.4374],[102.6946,12.4374],[102.6946,12.4382]],[[102.6952,12.438],[102.6955,12.4382],[102.6955,12.438],[102.6952,12.438]],[[102.6944,12.4371],[102.6946,12.4374],[102.6946,12.4372],[102.6944,12.4371]],[[102.6935,12.4369],[102.6941,12.4371],[102.6941,12.4369],[102.6935,12.4369]],[[102.6946,12.4369],[102.6952,12.4372],[102.6952,12.4369],[102.6946,12.4369]],[[102.6889,12.436],[102.6891,12.4363],[102.6891,12.436],[102.6889,12.436]],[[102.6963,12.4361],[102.6968,12.4364],[102.6969,12.4361],[102.6963,12.4361]],[[102.6958,12.4358],[102.696,12.4361],[102.696,12.4358],[102.6958,12.4358]],[[102.688,12.4338],[102.6883,12.4341],[102.6883,12.4338],[102.688,12.4338]],[[102.6963,12.4342],[102.6966,12.4334],[102.6955,12.4328],[102.6955,12.4336],[102.696,12.4336],[102.6963,12.4342]],[[102.6955,12.4323],[102.6958,12.4326],[102.6958,12.4323],[102.6955,12.4323]],[[102.6936,12.4306],[102.6939,12.4309],[102.6939,12.4306],[102.6936,12.4306]]]}},{"type":"Feature","properties":{"kind":"seasonal","area_km2":1.19,"date":"2026-10-04"},"geometry":{"type":"Polygon","coordinates":[[[102.6926,12.4146],[102.6915,12.413],[102.6907,12.413],[102.6907,12.4141],[102.6893,12.4138],[102.6899,12.4138],[102.6899,12.4116],[102.691,12.4116],[102.6907,12.4127],[102.6913,12.4127],[102.6921,12.4125],[102.6921,12.4106],[102.6938,12.4108],[102.6949,12.41],[102.6949,12.4087],[102.6941,12.4081],[102.6941,12.4073],[102.6946,12.4068],[102.6938,12.406],[102.693,12.4062],[102.6924,12.4057],[102.6916,12.4057],[102.6913,12.4089],[102.6918,12.4095],[102.6918,12.4103],[102.691,12.4095],[102.6902,12.4095],[102.6902,12.4108],[102.6893,12.4116],[102.6882,12.4116],[102.688,12.4111],[102.6866,12.4113],[102.6869,12.4119],[102.6877,12.4119],[102.6877,12.4127],[102.6871,12.413],[102.6871,12.4124],[102.6855,12.4113],[102.6855,12.4097],[102.6844,12.4091],[102.6844,12.4083],[102.6863,12.4086],[102.6858,12.4083],[102.6858,12.4078],[102.6844,12.4072],[102.6844,12.4064],[102.6855,12.4059],[102.6864,12.4062],[102.6861,12.4051],[102.6872,12.4046],[102.6891,12.4048],[102.6894,12.4032],[102.6905,12.4024],[102.6933,12.4011],[102.6955,12.4011],[102.6955,12.4006],[102.6972,12.3998],[102.6972,12.3992],[102.6983,12.3992],[102.7005,12.3971],[102.7013,12.3971],[102.7008,12.399],[102.6997,12.3998],[102.6996,12.4003],[102.7002,12.4003],[102.7002,12.403],[102.6993,12.403],[102.6991,12.4025],[102.6983,12.4025],[102.6977,12.403],[102.6977,12.4041],[102.6991,12.4041],[102.699,12.406],[102.7007,12.4063],[102.7007,12.4074],[102.6999,12.4074],[102.6998,12.409],[102.699,12.409],[102.6974,12.4068],[102.6957,12.4065],[102.6957,12.4084],[102.6968,12.4087],[102.6971,12.4092],[102.6971,12.4114],[102.6954,12.4111],[102.6954,12.4122],[102.6946,12.4125],[102.6948,12.4141],[102.694,12.4146],[102.6926,12.4146]],[[102.6929,12.4136],[102.6935,12.4133],[102.6935,12.4125],[102.6926,12.4127],[102.6929,12.4136]],[[102.6863,12.4111],[102.6866,12.4113],[102.6866,12.4111],[102.6863,12.4111]],[[102.6885,12.4113],[102.6896,12.4108],[102.6894,12.4097],[102.6877,12.4097],[102.6869,12.4089],[102.6858,12.4092],[102.6858,12.41],[102.6866,12.4111],[102.6882,12.4108],[102.6885,12.4113]],[[102.6885,12.4089],[102.6902,12.4086],[102.6899,12.4067],[102.6905,12.4059],[102.69,12.4054],[102.6897,12.4054],[102.6897,12.4057],[102.6894,12.4057],[102.6894,12.4059],[102.6891,12.4059],[102.6891,12.4062],[102.6888,12.4062],[102.6888,12.4065],[102.6886,12.4065],[102.6883,12.407],[102.6864,12.407],[102.6866,12.4078],[102.6883,12.4084],[102.6885,12.4089]],[[102.6949,12.4071],[102.6952,12.406],[102.696,12.4063],[102.6968,12.4057],[102.6968,12.4052],[102.6952,12.4049],[102.6952,12.4044],[102.6963,12.4041],[102.6966,12.4033],[102.6955,12.4033],[102.6949,12.4041],[102.6949,12.4035],[102.6944,12.4035],[102.6941,12.403],[102.6941,12.4035],[102.6936,12.4035],[102.6935,12.4041],[102.6941,12.4041],[102.6941,12.4046],[102.6935,12.4049],[102.6941,12.4052],[102.6927,12.4051],[102.6927,12.4057],[102.6944,12.4057],[102.6949,12.4071]],[[102.6877,12.4065],[102.688,12.4067],[102.688,12.4065],[102.6877,12.4065]],[[102.6875,12.4062],[102.6877,12.4065],[102.6877,12.4062],[102.6875,12.4062]],[[102.688,12.4065],[102.6886,12.4065],[102.6886,12.4062],[102.6883,12.4062],[102.6883,12.4059],[102.688,12.4059],[102.688,12.4065]],[[102.6866,12.4059],[102.6872,12.4062],[102.6872,12.4059],[102.6866,12.4059]],[[102.6877,12.4056],[102.688,12.4059],[102.688,12.4056],[102.6877,12.4056]],[[102.6883,12.4057],[102.6886,12.4059],[102.6886,12.4057],[102.6883,12.4057]],[[102.6971,12.4052],[102.6974,12.4057],[102.6974,12.4052],[102.6971,12.4052]],[[102.69,12.4051],[102.6908,12.4051],[102.6908,12.4046],[102.69,12.4046],[102.69,12.4051]],[[102.6922,12.4049],[102.6927,12.4051],[102.6927,12.4049],[102.6922,12.4049]],[[102.6969,12.4049],[102.6971,12.4052],[102.6971,12.4049],[102.6969,12.4049]],[[102.6911,12.4049],[102.6916,12.4049],[102.6916,12.4043],[102.6913,12.4043],[102.6911,12.4049]],[[102.6908,12.4043],[102.6913,12.4043],[102.6916,12.4035],[102.6911,12.4035],[102.6908,12.4043]]]}},{"type":"Feature","properties":{"kind":"seasonal","area_km2":0.52,"date":"2026-10-04"},"geometry":{"type":"Polygon","coordinates":[[[102.1552,12.8136],[102.1544,12.8127],[102.1547,12.8106],[102.1541,12.81],[102.1541,12.8081],[102.1553,12.8054],[102.1558,12.806],[102.1553,12.8068],[102.155,12.8092],[102.1544,12.8095],[102.1552,12.8095],[102.1552,12.8106],[102.1558,12.8111],[102.1552,12.8111],[102.1549,12.8119],[102.1557,12.8125],[102.1558,12.8119],[102.1566,12.8122],[102.1571,12.8114],[102.1585,12.8114],[102.1588,12.8109],[102.1596,12.8114],[102.1599,12.8109],[102.1616,12.8115],[102.1613,12.8104],[102.1621,12.8107],[102.1621,12.8115],[102.1635,12.8115],[102.1643,12.811],[102.1641,12.8104],[102.1663,12.8107],[102.1674,12.8099],[102.1682,12.8102],[102.1679,12.8094],[102.169,12.8094],[102.169,12.8086],[102.1699,12.8086],[102.1699,12.808],[102.1713,12.807],[102.1713,12.8064],[102.1718,12.8064],[102.1718,12.8059],[102.1727,12.8056],[102.1724,12.8048],[102.1729,12.8051],[102.173,12.8045],[102.1724,12.8045],[102.1721,12.8037],[102.1743,12.8037],[102.1741,12.8051],[102.1752,12.8056],[102.1749,12.8073],[102.1732,12.8078],[102.1723,12.8097],[102.171,12.8099],[102.1704,12.811],[102.1696,12.811],[102.1685,12.8121],[102.1668,12.8123],[102.1657,12.8115],[102.1646,12.8115],[102.1621,12.8134],[102.1615,12.8125],[102.1591,12.8125],[102.1588,12.8117],[102.1574,12.8117],[102.1566,12.813],[102.1552,12.8136]],[[102.1671,12.8104],[102.1674,12.8107],[102.1674,12.8104],[102.1671,12.8104]]]}},{"type":"Feature","properties":{"kind":"seasonal","area_km2":0.398,"date":"2026-10-08"},"geometry":{"type":"Polygon","coordinates":[[[102.7282,12.0988],[102.7265,12.098],[102.7265,12.0969],[102.7273,12.0964],[102.7274,12.0958],[102.7268,12.0956],[102.7268,12.0945],[102.7279,12.0945],[102.7285,12.0937],[102.729,12.0937],[102.729,12.0926],[102.7296,12.0921],[102.7288,12.0912],[102.7288,12.0907],[102.7296,12.0899],[102.7307,12.0904],[102.7321,12.0902],[102.7321,12.0877],[102.7332,12.0872],[102.7332,12.0867],[102.7327,12.0864],[102.7332,12.0861],[102.7332,12.0853],[102.7327,12.0848],[102.7341,12.0848],[102.7343,12.0886],[102.7335,12.0897],[102.7335,12.0913],[102.7326,12.0918],[102.7326,12.0924],[102.7321,12.0926],[102.7321,12.0932],[102.7315,12.0934],[102.7315,12.094],[102.7309,12.0942],[102.7309,12.0948],[102.7304,12.0951],[102.7282,12.0988]]]}},{"type":"Feature","properties":{"kind":"seasonal","area_km2":0.38,"date":"2026-10-04"},"geometry":{"type":"Polygon","coordinates":[[[102.3396,12.5016],[102.339,12.5011],[102.339,12.5003],[102.3399,12.4995],[102.3399,12.4987],[102.3388,12.4978],[102.3388,12.4962],[102.3399,12.4962],[102.341,12.4979],[102.3426,12.4984],[102.344,12.4971],[102.344,12.4965],[102.341,12.4938],[102.341,12.493],[102.3416,12.4925],[102.343,12.4925],[102.3438,12.4933],[102.3438,12.4946],[102.3443,12.4952],[102.3463,12.4955],[102.3465,12.4982],[102.3457,12.4993],[102.3437,12.499],[102.3429,12.4998],[102.3426,12.5009],[102.341,12.5011],[102.3407,12.5017],[102.3396,12.5016]]]}},{"type":"Feature","properties":{"kind":"seasonal","area_km2":0.339,"date":"2026-10-04"},"geometry":{"type":"Polygon","coordinates":[[[102.3909,12.3021],[102.391,12.3005],[102.3899,12.3002],[102.3899,12.2997],[102.3907,12.2989],[102.3918,12.2989],[102.3924,12.2983],[102.3924,12.2975],[102.391,12.2962],[102.3899,12.2964],[102.3899,12.2956],[102.3907,12.2953],[102.3899,12.2929],[102.391,12.2924],[102.3916,12.2916],[102.393,12.2913],[102.393,12.2927],[102.3921,12.2932],[102.3916,12.2951],[102.3924,12.2962],[102.3951,12.2962],[102.3946,12.2965],[102.3948,12.2986],[102.3957,12.2984],[102.3959,12.2989],[102.3954,12.2992],[102.3965,12.3],[102.3962,12.3006],[102.3954,12.3005],[102.3945,12.3013],[102.3929,12.3011],[102.392,12.3016],[102.392,12.3021],[102.3909,12.3021]],[[102.394,12.3008],[102.3954,12.3005],[102.3954,12.2995],[102.3945,12.2995],[102.394,12.3],[102.394,12.3008]],[[102.3918,12.3002],[102.3926,12.3005],[102.3926,12.3002],[102.3918,12.3002]],[[102.3937,12.2975],[102.394,12.2978],[102.394,12.2975],[102.3937,12.2975]],[[102.3926,12.2973],[102.3929,12.2975],[102.3929,12.2973],[102.3926,12.2973]],[[102.3935,12.297],[102.394,12.2973],[102.394,12.297],[102.3935,12.297]],[[102.3937,12.2965],[102.394,12.2967],[102.394,12.2965],[102.3937,12.2965]],[[102.3921,12.2962],[102.3924,12.2964],[102.3924,12.2962],[102.3921,12.2962]]]}},{"type":"Feature","properties":{"kind":"seasonal","area_km2":0.322,"date":"2026-10-04"},"geometry":{"type":"Polygon","coordinates":[[[102.3976,12.2976],[102.3973,12.2965],[102.397,12.2973],[102.3959,12.2973],[102.3962,12.2968],[102.3951,12.2962],[102.3971,12.2957],[102.3976,12.2946],[102.3974,12.2927],[102.3968,12.2922],[102.396,12.2921],[102.3957,12.2916],[102.3955,12.2886],[102.3961,12.2865],[102.3969,12.2865],[102.3968,12.2911],[102.399,12.2911],[102.3999,12.2925],[102.401,12.2922],[102.4013,12.2889],[102.4029,12.289],[102.4029,12.2898],[102.4024,12.29],[102.4023,12.2914],[102.4018,12.2919],[102.4015,12.2941],[102.4009,12.2941],[102.4007,12.2949],[102.3993,12.296],[102.4001,12.296],[102.4004,12.2971],[102.3995,12.2976],[102.3995,12.2965],[102.3984,12.2965],[102.3976,12.2976]],[[102.3976,12.2962],[102.3984,12.2962],[102.3984,12.296],[102.3979,12.2957],[102.3976,12.2962]],[[102.3984,12.2957],[102.3987,12.296],[102.3987,12.2957],[102.3984,12.2957]],[[102.399,12.2952],[102.3993,12.2957],[102.3993,12.2952],[102.399,12.2952]],[[102.3987,12.2938],[102.399,12.2946],[102.399,12.2938],[102.3987,12.2938]],[[102.3993,12.2943],[102.3998,12.2946],[102.3998,12.2944],[102.3993,12.2943]],[[102.3998,12.2944],[102.4004,12.2944],[102.4001,12.2938],[102.4007,12.2933],[102.3996,12.2935],[102.3998,12.2944]],[[102.3982,12.2938],[102.3985,12.2941],[102.3985,12.2938],[102.3982,12.2938]],[[102.3979,12.2935],[102.3993,12.2935],[102.3993,12.2922],[102.3979,12.2919],[102.3979,12.2935]],[[102.396,12.2911],[102.3963,12.2916],[102.3963,12.2911],[102.396,12.2911]],[[102.4024,12.2892],[102.4026,12.2895],[102.4026,12.2892],[102.4024,12.2892]]]}},{"type":"Feature","properties":{"kind":"seasonal","area_km2":0.31,"date":"2026-10-04"},"geometry":{"type":"Polygon","coordinates":[[[102.396,12.2645],[102.396,12.2634],[102.3952,12.2634],[102.3952,12.264],[102.3932,12.2637],[102.3933,12.2599],[102.3947,12.2599],[102.3944,12.2615],[102.3952,12.2615],[102.3952,12.2629],[102.396,12.2629],[102.396,12.2623],[102.3966,12.2621],[102.396,12.2612],[102.3966,12.2613],[102.3966,12.2604],[102.3971,12.2604],[102.3969,12.2599],[102.3977,12.2599],[102.3977,12.2594],[102.3988,12.261],[102.4002,12.2605],[102.4026,12.2608],[102.4032,12.2605],[102.4032,12.26],[102.4043,12.26],[102.4043,12.2605],[102.4048,12.2605],[102.4051,12.2613],[102.4079,12.2614],[102.4081,12.2624],[102.4081,12.2635],[102.4068,12.2622],[102.4056,12.2632],[102.4048,12.2632],[102.404,12.2613],[102.4026,12.261],[102.401,12.2618],[102.4007,12.2624],[102.3979,12.2624],[102.3977,12.2629],[102.3971,12.2629],[102.3971,12.2634],[102.3963,12.2634],[102.396,12.2645]],[[102.3944,12.2629],[102.3949,12.2634],[102.3952,12.2629],[102.3944,12.2629]],[[102.401,12.2613],[102.4013,12.2616],[102.4013,12.2613],[102.401,12.2613]],[[102.4013,12.261],[102.4015,12.2613],[102.4015,12.261],[102.4013,12.261]]]}},{"type":"Feature","properties":{"kind":"seasonal","area_km2":0.257,"date":"2026-10-04"},"geometry":{"type":"Polygon","coordinates":[[[102.6804,12.4246],[102.6804,12.4235],[102.6799,12.4229],[102.679,12.4232],[102.6791,12.4216],[102.6777,12.4216],[102.678,12.4197],[102.6788,12.4197],[102.6791,12.4208],[102.6802,12.4208],[102.6802,12.4183],[102.6796,12.418],[102.6794,12.4186],[102.6785,12.4186],[102.6783,12.418],[102.6777,12.418],[102.6777,12.4172],[102.6783,12.4172],[102.678,12.4159],[102.6763,12.4164],[102.6761,12.4126],[102.6767,12.4121],[102.6775,12.4121],[102.6775,12.4129],[102.6783,12.4132],[102.678,12.414],[102.6786,12.4145],[102.6777,12.4145],[102.6777,12.4148],[102.6791,12.4151],[102.6791,12.4159],[102.6786,12.4159],[102.6785,12.4164],[102.6797,12.4159],[102.6797,12.4145],[102.681,12.4151],[102.681,12.4159],[102.6805,12.4156],[102.6799,12.4162],[102.6802,12.417],[102.6805,12.4167],[102.681,12.417],[102.6794,12.4172],[102.6794,12.4178],[102.6807,12.4178],[102.6807,12.4205],[102.6799,12.4216],[102.6804,12.4216],[102.6804,12.4232],[102.6829,12.424],[102.6829,12.4246],[102.6804,12.4246]],[[102.681,12.4238],[102.6812,12.424],[102.6812,12.4238],[102.681,12.4238]],[[102.6775,12.4148],[102.6777,12.415],[102.6777,12.4148],[102.6775,12.4148]],[[102.6775,12.414],[102.6777,12.4145],[102.6777,12.414],[102.6775,12.414]]]}},{"type":"Feature","properties":{"kind":"seasonal","area_km2":0.257,"date":"2026-10-04"},"geometry":{"type":"Polygon","coordinates":[[[102.3282,12.4506],[102.328,12.4495],[102.3269,12.4492],[102.3269,12.4484],[102.3261,12.4481],[102.3261,12.447],[102.3277,12.4465],[102.328,12.4471],[102.3305,12.4479],[102.3305,12.4463],[102.3321,12.4463],[102.3316,12.446],[102.3319,12.4444],[102.3338,12.4449],[102.3341,12.446],[102.3332,12.4468],[102.3332,12.4477],[102.3324,12.4485],[102.3313,12.4484],[102.3307,12.4498],[102.3296,12.4506],[102.3282,12.4506]],[[102.3285,12.4487],[102.3294,12.449],[102.3294,12.4487],[102.3285,12.4487]],[[102.328,12.4484],[102.3285,12.4484],[102.3285,12.4481],[102.328,12.4479],[102.328,12.4484]]]}},{"type":"Feature","properties":{"kind":"seasonal","area_km2":0.231,"date":"2026-10-04"},"geometry":{"type":"Polygon","coordinates":[[[102.6619,12.487],[102.6622,12.4862],[102.6617,12.4859],[102.6617,12.484],[102.6633,12.4819],[102.6639,12.4822],[102.6633,12.4832],[102.6639,12.483],[102.6639,12.4835],[102.6666,12.4838],[102.6669,12.4844],[102.6672,12.4838],[102.668,12.4841],[102.668,12.4836],[102.6672,12.4833],[102.6683,12.4833],[102.6689,12.4819],[102.668,12.4819],[102.668,12.4825],[102.6675,12.4822],[102.6669,12.4827],[102.6661,12.4827],[102.6658,12.4822],[102.6666,12.4825],[102.6678,12.4814],[102.6702,12.4811],[102.6694,12.4844],[102.6683,12.4849],[102.668,12.4857],[102.6666,12.4862],[102.6664,12.4841],[102.6647,12.4843],[102.6642,12.4838],[102.6633,12.4843],[102.6636,12.487],[102.6619,12.487]],[[102.6672,12.4841],[102.6675,12.4844],[102.6675,12.4841],[102.6672,12.4841]]]}},{"type":"Feature","properties":{"kind":"seasonal","area_km2":0.225,"date":"2026-10-04"},"geometry":{"type":"Polygon","coordinates":[[[102.0211,12.9424],[102.0181,12.9424],[102.0181,12.9402],[102.0201,12.9386],[102.0204,12.9367],[102.022,12.9367],[102.0229,12.9359],[102.0223,12.9329],[102.024,12.9332],[102.0243,12.9338],[102.0248,12.9338],[102.0245,12.9349],[102.024,12.9346],[102.0237,12.9348],[102.0237,12.9354],[102.0231,12.9354],[102.0231,12.9362],[102.0223,12.937],[102.0217,12.937],[102.022,12.9378],[102.0215,12.9378],[102.0217,12.9386],[102.0236,12.9389],[102.0234,12.9403],[102.0225,12.9392],[102.0214,12.9394],[102.0206,12.9405],[102.0211,12.9413],[102.0211,12.9424]],[[102.0203,12.9394],[102.0206,12.9397],[102.0206,12.9394],[102.0203,12.9394]],[[102.0212,12.9386],[102.0214,12.9389],[102.0214,12.9386],[102.0212,12.9386]],[[102.0231,12.9348],[102.0237,12.9348],[102.0237,12.934],[102.0232,12.934],[102.0231,12.9348]]]}},{"type":"Feature","properties":{"kind":"seasonal","area_km2":0.2,"date":"2026-10-04"},"geometry":{"type":"Polygon","coordinates":[[[102.6787,12.434],[102.6784,12.4316],[102.6776,12.431],[102.6773,12.4297],[102.6779,12.4297],[102.6787,12.4275],[102.6798,12.4275],[102.6798,12.4281],[102.6804,12.4281],[102.6815,12.427],[102.6815,12.4265],[102.6826,12.4259],[102.6829,12.4246],[102.6837,12.4246],[102.6837,12.4257],[102.6832,12.4257],[102.6831,12.4262],[102.6823,12.4262],[102.6823,12.427],[102.6812,12.4275],[102.6804,12.4286],[102.6804,12.4292],[102.6809,12.4286],[102.682,12.4289],[102.6812,12.43],[102.6798,12.4305],[102.6798,12.4338],[102.6787,12.434]]]}},{"type":"Feature","properties":{"kind":"seasonal","area_km2":0.184,"date":"2026-10-04"},"geometry":{"type":"Polygon","coordinates":[[[102.5026,12.2441],[102.4987,12.2438],[102.4982,12.2416],[102.4971,12.2421],[102.4971,12.2394],[102.5004,12.2397],[102.5007,12.2416],[102.5023,12.2419],[102.5029,12.2425],[102.5026,12.2441]],[[102.499,12.2419],[102.4998,12.2422],[102.4998,12.2416],[102.499,12.2419]],[[102.4996,12.2411],[102.5001,12.2405],[102.4999,12.24],[102.4996,12.24],[102.4996,12.2411]]]}},{"type":"Feature","properties":{"kind":"seasonal","area_km2":0.181,"date":"2026-10-04"},"geometry":{"type":"Polygon","coordinates":[[[102.3966,12.2556],[102.3964,12.2547],[102.395,12.255],[102.395,12.2542],[102.3939,12.255],[102.3933,12.2544],[102.3936,12.2531],[102.3925,12.252],[102.3925,12.2515],[102.3945,12.2517],[102.395,12.2512],[102.395,12.2496],[102.3956,12.2496],[102.3959,12.2501],[102.3964,12.2499],[102.3953,12.252],[102.3958,12.252],[102.3958,12.2526],[102.3972,12.2523],[102.3975,12.2529],[102.3983,12.2529],[102.3978,12.2531],[102.3983,12.2534],[102.3983,12.254],[102.3975,12.2539],[102.3975,12.2553],[102.3966,12.2556]]]}},{"type":"Feature","properties":{"kind":"seasonal","area_km2":0.18,"date":"2026-10-04"},"geometry":{"type":"Polygon","coordinates":[[[102.6876,12.4265],[102.6856,12.4262],[102.6854,12.4251],[102.6881,12.4246],[102.6884,12.4241],[102.6892,12.4244],[102.6892,12.4238],[102.6868,12.4238],[102.6862,12.4233],[102.6862,12.4224],[102.6868,12.4227],[102.6868,12.4233],[102.6884,12.4233],[102.6884,12.4227],[102.6895,12.4222],[102.6898,12.4214],[102.6884,12.4203],[102.6882,12.4206],[102.6873,12.4203],[102.6879,12.4203],[102.6879,12.4192],[102.6898,12.4192],[102.6898,12.4198],[102.6909,12.4203],[102.6909,12.4209],[102.6904,12.4211],[102.6909,12.4228],[102.6901,12.4227],[102.6898,12.4236],[102.6903,12.4241],[102.6914,12.4241],[102.6917,12.4255],[102.6903,12.4255],[102.6898,12.4246],[102.6887,12.4246],[102.6881,12.4254],[102.687,12.4252],[102.6867,12.426],[102.6876,12.4265]]]}},{"type":"Feature","properties":{"kind":"seasonal","area_km2":0.177,"date":"2026-10-04"},"geometry":{"type":"Polygon","coordinates":[[[102.5303,12.4598],[102.5298,12.459],[102.5267,12.4587],[102.5265,12.4576],[102.5273,12.4576],[102.5276,12.4568],[102.5295,12.4568],[102.5301,12.4574],[102.5331,12.4574],[102.5342,12.4582],[102.5336,12.4599],[102.5328,12.4598],[102.5325,12.4593],[102.5309,12.4593],[102.5303,12.4598]]]}},{"type":"Feature","properties":{"kind":"seasonal","area_km2":0.173,"date":"2026-10-04"},"geometry":{"type":"Polygon","coordinates":[[[102.3433,12.7825],[102.3428,12.78],[102.3439,12.78],[102.3439,12.7789],[102.3411,12.7792],[102.3411,12.7776],[102.342,12.7784],[102.3419,12.7789],[102.3431,12.7789],[102.3433,12.7776],[102.3428,12.7776],[102.3425,12.777],[102.3428,12.7765],[102.3434,12.7765],[102.3439,12.7781],[102.3444,12.7781],[102.3442,12.7749],[102.3453,12.7749],[102.3456,12.7768],[102.3464,12.7771],[102.3469,12.7765],[102.3475,12.7768],[102.3472,12.7774],[102.3455,12.7776],[102.3455,12.78],[102.3444,12.7806],[102.3444,12.7822],[102.3433,12.7825]],[[102.3433,12.7814],[102.3439,12.7814],[102.3439,12.7811],[102.3433,12.7808],[102.3433,12.7814]],[[102.343,12.7803],[102.3433,12.7806],[102.3433,12.7803],[102.343,12.7803]]]}},{"type":"Feature","properties":{"kind":"seasonal","area_km2":0.164,"date":"2026-10-04"},"geometry":{"type":"Polygon","coordinates":[[[102.0086,12.9501],[102.0086,12.9493],[102.0094,12.9493],[102.0103,12.9485],[102.0117,12.9483],[102.0117,12.9477],[102.0122,12.9485],[102.0128,12.9483],[102.0125,12.9475],[102.0133,12.9469],[102.012,12.9469],[102.012,12.9464],[102.0131,12.9464],[102.0136,12.9458],[102.0172,12.9462],[102.0169,12.947],[102.0164,12.9467],[102.0161,12.9472],[102.0153,12.9472],[102.0155,12.9478],[102.015,12.9478],[102.015,12.9483],[102.0158,12.9483],[102.0163,12.9491],[102.0169,12.9491],[102.0169,12.9497],[102.015,12.9486],[102.0133,12.9485],[102.0116,12.9491],[102.0111,12.9501],[102.0086,12.9501]],[[102.0111,12.9485],[102.0114,12.9488],[102.0114,12.9485],[102.0111,12.9485]],[[102.0133,12.9477],[102.0136,12.9483],[102.0136,12.9477],[102.0133,12.9477]],[[102.0144,12.9467],[102.015,12.9472],[102.0153,12.9467],[102.0144,12.9467]]]}},{"type":"Feature","properties":{"kind":"seasonal","area_km2":0.163,"date":"2026-10-04"},"geometry":{"type":"Polygon","coordinates":[[[102.5894,12.4528],[102.5869,12.4519],[102.5869,12.4509],[102.5922,12.4512],[102.5927,12.4493],[102.5944,12.449],[102.5944,12.4498],[102.5938,12.4501],[102.5938,12.4523],[102.5922,12.4528],[102.5894,12.4528]]]}},{"type":"Feature","properties":{"kind":"seasonal","area_km2":0.153,"date":"2026-10-04"},"geometry":{"type":"Polygon","coordinates":[[[102.3541,12.4541],[102.3544,12.4525],[102.3552,12.4522],[102.3558,12.4506],[102.3577,12.4503],[102.3577,12.4514],[102.3591,12.4528],[102.3591,12.4539],[102.3541,12.4541]]]}},{"type":"Feature","properties":{"kind":"seasonal","area_km2":0.149,"date":"2026-10-04"},"geometry":{"type":"Polygon","coordinates":[[[102.6725,12.4134],[102.6714,12.4131],[102.6714,12.412],[102.6722,12.412],[102.6731,12.4112],[102.6728,12.4104],[102.6717,12.4098],[102.6717,12.409],[102.6723,12.409],[102.6734,12.4074],[102.6734,12.4099],[102.6742,12.4101],[102.6742,12.4096],[102.6747,12.4096],[102.6747,12.4091],[102.6753,12.4091],[102.6753,12.4085],[102.6761,12.4083],[102.6761,12.4096],[102.675,12.411],[102.675,12.4118],[102.6744,12.4118],[102.6739,12.4128],[102.6725,12.4134]]]}},{"type":"Feature","properties":{"kind":"seasonal","area_km2":0.147,"date":"2026-10-04"},"geometry":{"type":"Polygon","coordinates":[[[102.4875,12.5256],[102.4861,12.5245],[102.4861,12.5226],[102.4872,12.5207],[102.4894,12.521],[102.4894,12.5245],[102.4883,12.5256],[102.4875,12.5256]],[[102.4872,12.5234],[102.4875,12.5237],[102.4875,12.5234],[102.4872,12.5234]],[[102.488,12.5234],[102.4883,12.5237],[102.4883,12.5234],[102.488,12.5234]],[[102.487,12.5223],[102.4872,12.5226],[102.4872,12.5223],[102.487,12.5223]],[[102.4878,12.5223],[102.4881,12.5226],[102.4881,12.5223],[102.4878,12.5223]],[[102.4872,12.5218],[102.4881,12.522],[102.4881,12.5218],[102.4872,12.5218]]]}},{"type":"Feature","properties":{"kind":"seasonal","area_km2":0.146,"date":"2026-10-04"},"geometry":{"type":"Polygon","coordinates":[[[102.3508,12.4549],[102.3503,12.4538],[102.3492,12.4538],[102.3495,12.4524],[102.3478,12.4527],[102.3478,12.4519],[102.3464,12.4518],[102.3462,12.451],[102.3451,12.4513],[102.3448,12.4499],[102.3464,12.4497],[102.3464,12.4502],[102.3478,12.4505],[102.3481,12.4511],[102.3492,12.4513],[102.3495,12.4521],[102.3503,12.4522],[102.3505,12.4532],[102.3522,12.4533],[102.3527,12.4538],[102.3525,12.4549],[102.3508,12.4549]]]}},{"type":"Feature","properties":{"kind":"seasonal","area_km2":0.144,"date":"2026-10-04"},"geometry":{"type":"Polygon","coordinates":[[[102.6734,12.4074],[102.6734,12.4066],[102.6739,12.4061],[102.6745,12.4061],[102.6748,12.4055],[102.6759,12.4055],[102.6773,12.4045],[102.6795,12.4042],[102.68,12.4029],[102.6825,12.4032],[102.6822,12.4048],[102.6833,12.4056],[102.6842,12.4056],[102.6844,12.4051],[102.6858,12.4054],[102.6844,12.4056],[102.6839,12.4059],[102.6839,12.4067],[102.683,12.4067],[102.6819,12.4061],[102.6822,12.4051],[102.6817,12.4051],[102.6814,12.4042],[102.6806,12.4042],[102.6806,12.4048],[102.6795,12.405],[102.6784,12.4045],[102.6786,12.405],[102.6773,12.405],[102.6767,12.4053],[102.6767,12.4058],[102.6759,12.4058],[102.6759,12.4064],[102.6748,12.4063],[102.675,12.4072],[102.6734,12.4074]],[[102.6825,12.4059],[102.6828,12.4061],[102.6828,12.4059],[102.6825,12.4059]]]}},{"type":"Feature","properties":{"kind":"seasonal","area_km2":0.142,"date":"2026-10-04"},"geometry":{"type":"Polygon","coordinates":[[[102.2571,12.9667],[102.2565,12.9659],[102.2565,12.9642],[102.256,12.964],[102.256,12.9631],[102.2566,12.9629],[102.2566,12.9623],[102.259,12.9624],[102.259,12.9634],[102.2596,12.9637],[102.2596,12.9653],[102.2584,12.9667],[102.2571,12.9667]]]}},{"type":"Feature","properties":{"kind":"seasonal","area_km2":0.141,"date":"2026-10-04"},"geometry":{"type":"Polygon","coordinates":[[[102.353,12.4609],[102.3527,12.4595],[102.351,12.4598],[102.3491,12.4581],[102.3491,12.4573],[102.35,12.4562],[102.3522,12.4562],[102.353,12.4581],[102.353,12.4595],[102.3538,12.4598],[102.3538,12.4609],[102.353,12.4609]]]}},{"type":"Feature","properties":{"kind":"seasonal","area_km2":0.131,"date":"2026-10-04"},"geometry":{"type":"Polygon","coordinates":[[[102.0216,12.9467],[102.0216,12.9462],[102.0227,12.9457],[102.0225,12.9443],[102.023,12.9438],[102.023,12.943],[102.0239,12.9427],[102.0244,12.9416],[102.0258,12.9419],[102.0264,12.9427],[102.0272,12.9425],[102.0272,12.9406],[102.0281,12.94],[102.0286,12.9387],[102.0284,12.9373],[102.0292,12.9371],[102.0289,12.9403],[102.0278,12.9409],[102.0277,12.9433],[102.0272,12.9438],[102.0264,12.9438],[102.0255,12.9433],[102.0253,12.9425],[102.0247,12.9424],[102.0233,12.9438],[102.023,12.9449],[102.0238,12.9457],[102.0238,12.9462],[102.0216,12.9467]]]}},{"type":"Feature","properties":{"kind":"seasonal","area_km2":0.126,"date":"2026-10-04"},"geometry":{"type":"Polygon","coordinates":[[[102.5134,12.6131],[102.514,12.612],[102.5137,12.6115],[102.5131,12.6115],[102.5131,12.6101],[102.5145,12.6101],[102.5145,12.6096],[102.5137,12.6096],[102.5137,12.6088],[102.5145,12.6079],[102.5151,12.608],[102.5156,12.6101],[102.5159,12.6088],[102.5173,12.608],[102.517,12.6072],[102.5162,12.6077],[102.5162,12.6072],[102.5157,12.6074],[102.5157,12.6069],[102.5165,12.6063],[102.5179,12.6064],[102.5178,12.6093],[102.5165,12.6091],[102.5156,12.6104],[102.5156,12.6115],[102.5142,12.6112],[102.5142,12.6126],[102.5139,12.6131],[102.5134,12.6131]],[[102.5134,12.6106],[102.514,12.6109],[102.514,12.6107],[102.5134,12.6106]],[[102.5148,12.6104],[102.5151,12.6109],[102.5153,12.6104],[102.5148,12.6104]]]}},{"type":"Feature","properties":{"kind":"seasonal","area_km2":0.126,"date":"2026-10-04"},"geometry":{"type":"Polygon","coordinates":[[[102.4833,12.5296],[102.4828,12.5274],[102.4844,12.5258],[102.4866,12.5256],[102.4872,12.5261],[102.4872,12.5269],[102.4852,12.528],[102.485,12.5293],[102.4833,12.5296]]]}},{"type":"Feature","properties":{"kind":"seasonal","area_km2":0.118,"date":"2026-10-04"},"geometry":{"type":"Polygon","coordinates":[[[102.5147,12.3862],[102.5147,12.3854],[102.5153,12.3854],[102.5161,12.3846],[102.5164,12.3835],[102.5156,12.3811],[102.5167,12.3811],[102.517,12.3825],[102.5181,12.383],[102.5178,12.3841],[102.5192,12.3852],[102.5191,12.386],[102.5175,12.3863],[102.5169,12.3857],[102.5158,12.3857],[102.5147,12.3862]],[[102.5167,12.3852],[102.5178,12.3854],[102.5178,12.3852],[102.5167,12.3852]],[[102.5181,12.3849],[102.5183,12.3852],[102.5183,12.3849],[102.5181,12.3849]],[[102.517,12.3843],[102.5172,12.3846],[102.5172,12.3844],[102.517,12.3843]],[[102.517,12.383],[102.5172,12.3835],[102.5172,12.383],[102.517,12.383]]]}},{"type":"Feature","properties":{"kind":"seasonal","area_km2":0.117,"date":"2026-10-04"},"geometry":{"type":"Polygon","coordinates":[[[102.4178,12.6236],[102.4178,12.6214],[102.4162,12.6219],[102.4159,12.6203],[102.417,12.62],[102.4176,12.6192],[102.4187,12.6192],[102.4189,12.6201],[102.42,12.6206],[102.42,12.6211],[102.4195,12.6214],[102.4186,12.6236],[102.4178,12.6236]]]}},{"type":"Feature","properties":{"kind":"seasonal","area_km2":0.116,"date":"2026-10-04"},"geometry":{"type":"Polygon","coordinates":[[[102.1552,12.6919],[102.1549,12.6908],[102.1554,12.6908],[102.1555,12.6903],[102.1549,12.6897],[102.1538,12.6897],[102.1535,12.6889],[102.1552,12.6892],[102.1563,12.6903],[102.1571,12.6897],[102.1569,12.6878],[102.1544,12.6886],[102.1535,12.6886],[102.1535,12.6881],[102.1552,12.6876],[102.156,12.6868],[102.1561,12.6862],[102.1569,12.6862],[102.1569,12.6868],[102.1574,12.687],[102.1574,12.6914],[102.1563,12.6911],[102.156,12.6919],[102.1552,12.6919]]]}},{"type":"Feature","properties":{"kind":"seasonal","area_km2":0.116,"date":"2026-10-04"},"geometry":{"type":"Polygon","coordinates":[[[102.0847,12.5998],[102.0839,12.599],[102.0842,12.5974],[102.0831,12.5965],[102.0831,12.5955],[102.0842,12.5955],[102.0842,12.596],[102.0853,12.5966],[102.0872,12.5966],[102.0869,12.5985],[102.0864,12.5987],[102.0861,12.5998],[102.0847,12.5998]],[[102.085,12.5985],[102.0858,12.5987],[102.0858,12.5985],[102.085,12.5985]],[[102.0845,12.5976],[102.0859,12.5971],[102.0859,12.5968],[102.0845,12.5968],[102.0845,12.5976]]]}},{"type":"Feature","properties":{"kind":"seasonal","area_km2":0.112,"date":"2026-10-04"},"geometry":{"type":"Polygon","coordinates":[[[102.3234,12.4359],[102.3229,12.4348],[102.3218,12.4343],[102.3218,12.4332],[102.3232,12.4329],[102.3229,12.4321],[102.3243,12.4321],[102.3248,12.4337],[102.3254,12.434],[102.3254,12.4351],[102.3248,12.4359],[102.3234,12.4359]]]}},{"type":"Feature","properties":{"kind":"seasonal","area_km2":0.103,"date":"2026-10-04"},"geometry":{"type":"Polygon","coordinates":[[[102.323,12.4478],[102.323,12.4473],[102.3222,12.447],[102.3217,12.4462],[102.3217,12.4451],[102.3231,12.4443],[102.3225,12.4438],[102.3225,12.4429],[102.3236,12.443],[102.3244,12.444],[102.3244,12.4454],[102.3233,12.4467],[102.3241,12.447],[102.3241,12.4478],[102.323,12.4478]]]}},{"type":"Feature","properties":{"kind":"seasonal","area_km2":0.102,"date":"2026-10-04"},"geometry":{"type":"Polygon","coordinates":[[[102.3305,12.4449],[102.3303,12.4408],[102.3308,12.4406],[102.3308,12.4392],[102.3317,12.4392],[102.3325,12.4403],[102.3325,12.4417],[102.3313,12.4428],[102.3313,12.4449],[102.3305,12.4449]]]}}]}
