{"type":"FeatureCollection","properties":{"v":3,"id":"t102_6","name":"นราธิวาส","aoi":[102.0,6.0208,102.093,6.3369],"date":"2026-10-09","dates":["2026-10-09"],"baseline_years":3,"has_seasonal":false,"totals":{"flood_high":0.0,"flood_low":0.1,"seasonal":0.0},"provinces":[{"name":"นราธิวาส","zone":"th-s","flood_high":0.0,"flood_low":0.1,"seasonal":0.0}],"scenes":{"2026-10-09":1},"baseline_dates":["2025-10-07","2024-10-06","2023-10-06"],"threshold_db":-15.0,"auto":true,"source":"Sentinel-1 RTC (Copernicus/ESA) via Microsoft Planetary Computer; JRC Global Surface Water; Copernicus DEM","method":"ChatGeo v3: Otsu threshold on VV dB; minus JRC permanent water and slope > 5 deg; unusual = water not present in most of the previous 3 years (same season)","added":"2026-10-10T16:37+07:00"},"features":[{"type":"Feature","properties":{"kind":"flood","area_km2":0.055,"conf":"low","date":"2026-10-09"},"geometry":{"type":"Polygon","coordinates":[[[102.0054,6.0591],[102.0052,6.0574],[102.009,6.0577],[102.009,6.0586],[102.0054,6.0591]]]}}]}
