{"type":"FeatureCollection","properties":{"v":3,"id":"t102_18","name":"หนองคาย · อุดรธานี · เลย","aoi":[102.0,18.0,103.0,18.234],"date":"2026-10-08","dates":["2026-10-08"],"baseline_years":3,"has_seasonal":true,"totals":{"flood_high":0.0,"flood_low":0.0,"seasonal":6.4},"provinces":[{"name":"หนองคาย","zone":"th-ne","flood_high":0.0,"flood_low":0.0,"seasonal":3.9},{"name":"เลย","zone":"th-ne","flood_high":0.0,"flood_low":0.0,"seasonal":2.3}],"scenes":{"2026-10-08":1},"baseline_dates":["2025-10-09","2024-10-07","2023-10-10"],"threshold_db":-15.0,"auto":true,"source":"Sentinel-1 RTC (Copernicus/ESA) via Microsoft Planetary Computer; JRC Global Surface Water; Copernicus DEM","method":"ChatGeo v3: Otsu threshold on VV dB; minus JRC permanent water and slope > 5 deg; unusual = water not present in most of the previous 3 years (same season)","added":"2026-10-10T03:24+07:00"},"features":[{"type":"Feature","properties":{"kind":"seasonal","area_km2":0.67,"date":"2026-10-08"},"geometry":{"type":"Polygon","coordinates":[[[102.0231,18.1503],[102.0231,18.1498],[102.0211,18.1495],[102.0209,18.1487],[102.0197,18.1487],[102.0189,18.1478],[102.0183,18.1478],[102.0175,18.147],[102.0175,18.1465],[102.0141,18.1437],[102.0133,18.1421],[102.0102,18.142],[102.0105,18.1404],[102.0116,18.1404],[102.0122,18.1415],[102.0128,18.1415],[102.0128,18.141],[102.0119,18.1402],[102.0114,18.1401],[102.0117,18.1388],[102.0111,18.1382],[102.0097,18.1379],[102.0097,18.1374],[102.0089,18.1374],[102.0089,18.1379],[102.01,18.1382],[102.0105,18.1399],[102.0102,18.1404],[102.0094,18.1404],[102.0091,18.1415],[102.0091,18.1406],[102.0085,18.1401],[102.0094,18.1401],[102.0097,18.139],[102.0074,18.1393],[102.0074,18.1385],[102.0069,18.1384],[102.0069,18.1376],[102.0063,18.1376],[102.0061,18.1357],[102.0066,18.1355],[102.0066,18.1344],[102.0084,18.1341],[102.0109,18.1366],[102.0114,18.1366],[102.012,18.1377],[102.0125,18.1377],[102.0125,18.1383],[102.0142,18.1383],[102.0145,18.1394],[102.0151,18.1397],[102.0153,18.1413],[102.0159,18.1413],[102.0164,18.1421],[102.0181,18.1424],[102.0181,18.1438],[102.0175,18.1438],[102.0175,18.1443],[102.0189,18.1443],[102.0189,18.1459],[102.0198,18.1465],[102.0215,18.1463],[102.0212,18.1479],[102.0223,18.1492],[102.0234,18.1495],[102.0231,18.1503]],[[102.0156,18.1432],[102.0161,18.1432],[102.0161,18.1427],[102.0159,18.1426],[102.0156,18.1432]],[[102.0083,18.1371],[102.0089,18.1371],[102.0089,18.1363],[102.0083,18.1363],[102.0083,18.1371]],[[102.0089,18.1363],[102.0097,18.1361],[102.0097,18.1358],[102.0089,18.1358],[102.0089,18.1363]]]}},{"type":"Feature","properties":{"kind":"seasonal","area_km2":0.583,"date":"2026-10-08"},"geometry":{"type":"Polygon","coordinates":[[[102.2748,18.0704],[102.2754,18.0677],[102.276,18.0677],[102.276,18.0671],[102.2771,18.0666],[102.2777,18.0653],[102.2789,18.0645],[102.2789,18.0637],[102.2809,18.0626],[102.2815,18.0615],[102.2829,18.0613],[102.2823,18.0618],[102.2832,18.0618],[102.2854,18.0605],[102.2863,18.0608],[102.2871,18.06],[102.2888,18.0597],[102.2889,18.0592],[102.2911,18.0592],[102.2914,18.06],[102.2894,18.0603],[102.2886,18.0605],[102.2883,18.0613],[102.2871,18.0613],[102.2871,18.063],[102.2851,18.064],[102.2851,18.0646],[102.2845,18.0645],[102.2851,18.0637],[102.2848,18.0627],[102.2845,18.064],[102.2842,18.0645],[102.2837,18.0645],[102.2831,18.0662],[102.2822,18.0659],[102.2811,18.0669],[102.28,18.0672],[102.2799,18.0677],[102.2785,18.0693],[102.2768,18.0696],[102.2768,18.0701],[102.2759,18.0704],[102.2748,18.0704]],[[102.2857,18.0613],[102.2863,18.0616],[102.2863,18.0613],[102.2857,18.0613]]]}},{"type":"Feature","properties":{"kind":"seasonal","area_km2":0.447,"date":"2026-10-08"},"geometry":{"type":"Polygon","coordinates":[[[102.1685,18.2005],[102.1685,18.1997],[102.1674,18.1999],[102.1674,18.1983],[102.1668,18.1994],[102.1665,18.1986],[102.166,18.1986],[102.1663,18.1961],[102.1669,18.1961],[102.1669,18.194],[102.1675,18.1937],[102.1672,18.1932],[102.1678,18.1929],[102.1681,18.1913],[102.1689,18.1916],[102.1692,18.191],[102.169,18.1891],[102.1698,18.1883],[102.1704,18.1859],[102.1713,18.1856],[102.1706,18.1905],[102.1703,18.1905],[102.1698,18.191],[102.17,18.1918],[102.1695,18.1918],[102.1697,18.1943],[102.1691,18.1954],[102.1677,18.1956],[102.1677,18.1967],[102.1683,18.1956],[102.1688,18.1964],[102.1682,18.198],[102.1685,18.1994],[102.1708,18.1989],[102.1708,18.1984],[102.1728,18.197],[102.174,18.1938],[102.174,18.1895],[102.1746,18.1878],[102.1758,18.1881],[102.1757,18.1914],[102.1749,18.1914],[102.1745,18.1943],[102.174,18.1949],[102.1722,18.1997],[102.1716,18.1997],[102.1713,18.2003],[102.1685,18.2005]],[[102.1677,18.1989],[102.1679,18.1994],[102.1679,18.1989],[102.1677,18.1989]],[[102.1674,18.1975],[102.1677,18.198],[102.1677,18.1967],[102.1671,18.1967],[102.1668,18.1972],[102.1674,18.1975]],[[102.1683,18.1948],[102.1689,18.1951],[102.1689,18.1948],[102.1683,18.1948]],[[102.1689,18.1929],[102.1692,18.1935],[102.1692,18.1929],[102.1689,18.1929]],[[102.1692,18.1924],[102.1695,18.1926],[102.1695,18.1924],[102.1692,18.1924]],[[102.1701,18.1902],[102.1703,18.1905],[102.1703,18.1902],[102.1701,18.1902]]]}},{"type":"Feature","properties":{"kind":"seasonal","area_km2":0.367,"date":"2026-10-08"},"geometry":{"type":"Polygon","coordinates":[[[102.2914,18.0568],[102.2906,18.0562],[102.2906,18.0551],[102.2915,18.0541],[102.2926,18.0536],[102.2938,18.0536],[102.2963,18.0528],[102.2963,18.0522],[102.298,18.0523],[102.2992,18.0515],[102.3006,18.0512],[102.3017,18.0512],[102.3017,18.0518],[102.3043,18.0515],[102.304,18.0521],[102.3031,18.0521],[102.3028,18.0529],[102.3011,18.0531],[102.3005,18.0539],[102.298,18.0544],[102.2968,18.0555],[102.2949,18.0558],[102.2946,18.0566],[102.2914,18.0568]]]}},{"type":"Feature","properties":{"kind":"seasonal","area_km2":0.362,"date":"2026-10-08"},"geometry":{"type":"Polygon","coordinates":[[[102.3046,18.051],[102.3048,18.0505],[102.3043,18.0497],[102.3043,18.0483],[102.3063,18.0478],[102.3063,18.0486],[102.3071,18.0494],[102.3077,18.0494],[102.3077,18.0489],[102.3071,18.0486],[102.3072,18.0475],[102.312,18.0473],[102.3122,18.0481],[102.3125,18.0476],[102.314,18.0473],[102.3151,18.0479],[102.3199,18.0482],[102.3199,18.0485],[102.3148,18.0493],[102.3148,18.0495],[102.3111,18.05],[102.3111,18.0503],[102.31,18.0503],[102.3099,18.0505],[102.3046,18.051]],[[102.3083,18.05],[102.31,18.0503],[102.31,18.0497],[102.3083,18.05]],[[102.3108,18.0489],[102.3114,18.0492],[102.3114,18.0489],[102.3108,18.0489]]]}},{"type":"Feature","properties":{"kind":"seasonal","area_km2":0.333,"date":"2026-10-08"},"geometry":{"type":"Polygon","coordinates":[[[102.2541,18.089],[102.2544,18.0874],[102.2559,18.0861],[102.2559,18.085],[102.257,18.0837],[102.2574,18.0818],[102.2579,18.0812],[102.2593,18.081],[102.2602,18.0796],[102.2616,18.0794],[102.2628,18.0783],[102.2634,18.0783],[102.2634,18.0778],[102.2645,18.077],[102.2645,18.0762],[102.2668,18.0754],[102.2671,18.0762],[102.2662,18.0759],[102.2651,18.0767],[102.265,18.0786],[102.2645,18.0786],[102.2645,18.0781],[102.2639,18.0778],[102.2633,18.0789],[102.2628,18.0789],[102.2596,18.0821],[102.2585,18.0826],[102.2585,18.0834],[102.2599,18.0834],[102.261,18.0829],[102.2601,18.0853],[102.2593,18.0861],[102.2581,18.0864],[102.2581,18.0872],[102.2573,18.0875],[102.2561,18.0888],[102.2541,18.089]],[[102.257,18.0856],[102.2579,18.0856],[102.2582,18.0848],[102.2573,18.0845],[102.2567,18.085],[102.257,18.0856]]]}},{"type":"Feature","properties":{"kind":"seasonal","area_km2":0.323,"date":"2026-10-08"},"geometry":{"type":"Polygon","coordinates":[[[102.0369,18.1717],[102.0363,18.1711],[102.0361,18.1668],[102.035,18.1641],[102.0354,18.1625],[102.0351,18.1614],[102.0345,18.1611],[102.034,18.1589],[102.034,18.1578],[102.0346,18.157],[102.0343,18.1557],[102.0355,18.1557],[102.0357,18.1568],[102.0369,18.1573],[102.0368,18.1595],[102.0357,18.1603],[102.0357,18.1611],[102.0362,18.1611],[102.0362,18.1606],[102.0371,18.1606],[102.0371,18.1614],[102.0379,18.1625],[102.0379,18.1633],[102.0373,18.1638],[102.0362,18.1638],[102.0362,18.1644],[102.0373,18.1644],[102.0376,18.1649],[102.037,18.1665],[102.0378,18.1695],[102.0369,18.1717]],[[102.0351,18.1592],[102.0357,18.1592],[102.0357,18.1584],[102.0351,18.1587],[102.0351,18.1592]]]}},{"type":"Feature","properties":{"kind":"seasonal","area_km2":0.298,"date":"2026-10-08"},"geometry":{"type":"Polygon","coordinates":[[[102.1714,18.1764],[102.1714,18.1753],[102.1726,18.1751],[102.1714,18.1748],[102.1715,18.1721],[102.1721,18.1716],[102.1721,18.1702],[102.1727,18.1699],[102.1727,18.1691],[102.1735,18.1697],[102.1735,18.1702],[102.1729,18.1702],[102.1732,18.1713],[102.1726,18.1713],[102.1726,18.1721],[102.1732,18.1721],[102.1732,18.1716],[102.1738,18.1716],[102.1738,18.1705],[102.1744,18.1702],[102.1738,18.1678],[102.1764,18.1678],[102.1761,18.1659],[102.1773,18.1657],[102.1773,18.1651],[102.1778,18.1649],[102.1779,18.1643],[102.177,18.1643],[102.177,18.1635],[102.1787,18.1616],[102.1787,18.1622],[102.1793,18.1622],[102.1793,18.1633],[102.1787,18.1633],[102.1781,18.1646],[102.1781,18.1662],[102.1772,18.1678],[102.1769,18.1703],[102.1766,18.1697],[102.1761,18.1697],[102.1761,18.1705],[102.1766,18.1705],[102.1766,18.1711],[102.1749,18.1716],[102.1743,18.1708],[102.1741,18.1716],[102.1746,18.1716],[102.1746,18.1721],[102.1726,18.1724],[102.1732,18.1729],[102.1726,18.1743],[102.1729,18.1756],[102.1717,18.1759],[102.1714,18.1764]],[[102.1749,18.1694],[102.1758,18.1697],[102.1758,18.1694],[102.1749,18.1694]]]}},{"type":"Feature","properties":{"kind":"seasonal","area_km2":0.296,"date":"2026-10-08"},"geometry":{"type":"Polygon","coordinates":[[[102.11,18.2094],[102.11,18.2088],[102.1094,18.2088],[102.1088,18.208],[102.1089,18.2066],[102.1137,18.2064],[102.1145,18.2073],[102.1148,18.2084],[102.1154,18.2078],[102.1148,18.2075],[102.1148,18.2065],[102.1154,18.2062],[102.1165,18.2062],[102.1168,18.2068],[102.1185,18.2068],[102.1185,18.206],[102.1205,18.206],[102.1225,18.2071],[102.1222,18.2077],[102.11,18.2094]],[[102.1134,18.2083],[102.1136,18.2086],[102.1137,18.2083],[102.1134,18.2083]],[[102.1131,18.2078],[102.1134,18.2083],[102.1134,18.2078],[102.1131,18.2078]],[[102.1114,18.2075],[102.112,18.2078],[102.112,18.2075],[102.1114,18.2075]]]}},{"type":"Feature","properties":{"kind":"seasonal","area_km2":0.29,"date":"2026-10-08"},"geometry":{"type":"Polygon","coordinates":[[[102.0256,18.1553],[102.0247,18.1542],[102.0222,18.1541],[102.0197,18.1522],[102.0185,18.1519],[102.016,18.1492],[102.0149,18.1486],[102.0149,18.1478],[102.0158,18.1486],[102.0166,18.1486],[102.0166,18.1478],[102.0175,18.1478],[102.0186,18.1484],[102.0191,18.1495],[102.0234,18.1509],[102.0239,18.1517],[102.0225,18.1528],[102.0247,18.1531],[102.0247,18.1539],[102.0253,18.1539],[102.0261,18.155],[102.0256,18.1553]]]}},{"type":"Feature","properties":{"kind":"seasonal","area_km2":0.278,"date":"2026-10-08"},"geometry":{"type":"Polygon","coordinates":[[[102.1781,18.1846],[102.1778,18.1836],[102.177,18.1833],[102.1778,18.1833],[102.1779,18.18],[102.1785,18.1795],[102.1779,18.1762],[102.1785,18.1741],[102.1777,18.1743],[102.1777,18.176],[102.1765,18.1749],[102.1766,18.1743],[102.1768,18.1738],[102.1783,18.1735],[102.1783,18.173],[102.1774,18.173],[102.1774,18.1735],[102.1769,18.1733],[102.1769,18.1724],[102.1774,18.1719],[102.1783,18.1722],[102.1785,18.1738],[102.1794,18.1738],[102.1797,18.1717],[102.1792,18.1717],[102.1794,18.1711],[102.1783,18.1703],[102.1786,18.1681],[102.1792,18.1681],[102.1798,18.1671],[102.1798,18.1652],[102.1804,18.1652],[102.1804,18.1657],[102.1809,18.166],[102.1809,18.1682],[102.1801,18.1684],[102.1806,18.1695],[102.1806,18.1714],[102.18,18.1747],[102.1791,18.1746],[102.1791,18.1757],[102.1797,18.1757],[102.1796,18.1765],[102.1791,18.1765],[102.179,18.1792],[102.1784,18.1817],[102.1787,18.1836],[102.1781,18.1846]],[[102.1797,18.1711],[102.18,18.1717],[102.18,18.1711],[102.1797,18.1711]],[[102.1789,18.1689],[102.1795,18.1692],[102.1795,18.169],[102.1789,18.1689]]]}},{"type":"Feature","properties":{"kind":"seasonal","area_km2":0.248,"date":"2026-10-08"},"geometry":{"type":"Polygon","coordinates":[[[102.0315,18.1564],[102.0315,18.1559],[102.0309,18.1559],[102.0298,18.1548],[102.0298,18.1542],[102.029,18.1542],[102.0287,18.1534],[102.0279,18.1531],[102.0279,18.1518],[102.0285,18.1518],[102.0287,18.151],[102.0276,18.1512],[102.0276,18.1501],[102.0265,18.1499],[102.0293,18.1499],[102.0299,18.1507],[102.0305,18.1507],[102.0304,18.1513],[102.0316,18.1516],[102.0335,18.1532],[102.0335,18.1559],[102.0321,18.1556],[102.0315,18.1564]],[[102.029,18.1537],[102.0298,18.1534],[102.0299,18.1526],[102.0293,18.1526],[102.029,18.1537]]]}},{"type":"Feature","properties":{"kind":"seasonal","area_km2":0.23,"date":"2026-10-08"},"geometry":{"type":"Polygon","coordinates":[[[102.0047,18.1352],[102.0044,18.1338],[102.0035,18.1341],[102.003,18.1338],[102.003,18.1332],[102.0024,18.1332],[102.0024,18.1319],[102.0013,18.1308],[102.0016,18.1302],[102.0002,18.1297],[102.0003,18.1259],[102.0017,18.127],[102.0017,18.1278],[102.0028,18.1286],[102.003,18.1297],[102.0044,18.1308],[102.0044,18.1316],[102.0056,18.1317],[102.0058,18.1322],[102.0064,18.1322],[102.0061,18.1344],[102.0055,18.1346],[102.0055,18.1352],[102.0047,18.1352]],[[102.0047,18.133],[102.005,18.1335],[102.005,18.133],[102.0047,18.133]],[[102.0036,18.1327],[102.0047,18.1327],[102.0047,18.1319],[102.0033,18.1316],[102.0036,18.1327]]]}},{"type":"Feature","properties":{"kind":"seasonal","area_km2":0.228,"date":"2026-10-08"},"geometry":{"type":"Polygon","coordinates":[[[102.2159,18.1226],[102.2159,18.1221],[102.2165,18.1218],[102.2188,18.1181],[102.2214,18.1157],[102.2226,18.1138],[102.224,18.1124],[102.2251,18.1125],[102.2251,18.1133],[102.2246,18.1133],[102.2251,18.1144],[102.2231,18.1157],[102.2225,18.1173],[102.2214,18.1181],[102.2214,18.1186],[102.2202,18.1189],[102.2185,18.1208],[102.2179,18.1208],[102.2176,18.1221],[102.2159,18.1226]]]}},{"type":"Feature","properties":{"kind":"seasonal","area_km2":0.208,"date":"2026-10-08"},"geometry":{"type":"Polygon","coordinates":[[[102.1866,18.1509],[102.1849,18.1509],[102.1846,18.1501],[102.1849,18.1495],[102.1857,18.1495],[102.1854,18.1501],[102.186,18.1501],[102.1863,18.1482],[102.188,18.1474],[102.188,18.1469],[102.1912,18.1466],[102.1918,18.1456],[102.192,18.1461],[102.1932,18.1461],[102.1931,18.1469],[102.192,18.1469],[102.1923,18.1491],[102.1917,18.1496],[102.1886,18.1499],[102.1886,18.149],[102.188,18.149],[102.1875,18.1482],[102.1866,18.1509]],[[102.1894,18.1488],[102.19,18.1488],[102.1897,18.1477],[102.1895,18.1477],[102.1894,18.1488]]]}},{"type":"Feature","properties":{"kind":"seasonal","area_km2":0.207,"date":"2026-10-08"},"geometry":{"type":"Polygon","coordinates":[[[102.0314,18.1602],[102.0314,18.1597],[102.0303,18.1597],[102.0295,18.1588],[102.0295,18.1583],[102.0301,18.1578],[102.0289,18.1559],[102.0286,18.1569],[102.0275,18.1569],[102.027,18.1561],[102.0264,18.1561],[102.0264,18.1555],[102.027,18.1556],[102.0284,18.1567],[102.0284,18.1556],[102.0275,18.155],[102.0278,18.1545],[102.0264,18.1545],[102.0256,18.1536],[102.0256,18.1526],[102.0262,18.1517],[102.0273,18.1518],[102.0281,18.1539],[102.029,18.1548],[102.0295,18.1548],[102.0301,18.1559],[102.0309,18.1559],[102.0309,18.1564],[102.0315,18.1567],[102.0306,18.1572],[102.0318,18.1573],[102.0317,18.1581],[102.0323,18.1581],[102.0323,18.1589],[102.0331,18.1594],[102.0331,18.16],[102.0314,18.1602]],[[102.0306,18.1589],[102.0309,18.1591],[102.0309,18.1589],[102.0306,18.1589]],[[102.0317,18.1589],[102.0323,18.1592],[102.0323,18.1589],[102.0317,18.1589]],[[102.03,18.1588],[102.0306,18.1589],[102.0306,18.1583],[102.0298,18.1583],[102.03,18.1588]]]}},{"type":"Feature","properties":{"kind":"seasonal","area_km2":0.167,"date":"2026-10-08"},"geometry":{"type":"Polygon","coordinates":[[[102.9617,18.0019],[102.962,18.0013],[102.9686,18.0001],[102.9689,17.9995],[102.9765,17.9996],[102.9751,18.0004],[102.9734,18.0004],[102.9734,18.0009],[102.9657,18.0011],[102.9651,18.0016],[102.9617,18.0019]]]}},{"type":"Feature","properties":{"kind":"seasonal","area_km2":0.131,"date":"2026-10-08"},"geometry":{"type":"Polygon","coordinates":[[[102.1747,18.1832],[102.1745,18.1816],[102.1747,18.1811],[102.175,18.1816],[102.1759,18.1816],[102.1759,18.1806],[102.1748,18.1803],[102.1748,18.1786],[102.1742,18.1786],[102.1742,18.1778],[102.1737,18.1775],[102.1751,18.1778],[102.1751,18.1767],[102.1757,18.1765],[102.1757,18.1759],[102.1774,18.1762],[102.1773,18.1781],[102.1768,18.1781],[102.177,18.1789],[102.1759,18.1797],[102.1761,18.1822],[102.1747,18.1832]]]}},{"type":"Feature","properties":{"kind":"seasonal","area_km2":0.126,"date":"2026-10-08"},"geometry":{"type":"Polygon","coordinates":[[[102.0096,18.1439],[102.0093,18.1431],[102.0082,18.1425],[102.0043,18.1387],[102.0043,18.1379],[102.0052,18.1379],[102.0054,18.1384],[102.0066,18.1379],[102.0068,18.1393],[102.0088,18.1409],[102.0096,18.1426],[102.011,18.1431],[102.011,18.1439],[102.0096,18.1439]]]}},{"type":"Feature","properties":{"kind":"seasonal","area_km2":0.125,"date":"2026-10-08"},"geometry":{"type":"Polygon","coordinates":[[[101.9994,18.1297],[101.9977,18.1291],[101.9981,18.1234],[101.9989,18.1234],[101.9989,18.124],[101.9995,18.124],[101.9994,18.1297]],[[101.9989,18.1261],[101.9991,18.1267],[101.9991,18.1261],[101.9989,18.1261]]]}},{"type":"Feature","properties":{"kind":"seasonal","area_km2":0.117,"date":"2026-10-08"},"geometry":{"type":"Polygon","coordinates":[[[102.0155,18.1481],[102.0152,18.1464],[102.0141,18.1467],[102.0141,18.1461],[102.0135,18.1461],[102.0146,18.1478],[102.0141,18.1478],[102.0127,18.1464],[102.0118,18.1464],[102.0116,18.1453],[102.0124,18.1453],[102.0127,18.1429],[102.0133,18.1429],[102.0133,18.1437],[102.0139,18.1437],[102.0138,18.1445],[102.0147,18.1453],[102.0164,18.1462],[102.0166,18.1478],[102.0155,18.1481]],[[102.0141,18.1453],[102.0144,18.1456],[102.0144,18.1453],[102.0141,18.1453]]]}},{"type":"Feature","properties":{"kind":"seasonal","area_km2":0.111,"date":"2026-10-08"},"geometry":{"type":"Polygon","coordinates":[[[102.3213,18.048],[102.3222,18.0475],[102.3162,18.0477],[102.3154,18.0471],[102.3233,18.0469],[102.3239,18.0464],[102.3287,18.0465],[102.3213,18.048]]]}},{"type":"Feature","properties":{"kind":"seasonal","area_km2":0.108,"date":"2026-10-08"},"geometry":{"type":"Polygon","coordinates":[[[102.196,18.1462],[102.1963,18.1448],[102.1969,18.1448],[102.1969,18.144],[102.1975,18.1435],[102.1975,18.1419],[102.1966,18.1418],[102.1966,18.1413],[102.1978,18.1416],[102.1978,18.1408],[102.1986,18.14],[102.1986,18.1405],[102.1995,18.1411],[102.1986,18.1419],[102.198,18.1419],[102.198,18.1427],[102.1986,18.1432],[102.1992,18.143],[102.202,18.1433],[102.2014,18.1438],[102.2,18.1438],[102.2,18.1443],[102.1989,18.1446],[102.198,18.1443],[102.1983,18.1438],[102.198,18.1432],[102.1977,18.1448],[102.1971,18.1451],[102.1968,18.1462],[102.196,18.1462]],[[102.1966,18.1451],[102.1969,18.1454],[102.1969,18.1451],[102.1966,18.1451]]]}},{"type":"Feature","properties":{"kind":"seasonal","area_km2":0.106,"date":"2026-10-08"},"geometry":{"type":"Polygon","coordinates":[[[102.3978,18.0079],[102.3981,18.0057],[102.3993,18.0046],[102.3998,18.0046],[102.3998,18.0038],[102.4004,18.0038],[102.4024,18.0017],[102.4041,18.0014],[102.4041,18.002],[102.3978,18.0079]]]}}]}
