{"type":"FeatureCollection","properties":{"v":3,"id":"t102_17","name":"อุดรธานี · หนองบัวลำภู · หนองคาย","aoi":[102.0,17.0,103.0,18.0],"date":"2026-10-08","dates":["2026-10-08"],"baseline_years":3,"has_seasonal":true,"totals":{"flood_high":0.0,"flood_low":2.4,"seasonal":29.4},"provinces":[{"name":"หนองคาย","zone":"th-ne","flood_high":0.0,"flood_low":1.6,"seasonal":13.9},{"name":"อุดรธานี","zone":"th-ne","flood_high":0.0,"flood_low":0.9,"seasonal":11.9},{"name":"หนองบัวลำภู","zone":"th-ne","flood_high":0.0,"flood_low":0.0,"seasonal":1.2},{"name":"เลย","zone":"th-ne","flood_high":0.0,"flood_low":0.0,"seasonal":1.1}],"scenes":{"2026-10-08":1},"baseline_dates":["2025-10-09","2024-10-07","2023-10-10"],"threshold_db":-15.0,"auto":true,"source":"Sentinel-1 RTC (Copernicus/ESA) via Microsoft Planetary Computer; JRC Global Surface Water; Copernicus DEM","method":"ChatGeo v3: Otsu threshold on VV dB; minus JRC permanent water and slope > 5 deg; unusual = water not present in most of the previous 3 years (same season)","added":"2026-10-10T03:24+07:00"},"features":[{"type":"Feature","properties":{"kind":"flood","area_km2":0.283,"conf":"low","date":"2026-10-08"},"geometry":{"type":"Polygon","coordinates":[[[102.6355,17.7895],[102.6344,17.786],[102.6347,17.7819],[102.6367,17.7806],[102.6367,17.7811],[102.6373,17.7814],[102.6364,17.7817],[102.6361,17.7836],[102.6375,17.7836],[102.6375,17.7847],[102.6386,17.7852],[102.6389,17.7879],[102.6377,17.7885],[102.6374,17.7895],[102.6355,17.7895]]]}},{"type":"Feature","properties":{"kind":"flood","area_km2":0.232,"conf":"low","date":"2026-10-08"},"geometry":{"type":"Polygon","coordinates":[[[102.5609,17.3578],[102.5581,17.3564],[102.557,17.3566],[102.5564,17.3574],[102.5553,17.3574],[102.555,17.3558],[102.5514,17.3555],[102.5514,17.3544],[102.5531,17.3544],[102.5536,17.3539],[102.557,17.3539],[102.559,17.3558],[102.5618,17.3561],[102.5624,17.3564],[102.5623,17.357],[102.5629,17.357],[102.5618,17.3578],[102.5609,17.3578]]]}},{"type":"Feature","properties":{"kind":"flood","area_km2":0.222,"conf":"low","date":"2026-10-08"},"geometry":{"type":"Polygon","coordinates":[[[102.9591,17.959],[102.9589,17.9577],[102.958,17.9577],[102.958,17.9571],[102.9589,17.9571],[102.9586,17.9533],[102.958,17.9544],[102.958,17.956],[102.9575,17.956],[102.9574,17.9568],[102.9569,17.9574],[102.9574,17.9585],[102.956,17.9587],[102.956,17.9579],[102.9569,17.9571],[102.9566,17.9555],[102.9572,17.9549],[102.9566,17.9525],[102.9584,17.9512],[102.9584,17.9506],[102.9601,17.9509],[102.9612,17.9504],[102.9612,17.9498],[102.9623,17.9498],[102.9618,17.9512],[102.9592,17.9512],[102.9589,17.9517],[102.9589,17.9536],[102.9592,17.9544],[102.9597,17.9544],[102.9592,17.9555],[102.9597,17.9563],[102.9608,17.9569],[102.9608,17.9585],[102.9591,17.959]]]}},{"type":"Feature","properties":{"kind":"flood","area_km2":0.19,"conf":"low","date":"2026-10-08"},"geometry":{"type":"Polygon","coordinates":[[[102.5958,17.9177],[102.5944,17.9164],[102.5944,17.9158],[102.5939,17.9158],[102.5939,17.9153],[102.593,17.9147],[102.5922,17.9128],[102.5891,17.9098],[102.5894,17.9087],[102.5906,17.9087],[102.5911,17.9093],[102.5911,17.9101],[102.5928,17.9115],[102.5928,17.9123],[102.5936,17.9131],[102.5942,17.9131],[102.5942,17.9137],[102.5953,17.9145],[102.5959,17.9156],[102.5967,17.9159],[102.597,17.9175],[102.5958,17.9177]]]}},{"type":"Feature","properties":{"kind":"flood","area_km2":0.16,"conf":"low","date":"2026-10-08"},"geometry":{"type":"Polygon","coordinates":[[[102.7599,17.7677],[102.7599,17.7669],[102.7594,17.7669],[102.7594,17.7639],[102.76,17.7633],[102.7599,17.7647],[102.7605,17.765],[102.7611,17.7647],[102.7611,17.7642],[102.7622,17.7645],[102.7622,17.7634],[102.7617,17.7639],[102.762,17.762],[102.7625,17.7609],[102.7634,17.7609],[102.7634,17.7623],[102.7628,17.7634],[102.7631,17.7653],[102.7619,17.7655],[102.7619,17.7661],[102.7625,17.7661],[102.7625,17.7672],[102.7622,17.7677],[102.7599,17.7677]]]}},{"type":"Feature","properties":{"kind":"flood","area_km2":0.141,"conf":"low","date":"2026-10-08"},"geometry":{"type":"Polygon","coordinates":[[[102.599,17.3176],[102.5979,17.3159],[102.5979,17.3143],[102.5985,17.3135],[102.601,17.3138],[102.6012,17.3173],[102.599,17.3176]]]}},{"type":"Feature","properties":{"kind":"flood","area_km2":0.133,"conf":"low","date":"2026-10-08"},"geometry":{"type":"Polygon","coordinates":[[[102.727,17.3231],[102.7262,17.322],[102.7262,17.3212],[102.727,17.3207],[102.7276,17.3196],[102.7287,17.3191],[102.729,17.3177],[102.7299,17.3172],[102.7302,17.3161],[102.731,17.3161],[102.731,17.3169],[102.7316,17.3175],[102.7305,17.3175],[102.7302,17.3188],[102.729,17.3196],[102.7287,17.3204],[102.7282,17.3204],[102.7281,17.3215],[102.7295,17.3221],[102.7295,17.3226],[102.7284,17.3232],[102.727,17.3231]]]}},{"type":"Feature","properties":{"kind":"flood","area_km2":0.13,"conf":"low","date":"2026-10-08"},"geometry":{"type":"Polygon","coordinates":[[[102.6313,17.7805],[102.6308,17.78],[102.6308,17.7781],[102.6314,17.7778],[102.6314,17.777],[102.6325,17.7765],[102.6325,17.7757],[102.6337,17.7754],[102.6339,17.7787],[102.6328,17.7792],[102.633,17.7805],[102.6313,17.7805]]]}},{"type":"Feature","properties":{"kind":"flood","area_km2":0.09,"conf":"low","date":"2026-10-08"},"geometry":{"type":"Polygon","coordinates":[[[102.6759,17.7908],[102.6754,17.7886],[102.6762,17.7881],[102.6768,17.7868],[102.6779,17.7868],[102.6779,17.7862],[102.6796,17.7863],[102.6791,17.7871],[102.6782,17.7873],[102.6782,17.7881],[102.677,17.7889],[102.6773,17.7908],[102.6759,17.7908]]]}},{"type":"Feature","properties":{"kind":"flood","area_km2":0.09,"conf":"low","date":"2026-10-08"},"geometry":{"type":"Polygon","coordinates":[[[102.4364,17.3646],[102.437,17.3635],[102.4378,17.3638],[102.4375,17.3633],[102.4384,17.363],[102.4387,17.3619],[102.4396,17.3611],[102.4401,17.3611],[102.441,17.3603],[102.4398,17.3622],[102.4404,17.3625],[102.4404,17.3619],[102.4412,17.362],[102.4412,17.3611],[102.4421,17.3609],[102.4421,17.3601],[102.4427,17.3601],[102.4424,17.3617],[102.4415,17.3622],[102.4415,17.3628],[102.4409,17.3625],[102.4398,17.3641],[102.4392,17.3641],[102.4398,17.363],[102.439,17.363],[102.4381,17.3641],[102.4373,17.3641],[102.4375,17.3646],[102.4364,17.3646]],[[102.4395,17.3625],[102.4398,17.3628],[102.4398,17.3625],[102.4395,17.3625]],[[102.4393,17.3617],[102.4395,17.3619],[102.4395,17.3617],[102.4393,17.3617]]]}},{"type":"Feature","properties":{"kind":"flood","area_km2":0.089,"conf":"low","date":"2026-10-08"},"geometry":{"type":"Polygon","coordinates":[[[102.7197,17.8388],[102.7183,17.8379],[102.7183,17.8371],[102.7192,17.8363],[102.7197,17.8363],[102.7209,17.835],[102.7209,17.8358],[102.7217,17.8358],[102.7217,17.8374],[102.7205,17.8388],[102.7197,17.8388]]]}},{"type":"Feature","properties":{"kind":"flood","area_km2":0.084,"conf":"low","date":"2026-10-08"},"geometry":{"type":"Polygon","coordinates":[[[102.4749,17.8599],[102.4727,17.8596],[102.4727,17.8582],[102.4733,17.8577],[102.4741,17.8577],[102.4747,17.8569],[102.4764,17.8574],[102.4764,17.8583],[102.4752,17.859],[102.4749,17.8599]],[[102.4753,17.8574],[102.4755,17.8577],[102.4755,17.8574],[102.4753,17.8574]]]}},{"type":"Feature","properties":{"kind":"flood","area_km2":0.081,"conf":"low","date":"2026-10-08"},"geometry":{"type":"Polygon","coordinates":[[[102.8017,17.2814],[102.7986,17.2814],[102.7983,17.2808],[102.7972,17.2808],[102.7972,17.2797],[102.8017,17.2798],[102.8017,17.2814]],[[102.8,17.2806],[102.8014,17.2809],[102.8014,17.2806],[102.8,17.2806]]]}},{"type":"Feature","properties":{"kind":"flood","area_km2":0.08,"conf":"low","date":"2026-10-08"},"geometry":{"type":"Polygon","coordinates":[[[102.8937,17.889],[102.8957,17.8849],[102.898,17.8852],[102.8994,17.886],[102.9008,17.886],[102.9005,17.8866],[102.896,17.886],[102.8951,17.8873],[102.8951,17.8882],[102.8937,17.889]]]}},{"type":"Feature","properties":{"kind":"flood","area_km2":0.074,"conf":"low","date":"2026-10-08"},"geometry":{"type":"Polygon","coordinates":[[[102.5814,17.8103],[102.5815,17.8089],[102.582,17.8089],[102.582,17.8084],[102.5826,17.8081],[102.5834,17.8081],[102.5834,17.8087],[102.5854,17.809],[102.5851,17.81],[102.5814,17.8103]]]}},{"type":"Feature","properties":{"kind":"flood","area_km2":0.068,"conf":"low","date":"2026-10-08"},"geometry":{"type":"Polygon","coordinates":[[[102.4131,17.8152],[102.412,17.8138],[102.4131,17.8135],[102.4128,17.8108],[102.414,17.8111],[102.4154,17.8125],[102.4154,17.813],[102.4139,17.8133],[102.4139,17.8144],[102.4134,17.8143],[102.4131,17.8152]]]}},{"type":"Feature","properties":{"kind":"flood","area_km2":0.061,"conf":"low","date":"2026-10-08"},"geometry":{"type":"Polygon","coordinates":[[[102.9565,17.9628],[102.9563,17.9606],[102.9594,17.9604],[102.9594,17.962],[102.9571,17.962],[102.9565,17.9628]]]}},{"type":"Feature","properties":{"kind":"flood","area_km2":0.059,"conf":"low","date":"2026-10-08"},"geometry":{"type":"Polygon","coordinates":[[[102.6373,17.7768],[102.6365,17.7757],[102.6356,17.7757],[102.6357,17.7746],[102.6379,17.7744],[102.6379,17.7749],[102.6388,17.7755],[102.6387,17.7766],[102.6373,17.7768]]]}},{"type":"Feature","properties":{"kind":"flood","area_km2":0.057,"conf":"low","date":"2026-10-08"},"geometry":{"type":"Polygon","coordinates":[[[102.5522,17.8351],[102.5523,17.8343],[102.5517,17.834],[102.5486,17.8337],[102.5489,17.8326],[102.5509,17.8326],[102.5509,17.8335],[102.5523,17.8335],[102.5523,17.8321],[102.5514,17.8318],[102.5526,17.8316],[102.5522,17.8351]]]}},{"type":"Feature","properties":{"kind":"flood","area_km2":0.057,"conf":"low","date":"2026-10-08"},"geometry":{"type":"Polygon","coordinates":[[[102.5948,17.4183],[102.5932,17.4178],[102.5932,17.4172],[102.5926,17.417],[102.5935,17.4167],[102.594,17.4156],[102.5946,17.4156],[102.5954,17.4167],[102.5966,17.417],[102.5965,17.4175],[102.5951,17.4173],[102.5948,17.4183]]]}},{"type":"Feature","properties":{"kind":"flood","area_km2":0.056,"conf":"low","date":"2026-10-08"},"geometry":{"type":"Polygon","coordinates":[[[102.596,17.3704],[102.5952,17.3698],[102.596,17.3698],[102.5961,17.3674],[102.5975,17.3674],[102.5983,17.3682],[102.598,17.3699],[102.5975,17.3696],[102.5972,17.3685],[102.5966,17.3688],[102.5972,17.3699],[102.596,17.3704]]]}},{"type":"Feature","properties":{"kind":"seasonal","area_km2":3.895,"date":"2026-10-08"},"geometry":{"type":"Polygon","coordinates":[[[102.5929,17.3525],[102.5901,17.3513],[102.5901,17.3503],[102.5909,17.35],[102.5918,17.3489],[102.5924,17.3489],[102.5927,17.3473],[102.5947,17.3457],[102.5972,17.3457],[102.5983,17.3444],[102.5984,17.343],[102.5995,17.3425],[102.5984,17.3422],[102.5978,17.3411],[102.5979,17.3379],[102.5987,17.3376],[102.5985,17.3352],[102.599,17.3352],[102.5985,17.333],[102.5968,17.3327],[102.5963,17.3316],[102.5957,17.3322],[102.5946,17.3319],[102.594,17.3327],[102.5931,17.3327],[102.5929,17.3316],[102.592,17.3313],[102.5912,17.3316],[102.5912,17.3321],[102.5906,17.3324],[102.5892,17.3324],[102.5892,17.3318],[102.5881,17.3313],[102.5875,17.3299],[102.587,17.3299],[102.5872,17.331],[102.5869,17.3315],[102.5858,17.3304],[102.5864,17.3288],[102.5859,17.3277],[102.5853,17.328],[102.5841,17.3309],[102.5836,17.3288],[102.5825,17.329],[102.5824,17.3312],[102.5818,17.3331],[102.5819,17.3317],[102.5813,17.3309],[102.5805,17.3306],[102.5799,17.3309],[102.5799,17.3314],[102.579,17.3314],[102.5788,17.3309],[102.5791,17.3301],[102.5796,17.3301],[102.5802,17.3285],[102.5802,17.3276],[102.5794,17.3274],[102.5794,17.3266],[102.58,17.3266],[102.58,17.326],[102.5788,17.326],[102.5783,17.3249],[102.576,17.3254],[102.576,17.326],[102.5752,17.326],[102.5752,17.3265],[102.5746,17.3265],[102.5743,17.327],[102.5743,17.3246],[102.5752,17.3243],[102.5743,17.3243],[102.5741,17.3238],[102.5727,17.3238],[102.571,17.3246],[102.5715,17.3254],[102.5732,17.3254],[102.5732,17.3259],[102.5726,17.3259],[102.5726,17.3265],[102.5721,17.3265],[102.5721,17.327],[102.5701,17.3283],[102.5698,17.3305],[102.5686,17.3305],[102.5689,17.3324],[102.5675,17.3324],[102.5674,17.3343],[102.5663,17.3356],[102.5649,17.3361],[102.5649,17.3383],[102.5654,17.3386],[102.5654,17.3397],[102.5662,17.3399],[102.5665,17.3408],[102.5662,17.3451],[102.5673,17.3454],[102.5676,17.3459],[102.5681,17.3481],[102.5681,17.3508],[102.5675,17.3508],[102.5672,17.3513],[102.5672,17.3508],[102.5655,17.3508],[102.5653,17.3502],[102.5647,17.3502],[102.5647,17.3497],[102.5653,17.3497],[102.565,17.3481],[102.5656,17.3481],[102.5656,17.3456],[102.565,17.3451],[102.5648,17.3426],[102.5654,17.3399],[102.5646,17.3391],[102.564,17.3391],[102.564,17.3396],[102.5626,17.3396],[102.562,17.3391],[102.562,17.338],[102.5634,17.3377],[102.5629,17.3372],[102.5615,17.3372],[102.5615,17.3361],[102.5632,17.3356],[102.5638,17.3348],[102.5652,17.3348],[102.5658,17.3342],[102.5661,17.3321],[102.5675,17.3316],[102.567,17.3288],[102.5684,17.3286],[102.5687,17.3278],[102.5701,17.327],[102.5698,17.3254],[102.567,17.3253],[102.567,17.3232],[102.5684,17.3232],[102.5701,17.3224],[102.5696,17.3218],[102.5696,17.3207],[102.5702,17.3202],[102.5702,17.3156],[102.5714,17.3156],[102.5713,17.3172],[102.5722,17.3183],[102.5727,17.3183],[102.5728,17.3159],[102.5753,17.3151],[102.575,17.3176],[102.5778,17.3184],[102.5775,17.3214],[102.5792,17.3219],[102.5794,17.3228],[102.5811,17.3236],[102.5811,17.3263],[102.5819,17.3274],[102.5822,17.3258],[102.5828,17.3258],[102.5834,17.3247],[102.5845,17.3244],[102.5848,17.3236],[102.5865,17.3223],[102.5888,17.3221],[102.5888,17.3229],[102.5882,17.3231],[102.5882,17.3248],[102.589,17.325],[102.5896,17.3261],[102.5907,17.3264],[102.5918,17.3262],[102.5924,17.3237],[102.5935,17.3235],[102.5938,17.3265],[102.596,17.3281],[102.596,17.3287],[102.598,17.3308],[102.5985,17.3322],[102.5999,17.333],[102.5999,17.3363],[102.6007,17.3374],[102.601,17.3393],[102.599,17.3393],[102.5987,17.3414],[102.5998,17.342],[102.602,17.342],[102.6023,17.3407],[102.6029,17.3407],[102.6029,17.3398],[102.6043,17.3399],[102.604,17.3418],[102.6049,17.3428],[102.6048,17.3439],[102.606,17.3439],[102.606,17.3448],[102.6065,17.3453],[102.6074,17.3453],[102.6073,17.3486],[102.6068,17.3491],[102.6067,17.3502],[102.6062,17.3502],[102.6059,17.3507],[102.6039,17.3507],[102.6031,17.3512],[102.6,17.3512],[102.6,17.3506],[102.6008,17.3501],[102.5997,17.3498],[102.5991,17.3504],[102.5974,17.3506],[102.5974,17.3512],[102.5968,17.3512],[102.5954,17.3525],[102.5929,17.3525]],[[102.5943,17.3519],[102.5957,17.3517],[102.5963,17.3511],[102.5963,17.3498],[102.5966,17.3493],[102.5972,17.3493],[102.5972,17.3487],[102.5986,17.349],[102.5991,17.3487],[102.5991,17.3482],[102.6008,17.3482],[102.6008,17.349],[102.602,17.3493],[102.6017,17.3477],[102.6023,17.3477],[102.6031,17.3466],[102.6003,17.3469],[102.6003,17.3463],[102.5997,17.3463],[102.5997,17.3455],[102.6006,17.3455],[102.6006,17.3461],[102.602,17.3458],[102.602,17.3453],[102.6014,17.3452],[102.6015,17.3444],[102.6026,17.3442],[102.6029,17.3436],[102.6003,17.3433],[102.6003,17.345],[102.5989,17.3447],[102.5989,17.3458],[102.5983,17.3463],[102.5952,17.3463],[102.5935,17.3473],[102.5935,17.3481],[102.5941,17.3487],[102.5949,17.3487],[102.5949,17.3495],[102.5932,17.3495],[102.5923,17.3511],[102.5937,17.3514],[102.5943,17.3519]],[[102.6011,17.3499],[102.6014,17.3501],[102.6014,17.3499],[102.6011,17.3499]],[[102.6051,17.3496],[102.6059,17.3496],[102.6056,17.3483],[102.6048,17.3485],[102.6051,17.3496]],[[102.6039,17.3477],[102.6045,17.3475],[102.6045,17.3466],[102.604,17.3466],[102.6039,17.3477]],[[102.6037,17.3431],[102.604,17.3437],[102.604,17.3431],[102.6037,17.3431]],[[102.5995,17.3425],[102.5998,17.3428],[102.5998,17.3425],[102.5995,17.3425]],[[102.5903,17.3313],[102.5906,17.3316],[102.5906,17.3313],[102.5903,17.3313]],[[102.5892,17.3305],[102.5895,17.3307],[102.5895,17.3305],[102.5892,17.3305]],[[102.5889,17.3299],[102.5892,17.3305],[102.5892,17.3299],[102.5889,17.3299]],[[102.5744,17.3238],[102.5746,17.3241],[102.5746,17.3238],[102.5744,17.3238]],[[102.5718,17.3224],[102.5721,17.3227],[102.5721,17.3224],[102.5718,17.3224]],[[102.5721,17.3216],[102.5724,17.3219],[102.5724,17.3216],[102.5721,17.3216]]]}},{"type":"Feature","properties":{"kind":"seasonal","area_km2":1.174,"date":"2026-10-08"},"geometry":{"type":"Polygon","coordinates":[[[102.6877,17.7988],[102.6877,17.7964],[102.6871,17.7961],[102.6871,17.7956],[102.6854,17.7958],[102.6851,17.7977],[102.684,17.7977],[102.684,17.7971],[102.6829,17.7971],[102.6818,17.7947],[102.6798,17.7947],[102.6793,17.793],[102.677,17.7906],[102.677,17.7889],[102.6782,17.7881],[102.6782,17.7873],[102.6796,17.7865],[102.6779,17.7862],[102.6779,17.7857],[102.6794,17.7854],[102.6808,17.7836],[102.6825,17.7838],[102.683,17.7849],[102.6839,17.785],[102.6847,17.7866],[102.6853,17.7866],[102.6856,17.7861],[102.687,17.7863],[102.6875,17.7896],[102.6881,17.7899],[102.6883,17.7915],[102.6892,17.7918],[102.6897,17.7931],[102.6897,17.7945],[102.6883,17.7942],[102.6883,17.7948],[102.6891,17.7948],[102.6894,17.7983],[102.6877,17.7988]],[[102.6846,17.7947],[102.6852,17.7953],[102.6855,17.7947],[102.6846,17.7947]],[[102.6852,17.7939],[102.6863,17.7939],[102.6866,17.7934],[102.6883,17.7931],[102.6872,17.7931],[102.6872,17.7926],[102.6858,17.7926],[102.6852,17.7931],[102.6852,17.7939]],[[102.6872,17.7915],[102.6875,17.7918],[102.6875,17.7915],[102.6872,17.7915]],[[102.6821,17.7914],[102.6832,17.7914],[102.6841,17.7901],[102.6833,17.7893],[102.6807,17.7892],[102.6804,17.7884],[102.679,17.7884],[102.6787,17.7895],[102.6793,17.79],[102.681,17.7898],[102.681,17.7906],[102.6821,17.7914]],[[102.6802,17.7852],[102.6808,17.7857],[102.6808,17.7852],[102.6802,17.7852]]]}},{"type":"Feature","properties":{"kind":"seasonal","area_km2":0.959,"date":"2026-10-08"},"geometry":{"type":"Polygon","coordinates":[[[102.5931,17.8464],[102.5923,17.8448],[102.5923,17.841],[102.593,17.8372],[102.5935,17.837],[102.5935,17.8364],[102.5944,17.8362],[102.5944,17.8356],[102.5955,17.8356],[102.5964,17.8351],[102.5964,17.8346],[102.5981,17.8343],[102.5987,17.8338],[102.6077,17.8339],[102.6145,17.8326],[102.6182,17.8327],[102.6168,17.8332],[102.6131,17.8331],[102.6108,17.8337],[102.6094,17.835],[102.6085,17.835],[102.6083,17.8355],[102.6074,17.8355],[102.6048,17.8371],[102.6026,17.8374],[102.6023,17.8382],[102.6003,17.8384],[102.5994,17.8395],[102.5952,17.8408],[102.5954,17.843],[102.5943,17.844],[102.5943,17.8448],[102.5937,17.8451],[102.5937,17.8459],[102.5931,17.8464]],[[102.6023,17.8365],[102.6026,17.8371],[102.6026,17.8365],[102.6023,17.8365]]]}},{"type":"Feature","properties":{"kind":"seasonal","area_km2":0.955,"date":"2026-10-08"},"geometry":{"type":"Polygon","coordinates":[[[102.0152,17.5389],[102.0146,17.5381],[102.0147,17.5367],[102.0155,17.5359],[102.0166,17.5357],[102.0167,17.5346],[102.0178,17.534],[102.0179,17.5297],[102.0168,17.5289],[102.0168,17.5281],[102.0176,17.5275],[102.0176,17.5267],[102.0168,17.5264],[102.0165,17.527],[102.0157,17.527],[102.0162,17.5254],[102.016,17.5229],[102.0152,17.5218],[102.0135,17.5221],[102.0135,17.5207],[102.0146,17.5205],[102.0155,17.5188],[102.0141,17.5169],[102.0121,17.5174],[102.0122,17.5161],[102.0116,17.5153],[102.0119,17.5147],[102.0114,17.5139],[102.0108,17.5112],[102.0162,17.5096],[102.0162,17.5102],[102.0134,17.5107],[102.0122,17.5118],[102.0128,17.5134],[102.0133,17.5134],[102.0133,17.5139],[102.0139,17.5142],[102.0139,17.515],[102.0127,17.5153],[102.0136,17.5153],[102.0133,17.5158],[102.0139,17.5158],[102.0139,17.5164],[102.015,17.5164],[102.015,17.5169],[102.0155,17.517],[102.0156,17.5161],[102.0161,17.5164],[102.0158,17.5183],[102.0169,17.5186],[102.0158,17.5194],[102.0155,17.521],[102.016,17.521],[102.016,17.5218],[102.018,17.5221],[102.0174,17.5251],[102.0185,17.5251],[102.0185,17.5246],[102.0191,17.5246],[102.0188,17.5262],[102.0193,17.5265],[102.0196,17.5276],[102.0202,17.5268],[102.0196,17.5268],[102.0193,17.5257],[102.0196,17.5249],[102.0202,17.5249],[102.0202,17.526],[102.0213,17.5276],[102.0213,17.5284],[102.0224,17.5295],[102.0232,17.5293],[102.0232,17.5306],[102.0227,17.5309],[102.0232,17.5339],[102.0251,17.5347],[102.0254,17.5366],[102.0245,17.5366],[102.0246,17.5355],[102.0237,17.5347],[102.0198,17.5346],[102.0183,17.5365],[102.016,17.5375],[102.016,17.5389],[102.0152,17.5389]],[[102.0187,17.533],[102.0201,17.5327],[102.0204,17.5319],[102.0193,17.5314],[102.0187,17.5319],[102.0187,17.533]],[[102.0199,17.5295],[102.0204,17.5295],[102.0204,17.5289],[102.0213,17.529],[102.0207,17.5284],[102.021,17.5279],[102.0202,17.5279],[102.0199,17.5295]]]}},{"type":"Feature","properties":{"kind":"seasonal","area_km2":0.935,"date":"2026-10-08"},"geometry":{"type":"Polygon","coordinates":[[[102.5956,17.9112],[102.5945,17.9091],[102.594,17.9088],[102.594,17.908],[102.5931,17.9071],[102.5932,17.9052],[102.5937,17.9047],[102.5938,17.9039],[102.5921,17.9017],[102.5921,17.9012],[102.5907,17.9009],[102.5907,17.9003],[102.5881,17.9003],[102.5882,17.8992],[102.5856,17.8992],[102.5851,17.8976],[102.5851,17.8951],[102.586,17.8951],[102.5865,17.8976],[102.5882,17.8976],[102.5888,17.8971],[102.5885,17.8941],[102.5891,17.8922],[102.5902,17.8922],[102.5914,17.8933],[102.5922,17.8933],[102.5944,17.8955],[102.5944,17.8966],[102.5938,17.8971],[102.5919,17.8968],[102.5904,17.8979],[102.5907,17.9001],[102.5932,17.9001],[102.5938,17.8993],[102.5938,17.8977],[102.5944,17.8971],[102.5955,17.8971],[102.5969,17.8993],[102.5969,17.9001],[102.5964,17.9004],[102.5963,17.9056],[102.5968,17.9069],[102.5968,17.9088],[102.5974,17.9091],[102.5973,17.9104],[102.5965,17.9113],[102.5956,17.9112]]]}},{"type":"Feature","properties":{"kind":"seasonal","area_km2":0.922,"date":"2026-10-08"},"geometry":{"type":"Polygon","coordinates":[[[102.9015,17.8955],[102.9004,17.8942],[102.8996,17.8942],[102.8996,17.8947],[102.8973,17.8944],[102.897,17.8936],[102.8959,17.8936],[102.895,17.8941],[102.8928,17.8941],[102.8928,17.8933],[102.8942,17.8919],[102.8954,17.892],[102.8951,17.8928],[102.8962,17.8922],[102.8982,17.8923],[102.8985,17.8914],[102.8993,17.8915],[102.8996,17.8904],[102.9007,17.8904],[102.9008,17.8896],[102.9019,17.8899],[102.9019,17.8882],[102.9011,17.8885],[102.9011,17.8879],[102.8996,17.8879],[102.8994,17.8885],[102.8994,17.8871],[102.8982,17.8866],[102.9005,17.8866],[102.9008,17.886],[102.9022,17.8861],[102.9031,17.8866],[102.9067,17.8869],[102.9067,17.8864],[102.9073,17.8864],[102.9073,17.8856],[102.9087,17.8856],[102.9087,17.8861],[102.9099,17.8859],[102.9101,17.8883],[102.9084,17.888],[102.9078,17.8886],[102.9078,17.8905],[102.9073,17.8905],[102.9072,17.8929],[102.9061,17.8932],[102.9038,17.8953],[102.9015,17.8955]],[[102.9016,17.8904],[102.9019,17.8907],[102.9019,17.8904],[102.9016,17.8904]],[[102.9008,17.8874],[102.9011,17.8877],[102.9011,17.8874],[102.9008,17.8874]]]}},{"type":"Feature","properties":{"kind":"seasonal","area_km2":0.851,"date":"2026-10-08"},"geometry":{"type":"Polygon","coordinates":[[[102.7728,17.9155],[102.7722,17.9147],[102.7717,17.9147],[102.7689,17.9125],[102.7689,17.912],[102.7677,17.9109],[102.7678,17.91],[102.7669,17.9089],[102.7664,17.9089],[102.7664,17.9081],[102.7655,17.9076],[102.7655,17.907],[102.7644,17.907],[102.7633,17.9051],[102.7622,17.9043],[102.7622,17.9035],[102.7616,17.9032],[102.7616,17.9016],[102.7605,17.9018],[102.7594,17.901],[102.7588,17.8999],[102.7583,17.8999],[102.7597,17.8991],[102.758,17.8985],[102.7577,17.8977],[102.7603,17.8978],[102.7611,17.8989],[102.7634,17.8997],[102.7636,17.9008],[102.7667,17.9024],[102.7681,17.9038],[102.7681,17.9044],[102.7692,17.9055],[102.7692,17.9063],[102.7703,17.9068],[102.7712,17.9098],[102.772,17.9109],[102.772,17.912],[102.7731,17.9136],[102.7731,17.9144],[102.7736,17.9144],[102.7736,17.915],[102.7731,17.915],[102.7728,17.9155]],[[102.7664,17.9065],[102.7667,17.9068],[102.7667,17.9065],[102.7664,17.9065]],[[102.7661,17.9062],[102.7664,17.9065],[102.7664,17.9062],[102.7661,17.9062]],[[102.7597,17.8999],[102.7602,17.9002],[102.7602,17.8999],[102.7597,17.8999]]]}},{"type":"Feature","properties":{"kind":"seasonal","area_km2":0.787,"date":"2026-10-08"},"geometry":{"type":"Polygon","coordinates":[[[102.3536,17.8992],[102.3536,17.8983],[102.3553,17.8976],[102.3553,17.8951],[102.3545,17.8948],[102.3542,17.8954],[102.3533,17.8954],[102.3533,17.8945],[102.3531,17.8943],[102.3522,17.8943],[102.3525,17.8951],[102.3511,17.8953],[102.3502,17.8945],[102.3494,17.8945],[102.3491,17.8934],[102.35,17.8931],[102.3497,17.8918],[102.3505,17.8918],[102.3511,17.8929],[102.3522,17.8937],[102.3525,17.8929],[102.352,17.8926],[102.352,17.8913],[102.3531,17.8916],[102.3534,17.8905],[102.354,17.8905],[102.3542,17.891],[102.3548,17.8905],[102.3557,17.8905],[102.3563,17.8889],[102.3588,17.8889],[102.3591,17.8897],[102.3602,17.8906],[102.3602,17.8914],[102.3613,17.8922],[102.3621,17.8922],[102.3618,17.8933],[102.3621,17.896],[102.3612,17.896],[102.3607,17.8965],[102.3606,17.8979],[102.3598,17.8979],[102.3595,17.8971],[102.359,17.8971],[102.3587,17.8976],[102.3573,17.8973],[102.3564,17.8984],[102.3564,17.8992],[102.3536,17.8992]],[[102.3598,17.8968],[102.3601,17.8963],[102.3593,17.896],[102.3593,17.8965],[102.3598,17.8968]],[[102.3587,17.8962],[102.359,17.8965],[102.359,17.8963],[102.3587,17.8962]],[[102.3601,17.8944],[102.3604,17.8946],[102.3604,17.8944],[102.3601,17.8944]],[[102.3519,17.894],[102.3522,17.8943],[102.3522,17.894],[102.3519,17.894]],[[102.357,17.8943],[102.3576,17.8943],[102.3579,17.8935],[102.357,17.8935],[102.357,17.8943]],[[102.3525,17.8937],[102.3528,17.894],[102.3528,17.8937],[102.3525,17.8937]],[[102.3545,17.8938],[102.3548,17.894],[102.3548,17.8938],[102.3545,17.8938]],[[102.3616,17.893],[102.3618,17.8933],[102.3619,17.893],[102.3616,17.893]],[[102.3551,17.8921],[102.3556,17.8921],[102.3559,17.8916],[102.3554,17.8916],[102.3551,17.8921]],[[102.3545,17.8919],[102.3554,17.8916],[102.3554,17.8913],[102.3545,17.891],[102.3545,17.8919]],[[102.3568,17.8919],[102.3576,17.8916],[102.3571,17.89],[102.3565,17.89],[102.3571,17.8913],[102.3559,17.8913],[102.3568,17.8919]],[[102.354,17.891],[102.3542,17.8913],[102.3542,17.891],[102.354,17.891]],[[102.3585,17.89],[102.3588,17.8906],[102.3588,17.89],[102.3585,17.89]],[[102.3565,17.8894],[102.3571,17.8897],[102.3571,17.8895],[102.3565,17.8894]],[[102.3577,17.8897],[102.3582,17.8897],[102.3582,17.8895],[102.3577,17.8892],[102.3577,17.8897]],[[102.3582,17.8892],[102.3585,17.8895],[102.3585,17.8892],[102.3582,17.8892]]]}},{"type":"Feature","properties":{"kind":"seasonal","area_km2":0.66,"date":"2026-10-08"},"geometry":{"type":"Polygon","coordinates":[[[102.7679,17.4599],[102.7665,17.4588],[102.7632,17.4588],[102.7604,17.4571],[102.7595,17.4571],[102.757,17.4546],[102.757,17.4533],[102.7596,17.4533],[102.7598,17.4528],[102.7627,17.4528],[102.7632,17.4534],[102.768,17.4529],[102.7683,17.4553],[102.7677,17.4564],[102.7691,17.4583],[102.7705,17.4583],[102.7702,17.4594],[102.7679,17.4599]],[[102.7657,17.4564],[102.7663,17.4564],[102.7666,17.4556],[102.7657,17.4556],[102.7657,17.4564]]]}},{"type":"Feature","properties":{"kind":"seasonal","area_km2":0.619,"date":"2026-10-08"},"geometry":{"type":"Polygon","coordinates":[[[102.6035,17.8937],[102.5999,17.8872],[102.6,17.8818],[102.5994,17.8812],[102.5995,17.8799],[102.5989,17.8793],[102.5989,17.878],[102.5984,17.8777],[102.5984,17.876],[102.5978,17.8755],[102.5981,17.8739],[102.5987,17.8739],[102.5998,17.8761],[102.5998,17.8769],[102.6006,17.8777],[102.6006,17.8785],[102.6017,17.8793],[102.602,17.881],[102.6036,17.8845],[102.6036,17.8859],[102.6048,17.8862],[102.6047,17.891],[102.6041,17.891],[102.6044,17.8937],[102.6035,17.8937]]]}},{"type":"Feature","properties":{"kind":"seasonal","area_km2":0.593,"date":"2026-10-08"},"geometry":{"type":"Polygon","coordinates":[[[102.3732,17.9709],[102.3726,17.9688],[102.3729,17.968],[102.3738,17.968],[102.3735,17.9661],[102.3755,17.9658],[102.3758,17.9669],[102.3763,17.9675],[102.3772,17.9675],[102.3777,17.9667],[102.3792,17.9664],[102.3792,17.9653],[102.38,17.9645],[102.3801,17.9637],[102.3815,17.9629],[102.3815,17.9621],[102.3804,17.9618],[102.3809,17.9605],[102.3807,17.9597],[102.3798,17.9597],[102.3795,17.9605],[102.3787,17.9605],[102.3781,17.9596],[102.377,17.9599],[102.377,17.9593],[102.3796,17.9586],[102.3801,17.9578],[102.3824,17.9581],[102.3832,17.9597],[102.3832,17.9619],[102.384,17.9624],[102.384,17.963],[102.3846,17.963],[102.3846,17.9638],[102.3837,17.964],[102.3837,17.9646],[102.3849,17.9646],[102.3854,17.9652],[102.3854,17.966],[102.3843,17.9662],[102.3834,17.9673],[102.3825,17.9673],[102.3831,17.9657],[102.3823,17.9648],[102.3815,17.9648],[102.3811,17.9667],[102.3791,17.968],[102.3791,17.9694],[102.3783,17.9694],[102.3774,17.9683],[102.3769,17.9683],[102.3766,17.9691],[102.3757,17.9691],[102.3755,17.968],[102.374,17.968],[102.3743,17.9696],[102.3754,17.9696],[102.3754,17.9704],[102.3748,17.971],[102.3732,17.9709]]]}},{"type":"Feature","properties":{"kind":"seasonal","area_km2":0.59,"date":"2026-10-08"},"geometry":{"type":"Polygon","coordinates":[[[102.5988,17.6745],[102.5966,17.6739],[102.5966,17.6728],[102.596,17.6725],[102.596,17.672],[102.5954,17.672],[102.5954,17.6725],[102.5946,17.6728],[102.5949,17.6714],[102.5932,17.6717],[102.5921,17.6708],[102.5909,17.6725],[102.5915,17.673],[102.5904,17.6727],[102.5904,17.6716],[102.5909,17.6708],[102.5907,17.6692],[102.5912,17.6692],[102.5913,17.6684],[102.5924,17.6684],[102.5913,17.6681],[102.5913,17.6676],[102.5904,17.6676],[102.5907,17.6657],[102.5919,17.6657],[102.5927,17.6671],[102.5938,17.6671],[102.5944,17.6695],[102.5958,17.6695],[102.5955,17.6709],[102.5963,17.6717],[102.5969,17.6717],[102.5975,17.6696],[102.5997,17.6696],[102.6,17.6709],[102.6008,17.6712],[102.6011,17.672],[102.6017,17.672],[102.6026,17.6693],[102.6037,17.6694],[102.604,17.6699],[102.6059,17.6707],[102.6059,17.6718],[102.6053,17.6721],[102.6056,17.6743],[102.605,17.674],[102.6048,17.6726],[102.6036,17.6732],[102.6036,17.674],[102.6014,17.6734],[102.6002,17.6737],[102.6,17.6726],[102.5991,17.6726],[102.5991,17.6717],[102.5983,17.6717],[102.5977,17.6728],[102.5988,17.6736],[102.5988,17.6745]],[[102.6051,17.6715],[102.6053,17.6718],[102.6053,17.6716],[102.6051,17.6715]],[[102.5921,17.6695],[102.5927,17.6698],[102.5927,17.6695],[102.5921,17.6695]]]}},{"type":"Feature","properties":{"kind":"seasonal","area_km2":0.56,"date":"2026-10-08"},"geometry":{"type":"Polygon","coordinates":[[[102.7121,17.8159],[102.7098,17.8156],[102.709,17.8137],[102.7062,17.8115],[102.7062,17.8101],[102.7076,17.8096],[102.7051,17.8093],[102.7048,17.8088],[102.7051,17.8055],[102.706,17.8047],[102.706,17.8036],[102.7071,17.8037],[102.7074,17.805],[102.7091,17.8053],[102.7091,17.808],[102.7116,17.8107],[102.7113,17.8126],[102.7138,17.8143],[102.7138,17.8154],[102.7121,17.8159]]]}},{"type":"Feature","properties":{"kind":"seasonal","area_km2":0.554,"date":"2026-10-08"},"geometry":{"type":"Polygon","coordinates":[[[102.3501,17.865],[102.3501,17.8628],[102.3496,17.8628],[102.3496,17.8614],[102.3487,17.8612],[102.3491,17.8587],[102.3482,17.8579],[102.3471,17.8579],[102.3471,17.856],[102.348,17.8549],[102.348,17.8522],[102.3472,17.8514],[102.3463,17.8514],[102.3458,17.8506],[102.3458,17.8487],[102.3464,17.8481],[102.3455,17.8478],[102.3456,17.847],[102.3473,17.8471],[102.3472,17.8484],[102.3484,17.849],[102.3483,17.8495],[102.3495,17.8503],[102.3508,17.8528],[102.3505,17.856],[102.3508,17.8571],[102.3519,17.858],[102.3521,17.8604],[102.3518,17.8628],[102.351,17.8634],[102.3509,17.865],[102.3501,17.865]]]}},{"type":"Feature","properties":{"kind":"seasonal","area_km2":0.517,"date":"2026-10-08"},"geometry":{"type":"Polygon","coordinates":[[[102.7972,17.8613],[102.797,17.8597],[102.7978,17.8586],[102.8004,17.8576],[102.801,17.8562],[102.801,17.8543],[102.803,17.8541],[102.803,17.8552],[102.8035,17.8557],[102.8055,17.856],[102.8058,17.8536],[102.8092,17.8533],[102.8098,17.8539],[102.8097,17.8555],[102.8092,17.856],[102.8049,17.8582],[102.8043,17.859],[102.8032,17.8592],[102.8018,17.8611],[102.8009,17.8611],[102.8006,17.8603],[102.7995,17.8603],[102.7992,17.8608],[102.7984,17.8608],[102.7984,17.8613],[102.7972,17.8613]],[[102.8015,17.8562],[102.8027,17.8562],[102.8024,17.8552],[102.8018,17.8551],[102.8015,17.8562]]]}},{"type":"Feature","properties":{"kind":"seasonal","area_km2":0.479,"date":"2026-10-08"},"geometry":{"type":"Polygon","coordinates":[[[102.8156,17.468],[102.8139,17.4675],[102.8133,17.4669],[102.8133,17.4661],[102.8097,17.4658],[102.8094,17.4653],[102.8074,17.4652],[102.8069,17.4647],[102.8057,17.4647],[102.8052,17.4639],[102.8055,17.4625],[102.8063,17.462],[102.8074,17.462],[102.8083,17.4625],[102.8094,17.4625],[102.81,17.4631],[102.8128,17.4631],[102.8148,17.4637],[102.815,17.4642],[102.8179,17.4645],[102.819,17.4681],[102.8156,17.468]],[[102.8063,17.4631],[102.8066,17.4636],[102.8066,17.4631],[102.8063,17.4631]]]}},{"type":"Feature","properties":{"kind":"seasonal","area_km2":0.453,"date":"2026-10-08"},"geometry":{"type":"Polygon","coordinates":[[[102.4861,17.9727],[102.4861,17.9711],[102.4884,17.9706],[102.4884,17.97],[102.489,17.97],[102.4893,17.9692],[102.4898,17.9692],[102.4898,17.9679],[102.4915,17.9679],[102.4946,17.9688],[102.4958,17.9693],[102.4958,17.9699],[102.4963,17.9701],[102.498,17.9702],[102.4986,17.9704],[102.4986,17.971],[102.5005,17.9713],[102.5017,17.9721],[102.5073,17.9727],[102.5025,17.9729],[102.5019,17.9724],[102.5003,17.9721],[102.4983,17.9723],[102.4977,17.9721],[102.498,17.971],[102.4969,17.9715],[102.4969,17.9723],[102.4957,17.9723],[102.4949,17.9712],[102.4943,17.9712],[102.494,17.9725],[102.4932,17.9725],[102.4932,17.9715],[102.4923,17.9714],[102.4915,17.9706],[102.4912,17.9725],[102.4881,17.9722],[102.4861,17.9727]]]}},{"type":"Feature","properties":{"kind":"seasonal","area_km2":0.42,"date":"2026-10-08"},"geometry":{"type":"Polygon","coordinates":[[[102.9269,17.9999],[102.9171,17.9952],[102.9151,17.9935],[102.914,17.9932],[102.9145,17.993],[102.914,17.9922],[102.9129,17.9924],[102.912,17.9913],[102.9109,17.9913],[102.9106,17.9908],[102.91,17.9908],[102.9106,17.9894],[102.9129,17.99],[102.9129,17.9908],[102.9143,17.9911],[102.9148,17.9916],[102.916,17.9916],[102.9168,17.9925],[102.9188,17.993],[102.9191,17.9936],[102.9196,17.9936],[102.9196,17.9944],[102.9219,17.995],[102.9222,17.9955],[102.9227,17.9955],[102.923,17.9963],[102.9247,17.9969],[102.9247,17.9974],[102.9261,17.9977],[102.9267,17.9985],[102.9289,17.9996],[102.93,17.9996],[102.9269,17.9999]]]}},{"type":"Feature","properties":{"kind":"seasonal","area_km2":0.383,"date":"2026-10-08"},"geometry":{"type":"Polygon","coordinates":[[[102.5389,17.8417],[102.5389,17.8406],[102.5378,17.8398],[102.5369,17.8398],[102.5361,17.839],[102.5358,17.8379],[102.5338,17.8365],[102.5338,17.8357],[102.5327,17.8346],[102.533,17.8335],[102.5347,17.8333],[102.5347,17.8338],[102.5361,17.8338],[102.5373,17.8346],[102.5381,17.8338],[102.5407,17.8333],[102.5404,17.8347],[102.5412,17.8347],[102.5412,17.8355],[102.5392,17.8363],[102.5381,17.8363],[102.5378,17.8357],[102.5372,17.836],[102.5375,17.8374],[102.5392,17.8371],[102.5409,17.8377],[102.5409,17.8388],[102.5395,17.8387],[102.5395,17.8393],[102.5406,17.8393],[102.5403,17.8415],[102.5389,17.8417]],[[102.5386,17.8393],[102.5389,17.8395],[102.5389,17.8393],[102.5386,17.8393]],[[102.5378,17.8393],[102.5386,17.8393],[102.5389,17.8376],[102.5378,17.8379],[102.5378,17.8393]],[[102.5344,17.836],[102.5353,17.836],[102.5353,17.8354],[102.5347,17.8354],[102.5347,17.8346],[102.5342,17.8343],[102.5336,17.8346],[102.5336,17.8351],[102.5341,17.8351],[102.5344,17.836]]]}},{"type":"Feature","properties":{"kind":"seasonal","area_km2":0.364,"date":"2026-10-08"},"geometry":{"type":"Polygon","coordinates":[[[102.0392,17.3101],[102.0395,17.3087],[102.039,17.3079],[102.0367,17.3082],[102.0367,17.3071],[102.0376,17.3063],[102.0373,17.3049],[102.0359,17.3046],[102.0356,17.3052],[102.0339,17.3051],[102.0337,17.3032],[102.0326,17.3021],[102.032,17.3021],[102.032,17.301],[102.0329,17.3011],[102.0334,17.3021],[102.0343,17.3024],[102.0351,17.3035],[102.0365,17.3035],[102.0368,17.3041],[102.0385,17.3038],[102.0384,17.3055],[102.0395,17.3063],[102.0407,17.3063],[102.0413,17.3055],[102.041,17.3047],[102.0418,17.3042],[102.0418,17.3036],[102.0435,17.3031],[102.0435,17.3072],[102.0429,17.3074],[102.0429,17.3082],[102.0412,17.3085],[102.04,17.3101],[102.0392,17.3101]],[[102.039,17.3068],[102.0392,17.3074],[102.0393,17.3068],[102.039,17.3068]],[[102.0395,17.3071],[102.0398,17.3074],[102.0398,17.3071],[102.0395,17.3071]],[[102.0409,17.3071],[102.0412,17.3074],[102.0412,17.3071],[102.0409,17.3071]],[[102.0415,17.3058],[102.0418,17.3066],[102.0418,17.3058],[102.0415,17.3058]]]}},{"type":"Feature","properties":{"kind":"seasonal","area_km2":0.363,"date":"2026-10-08"},"geometry":{"type":"Polygon","coordinates":[[[102.3629,17.9535],[102.3627,17.9529],[102.3615,17.9532],[102.3618,17.9521],[102.3624,17.9518],[102.3624,17.9513],[102.3616,17.951],[102.3616,17.9502],[102.3621,17.9502],[102.3627,17.9494],[102.3613,17.9491],[102.3613,17.948],[102.3605,17.9477],[102.3602,17.9469],[102.3596,17.9469],[102.3591,17.948],[102.3582,17.948],[102.3571,17.9469],[102.354,17.9471],[102.354,17.9463],[102.3568,17.9461],[102.3579,17.9466],[102.3583,17.9442],[102.3594,17.9439],[102.3605,17.9442],[102.3605,17.9453],[102.3625,17.947],[102.3627,17.9478],[102.3647,17.9475],[102.3655,17.9494],[102.3655,17.9508],[102.3638,17.9521],[102.3638,17.9535],[102.3629,17.9535]]]}},{"type":"Feature","properties":{"kind":"seasonal","area_km2":0.362,"date":"2026-10-08"},"geometry":{"type":"Polygon","coordinates":[[[102.4537,17.9791],[102.4506,17.9788],[102.4509,17.9763],[102.456,17.975],[102.4578,17.9742],[102.458,17.9737],[102.4603,17.9732],[102.4606,17.9724],[102.4626,17.9721],[102.4623,17.9727],[102.4615,17.9727],[102.4614,17.9732],[102.4606,17.9732],[102.4603,17.9737],[102.4586,17.9743],[102.4572,17.9759],[102.4583,17.9772],[102.4605,17.9773],[102.4628,17.9762],[102.4637,17.9762],[102.4637,17.9768],[102.4583,17.9783],[102.4551,17.9785],[102.4537,17.9791]]]}},{"type":"Feature","properties":{"kind":"seasonal","area_km2":0.337,"date":"2026-10-08"},"geometry":{"type":"Polygon","coordinates":[[[102.9688,17.9998],[102.9717,17.9985],[102.9748,17.9979],[102.9768,17.9969],[102.9808,17.9969],[102.9825,17.9964],[102.9865,17.994],[102.9899,17.9932],[102.9899,17.994],[102.9879,17.9946],[102.9845,17.9964],[102.9836,17.9964],[102.9833,17.997],[102.9822,17.9969],[102.9822,17.9975],[102.9799,17.9983],[102.9791,17.9991],[102.9771,17.9993],[102.9765,17.9999],[102.9688,17.9998]]]}},{"type":"Feature","properties":{"kind":"seasonal","area_km2":0.314,"date":"2026-10-08"},"geometry":{"type":"Polygon","coordinates":[[[102.682,17.8616],[102.6815,17.8611],[102.6815,17.8589],[102.6807,17.8581],[102.6807,17.857],[102.6801,17.8564],[102.6796,17.8543],[102.6782,17.8529],[102.6776,17.8548],[102.6768,17.8507],[102.6762,17.8507],[102.6763,17.8494],[102.6768,17.8494],[102.6763,17.8491],[102.6763,17.8483],[102.6768,17.8483],[102.6769,17.8469],[102.6777,17.8461],[102.6786,17.8461],[102.6791,17.8469],[102.6794,17.8502],[102.6796,17.8513],[102.6802,17.8513],[102.6802,17.8527],[102.6807,17.8537],[102.6804,17.8554],[102.681,17.8554],[102.6812,17.8578],[102.6826,17.8614],[102.682,17.8616]],[[102.6802,17.8545],[102.6804,17.8548],[102.6804,17.8546],[102.6802,17.8545]]]}},{"type":"Feature","properties":{"kind":"seasonal","area_km2":0.311,"date":"2026-10-08"},"geometry":{"type":"Polygon","coordinates":[[[102.6467,17.8143],[102.647,17.8135],[102.6476,17.8135],[102.6482,17.8127],[102.6493,17.8122],[102.6451,17.8121],[102.6451,17.8113],[102.6471,17.8103],[102.6479,17.8092],[102.6488,17.8092],[102.6488,17.8097],[102.6496,17.8106],[102.6507,17.8106],[102.6507,17.8111],[102.6521,17.8111],[102.6519,17.8117],[102.6541,17.8114],[102.6541,17.8109],[102.6536,17.8109],[102.6539,17.8101],[102.6527,17.8101],[102.6527,17.8092],[102.6533,17.8092],[102.6533,17.8087],[102.6544,17.8087],[102.655,17.8093],[102.6553,17.8104],[102.6544,17.8103],[102.6544,17.8112],[102.6553,17.8106],[102.6581,17.8107],[102.6581,17.8115],[102.6572,17.8109],[102.6567,17.8115],[102.6544,17.812],[102.6538,17.8128],[102.6513,17.813],[102.6467,17.8143]],[[102.6502,17.8119],[102.6507,17.8119],[102.6507,17.8114],[102.6504,17.8114],[102.6502,17.8119]],[[102.6516,17.8117],[102.6519,17.8119],[102.6519,17.8117],[102.6516,17.8117]]]}},{"type":"Feature","properties":{"kind":"seasonal","area_km2":0.31,"date":"2026-10-08"},"geometry":{"type":"Polygon","coordinates":[[[102.6561,17.8104],[102.6561,17.8095],[102.6595,17.8085],[102.6598,17.8074],[102.6581,17.8071],[102.6559,17.8074],[102.6547,17.8082],[102.653,17.8082],[102.6525,17.8087],[102.6525,17.8095],[102.6519,17.8098],[102.6508,17.8098],[102.6508,17.8092],[102.6496,17.8089],[102.6496,17.8081],[102.6513,17.8073],[102.6528,17.8073],[102.6533,17.8068],[102.6565,17.8066],[102.657,17.806],[102.659,17.8055],[102.6647,17.8056],[102.6644,17.8061],[102.6624,17.8066],[102.6624,17.8075],[102.6607,17.8082],[102.6601,17.8093],[102.6584,17.8101],[102.6561,17.8104]]]}},{"type":"Feature","properties":{"kind":"seasonal","area_km2":0.29,"date":"2026-10-08"},"geometry":{"type":"Polygon","coordinates":[[[102.2373,17.285],[102.2367,17.2842],[102.237,17.2815],[102.2365,17.2812],[102.2365,17.2807],[102.2359,17.2807],[102.2359,17.2796],[102.2405,17.2788],[102.2404,17.281],[102.2413,17.2826],[102.2418,17.2826],[102.2418,17.2834],[102.2395,17.2848],[102.2373,17.285]],[[102.2407,17.2823],[102.241,17.2826],[102.241,17.2824],[102.2407,17.2823]],[[102.2396,17.2791],[102.2399,17.2794],[102.2399,17.2791],[102.2396,17.2791]]]}},{"type":"Feature","properties":{"kind":"seasonal","area_km2":0.284,"date":"2026-10-08"},"geometry":{"type":"Polygon","coordinates":[[[102.8659,17.7306],[102.8653,17.7301],[102.863,17.7295],[102.8602,17.7298],[102.8608,17.7282],[102.86,17.7273],[102.858,17.727],[102.8566,17.7262],[102.8552,17.7262],[102.8538,17.7251],[102.8526,17.7251],[102.8523,17.7245],[102.8515,17.7245],[102.8498,17.7229],[102.8498,17.7223],[102.8507,17.7226],[102.8512,17.7237],[102.8529,17.7237],[102.8529,17.7245],[102.8549,17.7251],[102.8557,17.7259],[102.8586,17.7262],[102.8591,17.7268],[102.8611,17.7271],[102.8619,17.7284],[102.863,17.7285],[102.863,17.729],[102.8636,17.7293],[102.8639,17.7285],[102.8645,17.7287],[102.8645,17.7293],[102.865,17.7293],[102.865,17.7282],[102.8656,17.7279],[102.8656,17.7274],[102.8662,17.7279],[102.8665,17.7271],[102.8656,17.7269],[102.8656,17.7263],[102.8673,17.7263],[102.8673,17.7255],[102.8679,17.7253],[102.8679,17.7269],[102.8687,17.7272],[102.8687,17.7288],[102.8673,17.7293],[102.867,17.7307],[102.8659,17.7306]],[[102.8659,17.7288],[102.8662,17.7282],[102.8653,17.7282],[102.8653,17.7285],[102.8659,17.7288]]]}},{"type":"Feature","properties":{"kind":"seasonal","area_km2":0.283,"date":"2026-10-08"},"geometry":{"type":"Polygon","coordinates":[[[102.898,17.2987],[102.8974,17.2976],[102.8988,17.2971],[102.8986,17.296],[102.9003,17.296],[102.9003,17.2955],[102.9014,17.2952],[102.9028,17.2936],[102.9037,17.2936],[102.9045,17.2926],[102.9054,17.2926],[102.9054,17.2917],[102.906,17.2918],[102.9063,17.2907],[102.9068,17.2904],[102.9065,17.2899],[102.9037,17.2901],[102.9043,17.2896],[102.9043,17.2888],[102.906,17.289],[102.906,17.2885],[102.9071,17.2885],[102.908,17.2901],[102.9085,17.2904],[102.9085,17.292],[102.9057,17.2934],[102.9048,17.2945],[102.9042,17.2944],[102.9017,17.2966],[102.9005,17.2968],[102.8994,17.2985],[102.898,17.2987]]]}},{"type":"Feature","properties":{"kind":"seasonal","area_km2":0.263,"date":"2026-10-08"},"geometry":{"type":"Polygon","coordinates":[[[102.8938,17.9787],[102.8918,17.9781],[102.8892,17.9781],[102.8881,17.9775],[102.8861,17.9775],[102.885,17.9769],[102.883,17.9769],[102.8825,17.9766],[102.8825,17.9761],[102.8819,17.9764],[102.8774,17.9752],[102.8754,17.9752],[102.8743,17.9744],[102.8731,17.9746],[102.8729,17.9736],[102.8802,17.975],[102.8811,17.9747],[102.8819,17.9753],[102.8839,17.9753],[102.8847,17.9758],[102.8887,17.9764],[102.889,17.977],[102.8909,17.977],[102.8926,17.9781],[102.8949,17.9784],[102.8938,17.9787]]]}},{"type":"Feature","properties":{"kind":"seasonal","area_km2":0.257,"date":"2026-10-08"},"geometry":{"type":"Polygon","coordinates":[[[102.7755,17.4619],[102.7744,17.4611],[102.7739,17.4584],[102.7731,17.4575],[102.7719,17.4572],[102.7722,17.4551],[102.7711,17.4534],[102.77,17.4532],[102.77,17.4523],[102.7748,17.4524],[102.7748,17.4532],[102.7745,17.4532],[102.7745,17.4538],[102.7742,17.4538],[102.7739,17.454],[102.7745,17.4554],[102.7745,17.457],[102.7756,17.4592],[102.7764,17.4597],[102.7764,17.4619],[102.7755,17.4619]],[[102.7725,17.4556],[102.7728,17.4562],[102.7728,17.4556],[102.7725,17.4556]],[[102.7722,17.4548],[102.7728,17.4548],[102.7728,17.454],[102.7722,17.454],[102.7722,17.4548]],[[102.7739,17.4535],[102.7742,17.4538],[102.7742,17.4535],[102.7739,17.4535]]]}},{"type":"Feature","properties":{"kind":"seasonal","area_km2":0.247,"date":"2026-10-08"},"geometry":{"type":"Polygon","coordinates":[[[102.823,17.8605],[102.8216,17.8589],[102.8188,17.8575],[102.8176,17.8575],[102.8171,17.8564],[102.8145,17.8564],[102.8146,17.855],[102.818,17.8551],[102.8216,17.8562],[102.8244,17.8589],[102.8238,17.8605],[102.823,17.8605]]]}},{"type":"Feature","properties":{"kind":"seasonal","area_km2":0.247,"date":"2026-10-08"},"geometry":{"type":"Polygon","coordinates":[[[102.135,17.7492],[102.1347,17.7484],[102.1341,17.7484],[102.1339,17.7479],[102.1319,17.7473],[102.1316,17.7457],[102.1345,17.7452],[102.1365,17.7433],[102.1365,17.7428],[102.1373,17.7428],[102.1373,17.7441],[102.1381,17.7444],[102.1381,17.746],[102.1364,17.7471],[102.1361,17.7493],[102.135,17.7492]]]}},{"type":"Feature","properties":{"kind":"seasonal","area_km2":0.246,"date":"2026-10-08"},"geometry":{"type":"Polygon","coordinates":[[[102.7816,17.2175],[102.7816,17.217],[102.7808,17.2167],[102.781,17.2159],[102.7816,17.2167],[102.7824,17.2167],[102.783,17.2164],[102.783,17.2156],[102.7819,17.2159],[102.7808,17.2153],[102.7805,17.2159],[102.7802,17.2151],[102.7791,17.2153],[102.7791,17.214],[102.7816,17.2143],[102.7819,17.2137],[102.7833,17.2132],[102.7836,17.2113],[102.7848,17.2113],[102.7862,17.21],[102.787,17.21],[102.7859,17.2143],[102.785,17.2151],[102.7842,17.2151],[102.7836,17.2146],[102.7833,17.2151],[102.7839,17.2154],[102.7839,17.2165],[102.7833,17.2164],[102.7827,17.2175],[102.7816,17.2175]]]}},{"type":"Feature","properties":{"kind":"seasonal","area_km2":0.243,"date":"2026-10-08"},"geometry":{"type":"Polygon","coordinates":[[[102.5903,17.4199],[102.5892,17.4191],[102.5892,17.4183],[102.5878,17.4174],[102.5878,17.4161],[102.5918,17.4161],[102.5932,17.4172],[102.5932,17.4178],[102.5954,17.4183],[102.5954,17.42],[102.5903,17.4199]]]}},{"type":"Feature","properties":{"kind":"seasonal","area_km2":0.225,"date":"2026-10-08"},"geometry":{"type":"Polygon","coordinates":[[[102.7738,17.4659],[102.7735,17.4654],[102.7704,17.4651],[102.7696,17.4643],[102.7688,17.461],[102.7708,17.4605],[102.7721,17.4627],[102.7752,17.4627],[102.7769,17.4635],[102.7766,17.4646],[102.7747,17.4646],[102.7747,17.4638],[102.7741,17.4649],[102.773,17.4646],[102.773,17.4651],[102.7744,17.4654],[102.7744,17.4659],[102.7738,17.4659]],[[102.7713,17.4648],[102.7727,17.4648],[102.773,17.4643],[102.7716,17.4643],[102.771,17.4637],[102.7713,17.4648]]]}},{"type":"Feature","properties":{"kind":"seasonal","area_km2":0.222,"date":"2026-10-08"},"geometry":{"type":"Polygon","coordinates":[[[102.8754,17.8579],[102.8751,17.8573],[102.874,17.857],[102.8737,17.8554],[102.8731,17.8557],[102.8731,17.8562],[102.8723,17.8562],[102.8726,17.8546],[102.8712,17.8537],[102.8712,17.8529],[102.8734,17.8532],[102.8737,17.8519],[102.876,17.8519],[102.876,17.8533],[102.8751,17.8532],[102.8749,17.8538],[102.8765,17.8546],[102.8762,17.856],[102.8768,17.856],[102.8771,17.8576],[102.8754,17.8579]],[[102.8748,17.8554],[102.8754,17.8557],[102.8754,17.8554],[102.8748,17.8554]]]}},{"type":"Feature","properties":{"kind":"seasonal","area_km2":0.216,"date":"2026-10-08"},"geometry":{"type":"Polygon","coordinates":[[[102.8447,17.7982],[102.8447,17.7976],[102.8438,17.7976],[102.8439,17.7957],[102.8444,17.7944],[102.845,17.7944],[102.8447,17.796],[102.8453,17.796],[102.8453,17.7947],[102.8467,17.7939],[102.8476,17.7939],[102.8481,17.7933],[102.8501,17.7936],[102.8501,17.7931],[102.8512,17.7934],[102.8512,17.7942],[102.8501,17.7942],[102.8501,17.795],[102.8512,17.7955],[102.8512,17.7963],[102.8481,17.7966],[102.8473,17.796],[102.8461,17.796],[102.8461,17.7966],[102.845,17.7968],[102.845,17.7974],[102.8458,17.7974],[102.8458,17.7982],[102.8447,17.7982]],[[102.8441,17.796],[102.8444,17.7963],[102.8444,17.796],[102.8441,17.796]],[[102.8475,17.7952],[102.8478,17.7955],[102.8478,17.7952],[102.8475,17.7952]],[[102.8467,17.7949],[102.8473,17.7952],[102.8473,17.7949],[102.8467,17.7949]]]}},{"type":"Feature","properties":{"kind":"seasonal","area_km2":0.212,"date":"2026-10-08"},"geometry":{"type":"Polygon","coordinates":[[[102.85,17.8765],[102.85,17.8738],[102.8494,17.8741],[102.8472,17.8738],[102.848,17.8735],[102.8483,17.8725],[102.8497,17.8725],[102.85,17.8736],[102.8508,17.8736],[102.8515,17.8706],[102.852,17.8706],[102.8529,17.8698],[102.8529,17.8706],[102.8534,17.8706],[102.8537,17.8712],[102.8537,17.8733],[102.8531,17.8733],[102.8531,17.8739],[102.8523,17.8744],[102.8522,17.8763],[102.8511,17.876],[102.8508,17.8766],[102.85,17.8765]],[[102.8511,17.8744],[102.8514,17.8752],[102.8514,17.8744],[102.8511,17.8744]]]}},{"type":"Feature","properties":{"kind":"seasonal","area_km2":0.211,"date":"2026-10-08"},"geometry":{"type":"Polygon","coordinates":[[[102.5218,17.9713],[102.5207,17.9707],[102.5201,17.9694],[102.5193,17.9685],[102.5184,17.9685],[102.5184,17.968],[102.5207,17.9669],[102.5221,17.9653],[102.5227,17.9653],[102.5227,17.9648],[102.5256,17.9635],[102.5264,17.9635],[102.5264,17.9643],[102.5238,17.9653],[102.5238,17.9659],[102.5233,17.9659],[102.521,17.968],[102.5198,17.9683],[102.5198,17.9688],[102.5235,17.9691],[102.5258,17.9702],[102.5218,17.9713]]]}},{"type":"Feature","properties":{"kind":"seasonal","area_km2":0.211,"date":"2026-10-08"},"geometry":{"type":"Polygon","coordinates":[[[102.492,17.8771],[102.4911,17.8763],[102.4911,17.8758],[102.4895,17.8747],[102.4895,17.8739],[102.4903,17.8731],[102.4903,17.8722],[102.4915,17.8723],[102.492,17.8731],[102.4926,17.8725],[102.4946,17.8723],[102.4951,17.8734],[102.496,17.8737],[102.496,17.8748],[102.4951,17.8747],[102.4945,17.8756],[102.494,17.8755],[102.494,17.8761],[102.4928,17.8766],[102.4928,17.8772],[102.492,17.8771]],[[102.4917,17.8766],[102.4925,17.8766],[102.4925,17.8758],[102.492,17.8758],[102.4917,17.8766]],[[102.492,17.8755],[102.4926,17.8755],[102.4926,17.8739],[102.4917,17.8742],[102.492,17.8755]]]}},{"type":"Feature","properties":{"kind":"seasonal","area_km2":0.203,"date":"2026-10-08"},"geometry":{"type":"Polygon","coordinates":[[[102.8217,17.4535],[102.8186,17.4532],[102.8189,17.4515],[102.818,17.451],[102.818,17.4502],[102.8192,17.4499],[102.8192,17.4505],[102.8197,17.4505],[102.8209,17.4502],[102.8209,17.4497],[102.8197,17.4496],[102.8198,17.4478],[102.8178,17.4475],[102.8178,17.4464],[102.8184,17.4461],[102.8198,17.4461],[102.82,17.4472],[102.8212,17.4472],[102.8217,17.4497],[102.8217,17.4535]],[[102.8197,17.4526],[102.8203,17.4526],[102.8203,17.4518],[102.8197,17.4518],[102.8197,17.4526]]]}},{"type":"Feature","properties":{"kind":"seasonal","area_km2":0.203,"date":"2026-10-08"},"geometry":{"type":"Polygon","coordinates":[[[102.5899,17.3635],[102.5899,17.3625],[102.5891,17.3608],[102.5891,17.3592],[102.5897,17.3589],[102.59,17.3576],[102.5911,17.3576],[102.5934,17.3544],[102.596,17.3541],[102.5962,17.3547],[102.5962,17.3541],[102.5974,17.3541],[102.5974,17.3536],[102.5979,17.3536],[102.598,17.3531],[102.5985,17.3528],[102.5979,17.3547],[102.5959,17.3552],[102.5942,17.3568],[102.5937,17.3568],[102.5937,17.3573],[102.5928,17.3582],[102.5914,17.3581],[102.5897,17.3597],[102.5899,17.3614],[102.5905,17.3619],[102.5905,17.3635],[102.5899,17.3635]]]}},{"type":"Feature","properties":{"kind":"seasonal","area_km2":0.198,"date":"2026-10-08"},"geometry":{"type":"Polygon","coordinates":[[[102.6168,17.3769],[102.6168,17.3763],[102.6152,17.3747],[102.6138,17.3747],[102.6138,17.3736],[102.6132,17.3738],[102.6115,17.373],[102.6107,17.3733],[102.6084,17.373],[102.6104,17.3727],[102.6152,17.3731],[102.6178,17.3704],[102.6197,17.3704],[102.62,17.3715],[102.6183,17.3717],[102.6177,17.3728],[102.6163,17.3739],[102.6171,17.375],[102.6177,17.375],[102.6177,17.3755],[102.6183,17.3755],[102.6183,17.3763],[102.6177,17.3769],[102.6168,17.3769]],[[102.6146,17.3739],[102.6149,17.3741],[102.6149,17.3739],[102.6146,17.3739]]]}},{"type":"Feature","properties":{"kind":"seasonal","area_km2":0.194,"date":"2026-10-08"},"geometry":{"type":"Polygon","coordinates":[[[102.473,17.9755],[102.4739,17.9747],[102.4736,17.9742],[102.4747,17.9739],[102.475,17.9734],[102.4773,17.9731],[102.4782,17.9726],[102.4841,17.9721],[102.4844,17.9716],[102.4853,17.9716],[102.4844,17.973],[102.483,17.9732],[102.4827,17.9738],[102.4804,17.9737],[102.4764,17.9748],[102.4759,17.9753],[102.473,17.9755]]]}},{"type":"Feature","properties":{"kind":"seasonal","area_km2":0.191,"date":"2026-10-08"},"geometry":{"type":"Polygon","coordinates":[[[102.8461,17.635],[102.8455,17.6331],[102.8481,17.6329],[102.8481,17.6321],[102.8489,17.6315],[102.8461,17.6312],[102.8461,17.6307],[102.8453,17.6304],[102.8453,17.6293],[102.8481,17.6294],[102.8489,17.6302],[102.8498,17.6302],[102.8504,17.6307],[102.8506,17.6326],[102.8489,17.6329],[102.8481,17.6337],[102.8478,17.6351],[102.8461,17.635]]]}},{"type":"Feature","properties":{"kind":"seasonal","area_km2":0.19,"date":"2026-10-08"},"geometry":{"type":"Polygon","coordinates":[[[102.8504,17.8893],[102.8504,17.8877],[102.8521,17.8869],[102.8515,17.8863],[102.8518,17.8852],[102.8552,17.885],[102.8558,17.8864],[102.8547,17.8869],[102.8546,17.8874],[102.8558,17.8877],[102.8558,17.8885],[102.8504,17.8893]]]}},{"type":"Feature","properties":{"kind":"seasonal","area_km2":0.189,"date":"2026-10-08"},"geometry":{"type":"Polygon","coordinates":[[[102.6931,17.8149],[102.6923,17.813],[102.6898,17.8105],[102.6892,17.8105],[102.6875,17.8088],[102.6864,17.8086],[102.6859,17.8077],[102.6847,17.8077],[102.6844,17.8072],[102.6828,17.8066],[102.676,17.8057],[102.6808,17.8055],[102.6864,17.8067],[102.6867,17.8075],[102.6876,17.8075],[102.689,17.8091],[102.6901,17.8094],[102.6906,17.8108],[102.6912,17.8108],[102.6917,17.8119],[102.6929,17.8124],[102.6934,17.8143],[102.6931,17.8149]]]}},{"type":"Feature","properties":{"kind":"seasonal","area_km2":0.184,"date":"2026-10-08"},"geometry":{"type":"Polygon","coordinates":[[[102.7845,17.5113],[102.7826,17.5102],[102.7829,17.5083],[102.782,17.5078],[102.7821,17.507],[102.7835,17.507],[102.7846,17.5078],[102.7854,17.5078],[102.786,17.5073],[102.786,17.5065],[102.7874,17.5062],[102.7874,17.5078],[102.7868,17.5081],[102.7868,17.5089],[102.7857,17.5102],[102.7857,17.5111],[102.7845,17.5113]]]}},{"type":"Feature","properties":{"kind":"seasonal","area_km2":0.176,"date":"2026-10-08"},"geometry":{"type":"Polygon","coordinates":[[[102.4973,17.881],[102.4959,17.8799],[102.4954,17.8777],[102.4965,17.8777],[102.4968,17.8772],[102.4973,17.8772],[102.4973,17.8767],[102.4979,17.8764],[102.4979,17.8753],[102.4991,17.8753],[102.499,17.8764],[102.4996,17.877],[102.4985,17.877],[102.4985,17.8772],[102.4999,17.8772],[102.5002,17.8778],[102.499,17.8783],[102.5007,17.8792],[102.4987,17.8789],[102.4987,17.8799],[102.4996,17.8802],[102.4995,17.881],[102.4973,17.881]],[[102.4982,17.8759],[102.4985,17.877],[102.4988,17.8759],[102.4982,17.8759]]]}},{"type":"Feature","properties":{"kind":"seasonal","area_km2":0.167,"date":"2026-10-08"},"geometry":{"type":"Polygon","coordinates":[[[102.2423,17.2897],[102.2412,17.2889],[102.2412,17.2878],[102.24,17.288],[102.2398,17.2867],[102.2372,17.2872],[102.2373,17.2864],[102.2378,17.2864],[102.2381,17.2858],[102.2398,17.2859],[102.2404,17.2851],[102.2412,17.2851],[102.2412,17.2864],[102.2418,17.2864],[102.2418,17.2856],[102.2423,17.2851],[102.2432,17.2851],[102.2426,17.2873],[102.244,17.2886],[102.244,17.2897],[102.2423,17.2897]]]}},{"type":"Feature","properties":{"kind":"seasonal","area_km2":0.163,"date":"2026-10-08"},"geometry":{"type":"Polygon","coordinates":[[[102.7661,17.2138],[102.7639,17.2135],[102.7639,17.2127],[102.7656,17.2116],[102.7656,17.2089],[102.7662,17.2079],[102.767,17.2079],[102.7684,17.2128],[102.7661,17.2138]]]}},{"type":"Feature","properties":{"kind":"seasonal","area_km2":0.157,"date":"2026-10-08"},"geometry":{"type":"Polygon","coordinates":[[[102.8446,17.9662],[102.8435,17.9651],[102.8421,17.9645],[102.841,17.9632],[102.8399,17.9629],[102.8396,17.9621],[102.8385,17.9615],[102.8385,17.961],[102.8376,17.9604],[102.8376,17.9596],[102.8371,17.9596],[102.8368,17.9588],[102.8359,17.9585],[102.8348,17.9571],[102.8368,17.9577],[102.8385,17.9599],[102.8393,17.9599],[102.8407,17.9613],[102.8407,17.9618],[102.8416,17.9621],[102.8421,17.9632],[102.8427,17.9632],[102.8444,17.9648],[102.8444,17.9654],[102.8449,17.9654],[102.8446,17.9662]]]}},{"type":"Feature","properties":{"kind":"seasonal","area_km2":0.156,"date":"2026-10-08"},"geometry":{"type":"Polygon","coordinates":[[[102.113,17.0766],[102.1125,17.0749],[102.1125,17.073],[102.1137,17.0725],[102.1154,17.0725],[102.1159,17.0747],[102.1165,17.075],[102.1164,17.0761],[102.1159,17.0766],[102.113,17.0766]]]}},{"type":"Feature","properties":{"kind":"seasonal","area_km2":0.153,"date":"2026-10-08"},"geometry":{"type":"Polygon","coordinates":[[[102.5246,17.9288],[102.5244,17.9282],[102.5235,17.9282],[102.5232,17.9274],[102.5224,17.9269],[102.5224,17.9247],[102.5227,17.9239],[102.5236,17.9233],[102.5253,17.9234],[102.5261,17.9255],[102.5263,17.9288],[102.5246,17.9288]],[[102.5258,17.9282],[102.5261,17.9285],[102.5261,17.9283],[102.5258,17.9282]],[[102.5249,17.9282],[102.5258,17.9274],[102.5258,17.9258],[102.5252,17.9255],[102.5241,17.9258],[102.5241,17.9266],[102.5235,17.9266],[102.5249,17.9277],[102.5249,17.9282]]]}},{"type":"Feature","properties":{"kind":"seasonal","area_km2":0.151,"date":"2026-10-08"},"geometry":{"type":"Polygon","coordinates":[[[102.5462,17.9662],[102.5437,17.9653],[102.542,17.9653],[102.5403,17.9645],[102.5394,17.9647],[102.5383,17.9642],[102.536,17.9641],[102.5341,17.9636],[102.5383,17.9631],[102.5372,17.9636],[102.5392,17.9634],[102.5392,17.9639],[102.5417,17.9637],[102.5451,17.9643],[102.5479,17.9656],[102.5462,17.9662]]]}},{"type":"Feature","properties":{"kind":"seasonal","area_km2":0.148,"date":"2026-10-08"},"geometry":{"type":"Polygon","coordinates":[[[102.8642,17.8892],[102.8645,17.8884],[102.8631,17.8878],[102.8629,17.8867],[102.8623,17.8867],[102.8623,17.8856],[102.8629,17.8854],[102.8629,17.8837],[102.864,17.8837],[102.8637,17.8862],[102.8663,17.8857],[102.8663,17.8862],[102.8671,17.8868],[102.8671,17.8878],[102.8657,17.8881],[102.8657,17.8892],[102.8642,17.8892]],[[102.8645,17.8881],[102.8651,17.8881],[102.8651,17.8876],[102.8648,17.8876],[102.8645,17.8881]]]}},{"type":"Feature","properties":{"kind":"seasonal","area_km2":0.147,"date":"2026-10-08"},"geometry":{"type":"Polygon","coordinates":[[[102.5982,17.6812],[102.5976,17.6807],[102.5959,17.6804],[102.5942,17.679],[102.5948,17.6752],[102.5926,17.6736],[102.5926,17.6728],[102.5951,17.6747],[102.5948,17.6779],[102.5976,17.678],[102.5976,17.6788],[102.5982,17.6791],[102.5979,17.6799],[102.5993,17.6801],[102.5993,17.6807],[102.5982,17.6812]]]}},{"type":"Feature","properties":{"kind":"seasonal","area_km2":0.144,"date":"2026-10-08"},"geometry":{"type":"Polygon","coordinates":[[[102.8148,17.41],[102.8143,17.4092],[102.8126,17.4084],[102.8126,17.4073],[102.8146,17.4062],[102.818,17.4063],[102.818,17.4071],[102.8171,17.4079],[102.8165,17.4095],[102.816,17.41],[102.8148,17.41]],[[102.8154,17.4081],[102.8168,17.4076],[102.8166,17.4068],[102.8157,17.4068],[102.8154,17.4076],[102.8149,17.4076],[102.8154,17.4081]]]}},{"type":"Feature","properties":{"kind":"seasonal","area_km2":0.141,"date":"2026-10-08"},"geometry":{"type":"Polygon","coordinates":[[[102.8719,17.8849],[102.872,17.8838],[102.8725,17.8833],[102.8734,17.8833],[102.8731,17.8811],[102.874,17.8803],[102.874,17.879],[102.8749,17.8782],[102.8757,17.8782],[102.8757,17.8823],[102.8751,17.8825],[102.8751,17.8833],[102.8734,17.8836],[102.8734,17.8847],[102.8719,17.8849]]]}},{"type":"Feature","properties":{"kind":"seasonal","area_km2":0.14,"date":"2026-10-08"},"geometry":{"type":"Polygon","coordinates":[[[102.4751,17.9723],[102.4771,17.9707],[102.4799,17.9697],[102.4861,17.9692],[102.4853,17.9703],[102.4844,17.9705],[102.4773,17.9715],[102.4751,17.9723]]]}},{"type":"Feature","properties":{"kind":"seasonal","area_km2":0.14,"date":"2026-10-08"},"geometry":{"type":"Polygon","coordinates":[[[102.709,17.8771],[102.7076,17.8766],[102.7059,17.8765],[102.7059,17.876],[102.7045,17.8754],[102.7003,17.8748],[102.7,17.8743],[102.6991,17.8743],[102.6986,17.8735],[102.6969,17.8729],[102.6966,17.8721],[102.6958,17.8718],[102.6958,17.8713],[102.7009,17.8738],[102.704,17.8746],[102.7059,17.8757],[102.7071,17.8757],[102.7073,17.8763],[102.711,17.8769],[102.709,17.8771]]]}},{"type":"Feature","properties":{"kind":"seasonal","area_km2":0.14,"date":"2026-10-08"},"geometry":{"type":"Polygon","coordinates":[[[102.8969,17.2946],[102.8964,17.293],[102.8975,17.2919],[102.8981,17.2919],[102.8986,17.2903],[102.9,17.2906],[102.902,17.2895],[102.9037,17.2901],[102.902,17.2904],[102.9017,17.2914],[102.9006,17.2917],[102.9006,17.2925],[102.8992,17.2925],[102.8983,17.2938],[102.8975,17.2938],[102.8975,17.2944],[102.898,17.2947],[102.8969,17.2946]]]}},{"type":"Feature","properties":{"kind":"seasonal","area_km2":0.138,"date":"2026-10-08"},"geometry":{"type":"Polygon","coordinates":[[[102.8085,17.3734],[102.808,17.3717],[102.806,17.3714],[102.8051,17.3709],[102.8055,17.3687],[102.806,17.3682],[102.8072,17.3682],[102.8074,17.3693],[102.8083,17.3698],[102.8102,17.3701],[102.8099,17.3718],[102.8094,17.372],[102.8091,17.3734],[102.8085,17.3734]],[[102.8085,17.372],[102.8088,17.3709],[102.8085,17.3707],[102.8074,17.3706],[102.8074,17.3712],[102.8085,17.3715],[102.8085,17.372]],[[102.8091,17.3707],[102.8094,17.3709],[102.8094,17.3707],[102.8091,17.3707]],[[102.8071,17.3704],[102.8074,17.3706],[102.8074,17.3704],[102.8071,17.3704]],[[102.8071,17.3698],[102.8074,17.3701],[102.8074,17.3698],[102.8071,17.3698]]]}},{"type":"Feature","properties":{"kind":"seasonal","area_km2":0.137,"date":"2026-10-08"},"geometry":{"type":"Polygon","coordinates":[[[102.8414,17.3875],[102.8414,17.387],[102.8391,17.3873],[102.8385,17.3867],[102.8388,17.3854],[102.8394,17.3854],[102.8388,17.3851],[102.8391,17.3845],[102.84,17.3856],[102.8408,17.3856],[102.8411,17.3851],[102.8453,17.3852],[102.8465,17.386],[102.8462,17.3873],[102.8439,17.3876],[102.8442,17.387],[102.8448,17.3873],[102.8448,17.3868],[102.8442,17.3865],[102.845,17.3865],[102.845,17.386],[102.8428,17.3857],[102.8428,17.3862],[102.8419,17.3865],[102.8425,17.3873],[102.8414,17.3875]],[[102.84,17.3865],[102.8402,17.3867],[102.8402,17.3865],[102.84,17.3865]]]}},{"type":"Feature","properties":{"kind":"seasonal","area_km2":0.136,"date":"2026-10-08"},"geometry":{"type":"Polygon","coordinates":[[[102.9592,17.9544],[102.9592,17.9512],[102.9618,17.9512],[102.9623,17.9501],[102.9638,17.9501],[102.9637,17.9509],[102.9646,17.951],[102.964,17.952],[102.962,17.952],[102.9606,17.9542],[102.9592,17.9544]]]}},{"type":"Feature","properties":{"kind":"seasonal","area_km2":0.135,"date":"2026-10-08"},"geometry":{"type":"Polygon","coordinates":[[[102.5852,17.3581],[102.5844,17.3559],[102.5852,17.3548],[102.5852,17.354],[102.5861,17.3537],[102.5864,17.3529],[102.5869,17.3529],[102.587,17.3524],[102.5889,17.3521],[102.5898,17.3532],[102.5906,17.3532],[102.5909,17.3541],[102.59,17.3543],[102.5897,17.3551],[102.5889,17.3551],[102.5872,17.3573],[102.5863,17.3573],[102.586,17.3581],[102.5852,17.3581]],[[102.5849,17.3567],[102.5866,17.357],[102.5886,17.3551],[102.5886,17.3543],[102.5892,17.3543],[102.5886,17.3532],[102.5878,17.3529],[102.5849,17.3556],[102.5849,17.3567]]]}},{"type":"Feature","properties":{"kind":"seasonal","area_km2":0.134,"date":"2026-10-08"},"geometry":{"type":"Polygon","coordinates":[[[102.871,17.8955],[102.8707,17.8947],[102.8696,17.8947],[102.8699,17.893],[102.8704,17.893],[102.8704,17.892],[102.8727,17.8914],[102.8738,17.8923],[102.8738,17.8944],[102.8724,17.8944],[102.8718,17.8955],[102.871,17.8955]],[[102.871,17.8944],[102.8715,17.8944],[102.8715,17.8941],[102.871,17.8939],[102.871,17.8944]]]}},{"type":"Feature","properties":{"kind":"seasonal","area_km2":0.131,"date":"2026-10-08"},"geometry":{"type":"Polygon","coordinates":[[[102.4694,17.9698],[102.4694,17.9692],[102.4708,17.9693],[102.4734,17.9685],[102.4833,17.9683],[102.4842,17.9678],[102.4881,17.9676],[102.4881,17.9681],[102.4873,17.9684],[102.487,17.9697],[102.4864,17.9697],[102.4864,17.9687],[102.4825,17.9686],[102.4745,17.9688],[102.4694,17.9698]]]}},{"type":"Feature","properties":{"kind":"seasonal","area_km2":0.128,"date":"2026-10-08"},"geometry":{"type":"Polygon","coordinates":[[[102.0254,17.5201],[102.0251,17.5184],[102.0223,17.5179],[102.0223,17.5173],[102.0232,17.5171],[102.0232,17.5163],[102.0223,17.5162],[102.022,17.5168],[102.0218,17.5162],[102.0229,17.516],[102.0229,17.5154],[102.0206,17.5154],[102.0215,17.5151],[102.021,17.5127],[102.0226,17.5146],[102.024,17.5149],[102.0243,17.5171],[102.026,17.5176],[102.0262,17.5201],[102.0254,17.5201]]]}},{"type":"Feature","properties":{"kind":"seasonal","area_km2":0.127,"date":"2026-10-08"},"geometry":{"type":"Polygon","coordinates":[[[102.7004,17.8632],[102.6948,17.8582],[102.6948,17.8574],[102.696,17.8574],[102.6968,17.8585],[102.6974,17.8585],[102.6971,17.8596],[102.6991,17.8597],[102.7002,17.8607],[102.7002,17.8613],[102.7007,17.8613],[102.7007,17.8618],[102.7018,17.8624],[102.7018,17.8632],[102.7004,17.8632]]]}},{"type":"Feature","properties":{"kind":"seasonal","area_km2":0.126,"date":"2026-10-08"},"geometry":{"type":"Polygon","coordinates":[[[102.4142,17.6737],[102.414,17.6732],[102.4134,17.6732],[102.4134,17.6726],[102.4126,17.6729],[102.412,17.6718],[102.4129,17.671],[102.4126,17.6705],[102.4135,17.6699],[102.4151,17.67],[102.4162,17.6721],[102.4162,17.6732],[102.4154,17.6729],[102.4157,17.6738],[102.4142,17.6737]],[[102.4134,17.6718],[102.4137,17.6721],[102.4137,17.6718],[102.4134,17.6718]],[[102.4131,17.6716],[102.4134,17.6718],[102.4134,17.6716],[102.4131,17.6716]],[[102.4146,17.6713],[102.4148,17.6716],[102.4148,17.6713],[102.4146,17.6713]],[[102.4132,17.6707],[102.4134,17.671],[102.4134,17.6707],[102.4132,17.6707]]]}},{"type":"Feature","properties":{"kind":"seasonal","area_km2":0.125,"date":"2026-10-08"},"geometry":{"type":"Polygon","coordinates":[[[102.4158,17.8182],[102.4156,17.8163],[102.4145,17.8163],[102.4142,17.8152],[102.4153,17.8152],[102.4168,17.8144],[102.4184,17.8144],[102.4196,17.815],[102.4196,17.8158],[102.4167,17.8157],[102.4167,17.8166],[102.4173,17.816],[102.4181,17.816],[102.4181,17.8177],[102.4158,17.8182]],[[102.4165,17.8155],[102.4167,17.8157],[102.4167,17.8155],[102.4165,17.8155]]]}},{"type":"Feature","properties":{"kind":"seasonal","area_km2":0.121,"date":"2026-10-08"},"geometry":{"type":"Polygon","coordinates":[[[102.2843,17.6723],[102.2843,17.6712],[102.2837,17.6706],[102.2817,17.6706],[102.2815,17.6711],[102.2806,17.6711],[102.2801,17.6689],[102.2815,17.6687],[102.282,17.6692],[102.2835,17.6693],[102.2838,17.6687],[102.2846,17.6687],[102.2846,17.6693],[102.2854,17.6701],[102.2854,17.672],[102.2843,17.6723]],[[102.2832,17.6698],[102.284,17.6701],[102.284,17.6698],[102.2832,17.6698]]]}},{"type":"Feature","properties":{"kind":"seasonal","area_km2":0.121,"date":"2026-10-08"},"geometry":{"type":"Polygon","coordinates":[[[102.9585,17.9861],[102.9585,17.9853],[102.9608,17.9851],[102.9608,17.9845],[102.9619,17.9843],[102.9623,17.9813],[102.9631,17.9813],[102.9634,17.9824],[102.9645,17.9832],[102.9645,17.9843],[102.9628,17.9856],[102.9608,17.9853],[102.9608,17.9859],[102.9585,17.9861]]]}},{"type":"Feature","properties":{"kind":"seasonal","area_km2":0.121,"date":"2026-10-08"},"geometry":{"type":"Polygon","coordinates":[[[102.5494,17.8372],[102.5488,17.8353],[102.5483,17.8351],[102.5483,17.8337],[102.5523,17.8343],[102.5522,17.8367],[102.5505,17.8364],[102.5502,17.8372],[102.5494,17.8372]]]}},{"type":"Feature","properties":{"kind":"seasonal","area_km2":0.121,"date":"2026-10-08"},"geometry":{"type":"Polygon","coordinates":[[[102.1144,17.604],[102.1124,17.6037],[102.1124,17.6021],[102.1113,17.6021],[102.1113,17.6007],[102.1122,17.6007],[102.1124,17.6013],[102.1139,17.6002],[102.1139,17.5997],[102.115,17.5997],[102.115,17.6035],[102.1144,17.604]],[[102.1139,17.6013],[102.1141,17.6016],[102.1141,17.6013],[102.1139,17.6013]]]}},{"type":"Feature","properties":{"kind":"seasonal","area_km2":0.119,"date":"2026-10-08"},"geometry":{"type":"Polygon","coordinates":[[[102.5969,17.9427],[102.5967,17.9411],[102.5978,17.9394],[102.5989,17.9395],[102.6006,17.9411],[102.6003,17.9427],[102.5969,17.9427]]]}},{"type":"Feature","properties":{"kind":"seasonal","area_km2":0.117,"date":"2026-10-08"},"geometry":{"type":"Polygon","coordinates":[[[102.4629,17.2433],[102.4604,17.2424],[102.4581,17.243],[102.4584,17.2419],[102.4604,17.24],[102.461,17.2376],[102.4624,17.2376],[102.4641,17.2387],[102.4635,17.2392],[102.4627,17.2392],[102.4627,17.2381],[102.4613,17.2384],[102.4613,17.2392],[102.4604,17.2405],[102.4604,17.2419],[102.4621,17.2422],[102.4618,17.2411],[102.4621,17.2406],[102.4629,17.2406],[102.4624,17.2411],[102.4629,17.2433]]]}},{"type":"Feature","properties":{"kind":"seasonal","area_km2":0.116,"date":"2026-10-08"},"geometry":{"type":"Polygon","coordinates":[[[102.7298,17.3221],[102.7281,17.3215],[102.7282,17.3204],[102.7287,17.3204],[102.729,17.3196],[102.7302,17.3188],[102.7305,17.3175],[102.7316,17.3175],[102.7321,17.318],[102.7321,17.3194],[102.7315,17.3199],[102.7318,17.3208],[102.7304,17.3207],[102.7304,17.3213],[102.7301,17.3213],[102.7298,17.3215],[102.7298,17.3221]],[[102.7298,17.321],[102.7301,17.3213],[102.7301,17.321],[102.7298,17.321]]]}},{"type":"Feature","properties":{"kind":"seasonal","area_km2":0.11,"date":"2026-10-08"},"geometry":{"type":"Polygon","coordinates":[[[102.6718,17.4734],[102.669,17.4723],[102.6684,17.4707],[102.6687,17.4696],[102.6707,17.4694],[102.6715,17.4715],[102.6721,17.4721],[102.6735,17.4721],[102.6732,17.4726],[102.6721,17.4726],[102.6721,17.4732],[102.6726,17.4729],[102.6729,17.4735],[102.6718,17.4734]],[[102.6692,17.4718],[102.6695,17.471],[102.6704,17.4713],[102.6701,17.4704],[102.669,17.4707],[102.6692,17.4718]]]}},{"type":"Feature","properties":{"kind":"seasonal","area_km2":0.108,"date":"2026-10-08"},"geometry":{"type":"Polygon","coordinates":[[[102.6408,17.792],[102.6408,17.7912],[102.6417,17.7912],[102.642,17.7899],[102.6425,17.7893],[102.6426,17.7866],[102.6432,17.7845],[102.6437,17.7842],[102.6437,17.7834],[102.6449,17.7834],[102.6437,17.7856],[102.6431,17.7912],[102.6417,17.7915],[102.6416,17.792],[102.6408,17.792]]]}},{"type":"Feature","properties":{"kind":"seasonal","area_km2":0.106,"date":"2026-10-08"},"geometry":{"type":"Polygon","coordinates":[[[102.2566,17.2915],[102.2567,17.285],[102.2576,17.285],[102.2581,17.2867],[102.259,17.2869],[102.2589,17.2883],[102.2581,17.2885],[102.2581,17.291],[102.2575,17.2915],[102.2566,17.2915]]]}},{"type":"Feature","properties":{"kind":"seasonal","area_km2":0.106,"date":"2026-10-08"},"geometry":{"type":"Polygon","coordinates":[[[102.9325,17.1156],[102.9322,17.1145],[102.9302,17.1137],[102.9297,17.1115],[102.9311,17.1115],[102.9314,17.111],[102.9322,17.111],[102.9319,17.1123],[102.9336,17.114],[102.9333,17.1156],[102.9325,17.1156]]]}},{"type":"Feature","properties":{"kind":"seasonal","area_km2":0.105,"date":"2026-10-08"},"geometry":{"type":"Polygon","coordinates":[[[102.5601,17.077],[102.5598,17.0765],[102.5587,17.0765],[102.5581,17.0759],[102.5582,17.0751],[102.5587,17.0751],[102.5593,17.0743],[102.5593,17.0732],[102.5601,17.0732],[102.5601,17.0738],[102.5621,17.0754],[102.5621,17.0762],[102.5612,17.077],[102.5601,17.077]]]}},{"type":"Feature","properties":{"kind":"seasonal","area_km2":0.104,"date":"2026-10-08"},"geometry":{"type":"Polygon","coordinates":[[[102.5296,17.8952],[102.5285,17.8944],[102.5285,17.8931],[102.5291,17.8923],[102.5302,17.8923],[102.5308,17.8931],[102.5325,17.8937],[102.5322,17.8953],[102.5296,17.8952]]]}},{"type":"Feature","properties":{"kind":"seasonal","area_km2":0.103,"date":"2026-10-08"},"geometry":{"type":"Polygon","coordinates":[[[102.8507,17.721],[102.8496,17.721],[102.8493,17.7194],[102.8485,17.7191],[102.8482,17.7172],[102.849,17.7169],[102.8491,17.7161],[102.8496,17.7161],[102.8505,17.7153],[102.8539,17.7151],[102.8539,17.7156],[102.8519,17.7156],[102.8499,17.7167],[102.8502,17.7175],[102.8499,17.7183],[102.8493,17.718],[102.8493,17.7185],[102.8499,17.7186],[102.8499,17.7196],[102.8507,17.7202],[102.8507,17.721]]]}},{"type":"Feature","properties":{"kind":"seasonal","area_km2":0.103,"date":"2026-10-08"},"geometry":{"type":"Polygon","coordinates":[[[102.5439,17.24],[102.5436,17.2364],[102.5467,17.2367],[102.5467,17.2384],[102.5461,17.2386],[102.5461,17.2394],[102.5439,17.24]]]}},{"type":"Feature","properties":{"kind":"seasonal","area_km2":0.101,"date":"2026-10-08"},"geometry":{"type":"Polygon","coordinates":[[[102.8741,17.8977],[102.8744,17.8963],[102.8738,17.8963],[102.8738,17.8955],[102.8758,17.8958],[102.8758,17.8947],[102.8749,17.8947],[102.8749,17.8939],[102.8769,17.8936],[102.8772,17.8955],[102.8766,17.8955],[102.8766,17.8961],[102.8755,17.8961],[102.8752,17.8966],[102.8758,17.8969],[102.8761,17.8963],[102.8772,17.8964],[102.8774,17.8977],[102.8766,17.8977],[102.8763,17.8972],[102.8758,17.8972],[102.8755,17.8977],[102.8741,17.8977]]]}},{"type":"Feature","properties":{"kind":"seasonal","area_km2":0.101,"date":"2026-10-08"},"geometry":{"type":"Polygon","coordinates":[[[102.861,17.8539],[102.861,17.8528],[102.8616,17.8528],[102.8619,17.8515],[102.8627,17.8515],[102.8627,17.8509],[102.8633,17.8509],[102.8627,17.8507],[102.8633,17.8504],[102.8633,17.8488],[102.8644,17.8488],[102.865,17.8507],[102.8636,17.851],[102.8633,17.8539],[102.861,17.8539]]]}},{"type":"Feature","properties":{"kind":"seasonal","area_km2":0.101,"date":"2026-10-08"},"geometry":{"type":"Polygon","coordinates":[[[102.5924,17.8191],[102.5907,17.818],[102.5907,17.8169],[102.5915,17.8158],[102.5935,17.8158],[102.5941,17.8164],[102.5941,17.8177],[102.5932,17.8191],[102.5924,17.8191]]]}},{"type":"Feature","properties":{"kind":"seasonal","area_km2":0.1,"date":"2026-10-08"},"geometry":{"type":"Polygon","coordinates":[[[102.8098,17.4043],[102.8093,17.4024],[102.8087,17.4018],[102.807,17.4015],[102.807,17.4007],[102.8076,17.4005],[102.8079,17.3994],[102.8088,17.3994],[102.8093,17.3999],[102.8096,17.4013],[102.8113,17.4035],[102.8112,17.4043],[102.8098,17.4043]]]}}]}
