{"type":"FeatureCollection","properties":{"v":3,"id":"t103_14","name":"สุรินทร์ · บุรีรัมย์ · ศรีสะเกษ","aoi":[103.0,14.207,104.0,15.0],"date":"2026-10-09","dates":["2026-10-09","2026-10-05","2026-10-04"],"baseline_years":3,"has_seasonal":true,"totals":{"flood_high":0.0,"flood_low":2.1,"seasonal":26.9},"provinces":[{"name":"บุรีรัมย์","zone":"th-ne","flood_high":0.0,"flood_low":1.2,"seasonal":10.0},{"name":"สุรินทร์","zone":"th-ne","flood_high":0.0,"flood_low":0.9,"seasonal":16.8},{"name":"ศรีสะเกษ","zone":"th-ne","flood_high":0.0,"flood_low":0.0,"seasonal":0.1}],"scenes":{"2026-10-09":2,"2026-10-05":1,"2026-10-04":2},"baseline_dates":["2025-10-09","2024-10-07","2023-10-08"],"threshold_db":-15.0,"auto":true,"source":"Sentinel-1 RTC (Copernicus/ESA) via Microsoft Planetary Computer; JRC Global Surface Water; Copernicus DEM","method":"ChatGeo v3: Otsu threshold on VV dB; minus JRC permanent water and slope > 5 deg; unusual = water not present in most of the previous 3 years (same season)","added":"2026-10-11T01:54+07:00"},"features":[{"type":"Feature","properties":{"kind":"flood","area_km2":0.25,"conf":"low","date":"2026-10-09"},"geometry":{"type":"Polygon","coordinates":[[[103.8145,14.9395],[103.8143,14.9377],[103.8165,14.9352],[103.8165,14.9341],[103.8176,14.9333],[103.8176,14.9325],[103.8182,14.9322],[103.8205,14.9285],[103.8207,14.929],[103.8221,14.9296],[103.8216,14.9315],[103.8207,14.932],[103.8199,14.9336],[103.8182,14.9333],[103.8182,14.9352],[103.8171,14.9352],[103.8168,14.9379],[103.8159,14.9385],[103.8154,14.9396],[103.8145,14.9395]]]}},{"type":"Feature","properties":{"kind":"flood","area_km2":0.194,"conf":"low","date":"2026-10-09"},"geometry":{"type":"Polygon","coordinates":[[[103.4887,14.7966],[103.4887,14.7961],[103.487,14.7953],[103.487,14.7944],[103.4884,14.7939],[103.4884,14.792],[103.4873,14.7915],[103.4881,14.7915],[103.4895,14.7904],[103.4904,14.7904],[103.4915,14.7926],[103.4917,14.7945],[103.4912,14.7945],[103.4909,14.795],[103.4898,14.795],[103.4895,14.7966],[103.4887,14.7966]]]}},{"type":"Feature","properties":{"kind":"flood","area_km2":0.149,"conf":"low","date":"2026-10-04"},"geometry":{"type":"Polygon","coordinates":[[[103.2271,14.7405],[103.226,14.7394],[103.226,14.7386],[103.2266,14.7384],[103.2261,14.7378],[103.2264,14.7338],[103.2289,14.7335],[103.2283,14.7362],[103.2274,14.737],[103.228,14.7405],[103.2271,14.7405]]]}},{"type":"Feature","properties":{"kind":"flood","area_km2":0.148,"conf":"low","date":"2026-10-04"},"geometry":{"type":"Polygon","coordinates":[[[103.1572,14.3686],[103.1567,14.3677],[103.1556,14.3675],[103.1559,14.3645],[103.1545,14.3642],[103.1542,14.3617],[103.1581,14.3623],[103.1581,14.3629],[103.1576,14.3631],[103.1559,14.3631],[103.1559,14.3642],[103.1564,14.3642],[103.157,14.3656],[103.1584,14.3658],[103.1584,14.3669],[103.1575,14.3669],[103.1578,14.3686],[103.1572,14.3686]]]}},{"type":"Feature","properties":{"kind":"flood","area_km2":0.127,"conf":"low","date":"2026-10-09"},"geometry":{"type":"Polygon","coordinates":[[[103.5093,14.7951],[103.5093,14.7943],[103.5101,14.7943],[103.5101,14.7938],[103.5076,14.7938],[103.5076,14.7927],[103.5085,14.7921],[103.5096,14.7922],[103.5102,14.7913],[103.5127,14.7914],[103.5127,14.7922],[103.5118,14.7924],[103.5118,14.7933],[103.5107,14.793],[103.5107,14.7935],[103.5118,14.7941],[103.5118,14.7949],[103.5093,14.7951]]]}},{"type":"Feature","properties":{"kind":"flood","area_km2":0.123,"conf":"low","date":"2026-10-04"},"geometry":{"type":"Polygon","coordinates":[[[103.353,14.8597],[103.353,14.8572],[103.3544,14.8559],[103.3555,14.8559],[103.3572,14.8575],[103.3572,14.8584],[103.355,14.8581],[103.355,14.8597],[103.353,14.8597]]]}},{"type":"Feature","properties":{"kind":"flood","area_km2":0.121,"conf":"low","date":"2026-10-04"},"geometry":{"type":"Polygon","coordinates":[[[103.1648,14.367],[103.1645,14.3664],[103.1631,14.3664],[103.1625,14.3659],[103.1628,14.3648],[103.1617,14.3648],[103.1617,14.364],[103.1609,14.3626],[103.1595,14.3626],[103.1601,14.3621],[103.1609,14.3621],[103.1612,14.361],[103.162,14.361],[103.162,14.3615],[103.1629,14.3618],[103.1628,14.3632],[103.1634,14.3634],[103.1637,14.3648],[103.1648,14.3654],[103.1648,14.367]]]}},{"type":"Feature","properties":{"kind":"flood","area_km2":0.117,"conf":"low","date":"2026-10-04"},"geometry":{"type":"Polygon","coordinates":[[[103.3977,14.8893],[103.3968,14.8882],[103.3966,14.8866],[103.3969,14.8839],[103.3977,14.8839],[103.3991,14.8852],[103.3991,14.8871],[103.3982,14.8874],[103.3982,14.8879],[103.3988,14.8882],[103.3988,14.8893],[103.3977,14.8893]]]}},{"type":"Feature","properties":{"kind":"flood","area_km2":0.097,"conf":"low","date":"2026-10-04"},"geometry":{"type":"Polygon","coordinates":[[[103.3181,14.8372],[103.3184,14.8356],[103.3189,14.8356],[103.3192,14.835],[103.3231,14.8351],[103.3234,14.834],[103.3256,14.8337],[103.3256,14.8343],[103.3239,14.8343],[103.3236,14.8359],[103.3189,14.8364],[103.3189,14.8369],[103.3181,14.8372]]]}},{"type":"Feature","properties":{"kind":"flood","area_km2":0.097,"conf":"low","date":"2026-10-04"},"geometry":{"type":"Polygon","coordinates":[[[103.1293,14.4535],[103.1284,14.4526],[103.1285,14.451],[103.1318,14.4502],[103.1315,14.4527],[103.1304,14.4535],[103.1293,14.4535]]]}},{"type":"Feature","properties":{"kind":"flood","area_km2":0.094,"conf":"low","date":"2026-10-09"},"geometry":{"type":"Polygon","coordinates":[[[103.4772,14.7938],[103.477,14.7933],[103.4761,14.7933],[103.4756,14.7919],[103.4745,14.7911],[103.4745,14.7903],[103.4776,14.79],[103.4775,14.7922],[103.4781,14.7925],[103.4781,14.793],[103.4775,14.793],[103.4772,14.7938]]]}},{"type":"Feature","properties":{"kind":"flood","area_km2":0.078,"conf":"low","date":"2026-10-09"},"geometry":{"type":"Polygon","coordinates":[[[103.8496,15.0059],[103.8496,15.0043],[103.8502,15.0043],[103.8502,15.0037],[103.851,15.0037],[103.8513,15.0043],[103.8513,15.0037],[103.8518,15.0035],[103.8535,15.0035],[103.853,15.0051],[103.8516,15.0051],[103.8516,15.0059],[103.8496,15.0059]]]}},{"type":"Feature","properties":{"kind":"flood","area_km2":0.073,"conf":"low","date":"2026-10-09"},"geometry":{"type":"Polygon","coordinates":[[[103.8256,14.9987],[103.8251,14.9966],[103.8262,14.9963],[103.8265,14.9968],[103.8271,14.9968],[103.8268,14.9955],[103.8276,14.9955],[103.8279,14.9985],[103.8256,14.9987]]]}},{"type":"Feature","properties":{"kind":"flood","area_km2":0.072,"conf":"low","date":"2026-10-04"},"geometry":{"type":"Polygon","coordinates":[[[103.2407,14.3635],[103.2407,14.3629],[103.2402,14.3629],[103.2402,14.3624],[103.2396,14.3621],[103.2396,14.3613],[103.2407,14.3608],[103.243,14.3611],[103.243,14.3622],[103.2421,14.3624],[103.2416,14.3635],[103.2407,14.3635]]]}},{"type":"Feature","properties":{"kind":"flood","area_km2":0.067,"conf":"low","date":"2026-10-04"},"geometry":{"type":"Polygon","coordinates":[[[103.3503,14.8467],[103.3492,14.8464],[103.3498,14.8456],[103.3498,14.8442],[103.3512,14.8442],[103.352,14.845],[103.3534,14.8453],[103.3534,14.8459],[103.3506,14.8461],[103.3503,14.8467]]]}},{"type":"Feature","properties":{"kind":"flood","area_km2":0.064,"conf":"low","date":"2026-10-04"},"geometry":{"type":"Polygon","coordinates":[[[103.0581,14.862],[103.0575,14.8614],[103.0575,14.8593],[103.0584,14.8593],[103.0584,14.8577],[103.0592,14.8577],[103.0592,14.8609],[103.0589,14.862],[103.0581,14.862]]]}},{"type":"Feature","properties":{"kind":"flood","area_km2":0.063,"conf":"low","date":"2026-10-04"},"geometry":{"type":"Polygon","coordinates":[[[103.1303,14.3683],[103.1306,14.3659],[103.132,14.3656],[103.1328,14.3681],[103.1303,14.3683]],[[103.1314,14.3673],[103.1319,14.3675],[103.1319,14.3673],[103.1314,14.3673]]]}},{"type":"Feature","properties":{"kind":"flood","area_km2":0.062,"conf":"low","date":"2026-10-09"},"geometry":{"type":"Polygon","coordinates":[[[103.923,14.8297],[103.923,14.8286],[103.9236,14.8286],[103.9244,14.8275],[103.9261,14.8276],[103.9264,14.8297],[103.925,14.8297],[103.925,14.8289],[103.9239,14.8297],[103.923,14.8297]]]}},{"type":"Feature","properties":{"kind":"flood","area_km2":0.055,"conf":"low","date":"2026-10-04"},"geometry":{"type":"Polygon","coordinates":[[[103.0538,14.8766],[103.0527,14.8755],[103.0515,14.8752],[103.0504,14.8741],[103.0504,14.8733],[103.0513,14.8733],[103.0518,14.8741],[103.0524,14.8741],[103.0529,14.875],[103.0546,14.8758],[103.0546,14.8766],[103.0538,14.8766]]]}},{"type":"Feature","properties":{"kind":"flood","area_km2":0.055,"conf":"low","date":"2026-10-09"},"geometry":{"type":"Polygon","coordinates":[[[103.5048,14.7962],[103.5048,14.7954],[103.5057,14.7948],[103.506,14.7935],[103.5071,14.7932],[103.5071,14.7959],[103.5048,14.7962]]]}},{"type":"Feature","properties":{"kind":"seasonal","area_km2":2.691,"date":"2026-10-09"},"geometry":{"type":"Polygon","coordinates":[[[103.8463,14.9438],[103.8438,14.9419],[103.8438,14.9408],[103.8396,14.9408],[103.8391,14.9402],[103.8391,14.9394],[103.8408,14.9386],[103.8402,14.9383],[103.8402,14.9375],[103.8408,14.937],[103.8394,14.937],[103.8394,14.9359],[103.8388,14.9351],[103.838,14.9351],[103.838,14.9342],[103.8374,14.9342],[103.8371,14.9359],[103.8346,14.9356],[103.8352,14.9342],[103.8341,14.9342],[103.8341,14.9337],[103.8333,14.9334],[103.8333,14.9329],[103.8324,14.9329],[103.8324,14.932],[103.8316,14.9315],[103.8316,14.9304],[103.831,14.9304],[103.8308,14.9296],[103.8302,14.9296],[103.8299,14.9301],[103.8291,14.9301],[103.8288,14.9296],[103.8288,14.9304],[103.8302,14.9307],[103.8305,14.9318],[103.8282,14.9315],[103.828,14.9301],[103.8285,14.9299],[103.828,14.9299],[103.8269,14.9288],[103.8269,14.928],[103.8263,14.9277],[103.8258,14.9258],[103.8244,14.9271],[103.8244,14.9279],[103.826,14.9274],[103.8255,14.929],[103.8255,14.9285],[103.8241,14.9285],[103.8241,14.9279],[103.8205,14.9279],[103.8182,14.9257],[103.8166,14.9249],[103.8166,14.9236],[103.8174,14.923],[103.8183,14.9211],[103.8199,14.9195],[103.8202,14.9184],[103.8213,14.9182],[103.8227,14.9193],[103.823,14.9222],[103.8244,14.9236],[103.8269,14.925],[103.8269,14.9263],[103.8274,14.9269],[103.8283,14.9269],[103.8283,14.9261],[103.8277,14.9263],[103.8274,14.9252],[103.8283,14.9252],[103.8286,14.9261],[103.83,14.9255],[103.8353,14.9256],[103.8352,14.9264],[103.8366,14.9264],[103.8372,14.9256],[103.8397,14.9256],[103.8406,14.9253],[103.8411,14.9245],[103.8425,14.9245],[103.8433,14.9256],[103.8439,14.9256],[103.8442,14.9264],[103.8447,14.9264],[103.8461,14.9278],[103.8478,14.9272],[103.8481,14.9286],[103.8469,14.9291],[103.8461,14.9286],[103.8461,14.9281],[103.8433,14.9267],[103.8433,14.9261],[103.8408,14.9261],[103.8403,14.9264],[103.8405,14.9269],[103.8397,14.9269],[103.8397,14.9288],[103.8405,14.9291],[103.84,14.9299],[103.8416,14.9297],[103.8425,14.9299],[103.8425,14.9305],[103.843,14.9305],[103.8433,14.931],[103.8425,14.9316],[103.8433,14.9316],[103.8436,14.9324],[103.8416,14.9326],[103.8416,14.9345],[103.8424,14.9359],[103.8433,14.9359],[103.8441,14.9367],[103.8441,14.9375],[103.8466,14.9378],[103.8461,14.9367],[103.8464,14.9356],[103.8472,14.9359],[103.8475,14.9378],[103.8489,14.9376],[103.848,14.9381],[103.8489,14.9381],[103.8494,14.9386],[103.85,14.9373],[103.8514,14.937],[103.8514,14.9359],[103.8519,14.9359],[103.8519,14.9346],[103.8533,14.9341],[103.8522,14.9362],[103.8519,14.9378],[103.8502,14.94],[103.8502,14.9408],[103.8488,14.9419],[103.8488,14.943],[103.8474,14.9438],[103.8463,14.9438]],[[103.8416,14.9394],[103.8419,14.94],[103.8419,14.9394],[103.8416,14.9394]],[[103.8438,14.94],[103.8444,14.9397],[103.8441,14.9389],[103.8435,14.9392],[103.8438,14.94]],[[103.8466,14.9389],[103.8472,14.9386],[103.8472,14.9381],[103.8466,14.9381],[103.8466,14.9389]],[[103.8502,14.9378],[103.8505,14.9381],[103.8505,14.9378],[103.8502,14.9378]],[[103.8355,14.9337],[103.8358,14.9342],[103.8358,14.9337],[103.8355,14.9337]],[[103.8372,14.9337],[103.8374,14.9332],[103.838,14.9332],[103.8383,14.9313],[103.838,14.9321],[103.8374,14.9321],[103.8372,14.9337]],[[103.8411,14.9324],[103.8416,14.9326],[103.8416,14.9324],[103.8411,14.9324]],[[103.8363,14.931],[103.8366,14.9313],[103.8366,14.931],[103.8363,14.931]],[[103.8383,14.9313],[103.8425,14.9313],[103.8425,14.931],[103.8419,14.931],[103.8414,14.9302],[103.8408,14.9302],[103.8408,14.9307],[103.8388,14.9307],[103.8383,14.9299],[103.8383,14.9313]],[[103.8319,14.9304],[103.8324,14.9302],[103.8324,14.9285],[103.833,14.9277],[103.8338,14.9274],[103.8339,14.9266],[103.833,14.9272],[103.8311,14.9272],[103.8319,14.9304]],[[103.8294,14.9296],[103.8296,14.9299],[103.8297,14.9296],[103.8294,14.9296]],[[103.8394,14.9294],[103.8397,14.9296],[103.8397,14.9294],[103.8394,14.9294]],[[103.8389,14.9294],[103.8394,14.9294],[103.8394,14.9288],[103.8386,14.928],[103.8389,14.9294]]]}},{"type":"Feature","properties":{"kind":"seasonal","area_km2":1.875,"date":"2026-10-09"},"geometry":{"type":"Polygon","coordinates":[[[103.5647,14.7657],[103.5616,14.7654],[103.5616,14.7648],[103.5605,14.7643],[103.5602,14.7635],[103.5597,14.7635],[103.5591,14.7626],[103.5583,14.7632],[103.5572,14.7632],[103.5566,14.7637],[103.5546,14.7634],[103.5547,14.7629],[103.56,14.7624],[103.5616,14.7632],[103.5616,14.7637],[103.5641,14.7638],[103.5644,14.7632],[103.5655,14.7632],[103.5661,14.7621],[103.5661,14.763],[103.5666,14.7635],[103.5664,14.7619],[103.568,14.7622],[103.5697,14.7616],[103.57,14.7611],[103.5708,14.7611],[103.5711,14.7576],[103.5681,14.7567],[103.5672,14.7554],[103.5673,14.754],[103.5681,14.7524],[103.5689,14.7521],[103.5684,14.7516],[103.5698,14.751],[103.5715,14.7492],[103.5723,14.7492],[103.5737,14.747],[103.5743,14.747],[103.5748,14.7462],[103.5759,14.7459],[103.5776,14.7446],[103.5776,14.7435],[103.5782,14.7432],[103.5782,14.7416],[103.5788,14.7416],[103.5779,14.7405],[103.5782,14.7392],[103.5774,14.7381],[103.5777,14.7373],[103.5771,14.7367],[103.5771,14.7345],[103.5763,14.7345],[103.5766,14.7354],[103.5757,14.7362],[103.5757,14.7373],[103.5746,14.7378],[103.5743,14.737],[103.5738,14.737],[103.5729,14.7359],[103.5715,14.7359],[103.5716,14.7334],[103.5721,14.7334],[103.5721,14.7326],[103.5732,14.7318],[103.5721,14.7318],[103.5721,14.7323],[103.5702,14.7329],[103.5705,14.7315],[103.5699,14.731],[103.5691,14.731],[103.5688,14.7299],[103.568,14.7293],[103.568,14.728],[103.5688,14.7277],[103.5688,14.7272],[103.5699,14.7261],[103.5716,14.7261],[103.5727,14.7264],[103.573,14.7275],[103.5724,14.7296],[103.573,14.7291],[103.5741,14.7291],[103.5741,14.7302],[103.5758,14.7302],[103.576,14.7307],[103.5774,14.731],[103.5774,14.7316],[103.5783,14.7321],[103.5785,14.7327],[103.5783,14.7337],[103.5791,14.7343],[103.5791,14.7354],[103.5813,14.7373],[103.5816,14.7397],[103.5824,14.74],[103.5824,14.7419],[103.5815,14.7422],[103.581,14.743],[103.5796,14.7432],[103.5796,14.7457],[103.5787,14.7457],[103.5787,14.7462],[103.5779,14.7462],[103.5776,14.747],[103.5765,14.7473],[103.5751,14.7489],[103.5745,14.7489],[103.5742,14.75],[103.5731,14.7511],[103.5706,14.7516],[103.57,14.7524],[103.5687,14.7529],[103.5689,14.7559],[103.57,14.7565],[103.5723,14.7565],[103.5731,14.7576],[103.5731,14.7587],[103.5736,14.7587],[103.5736,14.7595],[103.5731,14.76],[103.5733,14.7622],[103.5719,14.7622],[103.5717,14.7627],[103.5711,14.7627],[103.5705,14.7641],[103.5658,14.7643],[103.5647,14.7657]],[[103.5664,14.7638],[103.5666,14.764],[103.5666,14.7638],[103.5664,14.7638]],[[103.5782,14.7449],[103.5785,14.7454],[103.5785,14.7449],[103.5782,14.7449]],[[103.578,14.7327],[103.5783,14.7329],[103.5783,14.7327],[103.578,14.7327]],[[103.5713,14.7307],[103.5716,14.731],[103.5716,14.7307],[103.5713,14.7307]],[[103.5699,14.7307],[103.5707,14.7307],[103.5707,14.7304],[103.5699,14.7302],[103.5699,14.7307]],[[103.5697,14.7277],[103.5702,14.7275],[103.5702,14.7269],[103.5697,14.7272],[103.5697,14.7277]]]}},{"type":"Feature","properties":{"kind":"seasonal","area_km2":1.138,"date":"2026-10-04"},"geometry":{"type":"Polygon","coordinates":[[[103.0651,14.8886],[103.0623,14.8883],[103.0618,14.8867],[103.0612,14.8867],[103.0612,14.8861],[103.0606,14.8859],[103.0607,14.8851],[103.0615,14.8845],[103.0615,14.8837],[103.061,14.8826],[103.0598,14.8818],[103.0599,14.881],[103.0585,14.8793],[103.0585,14.8785],[103.0577,14.878],[103.0574,14.8769],[103.0568,14.8769],[103.0568,14.8763],[103.0541,14.875],[103.0538,14.8742],[103.053,14.8733],[103.0524,14.8733],[103.0521,14.8725],[103.0513,14.872],[103.0513,14.8709],[103.0505,14.8709],[103.0502,14.8703],[103.0502,14.8684],[103.0505,14.8679],[103.0516,14.8676],[103.0516,14.8671],[103.0508,14.8671],[103.0508,14.866],[103.0522,14.866],[103.0522,14.8655],[103.0544,14.8649],[103.0544,14.8636],[103.0558,14.8639],[103.0561,14.8628],[103.062,14.8628],[103.062,14.8634],[103.0628,14.8637],[103.0631,14.8647],[103.0639,14.865],[103.0639,14.8661],[103.0644,14.8664],[103.0658,14.8691],[103.0658,14.8756],[103.0649,14.8761],[103.0649,14.8786],[103.0657,14.8797],[103.0651,14.8886]],[[103.0632,14.8859],[103.0643,14.8859],[103.0648,14.8845],[103.0646,14.8759],[103.0652,14.8756],[103.0655,14.8694],[103.0647,14.868],[103.0636,14.8677],[103.0639,14.8669],[103.0628,14.8666],[103.0628,14.8656],[103.0619,14.8655],[103.0619,14.865],[103.0606,14.865],[103.0605,14.8655],[103.06,14.8655],[103.0591,14.8666],[103.06,14.8666],[103.06,14.8672],[103.0589,14.8674],[103.0589,14.8669],[103.0583,14.8666],[103.0572,14.8671],[103.0572,14.8679],[103.0569,14.8679],[103.0566,14.8682],[103.0569,14.869],[103.0563,14.869],[103.0561,14.8685],[103.0549,14.8693],[103.0549,14.8701],[103.0544,14.8706],[103.0549,14.8717],[103.0538,14.8723],[103.0544,14.8723],[103.0546,14.8739],[103.0549,14.8733],[103.0555,14.8734],[103.0555,14.8742],[103.0566,14.8736],[103.0566,14.8744],[103.0571,14.8745],[103.0566,14.8747],[103.0566,14.8755],[103.0571,14.8755],[103.0574,14.8769],[103.0579,14.8769],[103.0588,14.8788],[103.0599,14.8791],[103.0599,14.8807],[103.0607,14.8815],[103.0607,14.8821],[103.0615,14.8824],[103.0615,14.8829],[103.0621,14.8829],[103.0618,14.884],[103.0629,14.8845],[103.0632,14.8859]],[[103.0524,14.872],[103.0527,14.8722],[103.0527,14.872],[103.0524,14.872]],[[103.0566,14.8677],[103.0569,14.8679],[103.0569,14.8677],[103.0566,14.8677]],[[103.0558,14.8671],[103.0566,14.8674],[103.0566,14.8671],[103.0558,14.8671]],[[103.0589,14.8655],[103.0592,14.8658],[103.0592,14.8655],[103.0589,14.8655]],[[103.0597,14.8653],[103.06,14.8655],[103.06,14.8653],[103.0597,14.8653]]]}},{"type":"Feature","properties":{"kind":"seasonal","area_km2":1.044,"date":"2026-10-09"},"geometry":{"type":"Polygon","coordinates":[[[103.9459,14.4195],[103.9459,14.4184],[103.9431,14.417],[103.9423,14.4159],[103.9417,14.4159],[103.9415,14.4149],[103.9401,14.4135],[103.9404,14.4113],[103.9393,14.4105],[103.9398,14.4089],[103.9398,14.4062],[103.9379,14.4045],[103.9348,14.404],[103.9332,14.4021],[103.9315,14.4023],[103.931,14.4012],[103.9301,14.4004],[103.9296,14.4004],[103.929,14.3993],[103.9282,14.3991],[103.9276,14.3974],[103.9262,14.3969],[103.9257,14.3972],[103.9218,14.3963],[103.9218,14.395],[103.9243,14.395],[103.9268,14.3958],[103.9282,14.3958],[103.9288,14.3964],[103.9307,14.3964],[103.9315,14.3958],[103.9318,14.3985],[103.9326,14.3994],[103.9362,14.3996],[103.9374,14.3991],[103.939,14.3991],[103.9393,14.4005],[103.9399,14.401],[103.9404,14.401],[103.941,14.4018],[103.9429,14.4021],[103.9437,14.4029],[103.9437,14.4035],[103.9446,14.4037],[103.9446,14.4048],[103.9435,14.4056],[103.9429,14.4073],[103.9432,14.4092],[103.9437,14.4097],[103.9429,14.4108],[103.9429,14.4121],[103.9434,14.4132],[103.944,14.4132],[103.9445,14.4141],[103.9465,14.4135],[103.9481,14.4154],[103.9481,14.416],[103.949,14.4165],[103.9492,14.4181],[103.949,14.419],[103.9459,14.4195]],[[103.947,14.4189],[103.9481,14.4187],[103.9479,14.4162],[103.9459,14.4151],[103.9442,14.4154],[103.944,14.4146],[103.9429,14.4138],[103.9429,14.4127],[103.942,14.4113],[103.9426,14.4086],[103.9418,14.4075],[103.9423,14.4075],[103.9421,14.4067],[103.9426,14.4037],[103.9418,14.4032],[103.9418,14.4026],[103.9412,14.4026],[103.9412,14.4032],[103.941,14.4026],[103.9401,14.4026],[103.9401,14.4016],[103.939,14.4013],[103.939,14.4005],[103.9374,14.4007],[103.9371,14.4002],[103.9368,14.401],[103.9351,14.401],[103.9349,14.3999],[103.9343,14.3999],[103.934,14.401],[103.9332,14.401],[103.9332,14.4004],[103.9337,14.4002],[103.9329,14.4002],[103.9323,14.4007],[103.9329,14.401],[103.9329,14.4018],[103.934,14.4018],[103.9351,14.4026],[103.9351,14.4032],[103.9362,14.4032],[103.9362,14.4024],[103.9368,14.4024],[103.9365,14.4032],[103.9371,14.4032],[103.9373,14.404],[103.9385,14.404],[103.9401,14.4062],[103.9404,14.4056],[103.9407,14.4062],[103.9412,14.4059],[103.9412,14.4067],[103.9404,14.4067],[103.9404,14.4073],[103.9409,14.4075],[103.9404,14.41],[103.9409,14.4119],[103.9418,14.4121],[103.9418,14.4127],[103.9412,14.4127],[103.9412,14.4135],[103.9417,14.4135],[103.9434,14.4157],[103.9462,14.4162],[103.9465,14.4184],[103.947,14.4189]],[[103.9448,14.4146],[103.9454,14.4149],[103.9454,14.4146],[103.9448,14.4146]],[[103.9321,14.401],[103.9323,14.4012],[103.9323,14.401],[103.9321,14.401]],[[103.9312,14.4007],[103.9321,14.4007],[103.9318,14.3999],[103.9315,14.3999],[103.9312,14.4007]],[[103.9321,14.3999],[103.9326,14.4002],[103.9326,14.3999],[103.9321,14.3999]],[[103.9299,14.398],[103.9301,14.3983],[103.9301,14.398],[103.9299,14.398]]]}},{"type":"Feature","properties":{"kind":"seasonal","area_km2":1.039,"date":"2026-10-04"},"geometry":{"type":"Polygon","coordinates":[[[103.0895,14.8707],[103.0892,14.869],[103.0881,14.8682],[103.0881,14.8658],[103.0887,14.8655],[103.0887,14.8644],[103.0876,14.8644],[103.0876,14.8639],[103.0856,14.8647],[103.0854,14.8652],[103.0859,14.8668],[103.087,14.8668],[103.087,14.8674],[103.0876,14.8674],[103.0876,14.8682],[103.0867,14.8682],[103.0867,14.869],[103.0834,14.869],[103.0834,14.8679],[103.0839,14.8679],[103.0842,14.8674],[103.0823,14.8671],[103.082,14.8665],[103.0814,14.8665],[103.0812,14.8657],[103.0803,14.8654],[103.0798,14.8654],[103.0798,14.8662],[103.0792,14.8668],[103.0806,14.8665],[103.0806,14.8673],[103.0789,14.8676],[103.0789,14.8681],[103.0756,14.8681],[103.0756,14.867],[103.077,14.8662],[103.0776,14.8624],[103.0801,14.8611],[103.0823,14.8611],[103.0818,14.8603],[103.0812,14.8603],[103.0812,14.8608],[103.0784,14.8603],[103.0784,14.8589],[103.0796,14.8578],[103.0821,14.8581],[103.0821,14.8589],[103.0826,14.8589],[103.0826,14.8584],[103.0835,14.8584],[103.084,14.8595],[103.0854,14.8592],[103.0865,14.8598],[103.0873,14.8612],[103.0879,14.8612],[103.0884,14.8636],[103.0898,14.8639],[103.0898,14.8652],[103.089,14.8655],[103.089,14.8674],[103.0895,14.8682],[103.0903,14.8685],[103.0903,14.8707],[103.0895,14.8707]],[[103.0773,14.8678],[103.0778,14.8678],[103.0778,14.8673],[103.0784,14.8676],[103.0781,14.8665],[103.0775,14.8665],[103.0773,14.8678]],[[103.0829,14.8619],[103.0862,14.8622],[103.0862,14.8614],[103.0851,14.8614],[103.0851,14.8606],[103.0834,14.8608],[103.0829,14.8614],[103.0829,14.8619]]]}},{"type":"Feature","properties":{"kind":"seasonal","area_km2":0.902,"date":"2026-10-09"},"geometry":{"type":"Polygon","coordinates":[[[103.8126,14.9398],[103.8123,14.9393],[103.8115,14.9393],[103.8112,14.9379],[103.8104,14.9374],[103.8104,14.9322],[103.8121,14.9303],[103.8121,14.9298],[103.8129,14.9292],[103.8129,14.9287],[103.8138,14.9282],[103.8149,14.926],[103.8163,14.926],[103.8179,14.9274],[103.8191,14.9274],[103.8196,14.9282],[103.8202,14.9282],[103.8202,14.9293],[103.8176,14.9325],[103.8176,14.9333],[103.8165,14.9341],[103.8165,14.9352],[103.8143,14.9377],[103.8145,14.9393],[103.814,14.9393],[103.8137,14.9398],[103.8126,14.9398]]]}},{"type":"Feature","properties":{"kind":"seasonal","area_km2":0.697,"date":"2026-10-09"},"geometry":{"type":"Polygon","coordinates":[[[103.7864,14.4334],[103.7855,14.4323],[103.7855,14.4312],[103.7864,14.4304],[103.7864,14.4296],[103.7872,14.4288],[103.7872,14.4271],[103.7878,14.4269],[103.7872,14.4258],[103.7873,14.4241],[103.7884,14.4231],[103.7884,14.4214],[103.7873,14.4203],[103.7859,14.4203],[103.7851,14.4193],[103.7848,14.4176],[103.7854,14.4163],[103.7876,14.4166],[103.7878,14.4176],[103.7895,14.4174],[103.7909,14.4196],[103.7915,14.4196],[103.7917,14.4201],[103.7928,14.4201],[103.7931,14.4231],[103.7939,14.4231],[103.7945,14.4226],[103.7945,14.4204],[103.7953,14.4204],[103.7959,14.4198],[103.7962,14.4174],[103.7976,14.4177],[103.7979,14.4199],[103.7973,14.4199],[103.7973,14.4204],[103.7981,14.4207],[103.7981,14.4218],[103.7976,14.4226],[103.7978,14.4261],[103.797,14.4264],[103.797,14.4272],[103.7964,14.4272],[103.7964,14.4277],[103.7959,14.4277],[103.7947,14.4291],[103.7936,14.4293],[103.7919,14.4309],[103.7914,14.4326],[103.7911,14.432],[103.7917,14.4301],[103.7931,14.4296],[103.7942,14.4285],[103.7942,14.428],[103.7953,14.4277],[103.7956,14.4269],[103.7964,14.4266],[103.7959,14.4264],[103.7959,14.4245],[103.7964,14.4245],[103.7967,14.4231],[103.7956,14.4223],[103.7956,14.4217],[103.7965,14.4218],[103.7965,14.4207],[103.7959,14.4207],[103.7959,14.4212],[103.7953,14.4215],[103.7953,14.4223],[103.7948,14.4226],[103.7948,14.4239],[103.7942,14.4239],[103.7939,14.4253],[103.7934,14.4244],[103.7928,14.4244],[103.7923,14.4253],[103.7928,14.4263],[103.7934,14.4263],[103.7936,14.4258],[103.7939,14.4263],[103.7934,14.4269],[103.7917,14.4269],[103.7914,14.4252],[103.792,14.425],[103.7926,14.4228],[103.792,14.4228],[103.7917,14.4204],[103.7909,14.4206],[103.7906,14.4198],[103.7892,14.4195],[103.7887,14.4206],[103.7892,14.4223],[103.7889,14.4233],[103.7884,14.4236],[103.7881,14.4252],[103.7884,14.4274],[103.7875,14.4298],[103.7864,14.4306],[103.7864,14.4334]],[[103.7881,14.4201],[103.7884,14.4206],[103.7884,14.4201],[103.7881,14.4201]],[[103.7876,14.4198],[103.7881,14.4198],[103.7881,14.4193],[103.7878,14.4193],[103.7876,14.4198]]]}},{"type":"Feature","properties":{"kind":"seasonal","area_km2":0.653,"date":"2026-10-04"},"geometry":{"type":"Polygon","coordinates":[[[103.321,14.8158],[103.3191,14.815],[103.3185,14.8139],[103.3177,14.8133],[103.3177,14.8128],[103.3166,14.812],[103.3166,14.8114],[103.3149,14.8103],[103.3149,14.8095],[103.3158,14.8095],[103.3152,14.8093],[103.3155,14.8079],[103.3149,14.8071],[103.3155,14.8055],[103.3141,14.8054],[103.3138,14.8065],[103.3138,14.8076],[103.3144,14.8079],[103.3141,14.8087],[103.313,14.8068],[103.313,14.8057],[103.3139,14.8041],[103.3161,14.8038],[103.3166,14.8047],[103.3166,14.8063],[103.3172,14.8066],[103.3172,14.8076],[103.318,14.8085],[103.3186,14.8085],[103.3197,14.8079],[103.3202,14.8071],[103.3214,14.8074],[103.3222,14.8039],[103.3228,14.8033],[103.3239,14.8033],[103.3238,14.8101],[103.3222,14.812],[103.3224,14.8147],[103.323,14.815],[103.323,14.8158],[103.321,14.8158]],[[103.3213,14.8155],[103.3221,14.8155],[103.3213,14.8115],[103.3197,14.8112],[103.3194,14.8104],[103.3185,14.8104],[103.318,14.8112],[103.318,14.8117],[103.3188,14.812],[103.3191,14.8128],[103.3199,14.8128],[103.3188,14.8133],[103.3196,14.8139],[103.3205,14.8134],[103.3213,14.8155]],[[103.3177,14.8112],[103.3185,14.8098],[103.3183,14.8093],[103.3177,14.8093],[103.3174,14.8098],[103.3177,14.8112]],[[103.3213,14.8109],[103.3216,14.8112],[103.3216,14.8109],[103.3213,14.8109]],[[103.3216,14.8104],[103.3222,14.8104],[103.3222,14.8098],[103.3219,14.8098],[103.3216,14.8104]],[[103.3222,14.8098],[103.323,14.8099],[103.323,14.8096],[103.3222,14.8093],[103.3222,14.8098]],[[103.3186,14.8093],[103.3191,14.8096],[103.3191,14.8093],[103.3186,14.8093]],[[103.3225,14.8093],[103.323,14.8093],[103.323,14.8088],[103.3225,14.8088],[103.3225,14.8093]],[[103.3158,14.8057],[103.3164,14.8057],[103.3164,14.8052],[103.3158,14.8052],[103.3158,14.8057]]]}},{"type":"Feature","properties":{"kind":"seasonal","area_km2":0.639,"date":"2026-10-09"},"geometry":{"type":"Polygon","coordinates":[[[103.538,14.7565],[103.5363,14.7557],[103.5363,14.7549],[103.5369,14.7546],[103.5366,14.7535],[103.5372,14.7533],[103.5369,14.7511],[103.5397,14.7511],[103.5402,14.7517],[103.5405,14.753],[103.543,14.7539],[103.5472,14.7536],[103.5478,14.7531],[103.5481,14.7498],[103.5464,14.7482],[103.5453,14.7455],[103.5447,14.7452],[103.5447,14.7444],[103.5456,14.7436],[103.547,14.7436],[103.547,14.7441],[103.5484,14.7444],[103.5484,14.7449],[103.5495,14.7455],[103.55,14.7463],[103.5506,14.7463],[103.5514,14.7474],[103.557,14.748],[103.5581,14.7477],[103.5589,14.7466],[103.5595,14.7466],[103.5603,14.7458],[103.5604,14.7429],[103.5615,14.7426],[103.5618,14.742],[103.5631,14.7421],[103.5637,14.7431],[103.5659,14.7429],[103.5654,14.744],[103.5637,14.744],[103.5629,14.7434],[103.5629,14.7429],[103.5617,14.7431],[103.5615,14.7439],[103.562,14.7442],[103.5623,14.7453],[103.5623,14.7467],[103.5617,14.7477],[103.562,14.7491],[103.5609,14.7488],[103.5609,14.7483],[103.5603,14.748],[103.5584,14.7483],[103.5584,14.7488],[103.557,14.7488],[103.557,14.7483],[103.555,14.7482],[103.555,14.7488],[103.5547,14.7482],[103.5534,14.7482],[103.5534,14.7488],[103.5522,14.7488],[103.5522,14.7482],[103.5511,14.7479],[103.5495,14.7463],[103.5464,14.746],[103.5467,14.7474],[103.5472,14.7476],[103.5472,14.7482],[103.5478,14.7482],[103.5478,14.749],[103.5486,14.7501],[103.5483,14.7536],[103.5469,14.7539],[103.5466,14.7544],[103.5433,14.7544],[103.5399,14.7536],[103.5399,14.753],[103.5388,14.753],[103.5391,14.7538],[103.5374,14.7541],[103.5383,14.7549],[103.5383,14.756],[103.5391,14.7563],[103.538,14.7565]],[[103.5377,14.7533],[103.538,14.7536],[103.538,14.7533],[103.5377,14.7533]],[[103.5386,14.7527],[103.5388,14.753],[103.5388,14.7527],[103.5386,14.7527]]]}},{"type":"Feature","properties":{"kind":"seasonal","area_km2":0.626,"date":"2026-10-09"},"geometry":{"type":"Polygon","coordinates":[[[103.7431,14.4573],[103.7392,14.4537],[103.7392,14.4529],[103.7398,14.4526],[103.7398,14.4513],[103.7392,14.451],[103.7393,14.4488],[103.7395,14.4483],[103.7415,14.4486],[103.7426,14.447],[103.7468,14.4467],[103.7482,14.4443],[103.7477,14.4389],[103.7499,14.4383],[103.7499,14.4375],[103.751,14.4375],[103.7513,14.4386],[103.7493,14.4399],[103.7499,14.4421],[103.7515,14.4427],[103.7515,14.4448],[103.7504,14.4456],[103.7509,14.4481],[103.7482,14.4486],[103.7456,14.451],[103.7456,14.4524],[103.7462,14.4524],[103.7473,14.4535],[103.7481,14.4535],[103.7484,14.4551],[103.7476,14.4551],[103.747,14.4557],[103.7453,14.4557],[103.7442,14.4573],[103.7431,14.4573]],[[103.7431,14.4565],[103.7439,14.4556],[103.7459,14.4554],[103.7459,14.4546],[103.7465,14.4546],[103.7467,14.4551],[103.7467,14.454],[103.7462,14.454],[103.7462,14.4532],[103.7451,14.4524],[103.7448,14.4508],[103.7454,14.4497],[103.7459,14.4497],[103.7462,14.4489],[103.7468,14.4489],[103.7468,14.4483],[103.7476,14.4483],[103.7476,14.4475],[103.7493,14.4473],[103.749,14.4465],[103.7498,14.4465],[103.7493,14.4456],[103.7498,14.4456],[103.7499,14.4451],[103.7504,14.4448],[103.7499,14.4435],[103.7496,14.444],[103.749,14.444],[103.7487,14.4456],[103.7476,14.4459],[103.7482,14.4462],[103.7482,14.4467],[103.7473,14.4467],[103.7473,14.4473],[103.7462,14.4475],[103.7459,14.4483],[103.7448,14.4483],[103.7448,14.4478],[103.7429,14.4478],[103.7429,14.4486],[103.742,14.4494],[103.7404,14.4494],[103.7406,14.4545],[103.7431,14.4559],[103.7431,14.4565]],[[103.7493,14.4467],[103.7496,14.447],[103.7496,14.4467],[103.7493,14.4467]]]}},{"type":"Feature","properties":{"kind":"seasonal","area_km2":0.612,"date":"2026-10-04"},"geometry":{"type":"Polygon","coordinates":[[[103.0501,14.9094],[103.0501,14.908],[103.0496,14.908],[103.0493,14.9066],[103.0482,14.9064],[103.0479,14.9042],[103.0466,14.9028],[103.0466,14.8996],[103.046,14.8996],[103.0447,14.8968],[103.0438,14.8966],[103.0433,14.8955],[103.0422,14.8952],[103.0397,14.8954],[103.0366,14.8952],[103.043,14.8947],[103.0433,14.8952],[103.0438,14.8952],[103.0438,14.8958],[103.0455,14.8958],[103.0458,14.8966],[103.0477,14.8969],[103.0486,14.8974],[103.0496,14.9029],[103.0507,14.9037],[103.0546,14.904],[103.0546,14.9067],[103.0524,14.9094],[103.0512,14.9094],[103.0513,14.904],[103.0507,14.9039],[103.0507,14.9086],[103.0501,14.9094]],[[103.0488,14.902],[103.0491,14.9026],[103.0491,14.902],[103.0488,14.902]]]}},{"type":"Feature","properties":{"kind":"seasonal","area_km2":0.561,"date":"2026-10-04"},"geometry":{"type":"Polygon","coordinates":[[[103.3553,14.8548],[103.3542,14.8535],[103.3542,14.8526],[103.3536,14.8521],[103.3528,14.8521],[103.3522,14.8513],[103.3506,14.8507],[103.3481,14.851],[103.3481,14.8474],[103.3489,14.8469],[103.3489,14.8464],[103.3506,14.8467],[103.3506,14.8461],[103.354,14.8459],[103.3542,14.847],[103.3548,14.8472],[103.3548,14.8483],[103.3559,14.8486],[103.3564,14.8505],[103.3575,14.8519],[103.3575,14.8532],[103.357,14.8535],[103.357,14.8543],[103.3553,14.8548]],[[103.3511,14.8494],[103.3514,14.8499],[103.3517,14.8494],[103.3511,14.8494]],[[103.3531,14.8461],[103.3534,14.8467],[103.3534,14.8461],[103.3531,14.8461]]]}},{"type":"Feature","properties":{"kind":"seasonal","area_km2":0.503,"date":"2026-10-04"},"geometry":{"type":"Polygon","coordinates":[[[103.0682,14.8846],[103.0685,14.8832],[103.0693,14.8832],[103.0707,14.8824],[103.0705,14.8792],[103.0696,14.8789],[103.0699,14.877],[103.0694,14.8762],[103.0694,14.8735],[103.0697,14.8727],[103.0705,14.8724],[103.0694,14.8724],[103.0694,14.871],[103.0703,14.87],[103.0722,14.8697],[103.0731,14.8702],[103.073,14.8716],[103.0725,14.8716],[103.0722,14.8727],[103.0716,14.8727],[103.0716,14.8743],[103.0722,14.8743],[103.0724,14.8751],[103.0716,14.8757],[103.0708,14.8754],[103.0708,14.8767],[103.0719,14.8767],[103.0716,14.8776],[103.0719,14.8792],[103.0716,14.8797],[103.0718,14.8803],[103.0724,14.8797],[103.0727,14.8811],[103.0713,14.8813],[103.0732,14.8819],[103.0738,14.8819],[103.0738,14.8814],[103.078,14.8817],[103.078,14.8822],[103.0805,14.8833],[103.0768,14.8833],[103.0766,14.8827],[103.0741,14.8827],[103.0732,14.8835],[103.0732,14.8841],[103.0707,14.8838],[103.0696,14.8846],[103.0682,14.8846]],[[103.0713,14.8773],[103.0716,14.8776],[103.0716,14.8773],[103.0713,14.8773]],[[103.0719,14.8708],[103.0722,14.8713],[103.0722,14.8708],[103.0719,14.8708]]]}},{"type":"Feature","properties":{"kind":"seasonal","area_km2":0.497,"date":"2026-10-04"},"geometry":{"type":"Polygon","coordinates":[[[103.1614,14.3708],[103.1594,14.3707],[103.1592,14.3694],[103.1575,14.3683],[103.1575,14.3669],[103.1584,14.3669],[103.1586,14.3675],[103.1592,14.3669],[103.1592,14.3661],[103.157,14.3656],[103.1564,14.3642],[103.1559,14.3642],[103.1559,14.3631],[103.1576,14.3631],[103.1581,14.3626],[103.1609,14.3626],[103.162,14.3653],[103.1631,14.3664],[103.1645,14.3664],[103.165,14.367],[103.1647,14.3689],[103.1636,14.3691],[103.1634,14.3697],[103.1625,14.3697],[103.1614,14.3708]],[[103.1581,14.365],[103.1587,14.365],[103.1587,14.3642],[103.1581,14.3642],[103.1581,14.365]]]}},{"type":"Feature","properties":{"kind":"seasonal","area_km2":0.441,"date":"2026-10-04"},"geometry":{"type":"Polygon","coordinates":[[[103.0819,14.651],[103.0797,14.6504],[103.0797,14.6496],[103.0778,14.6496],[103.0781,14.6474],[103.0786,14.6466],[103.0784,14.6442],[103.0789,14.6431],[103.0792,14.6407],[103.0784,14.6407],[103.0781,14.6412],[103.0784,14.6431],[103.0748,14.6428],[103.0748,14.6417],[103.0753,14.6415],[103.0751,14.6406],[103.0756,14.6406],[103.0759,14.639],[103.0765,14.639],[103.0762,14.6404],[103.077,14.6404],[103.0773,14.6393],[103.0787,14.6399],[103.0795,14.6399],[103.0798,14.639],[103.082,14.6391],[103.0826,14.6396],[103.0848,14.6394],[103.0829,14.6399],[103.0826,14.6407],[103.0815,14.6407],[103.0812,14.6412],[103.0806,14.6412],[103.0803,14.6428],[103.0795,14.6431],[103.0792,14.6458],[103.0798,14.6466],[103.08,14.6491],[103.0811,14.6494],[103.0817,14.6488],[103.0828,14.6488],[103.0853,14.6491],[103.085,14.6499],[103.0861,14.6497],[103.0861,14.6502],[103.0845,14.6502],[103.0845,14.6497],[103.0836,14.6494],[103.0831,14.6499],[103.0831,14.6507],[103.0819,14.651]]]}},{"type":"Feature","properties":{"kind":"seasonal","area_km2":0.392,"date":"2026-10-09"},"geometry":{"type":"Polygon","coordinates":[[[103.7129,14.4414],[103.7115,14.4403],[103.714,14.4406],[103.7143,14.4395],[103.7154,14.4387],[103.7154,14.4381],[103.7162,14.4381],[103.7162,14.4371],[103.7157,14.4368],[103.7157,14.4362],[103.7165,14.4349],[103.7165,14.4322],[103.7176,14.4316],[103.7177,14.4303],[103.7182,14.43],[103.7182,14.4295],[103.7188,14.4295],[103.7188,14.4284],[103.7205,14.4279],[103.7205,14.4265],[103.7199,14.4262],[103.7205,14.4262],[103.7207,14.4257],[103.7205,14.4251],[103.7196,14.4251],[103.7196,14.4268],[103.7171,14.4268],[103.7166,14.427],[103.7166,14.4276],[103.716,14.427],[103.7163,14.4259],[103.7157,14.4259],[103.7157,14.4265],[103.7138,14.4262],[103.7149,14.4262],[103.7152,14.4257],[103.7166,14.4254],[103.7169,14.4249],[103.718,14.4249],[103.718,14.424],[103.7188,14.4238],[103.7188,14.4222],[103.7205,14.4222],[103.7208,14.423],[103.7219,14.4233],[103.7219,14.426],[103.7224,14.426],[103.7224,14.4268],[103.7213,14.4281],[103.7199,14.4284],[103.7199,14.4289],[103.7188,14.43],[103.7185,14.4316],[103.7174,14.4327],[103.7168,14.4354],[103.7171,14.4381],[103.7143,14.4403],[103.7143,14.4414],[103.7129,14.4414]],[[103.721,14.427],[103.7213,14.4276],[103.7213,14.427],[103.721,14.427]],[[103.7207,14.4251],[103.7213,14.4252],[103.721,14.4241],[103.7205,14.4241],[103.7207,14.4251]],[[103.7205,14.4232],[103.7208,14.4235],[103.7208,14.4233],[103.7205,14.4232]],[[103.7194,14.4224],[103.7199,14.4227],[103.7199,14.4224],[103.7194,14.4224]]]}},{"type":"Feature","properties":{"kind":"seasonal","area_km2":0.369,"date":"2026-10-09"},"geometry":{"type":"Polygon","coordinates":[[[103.4883,14.6865],[103.4875,14.6857],[103.4869,14.6857],[103.4869,14.6841],[103.4878,14.6776],[103.4889,14.6773],[103.4895,14.6781],[103.4923,14.6782],[103.4925,14.6792],[103.4917,14.68],[103.4911,14.6833],[103.4905,14.6836],[103.4905,14.6841],[103.4897,14.6838],[103.4891,14.6846],[103.4891,14.6852],[103.4897,14.6852],[103.4897,14.6865],[103.4883,14.6865]],[[103.4897,14.6833],[103.4903,14.6833],[103.4903,14.6827],[103.4897,14.6827],[103.4897,14.6833]]]}},{"type":"Feature","properties":{"kind":"seasonal","area_km2":0.361,"date":"2026-10-09"},"geometry":{"type":"Polygon","coordinates":[[[103.9554,14.9432],[103.9548,14.9391],[103.9562,14.9381],[103.9562,14.9373],[103.9568,14.9367],[103.9571,14.9348],[103.9565,14.9316],[103.9593,14.931],[103.9596,14.9351],[103.9585,14.9373],[103.9585,14.9386],[103.9576,14.94],[103.957,14.9432],[103.9554,14.9432]]]}},{"type":"Feature","properties":{"kind":"seasonal","area_km2":0.35,"date":"2026-10-04"},"geometry":{"type":"Polygon","coordinates":[[[103.2945,14.8199],[103.2939,14.8194],[103.2945,14.8175],[103.2926,14.8175],[103.2923,14.8169],[103.2915,14.8169],[103.2909,14.8153],[103.2923,14.8153],[103.2929,14.8142],[103.2934,14.8142],[103.2934,14.8137],[103.2948,14.8134],[103.2954,14.8124],[103.2965,14.8124],[103.2971,14.8126],[103.2971,14.8135],[103.2985,14.8137],[103.2984,14.8146],[103.2971,14.8145],[103.2965,14.8153],[103.2973,14.8175],[103.2973,14.8192],[103.2965,14.82],[103.2945,14.8199]]]}},{"type":"Feature","properties":{"kind":"seasonal","area_km2":0.344,"date":"2026-10-04"},"geometry":{"type":"Polygon","coordinates":[[[103.3205,14.8424],[103.3197,14.8415],[103.3197,14.8391],[103.3183,14.8388],[103.3181,14.8372],[103.3186,14.8372],[103.3189,14.8364],[103.3236,14.8359],[103.3239,14.8343],[103.3256,14.8343],[103.3248,14.8359],[103.3267,14.8356],[103.3267,14.8364],[103.3261,14.8364],[103.3259,14.837],[103.3242,14.8367],[103.3242,14.8381],[103.3236,14.8391],[103.3225,14.8399],[103.3216,14.8418],[103.3205,14.8424]],[[103.3236,14.8364],[103.3242,14.8364],[103.3242,14.8362],[103.3236,14.8359],[103.3236,14.8364]]]}},{"type":"Feature","properties":{"kind":"seasonal","area_km2":0.281,"date":"2026-10-04"},"geometry":{"type":"Polygon","coordinates":[[[103.2893,14.7784],[103.2879,14.776],[103.2879,14.7746],[103.2873,14.7743],[103.2874,14.7719],[103.2893,14.7714],[103.2896,14.7708],[103.2913,14.7706],[103.2915,14.7719],[103.2907,14.7725],[103.2907,14.7736],[103.2912,14.7746],[103.2912,14.776],[103.2918,14.7765],[103.2918,14.7776],[103.2907,14.7779],[103.2904,14.7784],[103.2893,14.7784]],[[103.2907,14.7773],[103.2909,14.7776],[103.2909,14.7773],[103.2907,14.7773]],[[103.2904,14.7768],[103.2907,14.7773],[103.2907,14.7768],[103.2904,14.7768]],[[103.2901,14.776],[103.2904,14.7768],[103.2904,14.776],[103.2901,14.776]]]}},{"type":"Feature","properties":{"kind":"seasonal","area_km2":0.273,"date":"2026-10-09"},"geometry":{"type":"Polygon","coordinates":[[[103.9442,14.9405],[103.9442,14.9394],[103.9423,14.9396],[103.9423,14.938],[103.9443,14.9364],[103.9443,14.9318],[103.9448,14.9321],[103.9448,14.9312],[103.9446,14.9299],[103.9423,14.9296],[103.9421,14.9274],[103.9437,14.9274],[103.9437,14.9283],[103.9448,14.9283],[103.9448,14.9288],[103.9454,14.9288],[103.9454,14.9293],[103.9448,14.9291],[103.9448,14.9296],[103.946,14.9302],[103.9462,14.9342],[103.9457,14.9345],[103.9456,14.938],[103.9462,14.938],[103.9462,14.9388],[103.9456,14.9394],[103.9456,14.9383],[103.9454,14.9378],[103.9448,14.9377],[103.9448,14.9405],[103.9442,14.9405]],[[103.9445,14.9375],[103.9448,14.9377],[103.9448,14.9375],[103.9445,14.9375]],[[103.9448,14.9369],[103.9454,14.9372],[103.9454,14.9369],[103.9448,14.9369]],[[103.9448,14.9364],[103.9454,14.9367],[103.9454,14.9364],[103.9448,14.9364]],[[103.9448,14.9358],[103.9454,14.9359],[103.9454,14.9348],[103.9448,14.9348],[103.9448,14.9358]],[[103.9445,14.9329],[103.9448,14.9331],[103.9448,14.9329],[103.9445,14.9329]],[[103.9448,14.931],[103.9451,14.9312],[103.9451,14.931],[103.9448,14.931]],[[103.9423,14.9285],[103.9426,14.9288],[103.9426,14.9285],[103.9423,14.9285]]]}},{"type":"Feature","properties":{"kind":"seasonal","area_km2":0.257,"date":"2026-10-04"},"geometry":{"type":"Polygon","coordinates":[[[103.1822,14.5827],[103.1808,14.5797],[103.1811,14.5775],[103.1817,14.577],[103.1856,14.577],[103.1858,14.5797],[103.1847,14.5805],[103.1847,14.5813],[103.1833,14.5827],[103.1822,14.5827]],[[103.185,14.5781],[103.1853,14.5784],[103.1853,14.5781],[103.185,14.5781]]]}},{"type":"Feature","properties":{"kind":"seasonal","area_km2":0.256,"date":"2026-10-04"},"geometry":{"type":"Polygon","coordinates":[[[103.3585,14.975],[103.3572,14.9736],[103.3572,14.9693],[103.358,14.9687],[103.3597,14.969],[103.3614,14.9704],[103.3613,14.9739],[103.3602,14.975],[103.3585,14.975]]]}},{"type":"Feature","properties":{"kind":"seasonal","area_km2":0.251,"date":"2026-10-04"},"geometry":{"type":"Polygon","coordinates":[[[103.2997,14.3924],[103.2989,14.391],[103.2989,14.3894],[103.2992,14.3875],[103.2998,14.387],[103.3001,14.3843],[103.3023,14.3827],[103.304,14.3827],[103.304,14.384],[103.3031,14.3846],[103.3037,14.3875],[103.3034,14.3892],[103.3028,14.3892],[103.3014,14.3905],[103.3009,14.3924],[103.2997,14.3924]],[[103.2998,14.391],[103.3003,14.391],[103.3006,14.3902],[103.3,14.3902],[103.2998,14.391]],[[103.2995,14.3902],[103.3006,14.3897],[103.3003,14.3889],[103.3009,14.3889],[103.3012,14.3894],[103.3012,14.3889],[103.3026,14.3883],[103.3017,14.3881],[103.3028,14.3875],[103.3023,14.3873],[103.3026,14.3851],[103.3009,14.3848],[103.3009,14.3856],[103.3004,14.3853],[103.3001,14.3864],[103.3006,14.3875],[103.3003,14.3881],[103.2998,14.3881],[103.2995,14.3902]],[[103.3006,14.3897],[103.3009,14.39],[103.3009,14.3897],[103.3006,14.3897]]]}},{"type":"Feature","properties":{"kind":"seasonal","area_km2":0.244,"date":"2026-10-09"},"geometry":{"type":"Polygon","coordinates":[[[103.866,14.43],[103.8643,14.4278],[103.8643,14.4267],[103.8649,14.4264],[103.8652,14.4251],[103.8666,14.424],[103.8666,14.4235],[103.8674,14.4235],[103.8674,14.4262],[103.8688,14.4262],[103.8696,14.4251],[103.8705,14.4251],[103.8704,14.4259],[103.8699,14.4262],[103.869,14.4283],[103.8674,14.43],[103.866,14.43]]]}},{"type":"Feature","properties":{"kind":"seasonal","area_km2":0.242,"date":"2026-10-09"},"geometry":{"type":"Polygon","coordinates":[[[103.7292,14.7533],[103.7286,14.7525],[103.7278,14.7522],[103.7278,14.7512],[103.7314,14.7474],[103.7314,14.7466],[103.7323,14.7466],[103.7325,14.7474],[103.7342,14.749],[103.7334,14.7493],[103.7334,14.7501],[103.7311,14.7509],[103.732,14.7525],[103.7292,14.7533]]]}},{"type":"Feature","properties":{"kind":"seasonal","area_km2":0.24,"date":"2026-10-09"},"geometry":{"type":"Polygon","coordinates":[[[103.3931,14.6412],[103.3931,14.639],[103.3925,14.639],[103.3929,14.6346],[103.3951,14.6344],[103.3973,14.6349],[103.3979,14.6355],[103.3984,14.6374],[103.399,14.6374],[103.3992,14.636],[103.4004,14.6363],[103.4004,14.6374],[103.3995,14.6371],[103.3995,14.6377],[103.3987,14.6377],[103.3987,14.6382],[103.3973,14.6387],[103.3959,14.6387],[103.3959,14.6382],[103.3953,14.6382],[103.3951,14.6363],[103.3934,14.6365],[103.3931,14.6412]]]}},{"type":"Feature","properties":{"kind":"seasonal","area_km2":0.239,"date":"2026-10-09"},"geometry":{"type":"Polygon","coordinates":[[[103.7972,14.7396],[103.7967,14.7385],[103.7967,14.7361],[103.7956,14.7347],[103.7948,14.7344],[103.7948,14.7333],[103.7953,14.7325],[103.7962,14.7325],[103.7967,14.7334],[103.7975,14.7334],[103.7989,14.7347],[103.7984,14.735],[103.7984,14.7361],[103.7995,14.7366],[103.7992,14.738],[103.8003,14.738],[103.8,14.7366],[103.8006,14.7366],[103.8014,14.7383],[103.8014,14.7391],[103.7986,14.7391],[103.7981,14.7396],[103.7972,14.7396]]]}},{"type":"Feature","properties":{"kind":"seasonal","area_km2":0.238,"date":"2026-10-04"},"geometry":{"type":"Polygon","coordinates":[[[103.3301,14.5352],[103.3304,14.5339],[103.3293,14.5336],[103.3293,14.5325],[103.3282,14.5312],[103.3274,14.5311],[103.3274,14.5298],[103.3288,14.5303],[103.3293,14.5293],[103.3307,14.5293],[103.3315,14.5295],[103.3326,14.5309],[103.3335,14.5309],[103.3335,14.532],[103.3324,14.5331],[103.3321,14.5344],[103.3312,14.5352],[103.3301,14.5352]]]}},{"type":"Feature","properties":{"kind":"seasonal","area_km2":0.234,"date":"2026-10-04"},"geometry":{"type":"Polygon","coordinates":[[[103.1294,14.9306],[103.1297,14.9298],[103.1288,14.9293],[103.1283,14.9295],[103.1286,14.9304],[103.1277,14.9303],[103.1266,14.9295],[103.1272,14.929],[103.1267,14.9252],[103.1275,14.9247],[103.128,14.9252],[103.1311,14.925],[103.1308,14.926],[103.1328,14.9261],[103.1331,14.9266],[103.1339,14.9266],[103.1339,14.9288],[103.1328,14.929],[103.1325,14.9285],[103.1311,14.9282],[103.1314,14.9266],[103.1308,14.9268],[103.1306,14.9258],[103.1294,14.926],[103.1289,14.9266],[103.1289,14.9276],[103.1283,14.9279],[103.1283,14.929],[103.1297,14.9287],[103.1308,14.9293],[103.1308,14.9301],[103.1302,14.9298],[103.1302,14.9304],[103.1294,14.9306]],[[103.1302,14.9293],[103.1305,14.9296],[103.1305,14.9293],[103.1302,14.9293]],[[103.1277,14.9287],[103.128,14.929],[103.128,14.9287],[103.1277,14.9287]],[[103.1277,14.9282],[103.128,14.9285],[103.128,14.9282],[103.1277,14.9282]],[[103.1314,14.9279],[103.1319,14.9279],[103.1319,14.9271],[103.1314,14.9271],[103.1314,14.9279]]]}},{"type":"Feature","properties":{"kind":"seasonal","area_km2":0.23,"date":"2026-10-04"},"geometry":{"type":"Polygon","coordinates":[[[103.225,14.8994],[103.225,14.8975],[103.2245,14.897],[103.2245,14.8959],[103.2234,14.8964],[103.2234,14.8956],[103.2228,14.8953],[103.2228,14.8926],[103.2265,14.8926],[103.2259,14.8929],[103.2264,14.8945],[103.2259,14.8948],[103.2256,14.8959],[103.2264,14.8967],[103.227,14.8967],[103.2273,14.8962],[103.2278,14.8983],[103.2273,14.8981],[103.2275,14.8991],[103.227,14.8991],[103.227,14.8994],[103.225,14.8994]],[[103.2267,14.8989],[103.227,14.8991],[103.227,14.8989],[103.2267,14.8989]]]}},{"type":"Feature","properties":{"kind":"seasonal","area_km2":0.216,"date":"2026-10-09"},"geometry":{"type":"Polygon","coordinates":[[[103.5494,14.46],[103.5505,14.4589],[103.5505,14.4567],[103.5508,14.4562],[103.5514,14.4562],[103.5514,14.4524],[103.5503,14.4524],[103.5508,14.4529],[103.55,14.4532],[103.5503,14.454],[103.5497,14.454],[103.5497,14.4562],[103.5489,14.4572],[103.5491,14.4591],[103.5488,14.4597],[103.5483,14.4564],[103.5491,14.4559],[103.5489,14.4551],[103.5494,14.4545],[103.5489,14.4537],[103.5489,14.4532],[103.5497,14.4526],[103.5492,14.451],[103.5514,14.451],[103.5522,14.4502],[103.5523,14.4486],[103.5531,14.4483],[103.5536,14.4494],[103.5531,14.4505],[103.5533,14.4518],[103.5519,14.454],[103.5519,14.4556],[103.5516,14.457],[103.5511,14.4573],[103.5508,14.4594],[103.5502,14.46],[103.5494,14.46]],[[103.5494,14.4537],[103.5497,14.454],[103.5497,14.4537],[103.5494,14.4537]],[[103.5514,14.4524],[103.5519,14.4524],[103.5525,14.4518],[103.5514,14.4518],[103.5514,14.4524]]]}},{"type":"Feature","properties":{"kind":"seasonal","area_km2":0.21,"date":"2026-10-09"},"geometry":{"type":"Polygon","coordinates":[[[103.3294,14.4037],[103.3294,14.4032],[103.3291,14.4032],[103.328,14.4018],[103.3281,14.4005],[103.3306,14.398],[103.3325,14.3975],[103.3328,14.397],[103.3339,14.397],[103.3339,14.3991],[103.3322,14.3994],[103.3317,14.3999],[103.3317,14.4027],[103.3305,14.4037],[103.3294,14.4037]],[[103.3289,14.4026],[103.33,14.4026],[103.3303,14.3999],[103.3294,14.4002],[103.3289,14.4026]],[[103.3303,14.3997],[103.3308,14.3999],[103.3308,14.3997],[103.3303,14.3997]]]}},{"type":"Feature","properties":{"kind":"seasonal","area_km2":0.209,"date":"2026-10-04"},"geometry":{"type":"Polygon","coordinates":[[[103.0485,14.3636],[103.046,14.3633],[103.0458,14.3598],[103.0469,14.3579],[103.0483,14.3579],[103.0494,14.3596],[103.0497,14.3625],[103.0485,14.3636]]]}},{"type":"Feature","properties":{"kind":"seasonal","area_km2":0.202,"date":"2026-10-09"},"geometry":{"type":"Polygon","coordinates":[[[103.9436,14.9459],[103.9434,14.9453],[103.94,14.9448],[103.9397,14.9442],[103.9398,14.9431],[103.9406,14.9432],[103.9412,14.9426],[103.9412,14.941],[103.9417,14.9404],[103.9426,14.9404],[103.9428,14.941],[103.9445,14.9407],[103.9448,14.9429],[103.9434,14.9432],[103.9439,14.9432],[103.9439,14.9437],[103.9445,14.9434],[103.9448,14.9445],[103.9439,14.9448],[103.9436,14.9459]]]}},{"type":"Feature","properties":{"kind":"seasonal","area_km2":0.201,"date":"2026-10-04"},"geometry":{"type":"Polygon","coordinates":[[[103.2852,14.8017],[103.2843,14.8009],[103.2843,14.7998],[103.2832,14.7995],[103.283,14.7976],[103.2833,14.7965],[103.2838,14.7963],[103.286,14.7963],[103.2874,14.8001],[103.2902,14.7998],[103.2894,14.8007],[103.288,14.8004],[103.2877,14.8012],[103.2874,14.8004],[103.2852,14.8004],[103.2849,14.8009],[103.2855,14.8014],[103.2868,14.8015],[103.2852,14.8017]]]}},{"type":"Feature","properties":{"kind":"seasonal","area_km2":0.199,"date":"2026-10-09"},"geometry":{"type":"Polygon","coordinates":[[[103.9909,14.4275],[103.9912,14.4267],[103.9951,14.4265],[103.9951,14.4257],[103.9957,14.4251],[103.9957,14.4232],[103.9951,14.4232],[103.9954,14.4219],[103.9926,14.4219],[103.9918,14.4221],[103.9912,14.4232],[103.9912,14.4213],[103.9946,14.4208],[103.9951,14.4213],[103.996,14.4213],[103.9962,14.4219],[103.9979,14.4216],[103.9979,14.4238],[103.9968,14.4246],[103.9965,14.4257],[103.9957,14.4262],[103.9951,14.4276],[103.9909,14.4275]]]}},{"type":"Feature","properties":{"kind":"seasonal","area_km2":0.195,"date":"2026-10-09"},"geometry":{"type":"Polygon","coordinates":[[[103.8155,14.9238],[103.8132,14.9238],[103.8132,14.9227],[103.8138,14.9225],[103.8144,14.9211],[103.8158,14.92],[103.8155,14.9179],[103.8161,14.9173],[103.8172,14.9173],[103.8172,14.9179],[103.8177,14.9179],[103.8177,14.9184],[103.8183,14.9184],[103.8186,14.919],[103.8185,14.9203],[103.8169,14.9211],[103.8166,14.9225],[103.8155,14.923],[103.8155,14.9238]]]}},{"type":"Feature","properties":{"kind":"seasonal","area_km2":0.193,"date":"2026-10-04"},"geometry":{"type":"Polygon","coordinates":[[[103.0198,14.8996],[103.019,14.8988],[103.017,14.8988],[103.0173,14.8969],[103.019,14.8964],[103.019,14.895],[103.0199,14.895],[103.0204,14.8956],[103.0204,14.8969],[103.0196,14.8972],[103.0196,14.8977],[103.0201,14.8983],[103.0209,14.8983],[103.0207,14.8969],[103.0213,14.8958],[103.0229,14.8958],[103.0229,14.8983],[103.0212,14.8985],[103.0212,14.8996],[103.0198,14.8996]]]}},{"type":"Feature","properties":{"kind":"seasonal","area_km2":0.191,"date":"2026-10-04"},"geometry":{"type":"Polygon","coordinates":[[[103.1746,14.7659],[103.1751,14.7643],[103.1749,14.7626],[103.1754,14.7626],[103.176,14.7607],[103.1791,14.7605],[103.1796,14.7619],[103.1796,14.7632],[103.179,14.7643],[103.1782,14.7643],[103.1771,14.7635],[103.1762,14.764],[103.1765,14.7654],[103.1757,14.7659],[103.1746,14.7659]]]}},{"type":"Feature","properties":{"kind":"seasonal","area_km2":0.19,"date":"2026-10-09"},"geometry":{"type":"Polygon","coordinates":[[[103.8911,14.5321],[103.8905,14.5304],[103.8894,14.5293],[103.8894,14.5282],[103.8914,14.5283],[103.8925,14.5272],[103.8936,14.5272],[103.8936,14.5296],[103.8944,14.5307],[103.8944,14.5318],[103.8911,14.5321]]]}},{"type":"Feature","properties":{"kind":"seasonal","area_km2":0.18,"date":"2026-10-09"},"geometry":{"type":"Polygon","coordinates":[[[103.9547,14.9763],[103.9538,14.9752],[103.9538,14.9733],[103.9566,14.9733],[103.9577,14.9739],[103.9586,14.9736],[103.9591,14.9728],[103.9594,14.9739],[103.96,14.9736],[103.96,14.9731],[103.9605,14.9731],[103.9608,14.9739],[103.9597,14.9744],[103.9597,14.9755],[103.9605,14.9755],[103.9602,14.9761],[103.958,14.9763],[103.958,14.9752],[103.9566,14.975],[103.9563,14.9763],[103.9547,14.9763]],[[103.9583,14.975],[103.9586,14.9752],[103.9586,14.975],[103.9583,14.975]],[[103.9577,14.9741],[103.9583,14.975],[103.9583,14.9742],[103.9577,14.9741]]]}},{"type":"Feature","properties":{"kind":"seasonal","area_km2":0.176,"date":"2026-10-04"},"geometry":{"type":"Polygon","coordinates":[[[103.2827,14.4042],[103.2819,14.4034],[103.2819,14.4028],[103.2841,14.4029],[103.2844,14.4018],[103.2849,14.4018],[103.2858,14.401],[103.2877,14.4013],[103.2888,14.4007],[103.2905,14.4007],[103.2902,14.3999],[103.2908,14.3988],[103.29,14.3983],[103.2902,14.3972],[103.2891,14.3972],[103.2891,14.3958],[103.29,14.3958],[103.2903,14.3969],[103.2908,14.3969],[103.2908,14.3975],[103.2914,14.3978],[103.2927,14.3975],[103.2927,14.3989],[103.2919,14.3988],[103.2913,14.3994],[103.2911,14.4013],[103.2885,14.4013],[103.2883,14.4018],[103.286,14.4021],[103.2846,14.4029],[103.2844,14.4039],[103.2827,14.4042]]]}},{"type":"Feature","properties":{"kind":"seasonal","area_km2":0.17,"date":"2026-10-09"},"geometry":{"type":"Polygon","coordinates":[[[103.6875,14.5882],[103.6875,14.5877],[103.6864,14.5877],[103.6867,14.5863],[103.6856,14.586],[103.6856,14.5855],[103.6861,14.5858],[103.6861,14.5847],[103.6878,14.5844],[103.6881,14.5839],[103.6912,14.5842],[103.6911,14.5847],[103.6923,14.5858],[103.6922,14.588],[103.6914,14.588],[103.6911,14.5861],[103.6906,14.5855],[103.6898,14.5855],[103.6895,14.5861],[103.6884,14.5861],[103.6878,14.5866],[103.6881,14.5882],[103.6875,14.5882]]]}},{"type":"Feature","properties":{"kind":"seasonal","area_km2":0.168,"date":"2026-10-09"},"geometry":{"type":"Polygon","coordinates":[[[103.5551,14.5747],[103.5539,14.5741],[103.554,14.572],[103.5556,14.5717],[103.5556,14.5712],[103.554,14.5712],[103.554,14.5698],[103.5554,14.569],[103.5582,14.569],[103.5579,14.5712],[103.5573,14.5712],[103.5576,14.5725],[103.5556,14.5728],[103.5553,14.572],[103.5553,14.5725],[103.5542,14.5728],[103.5542,14.5736],[103.5556,14.5739],[103.5556,14.5744],[103.5564,14.5744],[103.5551,14.5747]]]}},{"type":"Feature","properties":{"kind":"seasonal","area_km2":0.165,"date":"2026-10-04"},"geometry":{"type":"Polygon","coordinates":[[[103.0976,14.5828],[103.0951,14.5825],[103.0951,14.582],[103.0937,14.5822],[103.0931,14.5817],[103.0917,14.5814],[103.0917,14.5798],[103.0934,14.5795],[103.0951,14.5803],[103.0979,14.5804],[103.0981,14.5817],[103.0976,14.5828]]]}},{"type":"Feature","properties":{"kind":"seasonal","area_km2":0.165,"date":"2026-10-04"},"geometry":{"type":"Polygon","coordinates":[[[103.2055,14.527],[103.205,14.5232],[103.2036,14.5229],[103.2025,14.5207],[103.2025,14.5196],[103.2036,14.5191],[103.2055,14.5191],[103.2055,14.5221],[103.2063,14.5232],[103.2063,14.527],[103.2055,14.527]],[[103.203,14.521],[103.2036,14.5207],[103.2033,14.5197],[103.203,14.5197],[103.203,14.521]]]}},{"type":"Feature","properties":{"kind":"seasonal","area_km2":0.163,"date":"2026-10-09"},"geometry":{"type":"Polygon","coordinates":[[[103.7852,14.4399],[103.7836,14.438],[103.783,14.4361],[103.7855,14.4369],[103.7869,14.4358],[103.7866,14.4369],[103.7858,14.4372],[103.7855,14.438],[103.7858,14.4385],[103.7869,14.4385],[103.7869,14.438],[103.788,14.4382],[103.7877,14.4377],[103.7889,14.4377],[103.7889,14.4369],[103.7897,14.4366],[103.79,14.4334],[103.7908,14.4328],[103.7903,14.4339],[103.7908,14.4364],[103.7897,14.4372],[103.7894,14.4383],[103.7883,14.4385],[103.7877,14.4393],[103.7852,14.4399]],[[103.7847,14.4371],[103.785,14.4377],[103.785,14.4371],[103.7847,14.4371]]]}},{"type":"Feature","properties":{"kind":"seasonal","area_km2":0.162,"date":"2026-10-09"},"geometry":{"type":"Polygon","coordinates":[[[103.3777,14.3862],[103.3771,14.3856],[103.3771,14.3843],[103.3808,14.3835],[103.3819,14.3824],[103.3824,14.3824],[103.3824,14.3829],[103.3835,14.3835],[103.3833,14.3848],[103.3821,14.3848],[103.3813,14.3856],[103.3777,14.3862]]]}},{"type":"Feature","properties":{"kind":"seasonal","area_km2":0.158,"date":"2026-10-04"},"geometry":{"type":"Polygon","coordinates":[[[103.1435,14.3516],[103.1429,14.3511],[103.1429,14.35],[103.1438,14.3497],[103.1438,14.3451],[103.1433,14.3446],[103.1427,14.3421],[103.1449,14.3424],[103.1446,14.3441],[103.1455,14.3457],[103.1455,14.3479],[103.1463,14.3495],[103.1457,14.3511],[103.1451,14.3511],[103.1449,14.3516],[103.1435,14.3516]],[[103.144,14.3508],[103.1446,14.3508],[103.1446,14.3503],[103.1454,14.3498],[103.1444,14.3449],[103.144,14.3508]],[[103.1435,14.3438],[103.1438,14.344],[103.1438,14.3438],[103.1435,14.3438]]]}},{"type":"Feature","properties":{"kind":"seasonal","area_km2":0.157,"date":"2026-10-09"},"geometry":{"type":"Polygon","coordinates":[[[103.504,14.6362],[103.5042,14.6354],[103.5059,14.6349],[103.5057,14.6335],[103.5062,14.6332],[103.5115,14.6333],[103.5112,14.6349],[103.504,14.6362]],[[103.5104,14.6338],[103.5107,14.6341],[103.5107,14.6338],[103.5104,14.6338]],[[103.5107,14.6335],[103.5109,14.6338],[103.5109,14.6335],[103.5107,14.6335]]]}},{"type":"Feature","properties":{"kind":"seasonal","area_km2":0.15,"date":"2026-10-04"},"geometry":{"type":"Polygon","coordinates":[[[103.1735,14.7211],[103.1727,14.7206],[103.1716,14.7209],[103.1713,14.7203],[103.1702,14.7206],[103.1702,14.7198],[103.171,14.719],[103.1708,14.7168],[103.1691,14.7168],[103.1686,14.7162],[103.1686,14.7146],[103.1694,14.7146],[103.1691,14.716],[103.1697,14.7165],[103.1713,14.7162],[103.1719,14.7179],[103.1741,14.719],[103.1747,14.7209],[103.1735,14.7211]]]}},{"type":"Feature","properties":{"kind":"seasonal","area_km2":0.15,"date":"2026-10-04"},"geometry":{"type":"Polygon","coordinates":[[[103.3151,14.4947],[103.314,14.4942],[103.314,14.4928],[103.3135,14.4925],[103.3135,14.4915],[103.3143,14.4907],[103.3168,14.4909],[103.3174,14.4923],[103.3173,14.4942],[103.3151,14.4947]]]}},{"type":"Feature","properties":{"kind":"seasonal","area_km2":0.149,"date":"2026-10-09"},"geometry":{"type":"Polygon","coordinates":[[[103.9465,14.7555],[103.9443,14.755],[103.9443,14.7531],[103.9471,14.7525],[103.9504,14.7528],[103.949,14.7531],[103.9488,14.7539],[103.9488,14.7552],[103.9496,14.7555],[103.9465,14.7555]],[[103.9471,14.7547],[103.9474,14.755],[103.9474,14.7547],[103.9471,14.7547]]]}},{"type":"Feature","properties":{"kind":"seasonal","area_km2":0.148,"date":"2026-10-09"},"geometry":{"type":"Polygon","coordinates":[[[103.6935,14.9364],[103.6935,14.9359],[103.693,14.9356],[103.6932,14.9337],[103.6935,14.9346],[103.6941,14.9346],[103.6946,14.934],[103.698,14.9335],[103.6985,14.9365],[103.6935,14.9364]],[[103.6969,14.9351],[103.6974,14.9351],[103.6974,14.9343],[103.6969,14.9343],[103.6969,14.9351]]]}},{"type":"Feature","properties":{"kind":"seasonal","area_km2":0.148,"date":"2026-10-04"},"geometry":{"type":"Polygon","coordinates":[[[103.1916,14.3501],[103.1911,14.3474],[103.1902,14.3468],[103.1902,14.346],[103.1908,14.3458],[103.1911,14.3431],[103.1919,14.3431],[103.1922,14.3436],[103.1933,14.3433],[103.1939,14.3452],[103.1938,14.3493],[103.1924,14.3501],[103.1916,14.3501]],[[103.1919,14.3496],[103.193,14.3493],[103.193,14.345],[103.1922,14.345],[103.1919,14.346],[103.1905,14.3463],[103.1919,14.3471],[103.1919,14.3496]]]}},{"type":"Feature","properties":{"kind":"seasonal","area_km2":0.147,"date":"2026-10-04"},"geometry":{"type":"Polygon","coordinates":[[[103.2593,14.439],[103.2585,14.4382],[103.2585,14.4355],[103.2621,14.4352],[103.2621,14.4385],[103.2593,14.439]]]}},{"type":"Feature","properties":{"kind":"seasonal","area_km2":0.145,"date":"2026-10-09"},"geometry":{"type":"Polygon","coordinates":[[[103.9887,14.4232],[103.9876,14.4221],[103.9876,14.4213],[103.9871,14.4213],[103.9868,14.4207],[103.9851,14.4207],[103.9851,14.4197],[103.986,14.4197],[103.986,14.4191],[103.9851,14.4191],[103.9837,14.4183],[103.9804,14.4188],[103.9801,14.4166],[103.9812,14.4177],[103.984,14.4175],[103.9874,14.4186],[103.9874,14.4202],[103.989,14.4227],[103.9887,14.4232]]]}},{"type":"Feature","properties":{"kind":"seasonal","area_km2":0.141,"date":"2026-10-09"},"geometry":{"type":"Polygon","coordinates":[[[103.9973,14.9906],[103.997,14.9892],[103.9981,14.9895],[103.9981,14.9882],[103.9973,14.9873],[103.9973,14.9857],[103.9981,14.9854],[103.9984,14.9846],[104.0001,14.9846],[104.0001,14.9874],[103.9995,14.9882],[103.9984,14.9884],[103.9984,14.989],[104.0001,14.989],[104.0001,14.9898],[103.9981,14.9901],[103.9973,14.9906]]]}},{"type":"Feature","properties":{"kind":"seasonal","area_km2":0.14,"date":"2026-10-04"},"geometry":{"type":"Polygon","coordinates":[[[103.3856,14.8697],[103.3853,14.8667],[103.3859,14.8662],[103.387,14.8662],[103.387,14.8667],[103.3875,14.867],[103.3892,14.867],[103.3889,14.8678],[103.3895,14.8681],[103.3895,14.8694],[103.3856,14.8697]]]}},{"type":"Feature","properties":{"kind":"seasonal","area_km2":0.138,"date":"2026-10-09"},"geometry":{"type":"Polygon","coordinates":[[[103.4238,14.7124],[103.4232,14.7116],[103.4232,14.7097],[103.4277,14.71],[103.4285,14.7095],[103.4299,14.7095],[103.4296,14.7105],[103.4238,14.7124]]]}},{"type":"Feature","properties":{"kind":"seasonal","area_km2":0.136,"date":"2026-10-04"},"geometry":{"type":"Polygon","coordinates":[[[103.0577,14.8438],[103.0568,14.8433],[103.0569,14.8408],[103.0602,14.8409],[103.0602,14.8419],[103.061,14.8425],[103.061,14.8439],[103.0577,14.8438]],[[103.0582,14.8422],[103.0588,14.8422],[103.0585,14.8414],[103.0583,14.8414],[103.0582,14.8422]]]}},{"type":"Feature","properties":{"kind":"seasonal","area_km2":0.131,"date":"2026-10-04"},"geometry":{"type":"Polygon","coordinates":[[[103.3758,14.7536],[103.3739,14.7527],[103.3739,14.7514],[103.375,14.7514],[103.3753,14.75],[103.3764,14.75],[103.3784,14.749],[103.3784,14.7501],[103.3772,14.7509],[103.3775,14.7533],[103.3758,14.7536]]]}},{"type":"Feature","properties":{"kind":"seasonal","area_km2":0.131,"date":"2026-10-09"},"geometry":{"type":"Polygon","coordinates":[[[103.8546,14.473],[103.8544,14.4711],[103.8521,14.4711],[103.8521,14.4695],[103.8527,14.4689],[103.8519,14.4689],[103.8507,14.47],[103.851,14.4714],[103.8505,14.4711],[103.8505,14.4692],[103.8513,14.4689],[103.853,14.4673],[103.8533,14.466],[103.8544,14.466],[103.8544,14.4681],[103.8527,14.4695],[103.8527,14.4706],[103.8546,14.4706],[103.8552,14.4711],[103.8552,14.4722],[103.8557,14.4725],[103.8557,14.473],[103.8546,14.473]]]}},{"type":"Feature","properties":{"kind":"seasonal","area_km2":0.127,"date":"2026-10-04"},"geometry":{"type":"Polygon","coordinates":[[[103.1085,14.9641],[103.1079,14.9635],[103.1065,14.9635],[103.1068,14.9619],[103.1088,14.9622],[103.1091,14.9611],[103.1096,14.9611],[103.1099,14.9603],[103.111,14.9595],[103.1113,14.9603],[103.1104,14.9614],[103.1104,14.9622],[103.1115,14.9627],[103.1115,14.9636],[103.1099,14.9635],[103.1093,14.9641],[103.1085,14.9641]],[[103.1085,14.9627],[103.1088,14.9633],[103.1088,14.9627],[103.1085,14.9627]],[[103.1096,14.9614],[103.1099,14.9616],[103.1099,14.9614],[103.1096,14.9614]]]}},{"type":"Feature","properties":{"kind":"seasonal","area_km2":0.125,"date":"2026-10-04"},"geometry":{"type":"Polygon","coordinates":[[[103.0384,14.9128],[103.037,14.909],[103.0362,14.9087],[103.0348,14.9068],[103.0315,14.9073],[103.0306,14.9065],[103.0306,14.9054],[103.0301,14.9051],[103.0309,14.9051],[103.0318,14.906],[103.0348,14.906],[103.0356,14.9071],[103.0362,14.9071],[103.0365,14.9079],[103.037,14.9079],[103.0373,14.9087],[103.0381,14.9093],[103.0381,14.9109],[103.0389,14.9123],[103.0389,14.9128],[103.0384,14.9128]]]}},{"type":"Feature","properties":{"kind":"seasonal","area_km2":0.124,"date":"2026-10-09"},"geometry":{"type":"Polygon","coordinates":[[[103.4857,14.7852],[103.4832,14.7852],[103.4832,14.7838],[103.4829,14.7852],[103.4815,14.7852],[103.4818,14.7822],[103.4849,14.7822],[103.4848,14.783],[103.484,14.783],[103.484,14.7836],[103.4854,14.7839],[103.4857,14.7852]]]}},{"type":"Feature","properties":{"kind":"seasonal","area_km2":0.123,"date":"2026-10-09"},"geometry":{"type":"Polygon","coordinates":[[[103.5659,14.7429],[103.5659,14.7399],[103.5682,14.7394],[103.5693,14.7383],[103.5693,14.7372],[103.5699,14.7372],[103.5707,14.738],[103.5707,14.7405],[103.5668,14.741],[103.5665,14.7426],[103.5659,14.7429]]]}},{"type":"Feature","properties":{"kind":"seasonal","area_km2":0.123,"date":"2026-10-09"},"geometry":{"type":"Polygon","coordinates":[[[103.6237,14.5938],[103.6237,14.5908],[103.6246,14.5903],[103.6251,14.5892],[103.6268,14.5892],[103.6259,14.5933],[103.6254,14.5938],[103.6237,14.5938]],[[103.6245,14.5933],[103.6248,14.5936],[103.6248,14.5933],[103.6245,14.5933]]]}},{"type":"Feature","properties":{"kind":"seasonal","area_km2":0.122,"date":"2026-10-09"},"geometry":{"type":"Polygon","coordinates":[[[103.9568,14.9459],[103.9548,14.9454],[103.9543,14.9443],[103.9534,14.9443],[103.9534,14.9438],[103.9523,14.9435],[103.9523,14.9429],[103.952,14.9437],[103.9526,14.9437],[103.9531,14.9446],[103.9515,14.9446],[103.9509,14.9424],[103.9498,14.9427],[103.9501,14.9416],[103.9512,14.9416],[103.9515,14.9424],[103.9529,14.9421],[103.954,14.9424],[103.9545,14.9432],[103.9554,14.9432],[103.9554,14.9438],[103.9559,14.944],[103.9559,14.9446],[103.9565,14.9446],[103.9568,14.9454],[103.9568,14.9459]],[[103.9548,14.9443],[103.9554,14.9443],[103.9551,14.9435],[103.9545,14.9435],[103.9548,14.9443]],[[103.954,14.9432],[103.9543,14.9435],[103.9543,14.9432],[103.954,14.9432]],[[103.9534,14.9429],[103.954,14.9432],[103.954,14.9429],[103.9534,14.9429]],[[103.9529,14.9427],[103.9531,14.9429],[103.9531,14.9427],[103.9529,14.9427]],[[103.9504,14.9418],[103.9506,14.9421],[103.9506,14.9418],[103.9504,14.9418]]]}},{"type":"Feature","properties":{"kind":"seasonal","area_km2":0.122,"date":"2026-10-09"},"geometry":{"type":"Polygon","coordinates":[[[103.4433,14.7077],[103.4422,14.7066],[103.4405,14.7071],[103.4383,14.7071],[103.4391,14.706],[103.4389,14.7049],[103.4394,14.7046],[103.4403,14.7052],[103.4403,14.7044],[103.4422,14.7039],[103.4425,14.7049],[103.443,14.7052],[103.443,14.7066],[103.4436,14.7068],[103.4433,14.7077]]]}},{"type":"Feature","properties":{"kind":"seasonal","area_km2":0.121,"date":"2026-10-04"},"geometry":{"type":"Polygon","coordinates":[[[103.1015,14.9648],[103.1007,14.964],[103.1009,14.9635],[103.1015,14.9635],[103.1015,14.9627],[103.101,14.9627],[103.101,14.9613],[103.1024,14.9616],[103.1026,14.961],[103.1035,14.9611],[103.1046,14.9624],[103.1048,14.9643],[103.1046,14.9649],[103.1015,14.9648]],[[103.1034,14.9643],[103.104,14.9646],[103.104,14.9643],[103.1034,14.9643]],[[103.104,14.964],[103.1043,14.9643],[103.1043,14.964],[103.104,14.964]],[[103.1023,14.9638],[103.1032,14.9638],[103.1035,14.9632],[103.1018,14.9621],[103.1015,14.9627],[103.1023,14.9629],[103.1023,14.9638]],[[103.1037,14.9635],[103.1043,14.9635],[103.1043,14.963],[103.1037,14.963],[103.1037,14.9635]]]}},{"type":"Feature","properties":{"kind":"seasonal","area_km2":0.116,"date":"2026-10-09"},"geometry":{"type":"Polygon","coordinates":[[[103.4898,14.7904],[103.4898,14.7893],[103.4887,14.7877],[103.4887,14.7869],[103.4882,14.7866],[103.4882,14.7858],[103.4868,14.7855],[103.4871,14.7844],[103.4885,14.7844],[103.4893,14.7861],[103.4909,14.7877],[103.4912,14.7899],[103.4906,14.7904],[103.4898,14.7904]]]}},{"type":"Feature","properties":{"kind":"seasonal","area_km2":0.114,"date":"2026-10-04"},"geometry":{"type":"Polygon","coordinates":[[[103.2779,14.7998],[103.2779,14.7987],[103.2785,14.7987],[103.2788,14.7979],[103.2799,14.7976],[103.2807,14.7968],[103.2824,14.7971],[103.2824,14.7995],[103.2779,14.7998]]]}},{"type":"Feature","properties":{"kind":"seasonal","area_km2":0.114,"date":"2026-10-09"},"geometry":{"type":"Polygon","coordinates":[[[103.8655,14.478],[103.8649,14.4774],[103.8649,14.4761],[103.8657,14.4755],[103.866,14.4747],[103.866,14.4725],[103.8674,14.4723],[103.8671,14.478],[103.8655,14.478]]]}},{"type":"Feature","properties":{"kind":"seasonal","area_km2":0.114,"date":"2026-10-09"},"geometry":{"type":"Polygon","coordinates":[[[103.6081,14.4549],[103.6081,14.4543],[103.607,14.4535],[103.6068,14.4519],[103.6062,14.4519],[103.6054,14.4508],[103.6034,14.4502],[103.6035,14.4489],[103.6043,14.4486],[103.6043,14.4478],[103.6037,14.4478],[103.6037,14.4473],[103.6046,14.4473],[103.6057,14.4481],[103.6093,14.4481],[103.609,14.4487],[103.6068,14.4484],[103.6046,14.4492],[103.6051,14.4494],[103.6051,14.4503],[103.6065,14.4505],[103.6065,14.4511],[103.6071,14.4511],[103.6071,14.4519],[103.6076,14.4524],[103.6073,14.4533],[103.6084,14.4541],[103.6081,14.4549]]]}},{"type":"Feature","properties":{"kind":"seasonal","area_km2":0.113,"date":"2026-10-04"},"geometry":{"type":"Polygon","coordinates":[[[103.3377,14.5678],[103.3374,14.5662],[103.3388,14.5651],[103.3394,14.5632],[103.3405,14.5632],[103.3404,14.5678],[103.3377,14.5678]]]}},{"type":"Feature","properties":{"kind":"seasonal","area_km2":0.113,"date":"2026-10-04"},"geometry":{"type":"Polygon","coordinates":[[[103.2465,14.5129],[103.2462,14.5124],[103.2454,14.5124],[103.2448,14.5118],[103.2423,14.5115],[103.2423,14.5102],[103.2451,14.5099],[103.246,14.5108],[103.2468,14.5108],[103.2476,14.5116],[103.2476,14.5127],[103.2465,14.5129]]]}},{"type":"Feature","properties":{"kind":"seasonal","area_km2":0.112,"date":"2026-10-04"},"geometry":{"type":"Polygon","coordinates":[[[103.3872,14.7601],[103.3869,14.7585],[103.3875,14.7585],[103.3875,14.758],[103.3886,14.7569],[103.39,14.7566],[103.3906,14.7588],[103.3911,14.7591],[103.3911,14.7602],[103.3897,14.7602],[103.3889,14.7593],[103.388,14.7593],[103.3878,14.7602],[103.3872,14.7601]]]}},{"type":"Feature","properties":{"kind":"seasonal","area_km2":0.112,"date":"2026-10-09"},"geometry":{"type":"Polygon","coordinates":[[[103.3793,14.5879],[103.3784,14.5868],[103.3785,14.5852],[103.3779,14.5849],[103.3779,14.5841],[103.3785,14.5838],[103.3801,14.5838],[103.381,14.5849],[103.3809,14.5874],[103.3804,14.5879],[103.3793,14.5879]]]}},{"type":"Feature","properties":{"kind":"seasonal","area_km2":0.109,"date":"2026-10-04"},"geometry":{"type":"Polygon","coordinates":[[[103.4256,14.9586],[103.4251,14.9575],[103.4267,14.9575],[103.4267,14.957],[103.4273,14.9567],[103.4279,14.9567],[103.4281,14.9573],[103.4279,14.9562],[103.4284,14.9546],[103.427,14.954],[103.4282,14.9538],[103.4293,14.9543],[103.4298,14.9549],[103.4295,14.9576],[103.4287,14.9581],[103.4276,14.9581],[103.4273,14.9586],[103.4256,14.9586]]]}},{"type":"Feature","properties":{"kind":"seasonal","area_km2":0.107,"date":"2026-10-09"},"geometry":{"type":"Polygon","coordinates":[[[103.7893,14.7157],[103.7887,14.7154],[103.7887,14.7146],[103.7901,14.7146],[103.7899,14.7124],[103.7924,14.7122],[103.7926,14.7152],[103.7893,14.7157]]]}},{"type":"Feature","properties":{"kind":"seasonal","area_km2":0.107,"date":"2026-10-04"},"geometry":{"type":"Polygon","coordinates":[[[103.2799,14.5875],[103.2799,14.5867],[103.2793,14.5864],[103.2799,14.582],[103.2813,14.5821],[103.2813,14.5872],[103.2799,14.5875]]]}},{"type":"Feature","properties":{"kind":"seasonal","area_km2":0.105,"date":"2026-10-09"},"geometry":{"type":"Polygon","coordinates":[[[103.823,14.6687],[103.8221,14.6673],[103.8221,14.6668],[103.8227,14.6668],[103.8227,14.666],[103.8241,14.666],[103.8238,14.6665],[103.8244,14.6665],[103.8247,14.666],[103.8247,14.6665],[103.8255,14.6668],[103.8263,14.6662],[103.8261,14.6652],[103.8266,14.6652],[103.8269,14.666],[103.8274,14.6657],[103.8272,14.6671],[103.8252,14.6676],[103.8241,14.6687],[103.823,14.6687]]]}},{"type":"Feature","properties":{"kind":"seasonal","area_km2":0.104,"date":"2026-10-04"},"geometry":{"type":"Polygon","coordinates":[[[103.0174,14.8888],[103.0169,14.886],[103.0174,14.886],[103.0177,14.8855],[103.0197,14.8852],[103.0199,14.8882],[103.0188,14.8888],[103.0174,14.8888]]]}},{"type":"Feature","properties":{"kind":"seasonal","area_km2":0.102,"date":"2026-10-09"},"geometry":{"type":"Polygon","coordinates":[[[103.5078,14.8046],[103.5076,14.803],[103.5064,14.803],[103.5062,14.8024],[103.5053,14.8027],[103.5056,14.8013],[103.5045,14.8019],[103.5051,14.8005],[103.5065,14.8005],[103.5067,14.8011],[103.5084,14.8014],[103.5084,14.8022],[103.509,14.8022],[103.509,14.8035],[103.5087,14.8046],[103.5078,14.8046]]]}},{"type":"Feature","properties":{"kind":"seasonal","area_km2":0.102,"date":"2026-10-09"},"geometry":{"type":"Polygon","coordinates":[[[103.6576,14.7459],[103.6573,14.7445],[103.6584,14.744],[103.659,14.7432],[103.6621,14.7435],[103.6621,14.7445],[103.6604,14.7448],[103.659,14.7459],[103.6576,14.7459]]]}}]}
