{"type":"FeatureCollection","properties":{"v":3,"id":"t103_16","name":"กาฬสินธุ์ · มหาสารคาม · ร้อยเอ็ด","aoi":[103.0,16.0,104.0,17.0],"date":"2026-10-09","dates":["2026-10-09","2026-10-08","2026-10-04","2026-10-03"],"baseline_years":3,"has_seasonal":true,"totals":{"flood_high":0.0,"flood_low":1.5,"seasonal":28.7},"provinces":[{"name":"ร้อยเอ็ด","zone":"th-ne","flood_high":0.0,"flood_low":0.7,"seasonal":3.5},{"name":"กาฬสินธุ์","zone":"th-ne","flood_high":0.0,"flood_low":0.6,"seasonal":20.7},{"name":"มหาสารคาม","zone":"th-ne","flood_high":0.0,"flood_low":0.2,"seasonal":2.7},{"name":"สกลนคร","zone":"th-ne","flood_high":0.0,"flood_low":0.0,"seasonal":0.9},{"name":"อุดรธานี","zone":"th-ne","flood_high":0.0,"flood_low":0.0,"seasonal":0.8}],"scenes":{"2026-10-09":2,"2026-10-08":1,"2026-10-04":2,"2026-10-03":1},"baseline_dates":["2025-10-09","2024-10-07","2023-10-08"],"threshold_db":-15.0,"auto":true,"source":"Sentinel-1 RTC (Copernicus/ESA) via Microsoft Planetary Computer; JRC Global Surface Water; Copernicus DEM","method":"ChatGeo v3: Otsu threshold on VV dB; minus JRC permanent water and slope > 5 deg; unusual = water not present in most of the previous 3 years (same season)","added":"2026-10-11T01:54+07:00"},"features":[{"type":"Feature","properties":{"kind":"flood","area_km2":0.123,"conf":"low","date":"2026-10-04"},"geometry":{"type":"Polygon","coordinates":[[[103.2496,16.6905],[103.2487,16.6894],[103.2473,16.6894],[103.2468,16.6889],[103.2468,16.6881],[103.2476,16.6875],[103.2504,16.6876],[103.2507,16.6881],[103.2518,16.6881],[103.2518,16.6897],[103.2507,16.69],[103.2504,16.6905],[103.2496,16.6905]]]}},{"type":"Feature","properties":{"kind":"flood","area_km2":0.115,"conf":"low","date":"2026-10-09"},"geometry":{"type":"Polygon","coordinates":[[[103.9818,16.2624],[103.9812,16.2616],[103.9804,16.2613],[103.9801,16.2605],[103.9796,16.2605],[103.9796,16.2597],[103.981,16.2597],[103.9815,16.2605],[103.9835,16.2602],[103.9855,16.2613],[103.9852,16.2624],[103.9818,16.2624]]]}},{"type":"Feature","properties":{"kind":"flood","area_km2":0.113,"conf":"low","date":"2026-10-04"},"geometry":{"type":"Polygon","coordinates":[[[103.2699,16.7105],[103.2694,16.7097],[103.2694,16.7078],[103.2708,16.7059],[103.2719,16.7059],[103.2722,16.7073],[103.2716,16.71],[103.271,16.7105],[103.2699,16.7105]]]}},{"type":"Feature","properties":{"kind":"flood","area_km2":0.106,"conf":"low","date":"2026-10-04"},"geometry":{"type":"Polygon","coordinates":[[[103.3937,16.0283],[103.3914,16.0272],[103.3914,16.0247],[103.3926,16.0248],[103.3931,16.0256],[103.3948,16.0264],[103.3951,16.0283],[103.3937,16.0283]]]}},{"type":"Feature","properties":{"kind":"flood","area_km2":0.103,"conf":"low","date":"2026-10-09"},"geometry":{"type":"Polygon","coordinates":[[[103.9822,16.0826],[103.9822,16.0818],[103.9844,16.0802],[103.9844,16.0777],[103.9853,16.0777],[103.9853,16.0788],[103.9864,16.0791],[103.9869,16.0802],[103.9883,16.0813],[103.9878,16.0815],[103.9872,16.0807],[103.9855,16.0804],[103.985,16.081],[103.9841,16.081],[103.9833,16.0826],[103.9822,16.0826]]]}},{"type":"Feature","properties":{"kind":"flood","area_km2":0.102,"conf":"low","date":"2026-10-09"},"geometry":{"type":"Polygon","coordinates":[[[103.7096,16.2012],[103.7094,16.1999],[103.7085,16.1988],[103.7085,16.1974],[103.7102,16.1969],[103.7102,16.1983],[103.7116,16.1991],[103.7116,16.2007],[103.7113,16.2013],[103.7096,16.2012]]]}},{"type":"Feature","properties":{"kind":"flood","area_km2":0.083,"conf":"low","date":"2026-10-09"},"geometry":{"type":"Polygon","coordinates":[[[103.7939,16.1326],[103.7931,16.1302],[103.792,16.1301],[103.792,16.1293],[103.7928,16.1293],[103.7928,16.1299],[103.7945,16.1293],[103.7948,16.1299],[103.7954,16.1299],[103.7954,16.1304],[103.7959,16.1304],[103.7959,16.1321],[103.7948,16.1321],[103.7948,16.1326],[103.7939,16.1326]]]}},{"type":"Feature","properties":{"kind":"flood","area_km2":0.069,"conf":"low","date":"2026-10-09"},"geometry":{"type":"Polygon","coordinates":[[[103.6696,16.0153],[103.6693,16.0142],[103.6685,16.0134],[103.6685,16.0123],[103.668,16.0123],[103.6677,16.0117],[103.6677,16.0109],[103.668,16.0115],[103.6691,16.0115],[103.6691,16.0101],[103.6685,16.0098],[103.6694,16.0098],[103.6696,16.0126],[103.6705,16.0139],[103.6705,16.0153],[103.6696,16.0153]]]}},{"type":"Feature","properties":{"kind":"flood","area_km2":0.068,"conf":"low","date":"2026-10-04"},"geometry":{"type":"Polygon","coordinates":[[[103.2703,16.4749],[103.2703,16.4733],[103.2698,16.4733],[103.2695,16.4741],[103.2687,16.4741],[103.2687,16.4735],[103.2715,16.4717],[103.2715,16.4695],[103.2721,16.4695],[103.2718,16.4711],[103.2723,16.4714],[103.2723,16.4722],[103.2715,16.4722],[103.2718,16.4733],[103.2712,16.4736],[103.2712,16.4749],[103.2703,16.4749]]]}},{"type":"Feature","properties":{"kind":"flood","area_km2":0.068,"conf":"low","date":"2026-10-08"},"geometry":{"type":"Polygon","coordinates":[[[103.5563,16.7864],[103.5557,16.7856],[103.5549,16.7853],[103.5538,16.7821],[103.5549,16.7821],[103.5555,16.7826],[103.5557,16.784],[103.5566,16.784],[103.5563,16.7856],[103.5569,16.7856],[103.5569,16.7864],[103.5563,16.7864]]]}},{"type":"Feature","properties":{"kind":"flood","area_km2":0.066,"conf":"low","date":"2026-10-04"},"geometry":{"type":"Polygon","coordinates":[[[103.3602,16.214],[103.3599,16.2124],[103.3605,16.2116],[103.3594,16.2116],[103.3596,16.2105],[103.3608,16.2105],[103.3613,16.2108],[103.3613,16.2116],[103.3619,16.2116],[103.3613,16.214],[103.3602,16.214]]]}},{"type":"Feature","properties":{"kind":"flood","area_km2":0.064,"conf":"low","date":"2026-10-09"},"geometry":{"type":"Polygon","coordinates":[[[103.8196,16.5769],[103.8188,16.5755],[103.8188,16.5744],[103.8202,16.5745],[103.8205,16.575],[103.8216,16.5753],[103.8216,16.5769],[103.8196,16.5769]]]}},{"type":"Feature","properties":{"kind":"flood","area_km2":0.064,"conf":"low","date":"2026-10-09"},"geometry":{"type":"Polygon","coordinates":[[[103.781,16.1455],[103.781,16.1447],[103.7821,16.1445],[103.7829,16.1431],[103.783,16.1415],[103.7838,16.1415],[103.7841,16.1434],[103.7832,16.1442],[103.7832,16.145],[103.7826,16.1456],[103.781,16.1455]]]}},{"type":"Feature","properties":{"kind":"flood","area_km2":0.062,"conf":"low","date":"2026-10-04"},"geometry":{"type":"Polygon","coordinates":[[[103.2625,16.4754],[103.2613,16.4746],[103.2614,16.4735],[103.2625,16.4732],[103.2633,16.4719],[103.2642,16.4719],[103.2636,16.4722],[103.2636,16.4732],[103.263,16.4735],[103.2639,16.4741],[103.2639,16.4751],[103.2625,16.4754]]]}},{"type":"Feature","properties":{"kind":"flood","area_km2":0.058,"conf":"low","date":"2026-10-09"},"geometry":{"type":"Polygon","coordinates":[[[103.7091,16.1926],[103.7091,16.1918],[103.71,16.1915],[103.7097,16.1904],[103.7105,16.1904],[103.7108,16.1899],[103.7122,16.1901],[103.7122,16.191],[103.7111,16.191],[103.7114,16.1923],[103.7091,16.1926]]]}},{"type":"Feature","properties":{"kind":"flood","area_km2":0.056,"conf":"low","date":"2026-10-08"},"geometry":{"type":"Polygon","coordinates":[[[103.2661,16.9485],[103.2658,16.9474],[103.2649,16.9474],[103.265,16.9466],[103.2655,16.9466],[103.2667,16.9452],[103.2686,16.9455],[103.2675,16.9463],[103.2675,16.9471],[103.2666,16.9471],[103.2664,16.9474],[103.2661,16.9485]],[[103.2664,16.9469],[103.2666,16.9471],[103.2666,16.9469],[103.2664,16.9469]]]}},{"type":"Feature","properties":{"kind":"flood","area_km2":0.052,"conf":"low","date":"2026-10-09"},"geometry":{"type":"Polygon","coordinates":[[[103.7141,16.2059],[103.7138,16.2045],[103.7147,16.2029],[103.7158,16.2026],[103.7158,16.204],[103.7152,16.2045],[103.7155,16.2056],[103.7141,16.2059]]]}},{"type":"Feature","properties":{"kind":"flood","area_km2":0.052,"conf":"low","date":"2026-10-09"},"geometry":{"type":"Polygon","coordinates":[[[103.9355,16.0032],[103.9355,16.0024],[103.9346,16.0018],[103.9346,16.001],[103.9366,16.0005],[103.9369,16.0027],[103.9363,16.0027],[103.9363,16.0032],[103.9355,16.0032]]]}},{"type":"Feature","properties":{"kind":"flood","area_km2":0.051,"conf":"low","date":"2026-10-04"},"geometry":{"type":"Polygon","coordinates":[[[103.1129,16.3676],[103.1107,16.3673],[103.1107,16.3657],[103.1124,16.3654],[103.1129,16.3662],[103.1129,16.3676]]]}},{"type":"Feature","properties":{"kind":"flood","area_km2":0.051,"conf":"low","date":"2026-10-09"},"geometry":{"type":"Polygon","coordinates":[[[103.7989,16.2896],[103.7989,16.288],[103.7997,16.288],[103.8,16.2875],[103.8014,16.2877],[103.8014,16.2888],[103.8003,16.2891],[103.8,16.2896],[103.7989,16.2896]]]}},{"type":"Feature","properties":{"kind":"seasonal","area_km2":5.759,"date":"2026-10-08"},"geometry":{"type":"Polygon","coordinates":[[[103.5981,16.8025],[103.5981,16.8016],[103.597,16.7997],[103.5945,16.7997],[103.5939,16.8003],[103.5931,16.8002],[103.5922,16.7989],[103.5891,16.7983],[103.5891,16.7962],[103.5906,16.7948],[103.5903,16.7935],[103.5897,16.7926],[103.5886,16.7921],[103.5864,16.7918],[103.5872,16.7915],[103.5867,16.7896],[103.5872,16.7896],[103.5875,16.7905],[103.5895,16.7905],[103.59,16.7899],[103.5923,16.7908],[103.5934,16.7905],[103.594,16.7913],[103.594,16.7902],[103.5945,16.79],[103.594,16.79],[103.5937,16.7891],[103.5948,16.7891],[103.5957,16.7886],[103.5954,16.7897],[103.5962,16.7894],[103.5962,16.79],[103.5957,16.7902],[103.5965,16.7902],[103.5965,16.7897],[103.5976,16.7886],[103.5971,16.7859],[103.5965,16.7862],[103.5963,16.7856],[103.5951,16.7859],[103.5951,16.7854],[103.5946,16.7851],[103.5929,16.7851],[103.5923,16.784],[103.592,16.7845],[103.5915,16.7845],[103.5918,16.7837],[103.5904,16.7834],[103.5904,16.7829],[103.5887,16.7831],[103.5887,16.7823],[103.5895,16.7823],[103.5898,16.7815],[103.5887,16.7812],[103.5884,16.7818],[103.5881,16.7799],[103.5864,16.7801],[103.5853,16.7796],[103.5853,16.7782],[103.5851,16.7788],[103.5839,16.7785],[103.5845,16.7777],[103.5834,16.7758],[103.5834,16.7752],[103.584,16.775],[103.5848,16.7752],[103.5845,16.7728],[103.5868,16.7723],[103.5874,16.772],[103.5874,16.7715],[103.5882,16.7712],[103.5882,16.7707],[103.5874,16.7701],[103.5874,16.7671],[103.5865,16.7671],[103.5863,16.7658],[103.5851,16.7658],[103.5852,16.7647],[103.5868,16.7647],[103.5879,16.7677],[103.5896,16.7682],[103.5896,16.7693],[103.5888,16.7696],[103.5888,16.7701],[103.5896,16.7701],[103.5896,16.772],[103.5888,16.7723],[103.5885,16.7742],[103.5887,16.7747],[103.5899,16.775],[103.5901,16.7761],[103.5913,16.7764],[103.593,16.7764],[103.5927,16.7758],[103.5944,16.7756],[103.5944,16.775],[103.5949,16.7748],[103.5949,16.774],[103.5941,16.7729],[103.5941,16.7707],[103.5969,16.7705],[103.5969,16.7699],[103.5986,16.7694],[103.5984,16.7688],[103.5978,16.7688],[103.5972,16.7677],[103.5964,16.7677],[103.5964,16.7672],[103.5978,16.7669],[103.5978,16.7661],[103.5964,16.7658],[103.5961,16.7653],[103.5936,16.7661],[103.593,16.7655],[103.5922,16.7655],[103.5914,16.7644],[103.5905,16.7653],[103.5894,16.7652],[103.5902,16.7647],[103.5899,16.7636],[103.5883,16.7631],[103.5883,16.7636],[103.5891,16.7642],[103.5888,16.7647],[103.5883,16.7639],[103.5877,16.7639],[103.5874,16.7625],[103.5908,16.7625],[103.5919,16.7612],[103.5914,16.7609],[103.5914,16.7604],[103.5891,16.7606],[103.5886,16.7598],[103.5889,16.7585],[103.5877,16.7585],[103.5872,16.7582],[103.5872,16.7576],[103.5838,16.7576],[103.583,16.7568],[103.5818,16.7568],[103.5818,16.7579],[103.5799,16.7576],[103.5801,16.7606],[103.5793,16.7606],[103.579,16.7598],[103.5779,16.7592],[103.5776,16.7597],[103.577,16.7597],[103.5765,16.7611],[103.5756,16.7614],[103.5751,16.7611],[103.5748,16.7597],[103.5756,16.7608],[103.5762,16.7605],[103.5765,16.7578],[103.5745,16.7562],[103.5745,16.7554],[103.5737,16.7554],[103.5734,16.7559],[103.5723,16.7562],[103.5723,16.7554],[103.5731,16.7556],[103.5734,16.7548],[103.5754,16.7543],[103.5759,16.7546],[103.5759,16.7554],[103.5754,16.7557],[103.5756,16.7568],[103.579,16.7579],[103.5793,16.7568],[103.5787,16.7568],[103.5788,16.7551],[103.5782,16.7549],[103.581,16.7552],[103.5819,16.7546],[103.5841,16.7546],[103.5841,16.7527],[103.583,16.7522],[103.583,16.7514],[103.5836,16.7508],[103.5844,16.7508],[103.5847,16.7514],[103.5858,16.7514],[103.5875,16.7522],[103.5878,16.7528],[103.5883,16.7528],[103.5886,16.7539],[103.5897,16.7539],[103.5909,16.7533],[103.5909,16.7528],[103.5914,16.7528],[103.592,16.7542],[103.5911,16.7552],[103.5908,16.7571],[103.5917,16.7571],[103.5917,16.7563],[103.5931,16.7561],[103.5942,16.755],[103.594,16.7539],[103.5965,16.7547],[103.5979,16.7545],[103.597,16.7585],[103.5976,16.7585],[103.5976,16.7577],[103.5987,16.7566],[103.5996,16.7566],[103.5984,16.7577],[103.5984,16.7591],[103.5973,16.7599],[103.5973,16.761],[103.5962,16.761],[103.5959,16.7599],[103.595,16.7593],[103.5951,16.7582],[103.5962,16.758],[103.5962,16.7569],[103.5968,16.7564],[103.5965,16.7555],[103.5945,16.7553],[103.5942,16.7566],[103.5931,16.7566],[103.592,16.7579],[103.59,16.7585],[103.5903,16.7596],[103.5914,16.7596],[103.5928,16.7607],[103.5928,16.7617],[103.5922,16.762],[103.5922,16.7636],[103.5933,16.7647],[103.595,16.765],[103.5953,16.7637],[103.5964,16.7637],[103.597,16.7645],[103.5975,16.7645],[103.5975,16.765],[103.6001,16.7659],[103.6001,16.7669],[103.5995,16.7669],[103.5992,16.7697],[103.5986,16.7699],[103.5986,16.7705],[103.5972,16.7707],[103.5966,16.7718],[103.598,16.7726],[103.598,16.7734],[103.5972,16.774],[103.5972,16.7748],[103.5994,16.7764],[103.5994,16.7772],[103.6008,16.7781],[103.6008,16.7789],[103.5994,16.7789],[103.5983,16.7781],[103.5974,16.778],[103.5972,16.7775],[103.596,16.7778],[103.5958,16.7783],[103.5949,16.7783],[103.5941,16.7775],[103.5935,16.7775],[103.5924,16.7786],[103.5915,16.7785],[103.5915,16.778],[103.591,16.778],[103.5907,16.7788],[103.5912,16.7794],[103.5927,16.7788],[103.5938,16.7788],[103.5949,16.7797],[103.5963,16.7794],[103.5963,16.7802],[103.5943,16.7805],[103.5935,16.7813],[103.5935,16.7818],[103.596,16.7818],[103.5974,16.7813],[103.6011,16.7819],[103.6008,16.784],[103.6013,16.784],[103.6013,16.7849],[103.6008,16.7854],[103.6019,16.7862],[103.6027,16.7862],[103.6027,16.7851],[103.6019,16.7851],[103.6022,16.784],[103.6036,16.7841],[103.6039,16.7849],[103.605,16.7849],[103.605,16.7857],[103.6058,16.7857],[103.6061,16.7852],[103.6072,16.7852],[103.6078,16.7835],[103.6087,16.7835],[103.6089,16.7863],[103.6086,16.7865],[103.6078,16.7865],[103.6078,16.786],[103.6072,16.7862],[103.6078,16.7871],[103.6078,16.7881],[103.6089,16.7879],[103.6089,16.789],[103.6106,16.789],[103.6106,16.7898],[103.6111,16.7901],[103.6106,16.7917],[103.6131,16.7914],[103.6131,16.7906],[103.6137,16.7906],[103.6142,16.7895],[103.6142,16.789],[103.6131,16.789],[103.6126,16.7893],[103.6123,16.7903],[103.6114,16.7903],[103.6117,16.7887],[103.6109,16.7884],[103.6109,16.7871],[103.6114,16.7871],[103.6115,16.786],[103.612,16.7857],[103.612,16.7852],[103.6137,16.7857],[103.6137,16.7866],[103.6131,16.7866],[103.6131,16.7871],[103.6143,16.7871],[103.614,16.7855],[103.6143,16.7847],[103.6151,16.7844],[103.6168,16.7847],[103.6168,16.786],[103.6174,16.7863],[103.6182,16.7861],[103.6185,16.785],[103.6193,16.785],[103.6199,16.7861],[103.6193,16.7877],[103.6199,16.788],[103.6199,16.7885],[103.6204,16.7885],[103.6204,16.7896],[103.6185,16.7896],[103.6182,16.7901],[103.6193,16.7907],[103.6193,16.7915],[103.6179,16.7915],[103.6179,16.7926],[103.6168,16.7931],[103.6167,16.7936],[103.6179,16.7945],[103.6179,16.7964],[103.617,16.7963],[103.617,16.7958],[103.6148,16.7933],[103.6148,16.7947],[103.6142,16.7947],[103.6134,16.7955],[103.6134,16.796],[103.6103,16.796],[103.6105,16.7977],[103.6097,16.7977],[103.6094,16.7966],[103.6083,16.7955],[103.6083,16.7947],[103.6066,16.7952],[103.6058,16.796],[103.6055,16.7971],[103.6041,16.7971],[103.6046,16.7965],[103.6041,16.7963],[103.6044,16.7954],[103.6038,16.7952],[103.6038,16.7944],[103.603,16.7944],[103.6029,16.7949],[103.6007,16.7949],[103.6007,16.7941],[103.6021,16.7941],[103.6021,16.7933],[103.603,16.793],[103.603,16.7925],[103.6038,16.7919],[103.6033,16.7908],[103.6021,16.7906],[103.6013,16.7916],[103.5987,16.7919],[103.5987,16.7941],[103.5979,16.7935],[103.5979,16.793],[103.5962,16.7924],[103.5945,16.7924],[103.594,16.7927],[103.594,16.7932],[103.5931,16.7924],[103.5909,16.7926],[103.5909,16.7935],[103.5914,16.7943],[103.592,16.7943],[103.592,16.7948],[103.5931,16.7948],[103.5931,16.7943],[103.5939,16.7943],[103.5945,16.7959],[103.5951,16.7962],[103.5951,16.797],[103.5945,16.7973],[103.5936,16.7965],[103.5931,16.797],[103.5914,16.797],[103.5919,16.7983],[103.595,16.7992],[103.5976,16.7992],[103.5981,16.7997],[103.5984,16.8011],[103.5981,16.8025]],[[103.6105,16.7949],[103.612,16.7947],[103.6131,16.7936],[103.6134,16.7923],[103.6125,16.7922],[103.612,16.7939],[103.6103,16.7939],[103.6105,16.7949]],[[103.6044,16.7925],[103.6052,16.7914],[103.6066,16.7914],[103.6075,16.7903],[103.608,16.7903],[103.6081,16.7898],[103.6058,16.7898],[103.6055,16.7906],[103.6044,16.7911],[103.6044,16.7925]],[[103.5875,16.7913],[103.5878,16.7915],[103.5878,16.7913],[103.5875,16.7913]],[[103.6035,16.7906],[103.6038,16.7908],[103.6038,16.7906],[103.6035,16.7906]],[[103.5945,16.7902],[103.5948,16.7905],[103.5948,16.7902],[103.5945,16.7902]],[[103.6033,16.7903],[103.6035,16.7906],[103.6035,16.7903],[103.6033,16.7903]],[[103.6083,16.7895],[103.6086,16.7898],[103.6086,16.7895],[103.6083,16.7895]],[[103.6086,16.7892],[103.6089,16.7895],[103.6089,16.7892],[103.6086,16.7892]],[[103.601,16.7886],[103.6016,16.7884],[103.6016,16.7878],[103.601,16.7878],[103.601,16.7886]],[[103.6143,16.7887],[103.6159,16.7887],[103.6159,16.7885],[103.6143,16.7879],[103.6143,16.7887]],[[103.6058,16.7876],[103.6064,16.7876],[103.6064,16.7871],[103.6058,16.7871],[103.6058,16.7876]],[[103.5977,16.787],[103.5979,16.7873],[103.5979,16.787],[103.5977,16.787]],[[103.5991,16.7851],[103.5996,16.7857],[103.5996,16.7851],[103.5991,16.7851]],[[103.5977,16.7832],[103.5982,16.784],[103.5982,16.7832],[103.5977,16.7832]],[[103.5887,16.7804],[103.5895,16.7804],[103.5895,16.7799],[103.5887,16.7799],[103.5887,16.7804]],[[103.5856,16.7793],[103.5873,16.7793],[103.5876,16.7788],[103.5856,16.7788],[103.5856,16.7793]],[[103.5881,16.7793],[103.5884,16.7796],[103.5884,16.7793],[103.5881,16.7793]],[[103.5879,16.7791],[103.5881,16.7793],[103.5881,16.7791],[103.5879,16.7791]],[[103.5932,16.7767],[103.5941,16.7769],[103.5946,16.7764],[103.5935,16.7764],[103.5935,16.7767],[103.5932,16.7767]],[[103.593,16.7764],[103.5932,16.7767],[103.5932,16.7764],[103.593,16.7764]],[[103.5848,16.7761],[103.5851,16.7763],[103.5851,16.7761],[103.5848,16.7761]],[[103.5842,16.7755],[103.5845,16.7758],[103.5845,16.7755],[103.5842,16.7755]],[[103.586,16.765],[103.5863,16.7655],[103.5863,16.765],[103.586,16.765]],[[103.5956,16.7647],[103.5967,16.765],[103.5967,16.7648],[103.5956,16.7647]],[[103.5861,16.7568],[103.5872,16.7563],[103.5869,16.7555],[103.5858,16.756],[103.5861,16.7568]],[[103.5889,16.7566],[103.5894,16.7568],[103.5894,16.7566],[103.5889,16.7566]],[[103.5892,16.7544],[103.5895,16.7549],[103.5895,16.7544],[103.5892,16.7544]]]}},{"type":"Feature","properties":{"kind":"seasonal","area_km2":1.94,"date":"2026-10-08"},"geometry":{"type":"Polygon","coordinates":[[[103.5638,16.7933],[103.5633,16.7919],[103.5619,16.7916],[103.5619,16.79],[103.5605,16.7897],[103.5599,16.7905],[103.5579,16.7905],[103.5571,16.7894],[103.5565,16.7894],[103.5566,16.7886],[103.5577,16.7878],[103.5577,16.7873],[103.5568,16.7867],[103.5569,16.7856],[103.5563,16.7856],[103.5563,16.7843],[103.5569,16.7835],[103.5563,16.7813],[103.5546,16.7813],[103.5546,16.7821],[103.5538,16.7821],[103.5543,16.7845],[103.5538,16.7845],[103.5535,16.7834],[103.5523,16.7864],[103.5501,16.7859],[103.5504,16.7831],[103.5515,16.7834],[103.5521,16.7829],[103.5518,16.7821],[103.5524,16.7818],[103.5518,16.7813],[103.5516,16.7796],[103.5521,16.7796],[103.5518,16.7783],[103.5527,16.7777],[103.5519,16.7766],[103.5535,16.7767],[103.5535,16.778],[103.5544,16.778],[103.5547,16.7786],[103.5561,16.7786],[103.5549,16.7775],[103.5547,16.7761],[103.5558,16.7775],[103.5566,16.7778],[103.5592,16.7775],[103.56,16.777],[103.5623,16.7773],[103.5623,16.7762],[103.5631,16.7746],[103.5645,16.7735],[103.5662,16.7738],[103.5662,16.7727],[103.5671,16.7727],[103.5679,16.773],[103.5679,16.774],[103.5674,16.7746],[103.5659,16.7746],[103.5657,16.7751],[103.5645,16.7748],[103.564,16.7754],[103.5637,16.7775],[103.5642,16.7775],[103.5645,16.7784],[103.5654,16.7784],[103.5642,16.7792],[103.5639,16.78],[103.5631,16.78],[103.5625,16.7786],[103.5603,16.7778],[103.5583,16.7783],[103.558,16.7791],[103.5566,16.7791],[103.5563,16.7802],[103.5574,16.7832],[103.5571,16.7845],[103.558,16.7846],[103.558,16.7851],[103.5588,16.7859],[103.56,16.7859],[103.56,16.7854],[103.5619,16.7854],[103.5625,16.7849],[103.5617,16.7835],[103.5628,16.784],[103.5628,16.7849],[103.5636,16.7849],[103.5636,16.7835],[103.5642,16.7832],[103.565,16.7832],[103.5656,16.7838],[103.5673,16.7838],[103.5673,16.7833],[103.5684,16.7833],[103.5693,16.7841],[103.5695,16.7857],[103.5704,16.7863],[103.5709,16.7874],[103.5709,16.7865],[103.5715,16.786],[103.5706,16.7855],[103.5701,16.7827],[103.5701,16.7819],[103.5707,16.7819],[103.5704,16.78],[103.571,16.78],[103.5718,16.7806],[103.5721,16.7825],[103.5729,16.7828],[103.5735,16.7825],[103.5735,16.7819],[103.5743,16.782],[103.5752,16.7828],[103.5752,16.7844],[103.5743,16.7847],[103.5746,16.786],[103.5737,16.7868],[103.5743,16.789],[103.5751,16.7893],[103.5751,16.7912],[103.5748,16.7917],[103.5723,16.7917],[103.5723,16.7912],[103.5715,16.7906],[103.5709,16.7911],[103.5698,16.7911],[103.5692,16.7906],[103.5687,16.7873],[103.5673,16.7871],[103.5673,16.7865],[103.5661,16.786],[103.5664,16.79],[103.5653,16.79],[103.5653,16.7911],[103.5647,16.7914],[103.5647,16.7919],[103.5658,16.7922],[103.5658,16.793],[103.5638,16.7933]],[[103.5582,16.7889],[103.5585,16.7892],[103.5585,16.7889],[103.5582,16.7889]],[[103.5588,16.7881],[103.5591,16.7884],[103.5591,16.7881],[103.5588,16.7881]],[[103.5628,16.7865],[103.5639,16.7865],[103.5639,16.7862],[103.5622,16.7857],[103.5628,16.7865]],[[103.551,16.785],[103.5524,16.7845],[103.5524,16.784],[103.5512,16.784],[103.551,16.785]],[[103.5524,16.7823],[103.5535,16.7826],[103.5535,16.7824],[103.5524,16.7823]],[[103.5529,16.7815],[103.5535,16.7815],[103.5535,16.7813],[103.553,16.781],[103.5529,16.7815]],[[103.5552,16.781],[103.5558,16.7794],[103.5555,16.7788],[103.5549,16.7788],[103.5552,16.781]],[[103.5527,16.7796],[103.553,16.7799],[103.553,16.7796],[103.5527,16.7796]],[[103.5532,16.7794],[103.5535,16.7786],[103.5533,16.778],[103.5527,16.778],[103.5532,16.7794]],[[103.5623,16.7783],[103.5631,16.7784],[103.5631,16.7778],[103.5623,16.7775],[103.5623,16.7783]]]}},{"type":"Feature","properties":{"kind":"seasonal","area_km2":1.03,"date":"2026-10-09"},"geometry":{"type":"Polygon","coordinates":[[[103.7276,16.0707],[103.7253,16.0696],[103.7253,16.0688],[103.7273,16.0669],[103.7273,16.0663],[103.7299,16.0639],[103.7315,16.0639],[103.7344,16.0626],[103.7361,16.0604],[103.7369,16.0604],[103.7366,16.0599],[103.7386,16.0599],[103.74,16.0564],[103.7414,16.0566],[103.7428,16.0553],[103.7434,16.0542],[103.7431,16.0526],[103.7417,16.0556],[103.7414,16.0547],[103.7423,16.0539],[103.7428,16.0507],[103.7431,16.0523],[103.744,16.0523],[103.7445,16.0518],[103.744,16.0496],[103.7434,16.0493],[103.7454,16.0491],[103.7457,16.0496],[103.7473,16.0502],[103.7479,16.0518],[103.747,16.0523],[103.7465,16.0518],[103.7459,16.0523],[103.7459,16.0529],[103.7465,16.0529],[103.7459,16.0534],[103.7465,16.0537],[103.7456,16.0537],[103.7454,16.0531],[103.7442,16.0553],[103.7431,16.0561],[103.7425,16.0575],[103.7431,16.0577],[103.7431,16.0586],[103.7425,16.0588],[103.7414,16.0613],[103.7408,16.0618],[103.74,16.0615],[103.74,16.0607],[103.7405,16.0607],[103.7408,16.0602],[103.7403,16.0599],[103.7397,16.061],[103.7386,16.0612],[103.7377,16.062],[103.7374,16.0631],[103.7366,16.0634],[103.7363,16.0642],[103.7346,16.0656],[103.7341,16.0672],[103.7324,16.0674],[103.7321,16.0691],[103.7312,16.0693],[103.7312,16.0699],[103.7276,16.0707]],[[103.7335,16.0658],[103.7338,16.0664],[103.7338,16.0658],[103.7335,16.0658]],[[103.7285,16.0658],[103.729,16.0661],[103.729,16.0658],[103.7285,16.0658]],[[103.7403,16.0588],[103.7406,16.0588],[103.7406,16.0583],[103.7417,16.0575],[103.7406,16.0575],[103.7403,16.0588]],[[103.7468,16.0515],[103.747,16.0518],[103.747,16.0515],[103.7468,16.0515]]]}},{"type":"Feature","properties":{"kind":"seasonal","area_km2":0.693,"date":"2026-10-08"},"geometry":{"type":"Polygon","coordinates":[[[103.548,16.7685],[103.5471,16.7677],[103.5463,16.7679],[103.5455,16.7671],[103.5446,16.7671],[103.5446,16.7666],[103.5438,16.7666],[103.5427,16.7652],[103.5421,16.766],[103.5412,16.766],[103.541,16.7655],[103.539,16.7654],[103.5382,16.766],[103.5359,16.7657],[103.5356,16.7673],[103.5334,16.767],[103.5334,16.7665],[103.5317,16.7659],[103.532,16.7643],[103.5311,16.7643],[103.5311,16.7638],[103.5331,16.7643],[103.5348,16.7638],[103.5353,16.7646],[103.5362,16.7646],[103.5362,16.7633],[103.5368,16.7627],[103.5385,16.7625],[103.5393,16.7633],[103.5399,16.7633],[103.5399,16.7614],[103.5418,16.7611],[103.5424,16.7619],[103.5424,16.7644],[103.5432,16.7638],[103.5446,16.7639],[103.5449,16.7644],[103.5458,16.7644],[103.5458,16.7649],[103.5463,16.765],[103.5466,16.7655],[103.5491,16.7663],[103.55,16.7658],[103.5491,16.7652],[103.5491,16.7642],[103.5483,16.7639],[103.5483,16.7631],[103.55,16.7615],[103.5511,16.7617],[103.5511,16.7623],[103.5542,16.7623],[103.5553,16.7618],[103.5559,16.7626],[103.5565,16.7626],[103.5556,16.7628],[103.5545,16.7623],[103.5537,16.7628],[103.5503,16.7628],[103.55,16.7639],[103.5517,16.7655],[103.5522,16.7672],[103.5514,16.768],[103.5494,16.7674],[103.548,16.7685]],[[103.5334,16.7665],[103.5348,16.7665],[103.5353,16.766],[103.5351,16.7651],[103.5342,16.7646],[103.5325,16.7649],[103.532,16.7657],[103.5334,16.7665]]]}},{"type":"Feature","properties":{"kind":"seasonal","area_km2":0.589,"date":"2026-10-04"},"geometry":{"type":"Polygon","coordinates":[[[103.066,16.3118],[103.0663,16.3102],[103.0669,16.3097],[103.0669,16.3086],[103.0655,16.3061],[103.0655,16.3053],[103.0666,16.3045],[103.0661,16.3032],[103.0661,16.3007],[103.0675,16.3007],[103.0681,16.3002],[103.0706,16.3002],[103.0723,16.3008],[103.0723,16.3016],[103.0714,16.3027],[103.0711,16.3051],[103.0706,16.3057],[103.0694,16.3056],[103.0689,16.3064],[103.0697,16.3089],[103.0708,16.3103],[103.0714,16.3103],[103.0714,16.3108],[103.0719,16.3108],[103.0719,16.3114],[103.0694,16.3111],[103.068,16.3119],[103.066,16.3118]]]}},{"type":"Feature","properties":{"kind":"seasonal","area_km2":0.527,"date":"2026-10-04"},"geometry":{"type":"Polygon","coordinates":[[[103.1087,16.4272],[103.1073,16.4255],[103.1037,16.425],[103.1037,16.4239],[103.1045,16.4239],[103.1045,16.4231],[103.1034,16.422],[103.1034,16.4212],[103.1042,16.422],[103.1043,16.4185],[103.1049,16.4174],[103.1068,16.4185],[103.1074,16.4179],[103.1074,16.4169],[103.1093,16.4171],[103.109,16.4234],[103.1098,16.4239],[103.1101,16.4272],[103.1087,16.4272]],[[103.1065,16.4225],[103.1068,16.4228],[103.1068,16.4225],[103.1065,16.4225]]]}},{"type":"Feature","properties":{"kind":"seasonal","area_km2":0.504,"date":"2026-10-08"},"geometry":{"type":"Polygon","coordinates":[[[103.5761,16.7717],[103.5761,16.7709],[103.5747,16.7708],[103.5744,16.77],[103.5727,16.7692],[103.5722,16.7684],[103.5725,16.7619],[103.5708,16.7602],[103.5686,16.7597],[103.5686,16.7591],[103.5675,16.7583],[103.5669,16.7583],[103.5661,16.7597],[103.5661,16.7605],[103.5669,16.761],[103.5669,16.7618],[103.5641,16.7621],[103.5641,16.7634],[103.5652,16.7643],[103.5657,16.7659],[103.5654,16.7681],[103.564,16.7681],[103.5637,16.7689],[103.562,16.7689],[103.5621,16.7661],[103.5612,16.7653],[103.561,16.764],[103.5629,16.7648],[103.5638,16.7659],[103.564,16.7653],[103.5638,16.7643],[103.5624,16.7629],[103.5624,16.7607],[103.5618,16.7602],[103.5618,16.7594],[103.5627,16.7594],[103.5632,16.7605],[103.5644,16.7605],[103.5644,16.761],[103.5655,16.7613],[103.5655,16.7591],[103.5644,16.7586],[103.5649,16.7586],[103.5652,16.758],[103.5666,16.758],[103.5669,16.7572],[103.568,16.7572],[103.568,16.7583],[103.5686,16.7583],[103.5694,16.7594],[103.5711,16.7597],[103.5714,16.7605],[103.5722,16.7605],[103.5722,16.7611],[103.5731,16.7619],[103.5731,16.7643],[103.5739,16.7646],[103.573,16.7681],[103.575,16.77],[103.5761,16.7698],[103.5764,16.7703],[103.5761,16.7717]]]}},{"type":"Feature","properties":{"kind":"seasonal","area_km2":0.482,"date":"2026-10-08"},"geometry":{"type":"Polygon","coordinates":[[[103.5193,16.8],[103.5193,16.7989],[103.5204,16.7987],[103.5205,16.7976],[103.5196,16.797],[103.5202,16.7946],[103.5188,16.7938],[103.5185,16.7919],[103.5177,16.7924],[103.5177,16.7935],[103.5165,16.7937],[103.5166,16.7921],[103.5154,16.7905],[103.5155,16.7891],[103.5163,16.7883],[103.5166,16.7872],[103.516,16.7867],[103.5161,16.7851],[103.5152,16.7851],[103.5155,16.7845],[103.5175,16.7845],[103.5175,16.7853],[103.5169,16.7853],[103.5169,16.7859],[103.5183,16.7856],[103.518,16.7873],[103.5174,16.7872],[103.5172,16.7878],[103.5169,16.7897],[103.5174,16.7897],[103.5177,16.7889],[103.5186,16.7889],[103.5188,16.7894],[103.5202,16.7892],[103.5211,16.79],[103.5211,16.7908],[103.5216,16.7911],[103.5219,16.7927],[103.523,16.793],[103.523,16.7938],[103.5222,16.7938],[103.5219,16.793],[103.5208,16.7932],[103.5208,16.7938],[103.5213,16.7941],[103.521,16.7962],[103.5222,16.7968],[103.5221,16.7995],[103.5216,16.7995],[103.5213,16.8],[103.5193,16.8]]]}},{"type":"Feature","properties":{"kind":"seasonal","area_km2":0.468,"date":"2026-10-08"},"geometry":{"type":"Polygon","coordinates":[[[103.4396,16.74],[103.4379,16.7398],[103.4379,16.7389],[103.4388,16.7387],[103.4388,16.7379],[103.4382,16.7373],[103.4357,16.7373],[103.4343,16.7378],[103.4317,16.7375],[103.4312,16.7381],[103.43,16.7381],[103.4292,16.7389],[103.4281,16.7389],[103.4278,16.7381],[103.4236,16.7383],[103.4233,16.7372],[103.4241,16.7372],[103.425,16.7364],[103.4264,16.7364],[103.427,16.7359],[103.427,16.7351],[103.4281,16.7348],[103.4284,16.7343],[103.4315,16.7346],[103.4326,16.7338],[103.4357,16.734],[103.4368,16.7346],[103.4368,16.7351],[103.4332,16.7348],[103.4348,16.7351],[103.4346,16.7359],[103.4337,16.7365],[103.4348,16.7365],[103.4351,16.737],[103.4379,16.7368],[103.4396,16.7373],[103.4396,16.74]],[[103.4329,16.7351],[103.4332,16.7354],[103.4332,16.7351],[103.4329,16.7351]]]}},{"type":"Feature","properties":{"kind":"seasonal","area_km2":0.46,"date":"2026-10-08"},"geometry":{"type":"Polygon","coordinates":[[[103.5996,16.7566],[103.5996,16.7558],[103.599,16.7558],[103.599,16.7553],[103.5996,16.7553],[103.5999,16.7537],[103.599,16.7534],[103.599,16.7523],[103.5999,16.7523],[103.5996,16.7515],[103.5999,16.7518],[103.6005,16.7515],[103.5996,16.7509],[103.5976,16.7517],[103.5971,16.7507],[103.5968,16.7515],[103.5954,16.7517],[103.5968,16.7507],[103.5974,16.7493],[103.5971,16.7477],[103.598,16.7466],[103.598,16.7447],[103.5971,16.7447],[103.5971,16.7439],[103.5983,16.7439],[103.5983,16.7444],[103.6011,16.7447],[103.6008,16.7461],[103.5991,16.7461],[103.5994,16.7469],[103.6005,16.7469],[103.6005,16.748],[103.5999,16.7482],[103.6002,16.7491],[103.601,16.7491],[103.6016,16.748],[103.6027,16.748],[103.6027,16.7488],[103.6036,16.7488],[103.6038,16.7496],[103.6038,16.7504],[103.6024,16.751],[103.6024,16.7542],[103.6013,16.7545],[103.6018,16.7537],[103.6007,16.7534],[103.6004,16.7542],[103.601,16.7545],[103.6001,16.755],[103.5996,16.7566]],[[103.6002,16.752],[103.6004,16.7523],[103.6004,16.752],[103.6002,16.752]],[[103.6013,16.7512],[103.6019,16.7515],[103.6019,16.7512],[103.6013,16.7512]],[[103.5977,16.749],[103.5982,16.7493],[103.5982,16.749],[103.5977,16.749]]]}},{"type":"Feature","properties":{"kind":"seasonal","area_km2":0.454,"date":"2026-10-08"},"geometry":{"type":"Polygon","coordinates":[[[103.4624,16.8432],[103.4621,16.8405],[103.4605,16.8394],[103.4599,16.8381],[103.4588,16.8378],[103.4591,16.8353],[103.4585,16.8351],[103.4585,16.8345],[103.458,16.8345],[103.4566,16.8318],[103.456,16.8318],[103.4557,16.8313],[103.4546,16.8312],[103.4549,16.8304],[103.4566,16.8307],[103.4574,16.8318],[103.4574,16.8326],[103.4585,16.8326],[103.4591,16.8332],[103.4588,16.834],[103.4597,16.8337],[103.4596,16.8348],[103.4619,16.8356],[103.4622,16.8367],[103.4633,16.8367],[103.4636,16.8362],[103.4627,16.8362],[103.4627,16.8356],[103.4622,16.8356],[103.4616,16.8348],[103.4608,16.8348],[103.4608,16.834],[103.4602,16.834],[103.4605,16.8329],[103.4611,16.8332],[103.4611,16.834],[103.4633,16.8359],[103.4647,16.8357],[103.4644,16.8381],[103.4652,16.8389],[103.4655,16.84],[103.4661,16.84],[103.4663,16.8414],[103.4652,16.8414],[103.4649,16.8422],[103.4632,16.8422],[103.4632,16.8432],[103.4624,16.8432]],[[103.4638,16.8405],[103.4644,16.8408],[103.4644,16.8405],[103.4638,16.8405]],[[103.4621,16.8384],[103.463,16.8384],[103.463,16.8378],[103.4622,16.8378],[103.4621,16.8384]],[[103.4596,16.837],[103.4608,16.8373],[103.4608,16.837],[103.4596,16.837]],[[103.4608,16.8367],[103.4613,16.837],[103.4613,16.8367],[103.4608,16.8367]],[[103.4636,16.8365],[103.4639,16.8367],[103.4639,16.8365],[103.4636,16.8365]],[[103.4605,16.8356],[103.4608,16.8362],[103.4608,16.8356],[103.4605,16.8356]],[[103.4594,16.8348],[103.4596,16.8351],[103.4596,16.8348],[103.4594,16.8348]]]}},{"type":"Feature","properties":{"kind":"seasonal","area_km2":0.438,"date":"2026-10-08"},"geometry":{"type":"Polygon","coordinates":[[[103.4364,16.7913],[103.4361,16.7904],[103.4347,16.7899],[103.4347,16.7872],[103.4353,16.7866],[103.4316,16.7869],[103.4305,16.7858],[103.4294,16.7858],[103.4294,16.7852],[103.428,16.7847],[103.4274,16.7836],[103.4271,16.7841],[103.4263,16.7841],[103.4257,16.7817],[103.4246,16.7811],[103.4246,16.7803],[103.4238,16.7803],[103.4235,16.7811],[103.4243,16.7822],[103.4243,16.7833],[103.4235,16.7849],[103.4249,16.7855],[103.4251,16.7868],[103.4243,16.7868],[103.4235,16.7857],[103.4229,16.7857],[103.4223,16.7852],[103.4223,16.7844],[103.4229,16.7844],[103.4235,16.7825],[103.4229,16.7819],[103.4229,16.7811],[103.4218,16.78],[103.4212,16.78],[103.4213,16.7792],[103.4249,16.7795],[103.4252,16.7806],[103.4266,16.7817],[103.4266,16.7822],[103.4277,16.7822],[103.4283,16.7828],[103.4283,16.7841],[103.4319,16.7863],[103.4341,16.7861],[103.4344,16.785],[103.4356,16.785],[103.4353,16.7858],[103.4358,16.7858],[103.4378,16.7839],[103.4381,16.7818],[103.439,16.7821],[103.4392,16.7826],[103.4384,16.7829],[103.4384,16.784],[103.4392,16.784],[103.4392,16.785],[103.4387,16.7856],[103.4372,16.7853],[103.4356,16.7861],[103.4355,16.7866],[103.4375,16.7872],[103.4375,16.7891],[103.4386,16.7891],[103.4386,16.7905],[103.4375,16.7907],[103.4375,16.7913],[103.4364,16.7913]],[[103.4355,16.7896],[103.4364,16.7894],[103.4361,16.7877],[103.4355,16.7877],[103.435,16.7885],[103.4355,16.7896]]]}},{"type":"Feature","properties":{"kind":"seasonal","area_km2":0.399,"date":"2026-10-08"},"geometry":{"type":"Polygon","coordinates":[[[103.4765,16.8021],[103.4745,16.8018],[103.4743,16.8008],[103.4748,16.8005],[103.4749,16.7983],[103.476,16.7975],[103.4766,16.7964],[103.4769,16.7932],[103.4763,16.7926],[103.4761,16.7894],[103.4755,16.7888],[103.4755,16.788],[103.4741,16.7867],[103.4727,16.7866],[103.4716,16.7877],[103.4707,16.7918],[103.4698,16.7934],[103.4698,16.7948],[103.4687,16.7945],[103.4687,16.7885],[103.4693,16.7877],[103.469,16.7866],[103.4702,16.7845],[103.4699,16.7815],[103.4705,16.7812],[103.4705,16.7799],[103.4694,16.7798],[103.4697,16.779],[103.4702,16.779],[103.4713,16.7801],[103.4713,16.7812],[103.4708,16.7818],[103.4707,16.7845],[103.4699,16.7861],[103.4699,16.7899],[103.4704,16.7902],[103.471,16.7872],[103.4719,16.7869],[103.4727,16.7858],[103.4741,16.7858],[103.4744,16.7864],[103.4752,16.7864],[103.4752,16.7869],[103.4758,16.7872],[103.4769,16.7902],[103.4774,16.7954],[103.4771,16.797],[103.4763,16.7978],[103.476,16.8013],[103.4765,16.8013],[103.4765,16.8021]]]}},{"type":"Feature","properties":{"kind":"seasonal","area_km2":0.392,"date":"2026-10-09"},"geometry":{"type":"Polygon","coordinates":[[[103.8595,16.7214],[103.8598,16.7197],[103.859,16.7187],[103.8584,16.7187],[103.8584,16.7178],[103.8596,16.7178],[103.8596,16.7168],[103.8601,16.7162],[103.8601,16.7124],[103.8607,16.7122],[103.8613,16.713],[103.8613,16.7135],[103.8607,16.7135],[103.8612,16.7162],[103.8615,16.7157],[103.8624,16.7157],[103.8627,16.7168],[103.8627,16.7162],[103.8643,16.7157],[103.8646,16.713],[103.8641,16.7122],[103.8658,16.7127],[103.8669,16.7114],[103.8664,16.7089],[103.8652,16.7087],[103.865,16.7078],[103.8652,16.707],[103.8658,16.707],[103.8655,16.7081],[103.8664,16.7084],[103.8678,16.7103],[103.8677,16.7114],[103.8672,16.7116],[103.8669,16.713],[103.8663,16.7133],[103.8663,16.7144],[103.8658,16.7146],[103.8658,16.716],[103.8652,16.716],[103.8652,16.7171],[103.866,16.7176],[103.866,16.7184],[103.8646,16.7184],[103.8646,16.7179],[103.8641,16.7176],[103.8638,16.7181],[103.8629,16.7181],[103.8627,16.717],[103.8615,16.717],[103.861,16.7184],[103.8626,16.7187],[103.8629,16.7198],[103.8612,16.7203],[103.8607,16.7214],[103.8595,16.7214]],[[103.8607,16.717],[103.861,16.7173],[103.861,16.717],[103.8607,16.717]],[[103.8649,16.7138],[103.8652,16.7141],[103.8652,16.7138],[103.8649,16.7138]]]}},{"type":"Feature","properties":{"kind":"seasonal","area_km2":0.385,"date":"2026-10-08"},"geometry":{"type":"Polygon","coordinates":[[[103.4823,16.8119],[103.4824,16.8114],[103.4818,16.8114],[103.4815,16.8108],[103.4801,16.8103],[103.4798,16.8095],[103.4793,16.8095],[103.4793,16.8087],[103.4787,16.8087],[103.4787,16.8095],[103.4776,16.8097],[103.4776,16.8116],[103.4764,16.8113],[103.4762,16.8084],[103.4773,16.8081],[103.4773,16.807],[103.4768,16.807],[103.4768,16.8078],[103.4759,16.8078],[103.4762,16.8054],[103.4754,16.8051],[103.4748,16.8027],[103.4762,16.8027],[103.4754,16.8035],[103.4765,16.8038],[103.4762,16.8048],[103.4768,16.8048],[103.4776,16.807],[103.4782,16.807],[103.4776,16.8054],[103.4787,16.8054],[103.4796,16.8076],[103.4807,16.8079],[103.4807,16.8073],[103.4801,16.8073],[103.4799,16.8051],[103.4787,16.8049],[103.4802,16.8046],[103.481,16.8057],[103.4815,16.8076],[103.4821,16.8079],[103.4824,16.8092],[103.4838,16.8081],[103.4852,16.8079],[103.4852,16.8087],[103.4832,16.8103],[103.4835,16.8119],[103.4823,16.8119]],[[103.4804,16.8084],[103.4807,16.8087],[103.4807,16.8084],[103.4804,16.8084]],[[103.4801,16.8057],[103.4804,16.806],[103.4804,16.8057],[103.4801,16.8057]]]}},{"type":"Feature","properties":{"kind":"seasonal","area_km2":0.377,"date":"2026-10-08"},"geometry":{"type":"Polygon","coordinates":[[[103.529,16.7795],[103.5293,16.7784],[103.5274,16.7781],[103.5271,16.7773],[103.526,16.7767],[103.526,16.7759],[103.5249,16.7751],[103.5249,16.774],[103.5257,16.7735],[103.5252,16.7705],[103.5257,16.7705],[103.5257,16.7719],[103.5266,16.7724],[103.5266,16.7732],[103.5271,16.7732],[103.5271,16.774],[103.5266,16.774],[103.5263,16.7748],[103.528,16.7749],[103.5279,16.7754],[103.5285,16.7751],[103.5296,16.7762],[103.5294,16.774],[103.5299,16.773],[103.5294,16.773],[103.5294,16.7722],[103.5283,16.7711],[103.528,16.7697],[103.5297,16.7713],[103.5297,16.7719],[103.5313,16.773],[103.5313,16.7751],[103.5302,16.7751],[103.5302,16.7757],[103.5316,16.7762],[103.5322,16.7776],[103.5338,16.7784],[103.5338,16.7792],[103.5327,16.7795],[103.529,16.7795]],[[103.5293,16.7765],[103.5296,16.7768],[103.5296,16.7765],[103.5293,16.7765]],[[103.5296,16.7762],[103.5305,16.7765],[103.5305,16.7762],[103.5296,16.7762]]]}},{"type":"Feature","properties":{"kind":"seasonal","area_km2":0.377,"date":"2026-10-08"},"geometry":{"type":"Polygon","coordinates":[[[103.5611,16.7493],[103.5608,16.7488],[103.5633,16.7485],[103.565,16.7472],[103.567,16.7472],[103.567,16.7448],[103.5684,16.7448],[103.569,16.7437],[103.5704,16.7437],[103.571,16.7442],[103.5712,16.7459],[103.5718,16.7459],[103.5729,16.7448],[103.5738,16.7448],[103.5738,16.7456],[103.5743,16.7459],[103.5746,16.7454],[103.5757,16.7451],[103.576,16.7443],[103.5771,16.7443],[103.578,16.7462],[103.58,16.7457],[103.5799,16.7465],[103.5794,16.747],[103.5783,16.747],[103.5782,16.7476],[103.5774,16.7481],[103.5766,16.7475],[103.5769,16.7459],[103.5757,16.7459],[103.5757,16.7467],[103.5749,16.747],[103.574,16.7483],[103.5735,16.7481],[103.5732,16.7464],[103.5726,16.7467],[103.5726,16.7472],[103.5721,16.7472],[103.5721,16.748],[103.5704,16.7483],[103.5701,16.7451],[103.5693,16.7461],[103.5681,16.7461],[103.5678,16.748],[103.5673,16.7486],[103.5645,16.7483],[103.5639,16.7485],[103.5639,16.7491],[103.5628,16.7488],[103.5622,16.7493],[103.5611,16.7493]]]}},{"type":"Feature","properties":{"kind":"seasonal","area_km2":0.356,"date":"2026-10-09"},"geometry":{"type":"Polygon","coordinates":[[[103.7236,16.0774],[103.7231,16.0769],[103.7231,16.0752],[103.7217,16.0755],[103.7217,16.0728],[103.7242,16.0706],[103.7256,16.0706],[103.7262,16.0712],[103.7284,16.0712],[103.7287,16.0723],[103.7276,16.0734],[103.7264,16.0758],[103.7247,16.0774],[103.7236,16.0774]]]}},{"type":"Feature","properties":{"kind":"seasonal","area_km2":0.332,"date":"2026-10-09"},"geometry":{"type":"Polygon","coordinates":[[[103.9757,16.1891],[103.9757,16.1867],[103.9752,16.1864],[103.9752,16.1851],[103.976,16.1851],[103.9766,16.1843],[103.9763,16.1837],[103.9743,16.1843],[103.9744,16.1829],[103.9755,16.1821],[103.9755,16.181],[103.9772,16.181],[103.9774,16.1824],[103.9797,16.1829],[103.9794,16.1864],[103.9785,16.1886],[103.978,16.1886],[103.9777,16.1891],[103.9757,16.1891]]]}},{"type":"Feature","properties":{"kind":"seasonal","area_km2":0.331,"date":"2026-10-08"},"geometry":{"type":"Polygon","coordinates":[[[103.4492,16.8724],[103.4498,16.8692],[103.4492,16.8689],[103.449,16.8678],[103.4484,16.8678],[103.4478,16.867],[103.4453,16.8672],[103.4445,16.8667],[103.4445,16.8659],[103.4453,16.8659],[103.4464,16.8651],[103.4462,16.8632],[103.4487,16.8635],[103.449,16.8629],[103.4496,16.8629],[103.449,16.864],[103.4467,16.864],[103.4467,16.8659],[103.4473,16.8659],[103.4481,16.8656],[103.4481,16.8648],[103.4498,16.8643],[103.4504,16.8648],[103.4504,16.8635],[103.451,16.8635],[103.4521,16.8621],[103.4521,16.8629],[103.4512,16.8638],[103.4512,16.8659],[103.4504,16.8665],[103.4504,16.8673],[103.4515,16.8678],[103.452,16.8711],[103.4509,16.8716],[103.4509,16.8724],[103.4492,16.8724]],[[103.4462,16.8662],[103.4464,16.8664],[103.4464,16.8662],[103.4462,16.8662]],[[103.4464,16.8659],[103.4467,16.8662],[103.4467,16.8659],[103.4464,16.8659]],[[103.4481,16.8656],[103.4484,16.8662],[103.4484,16.8656],[103.4481,16.8656]]]}},{"type":"Feature","properties":{"kind":"seasonal","area_km2":0.328,"date":"2026-10-08"},"geometry":{"type":"Polygon","coordinates":[[[103.5512,16.7552],[103.5509,16.7547],[103.552,16.7547],[103.5534,16.7536],[103.554,16.7525],[103.5549,16.7525],[103.5546,16.7509],[103.5552,16.7506],[103.5549,16.7487],[103.5555,16.7482],[103.5543,16.7474],[103.5543,16.7466],[103.5552,16.7466],[103.5546,16.7458],[103.5521,16.7455],[103.5515,16.7444],[103.5501,16.7438],[103.5502,16.7419],[103.5496,16.7417],[103.5493,16.7406],[103.5496,16.7387],[103.551,16.739],[103.5516,16.7398],[103.5516,16.7411],[103.551,16.7419],[103.5515,16.7438],[103.5538,16.7444],[103.5546,16.7436],[103.5552,16.7436],[103.5552,16.7444],[103.5541,16.7444],[103.5541,16.7452],[103.5552,16.7449],[103.5557,16.746],[103.5555,16.7474],[103.5563,16.7482],[103.556,16.7501],[103.5574,16.7509],[103.5574,16.7517],[103.5568,16.7517],[103.5568,16.7534],[103.5537,16.7536],[103.5526,16.755],[103.5512,16.7552]]]}},{"type":"Feature","properties":{"kind":"seasonal","area_km2":0.278,"date":"2026-10-08"},"geometry":{"type":"Polygon","coordinates":[[[103.7467,16.8533],[103.7458,16.8525],[103.7458,16.8517],[103.7473,16.8517],[103.7478,16.8522],[103.7478,16.8465],[103.7484,16.846],[103.7484,16.8449],[103.7496,16.8444],[103.7499,16.8411],[103.7513,16.8398],[103.7527,16.8395],[103.753,16.8403],[103.7521,16.8398],[103.7501,16.8414],[103.7501,16.8436],[103.7507,16.8438],[103.7507,16.8446],[103.749,16.8452],[103.7493,16.846],[103.7487,16.8465],[103.7487,16.8479],[103.7492,16.8484],[103.7484,16.849],[103.749,16.849],[103.7492,16.8495],[103.7504,16.8495],[103.7504,16.8482],[103.7498,16.8479],[103.7498,16.8471],[103.7504,16.8471],[103.7504,16.8476],[103.7526,16.8476],[103.7523,16.8482],[103.7512,16.8482],[103.7512,16.8501],[103.752,16.8498],[103.7523,16.8509],[103.7529,16.8509],[103.7529,16.8517],[103.752,16.8517],[103.752,16.8512],[103.7512,16.8509],[103.7501,16.8522],[103.7487,16.852],[103.7484,16.853],[103.7467,16.8533]],[[103.7495,16.8509],[103.7501,16.8509],[103.7501,16.8503],[103.7495,16.8503],[103.7495,16.8509]],[[103.7481,16.849],[103.7484,16.8492],[103.7484,16.849],[103.7481,16.849]]]}},{"type":"Feature","properties":{"kind":"seasonal","area_km2":0.274,"date":"2026-10-04"},"geometry":{"type":"Polygon","coordinates":[[[103.2664,16.1843],[103.2667,16.1837],[103.2659,16.1835],[103.2651,16.1821],[103.2645,16.1821],[103.2637,16.1783],[103.2626,16.1769],[103.2626,16.1729],[103.2637,16.1729],[103.2646,16.1734],[103.2646,16.1745],[103.2634,16.1745],[103.2634,16.1758],[103.2637,16.1764],[103.2654,16.1764],[103.2659,16.1775],[103.2659,16.1791],[103.2665,16.1794],[103.2665,16.1813],[103.2659,16.1816],[103.2681,16.1821],[103.2684,16.184],[103.2664,16.1843]],[[103.2667,16.1824],[103.267,16.1829],[103.267,16.1824],[103.2667,16.1824]],[[103.2656,16.1816],[103.2659,16.1818],[103.2659,16.1816],[103.2656,16.1816]]]}},{"type":"Feature","properties":{"kind":"seasonal","area_km2":0.266,"date":"2026-10-08"},"geometry":{"type":"Polygon","coordinates":[[[103.5194,16.7889],[103.5188,16.7881],[103.5189,16.787],[103.5191,16.7864],[103.5203,16.7865],[103.5208,16.7873],[103.5211,16.7862],[103.5206,16.7856],[103.5206,16.7848],[103.522,16.7846],[103.522,16.784],[103.5203,16.7824],[103.5194,16.7829],[103.5183,16.7829],[103.5175,16.7824],[103.5155,16.7821],[103.5152,16.7813],[103.5164,16.7815],[103.5161,16.7794],[103.5155,16.7794],[103.515,16.7786],[103.5167,16.7783],[103.5164,16.7778],[103.517,16.7778],[103.5178,16.7786],[103.5178,16.7794],[103.5169,16.7799],[103.5169,16.7805],[103.518,16.7821],[103.5189,16.7818],[103.5189,16.7808],[103.5197,16.7808],[103.5214,16.7824],[103.5214,16.7829],[103.522,16.7829],[103.522,16.7838],[103.5225,16.7843],[103.5234,16.7838],[103.5234,16.7857],[103.5217,16.7862],[103.5217,16.7881],[103.5208,16.7889],[103.5194,16.7889]],[[103.522,16.7846],[103.5222,16.7848],[103.5222,16.7846],[103.522,16.7846]],[[103.5164,16.7802],[103.5167,16.7805],[103.5167,16.7802],[103.5164,16.7802]]]}},{"type":"Feature","properties":{"kind":"seasonal","area_km2":0.247,"date":"2026-10-08"},"geometry":{"type":"Polygon","coordinates":[[[103.4507,16.8619],[103.4507,16.861],[103.451,16.8605],[103.4518,16.8605],[103.4518,16.8597],[103.4513,16.8594],[103.4513,16.8583],[103.4505,16.8567],[103.4499,16.8567],[103.4499,16.8559],[103.4513,16.8556],[103.4513,16.8551],[103.4491,16.8553],[103.4488,16.8518],[103.4502,16.8521],[103.4508,16.8516],[103.4522,16.8516],[103.4519,16.8543],[103.4522,16.8537],[103.4533,16.854],[103.4533,16.8548],[103.4522,16.8548],[103.4513,16.8564],[103.4524,16.8578],[103.4533,16.8581],[103.4535,16.8589],[103.4527,16.8611],[103.4513,16.8613],[103.4507,16.8619]],[[103.4524,16.8592],[103.4527,16.8597],[103.4527,16.8592],[103.4524,16.8592]],[[103.451,16.8537],[103.4513,16.854],[103.4513,16.8537],[103.451,16.8537]]]}},{"type":"Feature","properties":{"kind":"seasonal","area_km2":0.247,"date":"2026-10-08"},"geometry":{"type":"Polygon","coordinates":[[[103.4794,16.797],[103.4794,16.7956],[103.4802,16.7954],[103.48,16.7927],[103.4808,16.7919],[103.4811,16.7908],[103.4825,16.7908],[103.4825,16.7913],[103.4845,16.7924],[103.4845,16.7932],[103.485,16.7938],[103.4878,16.7933],[103.4873,16.7927],[103.4943,16.7933],[103.4943,16.7941],[103.4932,16.7944],[103.4895,16.7944],[103.4892,16.7949],[103.4864,16.7943],[103.4859,16.7949],[103.485,16.7949],[103.4828,16.7921],[103.4814,16.7916],[103.4811,16.7929],[103.4805,16.7935],[103.4811,16.7957],[103.4802,16.7959],[103.4794,16.797]],[[103.4878,16.7933],[103.4881,16.7935],[103.4881,16.7933],[103.4878,16.7933]]]}},{"type":"Feature","properties":{"kind":"seasonal","area_km2":0.226,"date":"2026-10-08"},"geometry":{"type":"Polygon","coordinates":[[[103.4368,16.8064],[103.4357,16.804],[103.434,16.8029],[103.434,16.8021],[103.4346,16.8024],[103.4349,16.8018],[103.434,16.801],[103.434,16.8005],[103.4329,16.7999],[103.4326,16.8007],[103.4312,16.8007],[103.4315,16.798],[103.4304,16.7966],[103.4312,16.7964],[103.4318,16.7969],[103.4321,16.7999],[103.4326,16.7988],[103.4343,16.7988],[103.4354,16.7994],[103.4357,16.8013],[103.4351,16.8029],[103.4363,16.8037],[103.4368,16.8054],[103.4374,16.8054],[103.4374,16.8045],[103.4379,16.8043],[103.4374,16.8037],[103.4374,16.8029],[103.4385,16.8029],[103.4382,16.8024],[103.4374,16.8024],[103.4374,16.8013],[103.438,16.8013],[103.4383,16.7999],[103.4382,16.8018],[103.4391,16.8021],[103.4391,16.8051],[103.4382,16.8051],[103.4376,16.8056],[103.4376,16.8064],[103.4368,16.8064]]]}},{"type":"Feature","properties":{"kind":"seasonal","area_km2":0.215,"date":"2026-10-09"},"geometry":{"type":"Polygon","coordinates":[[[103.7176,16.1872],[103.7156,16.1869],[103.7153,16.1864],[103.7142,16.1864],[103.7134,16.1839],[103.7137,16.1826],[103.7154,16.1812],[103.7162,16.1812],[103.7165,16.1804],[103.7173,16.1807],[103.7173,16.1818],[103.7179,16.1815],[103.7179,16.182],[103.7162,16.1829],[103.717,16.1839],[103.717,16.185],[103.7176,16.1853],[103.7176,16.1872]]]}},{"type":"Feature","properties":{"kind":"seasonal","area_km2":0.212,"date":"2026-10-08"},"geometry":{"type":"Polygon","coordinates":[[[103.5495,16.7913],[103.5489,16.7894],[103.5473,16.7896],[103.5478,16.7861],[103.5487,16.7861],[103.5487,16.7869],[103.5498,16.7872],[103.5501,16.7888],[103.5507,16.7869],[103.5526,16.7872],[103.5526,16.7883],[103.5535,16.7883],[103.5537,16.7872],[103.5549,16.7872],[103.5543,16.7862],[103.5535,16.7864],[103.5535,16.7859],[103.554,16.7859],[103.5543,16.7848],[103.5549,16.7845],[103.5546,16.7862],[103.5552,16.7864],[103.5554,16.7878],[103.5546,16.7878],[103.5537,16.7894],[103.5529,16.7894],[103.5523,16.7886],[103.5512,16.7883],[103.5506,16.7894],[103.5506,16.791],[103.5495,16.7913]]]}},{"type":"Feature","properties":{"kind":"seasonal","area_km2":0.211,"date":"2026-10-08"},"geometry":{"type":"Polygon","coordinates":[[[103.4563,16.7936],[103.4563,16.7928],[103.4558,16.7925],[103.4547,16.7903],[103.4538,16.7898],[103.4538,16.7868],[103.453,16.7862],[103.4527,16.7854],[103.4519,16.7851],[103.4513,16.783],[103.4505,16.7824],[103.4502,16.7813],[103.4494,16.7811],[103.4497,16.78],[103.4505,16.7805],[103.4505,16.7813],[103.4513,16.7816],[103.4516,16.783],[103.4522,16.7832],[103.4522,16.7846],[103.4536,16.7849],[103.4536,16.7854],[103.4541,16.7854],[103.4558,16.7909],[103.4563,16.7898],[103.4564,16.7884],[103.4558,16.7873],[103.4566,16.7882],[103.4577,16.7936],[103.4563,16.7936]]]}},{"type":"Feature","properties":{"kind":"seasonal","area_km2":0.204,"date":"2026-10-08"},"geometry":{"type":"Polygon","coordinates":[[[103.4308,16.7804],[103.4303,16.779],[103.4291,16.7779],[103.4277,16.7774],[103.4278,16.7766],[103.4306,16.7768],[103.4311,16.7777],[103.4322,16.7782],[103.4336,16.778],[103.4334,16.7761],[103.4342,16.7761],[103.4359,16.778],[103.437,16.7777],[103.4373,16.7783],[103.4401,16.7783],[103.4404,16.7775],[103.4413,16.7775],[103.4412,16.7786],[103.4404,16.7791],[103.4379,16.7791],[103.4376,16.7785],[103.4356,16.7785],[103.4351,16.7777],[103.4345,16.7777],[103.4342,16.779],[103.4311,16.7785],[103.4317,16.7798],[103.4328,16.7801],[103.4308,16.7804]]]}},{"type":"Feature","properties":{"kind":"seasonal","area_km2":0.2,"date":"2026-10-08"},"geometry":{"type":"Polygon","coordinates":[[[103.1334,16.953],[103.1308,16.9505],[103.1309,16.95],[103.1297,16.9503],[103.1297,16.9492],[103.132,16.9478],[103.134,16.9479],[103.1342,16.9495],[103.1354,16.9503],[103.1354,16.9511],[103.1345,16.9511],[103.1348,16.9527],[103.1334,16.953]]]}},{"type":"Feature","properties":{"kind":"seasonal","area_km2":0.2,"date":"2026-10-08"},"geometry":{"type":"Polygon","coordinates":[[[103.4771,16.7691],[103.4779,16.768],[103.4807,16.7683],[103.481,16.7664],[103.4824,16.7658],[103.4822,16.7653],[103.4791,16.7642],[103.4791,16.7637],[103.4782,16.7634],[103.4782,16.7623],[103.4788,16.7623],[103.4791,16.7618],[103.4805,16.7623],[103.4794,16.7626],[103.4791,16.7631],[103.4805,16.7639],[103.4819,16.7639],[103.483,16.765],[103.4844,16.765],[103.485,16.7645],[103.485,16.7637],[103.4839,16.7626],[103.4822,16.7629],[103.4808,16.7626],[103.4819,16.7626],[103.4822,16.762],[103.4844,16.7621],[103.4844,16.7629],[103.4855,16.7632],[103.4858,16.7648],[103.4844,16.7656],[103.4844,16.7661],[103.4855,16.7661],[103.4855,16.7675],[103.4852,16.767],[103.4844,16.7672],[103.4838,16.7661],[103.4827,16.7661],[103.4821,16.7669],[103.4816,16.7669],[103.4813,16.7685],[103.4785,16.7685],[103.4771,16.7691]]]}},{"type":"Feature","properties":{"kind":"seasonal","area_km2":0.199,"date":"2026-10-09"},"geometry":{"type":"Polygon","coordinates":[[[103.8688,16.1005],[103.8688,16.0975],[103.8665,16.0967],[103.866,16.0961],[103.866,16.0953],[103.8671,16.0953],[103.8674,16.0959],[103.8682,16.0959],[103.8696,16.0969],[103.8705,16.097],[103.8713,16.0961],[103.8719,16.0945],[103.8727,16.0945],[103.8727,16.0956],[103.8721,16.0959],[103.8721,16.0964],[103.8727,16.0967],[103.8724,16.0986],[103.8718,16.0991],[103.8702,16.0994],[103.8696,16.1005],[103.8688,16.1005]]]}},{"type":"Feature","properties":{"kind":"seasonal","area_km2":0.194,"date":"2026-10-04"},"geometry":{"type":"Polygon","coordinates":[[[103.2868,16.3241],[103.2863,16.3192],[103.2877,16.3184],[103.2886,16.3184],[103.2886,16.3178],[103.2897,16.3178],[103.2899,16.3216],[103.2891,16.3222],[103.2888,16.3235],[103.2882,16.3235],[103.2879,16.3241],[103.2868,16.3241]],[[103.2883,16.3203],[103.2888,16.3203],[103.2888,16.3195],[103.2883,16.3195],[103.2883,16.3203]]]}},{"type":"Feature","properties":{"kind":"seasonal","area_km2":0.191,"date":"2026-10-09"},"geometry":{"type":"Polygon","coordinates":[[[103.8661,16.7068],[103.8664,16.7057],[103.8644,16.7054],[103.8647,16.7035],[103.8639,16.7024],[103.861,16.7024],[103.8605,16.7029],[103.8602,16.7051],[103.8602,16.7024],[103.8644,16.7021],[103.865,16.7024],[103.8653,16.704],[103.8661,16.7041],[103.8661,16.7027],[103.867,16.7027],[103.8675,16.7035],[103.8681,16.7035],[103.8681,16.703],[103.8675,16.7027],[103.8684,16.7027],[103.8686,16.7022],[103.8706,16.7024],[103.8712,16.7038],[103.8712,16.7054],[103.8703,16.7054],[103.8703,16.7049],[103.8695,16.7041],[103.8667,16.7041],[103.8672,16.7065],[103.8661,16.7068]]]}},{"type":"Feature","properties":{"kind":"seasonal","area_km2":0.188,"date":"2026-10-09"},"geometry":{"type":"Polygon","coordinates":[[[103.9632,16.2262],[103.9629,16.2249],[103.9612,16.2241],[103.9612,16.2224],[103.9632,16.2219],[103.9635,16.2213],[103.9646,16.2214],[103.9632,16.2227],[103.9626,16.2227],[103.9626,16.2235],[103.9635,16.2235],[103.9643,16.2227],[103.9649,16.2227],[103.9649,16.2222],[103.9655,16.2222],[103.9668,16.2233],[103.9668,16.2246],[103.966,16.2249],[103.9651,16.2262],[103.9632,16.2262]]]}},{"type":"Feature","properties":{"kind":"seasonal","area_km2":0.184,"date":"2026-10-09"},"geometry":{"type":"Polygon","coordinates":[[[103.9915,16.2939],[103.9912,16.2925],[103.9918,16.2912],[103.9909,16.2909],[103.9904,16.2893],[103.9915,16.289],[103.9918,16.2895],[103.9923,16.289],[103.9926,16.2882],[103.9915,16.2879],[103.9921,16.2879],[103.9923,16.2871],[103.9938,16.2868],[103.9938,16.2863],[103.9943,16.2863],[103.9943,16.2847],[103.9949,16.2844],[103.9949,16.2879],[103.9937,16.2887],[103.9943,16.2893],[103.9935,16.2896],[103.9932,16.2904],[103.9926,16.2904],[103.9929,16.2909],[103.9923,16.2909],[103.9926,16.2917],[103.9932,16.2917],[103.9929,16.2934],[103.9923,16.2939],[103.9915,16.2939]],[[103.9938,16.2868],[103.994,16.2871],[103.994,16.2868],[103.9938,16.2868]]]}},{"type":"Feature","properties":{"kind":"seasonal","area_km2":0.181,"date":"2026-10-08"},"geometry":{"type":"Polygon","coordinates":[[[103.4905,16.7442],[103.4899,16.7434],[103.4871,16.7436],[103.4871,16.7431],[103.4882,16.742],[103.4897,16.742],[103.4894,16.7412],[103.488,16.7409],[103.4888,16.7409],[103.4902,16.7396],[103.4919,16.7396],[103.4922,16.741],[103.4913,16.7418],[103.493,16.7429],[103.493,16.744],[103.4905,16.7442]]]}},{"type":"Feature","properties":{"kind":"seasonal","area_km2":0.178,"date":"2026-10-08"},"geometry":{"type":"Polygon","coordinates":[[[103.4494,16.7398],[103.4494,16.7388],[103.4489,16.7388],[103.4483,16.7369],[103.4472,16.736],[103.4464,16.7363],[103.447,16.7341],[103.4475,16.7341],[103.4484,16.7328],[103.4498,16.7333],[103.4486,16.735],[103.4486,16.7371],[103.4495,16.7371],[103.4495,16.7377],[103.45,16.7371],[103.4497,16.7361],[103.4509,16.735],[103.4531,16.7353],[103.454,16.7366],[103.4545,16.7366],[103.4548,16.7355],[103.4548,16.7374],[103.454,16.7374],[103.4537,16.7366],[103.4526,16.7358],[103.4512,16.7358],[103.4503,16.7371],[103.4503,16.7399],[103.4494,16.7398]]]}},{"type":"Feature","properties":{"kind":"seasonal","area_km2":0.175,"date":"2026-10-04"},"geometry":{"type":"Polygon","coordinates":[[[103.1585,16.1186],[103.1574,16.1172],[103.1577,16.1159],[103.1608,16.1137],[103.1624,16.1137],[103.1627,16.1154],[103.1619,16.1162],[103.1613,16.1162],[103.1613,16.1167],[103.1602,16.1172],[103.1593,16.1186],[103.1585,16.1186]]]}},{"type":"Feature","properties":{"kind":"seasonal","area_km2":0.175,"date":"2026-10-09"},"geometry":{"type":"Polygon","coordinates":[[[103.7324,16.193],[103.7299,16.1927],[103.7307,16.1897],[103.7319,16.1895],[103.7322,16.1886],[103.7333,16.1889],[103.7333,16.1878],[103.7338,16.1878],[103.7341,16.1873],[103.7355,16.1873],[103.7355,16.1881],[103.7341,16.1895],[103.7341,16.1903],[103.7335,16.1905],[103.733,16.1924],[103.7324,16.193]]]}},{"type":"Feature","properties":{"kind":"seasonal","area_km2":0.173,"date":"2026-10-04"},"geometry":{"type":"Polygon","coordinates":[[[103.1214,16.2476],[103.1211,16.2462],[103.1222,16.2462],[103.1222,16.244],[103.1242,16.2441],[103.1256,16.2452],[103.1276,16.2449],[103.1276,16.2454],[103.1259,16.2473],[103.1214,16.2476]]]}},{"type":"Feature","properties":{"kind":"seasonal","area_km2":0.17,"date":"2026-10-09"},"geometry":{"type":"Polygon","coordinates":[[[103.9402,16.9317],[103.9405,16.9306],[103.9391,16.9292],[103.9391,16.9281],[103.9383,16.9279],[103.9383,16.9268],[103.9417,16.9271],[103.9417,16.926],[103.9389,16.9254],[103.938,16.9241],[103.9383,16.9227],[103.9378,16.9222],[103.9366,16.9222],[103.9358,16.9208],[103.9344,16.9203],[103.9344,16.9194],[103.9361,16.9194],[103.9361,16.9189],[103.9367,16.9189],[103.9364,16.92],[103.9352,16.9197],[103.935,16.9203],[103.9361,16.9203],[103.9369,16.9211],[103.9369,16.9219],[103.9389,16.9222],[103.9392,16.9252],[103.9417,16.9249],[103.9425,16.9265],[103.9431,16.9268],[103.9431,16.9273],[103.9422,16.9279],[103.9403,16.9271],[103.9389,16.9273],[103.9397,16.9279],[103.9394,16.9287],[103.94,16.929],[103.94,16.9295],[103.9408,16.9303],[103.9414,16.9303],[103.9417,16.9311],[103.9402,16.9317]]]}},{"type":"Feature","properties":{"kind":"seasonal","area_km2":0.167,"date":"2026-10-08"},"geometry":{"type":"Polygon","coordinates":[[[103.4574,16.7654],[103.4574,16.7629],[103.458,16.763],[103.4583,16.7619],[103.4574,16.7619],[103.4571,16.7613],[103.4552,16.7616],[103.4549,16.7627],[103.4546,16.7605],[103.4535,16.7602],[103.4532,16.7594],[103.4529,16.7626],[103.4512,16.7629],[103.4526,16.7616],[103.4526,16.7605],[103.4521,16.7602],[103.4524,16.7575],[103.4532,16.7575],[103.4532,16.7586],[103.4546,16.7599],[103.4569,16.76],[103.4577,16.7611],[103.4591,16.7616],[103.4591,16.7627],[103.4577,16.764],[103.4577,16.7648],[103.4582,16.7654],[103.4574,16.7654]],[[103.4585,16.7619],[103.4588,16.7621],[103.4588,16.7619],[103.4585,16.7619]]]}},{"type":"Feature","properties":{"kind":"seasonal","area_km2":0.167,"date":"2026-10-04"},"geometry":{"type":"Polygon","coordinates":[[[103.3904,16.0155],[103.3845,16.0152],[103.3845,16.0141],[103.3851,16.0136],[103.3859,16.0136],[103.3873,16.012],[103.389,16.012],[103.3896,16.0133],[103.3901,16.0136],[103.3901,16.0144],[103.3907,16.0147],[103.3904,16.0155]],[[103.3873,16.0144],[103.3879,16.0144],[103.3879,16.0139],[103.3873,16.0139],[103.3873,16.0144]]]}},{"type":"Feature","properties":{"kind":"seasonal","area_km2":0.164,"date":"2026-10-08"},"geometry":{"type":"Polygon","coordinates":[[[103.5047,16.7647],[103.5055,16.7638],[103.505,16.7638],[103.5044,16.7625],[103.5027,16.7633],[103.5027,16.7638],[103.4988,16.7641],[103.4982,16.7638],[103.4982,16.7632],[103.4965,16.7627],[103.4962,16.7622],[103.5005,16.7635],[103.501,16.763],[103.503,16.763],[103.5033,16.7622],[103.5047,16.7619],[103.5055,16.7633],[103.5072,16.7636],[103.5078,16.763],[103.5092,16.7628],[103.5098,16.7614],[103.5095,16.7579],[103.5104,16.7579],[103.5103,16.7625],[103.5086,16.7633],[103.5086,16.7641],[103.5058,16.7641],[103.5058,16.7647],[103.5047,16.7647]]]}},{"type":"Feature","properties":{"kind":"seasonal","area_km2":0.163,"date":"2026-10-09"},"geometry":{"type":"Polygon","coordinates":[[[103.888,16.0263],[103.8877,16.0257],[103.888,16.0222],[103.8897,16.0209],[103.8897,16.0203],[103.8908,16.0192],[103.8914,16.0192],[103.8914,16.0198],[103.8925,16.0203],[103.8925,16.0214],[103.8916,16.0222],[103.8905,16.0222],[103.8899,16.0228],[103.8891,16.026],[103.888,16.0263]],[[103.888,16.0246],[103.8885,16.0246],[103.8891,16.0241],[103.888,16.0236],[103.888,16.0246]],[[103.8899,16.0219],[103.8905,16.0219],[103.8905,16.0214],[103.8899,16.0214],[103.8899,16.0219]]]}},{"type":"Feature","properties":{"kind":"seasonal","area_km2":0.16,"date":"2026-10-04"},"geometry":{"type":"Polygon","coordinates":[[[103.2806,16.3245],[103.2801,16.3237],[103.2801,16.3226],[103.2818,16.3224],[103.2826,16.3213],[103.2838,16.3213],[103.2843,16.3202],[103.2857,16.32],[103.2854,16.3238],[103.2846,16.3238],[103.2843,16.3224],[103.2838,16.3224],[103.2837,16.3232],[103.2823,16.3246],[103.2806,16.3245]]]}},{"type":"Feature","properties":{"kind":"seasonal","area_km2":0.159,"date":"2026-10-08"},"geometry":{"type":"Polygon","coordinates":[[[103.4383,16.8241],[103.4375,16.823],[103.4367,16.823],[103.4361,16.8219],[103.4327,16.8224],[103.4327,16.8211],[103.4333,16.8219],[103.4341,16.8219],[103.4339,16.8211],[103.4333,16.8211],[103.433,16.8205],[103.433,16.8189],[103.4342,16.8178],[103.4339,16.8165],[103.4347,16.8167],[103.4347,16.8186],[103.4353,16.8192],[103.4356,16.8181],[103.4364,16.8189],[103.4375,16.8192],[103.4375,16.8205],[103.4364,16.8213],[103.4364,16.8219],[103.4367,16.8224],[103.4381,16.8224],[103.4381,16.8233],[103.4386,16.8235],[103.4383,16.8241]],[[103.4341,16.8211],[103.4358,16.8211],[103.4364,16.8203],[103.4339,16.8192],[103.4336,16.82],[103.4341,16.8211]]]}},{"type":"Feature","properties":{"kind":"seasonal","area_km2":0.158,"date":"2026-10-09"},"geometry":{"type":"Polygon","coordinates":[[[103.9424,16.9539],[103.941,16.9526],[103.9421,16.9523],[103.9421,16.9509],[103.9413,16.9504],[103.9413,16.9496],[103.9404,16.949],[103.9393,16.949],[103.9393,16.9482],[103.9407,16.9471],[103.941,16.9458],[103.9399,16.9458],[103.9396,16.9452],[103.9385,16.9449],[103.9373,16.9455],[103.9376,16.9444],[103.9393,16.9444],[103.9396,16.945],[103.9427,16.9444],[103.9418,16.9469],[103.9413,16.9469],[103.9413,16.9474],[103.9407,16.9474],[103.9399,16.9482],[103.9404,16.9488],[103.9418,16.949],[103.9421,16.9504],[103.943,16.9509],[103.9435,16.9536],[103.9424,16.9539]]]}},{"type":"Feature","properties":{"kind":"seasonal","area_km2":0.155,"date":"2026-10-08"},"geometry":{"type":"Polygon","coordinates":[[[103.6654,16.7549],[103.6629,16.7538],[103.6629,16.7527],[103.6646,16.7522],[103.6649,16.753],[103.666,16.7533],[103.6669,16.7522],[103.6688,16.7511],[103.6705,16.7514],[103.6705,16.7522],[103.6688,16.7525],[103.6671,16.7549],[103.6654,16.7549]]]}},{"type":"Feature","properties":{"kind":"seasonal","area_km2":0.153,"date":"2026-10-08"},"geometry":{"type":"Polygon","coordinates":[[[103.5448,16.7807],[103.5442,16.7801],[103.5431,16.7801],[103.5431,16.779],[103.5451,16.7771],[103.5445,16.7766],[103.5448,16.7736],[103.544,16.7728],[103.5429,16.7731],[103.5426,16.7752],[103.5409,16.7758],[103.5401,16.7741],[103.5387,16.7738],[103.5384,16.7719],[103.5375,16.7714],[103.5376,16.7709],[103.5387,16.7714],[103.5389,16.7733],[103.5403,16.7736],[103.5403,16.7741],[103.5412,16.7741],[103.5412,16.7747],[103.5423,16.7744],[103.5423,16.7728],[103.5415,16.7728],[103.5418,16.7722],[103.5429,16.772],[103.5434,16.7725],[103.5449,16.7728],[103.5454,16.7742],[103.5454,16.778],[103.5442,16.779],[103.5437,16.779],[103.5437,16.7798],[103.5454,16.7796],[103.5454,16.7801],[103.5462,16.7801],[103.5459,16.7807],[103.5448,16.7807]]]}},{"type":"Feature","properties":{"kind":"seasonal","area_km2":0.151,"date":"2026-10-08"},"geometry":{"type":"Polygon","coordinates":[[[103.4429,16.8537],[103.4426,16.8515],[103.4421,16.8509],[103.4421,16.8482],[103.4429,16.8482],[103.4432,16.8488],[103.4426,16.8493],[103.4426,16.8512],[103.444,16.851],[103.4432,16.8504],[103.444,16.8499],[103.4443,16.8507],[103.4449,16.8504],[103.4449,16.851],[103.4457,16.851],[103.446,16.8515],[103.4482,16.8515],[103.4482,16.8523],[103.4477,16.8526],[103.4454,16.8526],[103.4454,16.8529],[103.4446,16.8526],[103.4443,16.8531],[103.4451,16.8534],[103.4429,16.8537]],[[103.4451,16.8523],[103.4454,16.8526],[103.4454,16.8523],[103.4451,16.8523]]]}},{"type":"Feature","properties":{"kind":"seasonal","area_km2":0.151,"date":"2026-10-08"},"geometry":{"type":"Polygon","coordinates":[[[103.441,16.7365],[103.4407,16.736],[103.4396,16.736],[103.4396,16.7354],[103.4391,16.7352],[103.4416,16.7352],[103.4427,16.7333],[103.445,16.7314],[103.445,16.7309],[103.4459,16.7301],[103.4523,16.7288],[103.4523,16.7293],[103.4515,16.7298],[103.4487,16.7298],[103.4478,16.7303],[103.4467,16.7303],[103.4456,16.7314],[103.445,16.733],[103.4439,16.7333],[103.4441,16.7338],[103.4436,16.7338],[103.443,16.7349],[103.4422,16.7355],[103.4422,16.736],[103.441,16.7365]]]}},{"type":"Feature","properties":{"kind":"seasonal","area_km2":0.15,"date":"2026-10-08"},"geometry":{"type":"Polygon","coordinates":[[[103.2491,16.9527],[103.2477,16.9516],[103.2483,16.9486],[103.2494,16.9481],[103.2495,16.9473],[103.2506,16.9473],[103.2509,16.9462],[103.2528,16.9465],[103.2526,16.9475],[103.2509,16.9475],[103.2508,16.9494],[103.25,16.95],[103.2497,16.9513],[103.25,16.9527],[103.2491,16.9527]],[[103.2497,16.9478],[103.25,16.9481],[103.25,16.9478],[103.2497,16.9478]]]}},{"type":"Feature","properties":{"kind":"seasonal","area_km2":0.15,"date":"2026-10-08"},"geometry":{"type":"Polygon","coordinates":[[[103.5076,16.7855],[103.5076,16.7839],[103.5071,16.7834],[103.5068,16.7815],[103.5057,16.7804],[103.5043,16.7801],[103.5062,16.7798],[103.5068,16.7809],[103.5074,16.7809],[103.5071,16.7763],[103.5085,16.7761],[103.5108,16.7769],[103.5108,16.7774],[103.5113,16.7777],[103.5127,16.778],[103.5127,16.7788],[103.5122,16.7783],[103.5102,16.7777],[103.5091,16.7766],[103.508,16.7763],[103.5074,16.7769],[103.5074,16.7799],[103.5079,16.7809],[103.509,16.7818],[103.509,16.7826],[103.5082,16.7834],[103.5085,16.7845],[103.509,16.7847],[103.509,16.7856],[103.5076,16.7855]],[[103.5076,16.7823],[103.5082,16.782],[103.5079,16.7815],[103.5076,16.7815],[103.5076,16.7823]],[[103.5074,16.7809],[103.5076,16.7812],[103.5076,16.7809],[103.5074,16.7809]]]}},{"type":"Feature","properties":{"kind":"seasonal","area_km2":0.15,"date":"2026-10-09"},"geometry":{"type":"Polygon","coordinates":[[[103.7109,16.2273],[103.71,16.227],[103.71,16.2265],[103.7106,16.2262],[103.71,16.2229],[103.7129,16.2227],[103.7145,16.2246],[103.7156,16.2246],[103.7156,16.2254],[103.7145,16.226],[103.714,16.2268],[103.7109,16.2273]],[[103.7111,16.2265],[103.7123,16.2265],[103.7126,16.2259],[103.7145,16.2251],[103.7131,16.2246],[103.7128,16.2251],[103.712,16.2251],[103.712,16.224],[103.7114,16.2246],[103.7114,16.224],[103.7109,16.2238],[103.7111,16.2265]],[[103.7145,16.2249],[103.7148,16.2251],[103.7148,16.2249],[103.7145,16.2249]]]}},{"type":"Feature","properties":{"kind":"seasonal","area_km2":0.149,"date":"2026-10-08"},"geometry":{"type":"Polygon","coordinates":[[[103.2831,16.9329],[103.2831,16.9321],[103.284,16.9321],[103.284,16.9316],[103.2845,16.931],[103.2854,16.931],[103.2857,16.9302],[103.2848,16.9299],[103.2851,16.9286],[103.2848,16.9288],[103.2829,16.9286],[103.2826,16.9269],[103.2843,16.9269],[103.2846,16.9253],[103.2851,16.9253],[103.2857,16.9256],[103.2857,16.9261],[103.2849,16.9261],[103.2848,16.9272],[103.2857,16.9272],[103.2854,16.9286],[103.286,16.9286],[103.2868,16.9294],[103.2873,16.931],[103.2862,16.9313],[103.2862,16.9318],[103.2856,16.9318],[103.2854,16.9324],[103.2831,16.9329]],[[103.2859,16.9313],[103.2868,16.931],[103.2865,16.9302],[103.2859,16.9302],[103.2859,16.9313]],[[103.2857,16.9297],[103.2859,16.9299],[103.2859,16.9297],[103.2857,16.9297]],[[103.2854,16.9289],[103.2857,16.9297],[103.2857,16.9289],[103.2854,16.9289]],[[103.284,16.9283],[103.2843,16.9286],[103.2843,16.9283],[103.284,16.9283]]]}},{"type":"Feature","properties":{"kind":"seasonal","area_km2":0.147,"date":"2026-10-09"},"geometry":{"type":"Polygon","coordinates":[[[103.9401,16.9645],[103.9398,16.9628],[103.9378,16.9628],[103.9378,16.962],[103.9387,16.9612],[103.9387,16.9604],[103.9381,16.9601],[103.9384,16.9574],[103.9376,16.9566],[103.9367,16.9566],[103.9359,16.9574],[103.9359,16.9566],[103.9381,16.9552],[103.9387,16.9553],[103.9387,16.9571],[103.9395,16.9577],[103.9395,16.9585],[103.939,16.9588],[103.9395,16.9601],[103.9389,16.962],[103.9406,16.9623],[103.9406,16.9631],[103.9418,16.9634],[103.9412,16.9645],[103.9401,16.9645]]]}},{"type":"Feature","properties":{"kind":"seasonal","area_km2":0.145,"date":"2026-10-09"},"geometry":{"type":"Polygon","coordinates":[[[103.8094,16.6804],[103.8089,16.6772],[103.81,16.6766],[103.8106,16.6747],[103.812,16.6747],[103.812,16.6755],[103.8114,16.6758],[103.812,16.6769],[103.812,16.6802],[103.8108,16.6802],[103.8108,16.6796],[103.8103,16.6796],[103.8103,16.6804],[103.8094,16.6804]]]}},{"type":"Feature","properties":{"kind":"seasonal","area_km2":0.145,"date":"2026-10-04"},"geometry":{"type":"Polygon","coordinates":[[[103.0344,16.269],[103.0339,16.2687],[103.0339,16.2679],[103.0353,16.2676],[103.0353,16.2655],[103.0376,16.2655],[103.0392,16.2669],[103.0392,16.268],[103.0387,16.2682],[103.0344,16.269]]]}},{"type":"Feature","properties":{"kind":"seasonal","area_km2":0.143,"date":"2026-10-08"},"geometry":{"type":"Polygon","coordinates":[[[103.2757,16.944],[103.2757,16.9434],[103.2746,16.9431],[103.2746,16.9423],[103.276,16.9423],[103.276,16.941],[103.278,16.9399],[103.278,16.938],[103.2805,16.938],[103.2805,16.9394],[103.2799,16.9394],[103.2799,16.9405],[103.2794,16.9402],[103.2794,16.941],[103.2782,16.9421],[103.2777,16.9421],[103.2774,16.9413],[103.2774,16.9421],[103.2763,16.9426],[103.2762,16.9437],[103.2757,16.944]],[[103.2791,16.9388],[103.2794,16.9391],[103.2794,16.9388],[103.2791,16.9388]]]}},{"type":"Feature","properties":{"kind":"seasonal","area_km2":0.139,"date":"2026-10-08"},"geometry":{"type":"Polygon","coordinates":[[[103.6067,16.7393],[103.6067,16.7385],[103.6045,16.7369],[103.6051,16.7369],[103.6054,16.7355],[103.6065,16.735],[103.6076,16.7337],[103.6087,16.7337],[103.6087,16.7345],[103.6076,16.7353],[103.6079,16.7364],[103.6084,16.7364],[103.6087,16.7369],[103.6087,16.7377],[103.6067,16.7393]],[[103.6079,16.7374],[103.6081,16.7377],[103.6082,16.7375],[103.6079,16.7374]],[[103.6053,16.7369],[103.6056,16.7372],[103.6056,16.7369],[103.6053,16.7369]]]}},{"type":"Feature","properties":{"kind":"seasonal","area_km2":0.137,"date":"2026-10-09"},"geometry":{"type":"Polygon","coordinates":[[[103.8533,16.1552],[103.853,16.1543],[103.8519,16.1543],[103.8519,16.153],[103.8528,16.1511],[103.8533,16.1506],[103.8561,16.1503],[103.8561,16.1533],[103.853,16.153],[103.8527,16.1541],[103.8533,16.1541],[103.8536,16.1546],[103.8541,16.1541],[103.8541,16.1552],[103.8533,16.1552]],[[103.8547,16.1522],[103.8553,16.1525],[103.8553,16.1522],[103.8547,16.1522]],[[103.8553,16.1519],[103.8556,16.1522],[103.8556,16.1519],[103.8553,16.1519]]]}},{"type":"Feature","properties":{"kind":"seasonal","area_km2":0.135,"date":"2026-10-08"},"geometry":{"type":"Polygon","coordinates":[[[103.4589,16.8275],[103.4589,16.8269],[103.4594,16.8267],[103.4569,16.8267],[103.4575,16.8245],[103.4555,16.8256],[103.4541,16.8255],[103.4535,16.8245],[103.4541,16.8245],[103.4544,16.825],[103.4558,16.825],[103.4572,16.8239],[103.4578,16.8221],[103.4592,16.8221],[103.4583,16.8253],[103.4592,16.8261],[103.4611,16.8259],[103.4611,16.8267],[103.4589,16.8275]]]}},{"type":"Feature","properties":{"kind":"seasonal","area_km2":0.134,"date":"2026-10-09"},"geometry":{"type":"Polygon","coordinates":[[[103.9099,16.6709],[103.9099,16.6696],[103.9088,16.669],[103.9091,16.6671],[103.9085,16.6663],[103.9074,16.6658],[103.9057,16.6658],[103.9049,16.6666],[103.9037,16.6666],[103.9037,16.6652],[103.9043,16.6644],[103.904,16.6622],[103.9049,16.6622],[103.9043,16.6625],[103.9043,16.663],[103.9049,16.6628],[103.9046,16.666],[103.9057,16.6649],[103.908,16.665],[103.9091,16.6658],[103.9094,16.6679],[103.9102,16.6696],[103.9113,16.6696],[103.9116,16.6688],[103.9116,16.6709],[103.9099,16.6709]]]}},{"type":"Feature","properties":{"kind":"seasonal","area_km2":0.131,"date":"2026-10-08"},"geometry":{"type":"Polygon","coordinates":[[[103.5377,16.9284],[103.5375,16.927],[103.5369,16.927],[103.5369,16.9262],[103.5403,16.9243],[103.5423,16.9241],[103.5423,16.9252],[103.5412,16.9254],[103.5409,16.9262],[103.5397,16.927],[103.5397,16.9276],[103.5394,16.9276],[103.5394,16.9278],[103.5392,16.9278],[103.5389,16.9284],[103.5377,16.9284]],[[103.5389,16.9276],[103.5392,16.9278],[103.5392,16.9276],[103.5389,16.9276]]]}},{"type":"Feature","properties":{"kind":"seasonal","area_km2":0.13,"date":"2026-10-09"},"geometry":{"type":"Polygon","coordinates":[[[103.9278,16.8492],[103.9269,16.8484],[103.9275,16.8475],[103.9269,16.8465],[103.9241,16.8473],[103.9241,16.8462],[103.925,16.8459],[103.9255,16.8448],[103.9269,16.8446],[103.9275,16.844],[103.9275,16.8429],[103.9284,16.8429],[103.9286,16.8438],[103.9281,16.844],[103.9281,16.8446],[103.9269,16.8451],[103.9272,16.8456],[103.9289,16.8457],[103.9289,16.8467],[103.928,16.8478],[103.9283,16.8492],[103.9278,16.8492]]]}},{"type":"Feature","properties":{"kind":"seasonal","area_km2":0.126,"date":"2026-10-09"},"geometry":{"type":"Polygon","coordinates":[[[103.9399,16.9371],[103.9394,16.9365],[103.9394,16.9349],[103.9411,16.9347],[103.9419,16.9336],[103.9436,16.9333],[103.9453,16.9341],[103.947,16.9341],[103.9476,16.9344],[103.9476,16.935],[103.9492,16.9342],[103.9492,16.9352],[103.9473,16.9358],[103.9473,16.9352],[103.9464,16.9347],[103.9425,16.9339],[103.9422,16.9352],[103.9428,16.9358],[103.9416,16.9357],[103.9411,16.9368],[103.9399,16.9371]],[[103.9399,16.9363],[103.9405,16.9363],[103.9408,16.9355],[103.9402,16.9355],[103.9399,16.9363]]]}},{"type":"Feature","properties":{"kind":"seasonal","area_km2":0.125,"date":"2026-10-08"},"geometry":{"type":"Polygon","coordinates":[[[103.5892,16.7498],[103.5892,16.7493],[103.5875,16.7487],[103.5875,16.7468],[103.5881,16.7465],[103.5881,16.7452],[103.5887,16.7446],[103.5862,16.7444],[103.5862,16.7433],[103.5873,16.7438],[103.5881,16.7425],[103.589,16.7425],[103.5898,16.7433],[103.5898,16.7449],[103.589,16.7457],[103.5889,16.7468],[103.5884,16.7476],[103.5895,16.7493],[103.5901,16.749],[103.5901,16.7498],[103.5892,16.7498]]]}},{"type":"Feature","properties":{"kind":"seasonal","area_km2":0.124,"date":"2026-10-08"},"geometry":{"type":"Polygon","coordinates":[[[103.5547,16.7761],[103.5513,16.7761],[103.5513,16.775],[103.5524,16.7748],[103.5524,16.7742],[103.5519,16.7742],[103.5513,16.7726],[103.5491,16.7715],[103.5491,16.7709],[103.5482,16.7704],[103.5483,16.7688],[103.5491,16.7696],[103.5494,16.7707],[103.5505,16.7709],[103.5516,16.772],[103.5527,16.7742],[103.5536,16.7742],[103.5541,16.775],[103.5547,16.775],[103.5547,16.7761]]]}},{"type":"Feature","properties":{"kind":"seasonal","area_km2":0.124,"date":"2026-10-08"},"geometry":{"type":"Polygon","coordinates":[[[103.4599,16.7359],[103.4593,16.7342],[103.456,16.7339],[103.4551,16.7347],[103.4551,16.7339],[103.4557,16.7334],[103.4607,16.7334],[103.4602,16.7326],[103.4599,16.7307],[103.4594,16.7304],[103.4594,16.7277],[103.4602,16.7288],[103.4605,16.7315],[103.461,16.7318],[103.461,16.7353],[103.4607,16.7359],[103.4599,16.7359]]]}},{"type":"Feature","properties":{"kind":"seasonal","area_km2":0.124,"date":"2026-10-09"},"geometry":{"type":"Polygon","coordinates":[[[103.8181,16.6474],[103.8181,16.6444],[103.8186,16.6436],[103.8187,16.6422],[103.8192,16.6422],[103.8195,16.6412],[103.8204,16.6403],[103.8215,16.6404],[103.822,16.6409],[103.822,16.642],[103.8215,16.642],[103.8209,16.6428],[103.8203,16.6428],[103.8203,16.6433],[103.8195,16.6436],[103.8192,16.6466],[103.8186,16.6468],[103.8186,16.6474],[103.8181,16.6474]]]}},{"type":"Feature","properties":{"kind":"seasonal","area_km2":0.123,"date":"2026-10-08"},"geometry":{"type":"Polygon","coordinates":[[[103.5267,16.7597],[103.5272,16.7564],[103.5267,16.7551],[103.5261,16.755],[103.5261,16.7542],[103.5256,16.7542],[103.5256,16.7534],[103.5273,16.7534],[103.5278,16.7529],[103.5287,16.7529],[103.5281,16.7553],[103.5273,16.7551],[103.5275,16.7561],[103.5281,16.7561],[103.5284,16.7556],[103.5284,16.7578],[103.5315,16.7589],[103.5292,16.7589],[103.5286,16.7583],[103.5278,16.7583],[103.5267,16.7597]]]}},{"type":"Feature","properties":{"kind":"seasonal","area_km2":0.123,"date":"2026-10-08"},"geometry":{"type":"Polygon","coordinates":[[[103.5366,16.7511],[103.5363,16.7505],[103.5357,16.7505],[103.5357,16.75],[103.5352,16.75],[103.5352,16.7494],[103.5346,16.7494],[103.5349,16.7475],[103.5344,16.7472],[103.5344,16.7462],[103.5358,16.7462],[103.5363,16.7467],[103.5369,16.7489],[103.5377,16.7494],[103.5383,16.7494],[103.5389,16.7467],[103.5394,16.7467],[103.5394,16.7486],[103.5391,16.7494],[103.5386,16.7492],[103.5383,16.7503],[103.5369,16.75],[103.5369,16.7492],[103.5363,16.7492],[103.5363,16.7502],[103.5369,16.7502],[103.5366,16.7511]]]}},{"type":"Feature","properties":{"kind":"seasonal","area_km2":0.122,"date":"2026-10-08"},"geometry":{"type":"Polygon","coordinates":[[[103.4415,16.7468],[103.4415,16.746],[103.4409,16.746],[103.4409,16.7455],[103.4398,16.7444],[103.4381,16.7444],[103.4381,16.7438],[103.4387,16.7438],[103.4387,16.7425],[103.439,16.743],[103.4396,16.7425],[103.4393,16.7419],[103.4401,16.7409],[103.4399,16.74],[103.4404,16.74],[103.4407,16.7419],[103.4413,16.7417],[103.4416,16.7406],[103.4415,16.7422],[103.441,16.7428],[103.441,16.7436],[103.4418,16.7444],[103.4418,16.746],[103.4424,16.746],[103.4423,16.7468],[103.4415,16.7468]]]}},{"type":"Feature","properties":{"kind":"seasonal","area_km2":0.122,"date":"2026-10-04"},"geometry":{"type":"Polygon","coordinates":[[[103.1095,16.3399],[103.1095,16.3391],[103.1101,16.3388],[103.1112,16.3388],[103.1118,16.3383],[103.1129,16.3383],[103.1146,16.3375],[103.116,16.3378],[103.116,16.3391],[103.1154,16.3391],[103.1146,16.3399],[103.1095,16.3399]]]}},{"type":"Feature","properties":{"kind":"seasonal","area_km2":0.121,"date":"2026-10-08"},"geometry":{"type":"Polygon","coordinates":[[[103.4093,16.7997],[103.4096,16.7973],[103.4104,16.7965],[103.4107,16.7949],[103.4099,16.7938],[103.409,16.7935],[103.409,16.7921],[103.4119,16.7922],[103.4118,16.7941],[103.4121,16.7935],[103.4127,16.7941],[103.4124,16.796],[103.4116,16.7943],[103.4116,16.7949],[103.411,16.7951],[103.4116,16.7954],[103.4115,16.7962],[103.411,16.7962],[103.4107,16.7973],[103.4101,16.7976],[103.4101,16.7997],[103.4093,16.7997]],[[103.4099,16.793],[103.4104,16.793],[103.411,16.7924],[103.4102,16.7924],[103.4099,16.793]],[[103.4113,16.7927],[103.4116,16.793],[103.4116,16.7927],[103.4113,16.7927]]]}},{"type":"Feature","properties":{"kind":"seasonal","area_km2":0.121,"date":"2026-10-08"},"geometry":{"type":"Polygon","coordinates":[[[103.4635,16.7448],[103.4638,16.7437],[103.4666,16.7438],[103.4674,16.7421],[103.4688,16.7416],[103.47,16.7405],[103.4691,16.7389],[103.4669,16.7386],[103.4669,16.7348],[103.4664,16.7345],[103.4669,16.7343],[103.4675,16.7346],[103.4678,16.7356],[103.4678,16.7365],[103.4672,16.737],[103.4675,16.7386],[103.47,16.7384],[103.4702,16.7411],[103.4697,16.7419],[103.4683,16.7422],[103.4683,16.743],[103.4674,16.7432],[103.4671,16.7443],[103.4635,16.7448]]]}},{"type":"Feature","properties":{"kind":"seasonal","area_km2":0.119,"date":"2026-10-08"},"geometry":{"type":"Polygon","coordinates":[[[103.2537,16.9465],[103.2537,16.9457],[103.252,16.9459],[103.2517,16.9454],[103.2523,16.9454],[103.2523,16.9446],[103.2529,16.9446],[103.2531,16.944],[103.2546,16.9438],[103.2546,16.9427],[103.254,16.9421],[103.2574,16.9422],[103.2571,16.943],[103.2557,16.943],[103.2557,16.9435],[103.2548,16.9438],[103.2545,16.9446],[103.2537,16.9446],[103.2565,16.9454],[103.2565,16.9462],[103.2537,16.9465]]]}},{"type":"Feature","properties":{"kind":"seasonal","area_km2":0.119,"date":"2026-10-08"},"geometry":{"type":"Polygon","coordinates":[[[103.587,16.8151],[103.5865,16.8143],[103.5848,16.8135],[103.584,16.8121],[103.5831,16.8118],[103.5834,16.8102],[103.5843,16.8102],[103.5851,16.811],[103.5854,16.8124],[103.5865,16.8124],[103.5868,16.8129],[103.5885,16.813],[103.5882,16.8149],[103.587,16.8151]]]}},{"type":"Feature","properties":{"kind":"seasonal","area_km2":0.119,"date":"2026-10-08"},"geometry":{"type":"Polygon","coordinates":[[[103.5176,16.7628],[103.5162,16.7626],[103.5159,16.762],[103.5126,16.7625],[103.5117,16.7617],[103.5117,16.7612],[103.5129,16.762],[103.5145,16.7617],[103.5165,16.7618],[103.5179,16.7623],[103.5196,16.762],[103.5207,16.7612],[103.5216,16.758],[103.5222,16.758],[103.5227,16.7602],[103.5233,16.7607],[103.525,16.7607],[103.5244,16.7613],[103.523,16.7613],[103.5224,16.7607],[103.5224,16.7596],[103.5219,16.7594],[103.5216,16.7615],[103.5207,16.7623],[103.5176,16.7628]]]}},{"type":"Feature","properties":{"kind":"seasonal","area_km2":0.113,"date":"2026-10-08"},"geometry":{"type":"Polygon","coordinates":[[[103.583,16.7939],[103.583,16.7934],[103.5847,16.7926],[103.5852,16.7915],[103.5847,16.7885],[103.5855,16.7883],[103.5858,16.7875],[103.5847,16.7866],[103.5847,16.7858],[103.5858,16.7856],[103.5859,16.7842],[103.5867,16.7837],[103.5873,16.7853],[103.5867,16.7853],[103.5858,16.7861],[103.5864,16.7885],[103.5853,16.7888],[103.5853,16.7894],[103.5861,16.7896],[103.5864,16.7915],[103.5844,16.7934],[103.583,16.7939]]]}},{"type":"Feature","properties":{"kind":"seasonal","area_km2":0.113,"date":"2026-10-04"},"geometry":{"type":"Polygon","coordinates":[[[103.2704,16.1786],[103.2704,16.1781],[103.2687,16.1781],[103.2693,16.1778],[103.2693,16.177],[103.2687,16.1772],[103.2687,16.1762],[103.2679,16.1759],[103.2679,16.1753],[103.2654,16.1748],[103.2648,16.1737],[103.2654,16.1737],[103.2657,16.1742],[103.2676,16.174],[103.2682,16.1756],[103.269,16.1756],[103.269,16.1751],[103.2699,16.1748],[103.2699,16.1735],[103.2707,16.1735],[103.2713,16.1764],[103.2707,16.1764],[103.2704,16.1751],[103.2699,16.1756],[103.2699,16.1775],[103.2704,16.1775],[103.2707,16.1783],[103.2715,16.1786],[103.2704,16.1786]]]}},{"type":"Feature","properties":{"kind":"seasonal","area_km2":0.113,"date":"2026-10-09"},"geometry":{"type":"Polygon","coordinates":[[[103.7171,16.0806],[103.7183,16.0777],[103.7191,16.0774],[103.7191,16.0766],[103.7197,16.0771],[103.7194,16.0782],[103.7199,16.0796],[103.7205,16.0796],[103.7205,16.079],[103.7216,16.0779],[103.7222,16.078],[103.7216,16.0788],[103.7216,16.0807],[103.7171,16.0806]],[[103.7197,16.0796],[103.7199,16.0798],[103.7199,16.0796],[103.7197,16.0796]]]}},{"type":"Feature","properties":{"kind":"seasonal","area_km2":0.113,"date":"2026-10-09"},"geometry":{"type":"Polygon","coordinates":[[[103.9732,16.5077],[103.9727,16.5072],[103.9727,16.5061],[103.9741,16.5061],[103.9755,16.504],[103.9769,16.5037],[103.9766,16.5064],[103.9755,16.5075],[103.9732,16.5077]]]}},{"type":"Feature","properties":{"kind":"seasonal","area_km2":0.11,"date":"2026-10-09"},"geometry":{"type":"Polygon","coordinates":[[[103.9893,16.2334],[103.9893,16.2329],[103.9881,16.2323],[103.9881,16.2312],[103.9884,16.2307],[103.989,16.2307],[103.9893,16.2288],[103.9898,16.2285],[103.9898,16.228],[103.9907,16.228],[103.9915,16.2285],[103.9915,16.2299],[103.9907,16.2299],[103.9907,16.2312],[103.9898,16.2321],[103.9901,16.2334],[103.9893,16.2334]],[[103.9901,16.2304],[103.9904,16.2307],[103.9904,16.2304],[103.9901,16.2304]]]}},{"type":"Feature","properties":{"kind":"seasonal","area_km2":0.11,"date":"2026-10-09"},"geometry":{"type":"Polygon","coordinates":[[[104.0031,16.0491],[104.002,16.0477],[104.0,16.0477],[104.0,16.0463],[104.0009,16.0458],[104.0031,16.0458],[104.0034,16.0453],[104.0045,16.0453],[104.0045,16.0461],[104.0037,16.0464],[104.0037,16.0472],[104.0042,16.0475],[104.0039,16.0485],[104.0042,16.0491],[104.0031,16.0491]],[[104.0034,16.0483],[104.0039,16.0485],[104.0039,16.0483],[104.0034,16.0483]],[[104.0031,16.0474],[104.0034,16.0466],[104.002,16.0466],[104.002,16.0469],[104.0031,16.0474]]]}},{"type":"Feature","properties":{"kind":"seasonal","area_km2":0.107,"date":"2026-10-08"},"geometry":{"type":"Polygon","coordinates":[[[103.1237,16.9369],[103.1242,16.935],[103.1248,16.935],[103.1251,16.9345],[103.1265,16.9345],[103.1285,16.9356],[103.1285,16.9364],[103.1276,16.937],[103.1237,16.9369]]]}},{"type":"Feature","properties":{"kind":"seasonal","area_km2":0.107,"date":"2026-10-09"},"geometry":{"type":"Polygon","coordinates":[[[103.8574,16.7067],[103.8574,16.7043],[103.8571,16.7035],[103.8563,16.7029],[103.8563,16.7013],[103.8568,16.7007],[103.8568,16.6999],[103.8563,16.6994],[103.8563,16.6983],[103.8554,16.6986],[103.8563,16.6964],[103.8574,16.6964],[103.8571,16.7029],[103.8579,16.7037],[103.8579,16.7062],[103.8574,16.7067]]]}},{"type":"Feature","properties":{"kind":"seasonal","area_km2":0.105,"date":"2026-10-09"},"geometry":{"type":"Polygon","coordinates":[[[103.9152,16.9334],[103.9155,16.9321],[103.9174,16.9318],[103.9183,16.931],[103.9183,16.9299],[103.9197,16.9289],[103.9208,16.9286],[103.92,16.9275],[103.9203,16.9261],[103.9194,16.9261],[103.9194,16.9253],[103.9206,16.9256],[103.9206,16.927],[103.9211,16.927],[103.9206,16.9272],[103.9205,16.9278],[103.9214,16.928],[103.9214,16.9291],[103.9197,16.9294],[103.9191,16.9299],[103.9191,16.931],[103.9183,16.9316],[103.9188,16.9321],[103.9183,16.9321],[103.9177,16.9329],[103.9166,16.9334],[103.9152,16.9334]]]}},{"type":"Feature","properties":{"kind":"seasonal","area_km2":0.105,"date":"2026-10-09"},"geometry":{"type":"Polygon","coordinates":[[[103.9289,16.0235],[103.9289,16.0227],[103.93,16.0219],[103.93,16.0202],[103.9306,16.0202],[103.9317,16.0192],[103.9337,16.0195],[103.9337,16.02],[103.9312,16.0224],[103.9303,16.0227],[103.9303,16.0235],[103.9289,16.0235]]]}},{"type":"Feature","properties":{"kind":"seasonal","area_km2":0.104,"date":"2026-10-08"},"geometry":{"type":"Polygon","coordinates":[[[103.2893,16.9359],[103.289,16.9346],[103.287,16.9335],[103.2873,16.9327],[103.2879,16.9335],[103.289,16.9335],[103.2893,16.934],[103.2901,16.9338],[103.2901,16.9349],[103.2907,16.9349],[103.2901,16.9332],[103.2904,16.9324],[103.2899,16.9324],[103.2899,16.9319],[103.2893,16.9319],[103.289,16.9313],[103.2882,16.9316],[103.2882,16.931],[103.2888,16.9308],[103.2899,16.9308],[103.2899,16.9313],[103.2907,16.9319],[103.2907,16.9327],[103.2918,16.9341],[103.2918,16.9351],[103.2893,16.9359]]]}},{"type":"Feature","properties":{"kind":"seasonal","area_km2":0.104,"date":"2026-10-09"},"geometry":{"type":"Polygon","coordinates":[[[103.8436,16.7007],[103.8436,16.6999],[103.8456,16.6996],[103.8459,16.6985],[103.8478,16.6985],[103.849,16.698],[103.8501,16.6961],[103.8521,16.6961],[103.8501,16.6966],[103.8501,16.698],[103.8493,16.6983],[103.8493,16.6988],[103.8501,16.6988],[103.8498,16.6994],[103.8481,16.6993],[103.8447,16.7007],[103.8436,16.7007]]]}},{"type":"Feature","properties":{"kind":"seasonal","area_km2":0.103,"date":"2026-10-04"},"geometry":{"type":"Polygon","coordinates":[[[103.0664,16.2159],[103.0662,16.2113],[103.0673,16.2113],[103.0698,16.2132],[103.0703,16.2146],[103.0698,16.2146],[103.0695,16.2137],[103.0684,16.2137],[103.0678,16.2132],[103.0675,16.2154],[103.0664,16.2159]]]}},{"type":"Feature","properties":{"kind":"seasonal","area_km2":0.103,"date":"2026-10-08"},"geometry":{"type":"Polygon","coordinates":[[[103.4675,16.7693],[103.4681,16.7687],[103.4683,16.7674],[103.4672,16.7663],[103.465,16.766],[103.4647,16.7665],[103.4619,16.7668],[103.4622,16.7643],[103.4639,16.7644],[103.4642,16.7638],[103.4642,16.7619],[103.4647,16.7619],[103.465,16.763],[103.465,16.7641],[103.4642,16.7644],[103.465,16.7646],[103.463,16.7649],[103.4624,16.7665],[103.4639,16.7657],[103.4672,16.7657],[103.4684,16.7663],[103.4686,16.7687],[103.4683,16.7693],[103.4675,16.7693]]]}},{"type":"Feature","properties":{"kind":"seasonal","area_km2":0.101,"date":"2026-10-08"},"geometry":{"type":"Polygon","coordinates":[[[103.4501,16.7653],[103.4498,16.7648],[103.4464,16.765],[103.4456,16.7637],[103.4442,16.7634],[103.4442,16.7623],[103.4459,16.7629],[103.447,16.7623],[103.447,16.7612],[103.4481,16.7613],[103.449,16.7623],[103.4501,16.7629],[103.4487,16.7629],[103.4478,16.7621],[103.4478,16.7631],[103.4464,16.7631],[103.4464,16.7637],[103.447,16.7645],[103.4498,16.7642],[103.4504,16.7645],[103.4504,16.7651],[103.4509,16.7651],[103.4501,16.7653]]]}},{"type":"Feature","properties":{"kind":"seasonal","area_km2":0.1,"date":"2026-10-09"},"geometry":{"type":"Polygon","coordinates":[[[103.9206,16.9671],[103.9217,16.9644],[103.9203,16.9638],[103.9203,16.963],[103.9215,16.963],[103.9237,16.962],[103.9237,16.9633],[103.9229,16.9633],[103.9226,16.9628],[103.922,16.963],[103.9226,16.9633],[103.922,16.9655],[103.9237,16.9641],[103.9243,16.9644],[103.9234,16.9649],[103.9234,16.9657],[103.9229,16.9663],[103.9217,16.9666],[103.9215,16.9671],[103.9206,16.9671]]]}},{"type":"Feature","properties":{"kind":"seasonal","area_km2":0.1,"date":"2026-10-09"},"geometry":{"type":"Polygon","coordinates":[[[103.7267,16.3453],[103.7264,16.3445],[103.7275,16.3415],[103.7275,16.3405],[103.7287,16.3402],[103.7289,16.3434],[103.7281,16.3443],[103.7278,16.3453],[103.7267,16.3453]]]}}]}
