{"type":"FeatureCollection","properties":{"v":3,"id":"t103_15","name":"ร้อยเอ็ด · มหาสารคาม · สุรินทร์","aoi":[103.0,15.0,104.0,16.0],"date":"2026-10-09","dates":["2026-10-09","2026-10-04","2026-10-03","2026-10-02"],"baseline_years":3,"has_seasonal":true,"totals":{"flood_high":0.0,"flood_low":3.0,"seasonal":19.4},"provinces":[{"name":"ร้อยเอ็ด","zone":"th-ne","flood_high":0.0,"flood_low":1.5,"seasonal":4.5},{"name":"สุรินทร์","zone":"th-ne","flood_high":0.0,"flood_low":1.0,"seasonal":5.8},{"name":"บุรีรัมย์","zone":"th-ne","flood_high":0.0,"flood_low":0.3,"seasonal":5.2},{"name":"มหาสารคาม","zone":"th-ne","flood_high":0.0,"flood_low":0.2,"seasonal":3.9}],"scenes":{"2026-10-09":1,"2026-10-04":1,"2026-10-03":2,"2026-10-02":1},"baseline_dates":["2025-10-09","2024-10-07","2023-10-08"],"threshold_db":-15.0,"auto":true,"source":"Sentinel-1 RTC (Copernicus/ESA) via Microsoft Planetary Computer; JRC Global Surface Water; Copernicus DEM","method":"ChatGeo v3: Otsu threshold on VV dB; minus JRC permanent water and slope > 5 deg; unusual = water not present in most of the previous 3 years (same season)","added":"2026-10-11T01:54+07:00"},"features":[{"type":"Feature","properties":{"kind":"flood","area_km2":0.238,"conf":"low","date":"2026-10-09"},"geometry":{"type":"Polygon","coordinates":[[[103.8796,15.0245],[103.8766,15.0242],[103.8766,15.0231],[103.878,15.0231],[103.8788,15.0237],[103.8788,15.0231],[103.8783,15.0231],[103.8783,15.022],[103.8822,15.0221],[103.8822,15.0229],[103.8827,15.0229],[103.883,15.0213],[103.8819,15.0204],[103.8822,15.0194],[103.8852,15.0194],[103.8852,15.0202],[103.8838,15.0204],[103.8838,15.021],[103.8864,15.0205],[103.8864,15.0213],[103.8838,15.0218],[103.8841,15.0237],[103.883,15.0234],[103.8827,15.0245],[103.8813,15.0245],[103.8805,15.0229],[103.8799,15.0229],[103.8796,15.0245]]]}},{"type":"Feature","properties":{"kind":"flood","area_km2":0.178,"conf":"low","date":"2026-10-09"},"geometry":{"type":"Polygon","coordinates":[[[103.9223,15.9483],[103.9223,15.9475],[103.9209,15.9473],[103.9209,15.9464],[103.9184,15.9459],[103.9184,15.9451],[103.9192,15.9437],[103.9193,15.9424],[103.9198,15.9421],[103.9201,15.9407],[103.9209,15.9407],[103.9204,15.9448],[103.9215,15.9445],[103.9218,15.944],[103.9226,15.944],[103.9223,15.9456],[103.9215,15.9456],[103.9229,15.9459],[103.9231,15.9484],[103.9223,15.9483]]]}},{"type":"Feature","properties":{"kind":"flood","area_km2":0.153,"conf":"low","date":"2026-10-09"},"geometry":{"type":"Polygon","coordinates":[[[103.9103,15.9442],[103.9106,15.9429],[103.9086,15.9426],[103.9086,15.9418],[103.9092,15.9418],[103.9086,15.9407],[103.9089,15.9391],[103.9103,15.9393],[103.9103,15.9415],[103.9108,15.9421],[103.9134,15.9418],[103.9142,15.9426],[103.9142,15.9437],[103.9128,15.9437],[103.9128,15.9429],[103.9122,15.9429],[103.9122,15.9437],[103.9111,15.9437],[103.9111,15.9442],[103.9103,15.9442]]]}},{"type":"Feature","properties":{"kind":"flood","area_km2":0.13,"conf":"low","date":"2026-10-09"},"geometry":{"type":"Polygon","coordinates":[[[103.8342,15.27],[103.8342,15.2686],[103.8314,15.2686],[103.8314,15.2675],[103.8309,15.2675],[103.8312,15.267],[103.832,15.267],[103.832,15.2648],[103.8337,15.2648],[103.834,15.2659],[103.8345,15.2662],[103.8348,15.2691],[103.8342,15.27]]]}},{"type":"Feature","properties":{"kind":"flood","area_km2":0.115,"conf":"low","date":"2026-10-04"},"geometry":{"type":"Polygon","coordinates":[[[103.2001,15.2761],[103.1993,15.2755],[103.1993,15.2744],[103.2004,15.2739],[103.2004,15.2728],[103.1984,15.2731],[103.199,15.2709],[103.2004,15.2712],[103.2012,15.2736],[103.2035,15.2742],[103.2021,15.2742],[103.2018,15.2755],[103.2001,15.2761]]]}},{"type":"Feature","properties":{"kind":"flood","area_km2":0.105,"conf":"low","date":"2026-10-04"},"geometry":{"type":"Polygon","coordinates":[[[103.4289,15.8233],[103.4269,15.823],[103.427,15.8211],[103.4264,15.82],[103.427,15.82],[103.4272,15.8192],[103.4284,15.8192],[103.4292,15.8203],[103.4295,15.8225],[103.4289,15.8228],[103.4289,15.8233]]]}},{"type":"Feature","properties":{"kind":"flood","area_km2":0.103,"conf":"low","date":"2026-10-09"},"geometry":{"type":"Polygon","coordinates":[[[103.6231,15.7202],[103.6234,15.7192],[103.6226,15.7191],[103.6223,15.7159],[103.6229,15.7156],[103.6229,15.7151],[103.6248,15.7154],[103.6248,15.7148],[103.6257,15.7148],[103.6251,15.7165],[103.6231,15.7167],[103.6234,15.7175],[103.6243,15.7175],[103.624,15.7202],[103.6231,15.7202]]]}},{"type":"Feature","properties":{"kind":"flood","area_km2":0.095,"conf":"low","date":"2026-10-09"},"geometry":{"type":"Polygon","coordinates":[[[103.9465,15.8856],[103.9459,15.8847],[103.9459,15.8837],[103.9465,15.8837],[103.947,15.8826],[103.9465,15.882],[103.9465,15.8828],[103.9459,15.8834],[103.9451,15.8834],[103.9451,15.8826],[103.9456,15.8818],[103.9465,15.8818],[103.9465,15.8809],[103.9473,15.8809],[103.9476,15.8826],[103.9484,15.8831],[103.9484,15.8839],[103.9476,15.8842],[103.9476,15.8856],[103.9465,15.8856]]]}},{"type":"Feature","properties":{"kind":"flood","area_km2":0.089,"conf":"low","date":"2026-10-09"},"geometry":{"type":"Polygon","coordinates":[[[103.8303,15.2632],[103.8295,15.2613],[103.8295,15.2577],[103.8304,15.2577],[103.8312,15.2585],[103.8306,15.2602],[103.8312,15.2607],[103.8315,15.2632],[103.8303,15.2632]]]}},{"type":"Feature","properties":{"kind":"flood","area_km2":0.086,"conf":"low","date":"2026-10-04"},"geometry":{"type":"Polygon","coordinates":[[[103.4399,15.2112],[103.44,15.2101],[103.4383,15.2095],[103.4389,15.2079],[103.44,15.2079],[103.4405,15.209],[103.4425,15.209],[103.4425,15.2098],[103.4411,15.2104],[103.4411,15.2112],[103.4399,15.2112]],[[103.4408,15.2095],[103.4411,15.2098],[103.4411,15.2095],[103.4408,15.2095]]]}},{"type":"Feature","properties":{"kind":"flood","area_km2":0.083,"conf":"low","date":"2026-10-09"},"geometry":{"type":"Polygon","coordinates":[[[103.9234,15.9958],[103.9232,15.9947],[103.9237,15.9928],[103.9265,15.9934],[103.9265,15.9945],[103.9251,15.9947],[103.9251,15.9958],[103.9234,15.9958]]]}},{"type":"Feature","properties":{"kind":"flood","area_km2":0.083,"conf":"low","date":"2026-10-09"},"geometry":{"type":"Polygon","coordinates":[[[103.945,15.8915],[103.9439,15.8907],[103.9439,15.8899],[103.9447,15.8899],[103.9442,15.8896],[103.9448,15.8874],[103.9459,15.8875],[103.9459,15.888],[103.9464,15.888],[103.9461,15.891],[103.9459,15.8915],[103.945,15.8915]]]}},{"type":"Feature","properties":{"kind":"flood","area_km2":0.082,"conf":"low","date":"2026-10-09"},"geometry":{"type":"Polygon","coordinates":[[[103.8821,15.0288],[103.8813,15.0272],[103.8793,15.0277],[103.8788,15.0256],[103.881,15.0253],[103.8813,15.0269],[103.8824,15.0269],[103.883,15.0275],[103.883,15.0288],[103.8821,15.0288]]]}},{"type":"Feature","properties":{"kind":"flood","area_km2":0.082,"conf":"low","date":"2026-10-09"},"geometry":{"type":"Polygon","coordinates":[[[103.8496,15.0062],[103.8496,15.0043],[103.8502,15.0043],[103.8502,15.0037],[103.851,15.0037],[103.8513,15.0043],[103.8513,15.0037],[103.8518,15.0035],[103.8535,15.0035],[103.853,15.0051],[103.8516,15.0051],[103.8516,15.0059],[103.8496,15.0062]]]}},{"type":"Feature","properties":{"kind":"flood","area_km2":0.076,"conf":"low","date":"2026-10-09"},"geometry":{"type":"Polygon","coordinates":[[[103.8733,15.0125],[103.8719,15.0122],[103.8722,15.0109],[103.8716,15.0109],[103.8716,15.0101],[103.8727,15.0101],[103.8722,15.0098],[103.8722,15.009],[103.8741,15.0087],[103.8741,15.0104],[103.8733,15.0114],[103.8733,15.0125]]]}},{"type":"Feature","properties":{"kind":"flood","area_km2":0.074,"conf":"low","date":"2026-10-09"},"geometry":{"type":"Polygon","coordinates":[[[103.8619,15.9746],[103.8611,15.9743],[103.8614,15.9708],[103.8625,15.9708],[103.8625,15.9703],[103.8616,15.9703],[103.8616,15.9695],[103.8628,15.9687],[103.8636,15.9687],[103.8633,15.9697],[103.8628,15.9697],[103.8628,15.9714],[103.8619,15.9716],[103.8622,15.9735],[103.8636,15.9741],[103.8619,15.9746]]]}},{"type":"Feature","properties":{"kind":"flood","area_km2":0.073,"conf":"low","date":"2026-10-09"},"geometry":{"type":"Polygon","coordinates":[[[103.9266,15.9313],[103.9263,15.928],[103.9272,15.928],[103.928,15.9283],[103.928,15.9297],[103.9288,15.9297],[103.9291,15.9308],[103.9283,15.9313],[103.9266,15.9313]],[[103.9274,15.9305],[103.928,15.9305],[103.928,15.9299],[103.9274,15.9299],[103.9274,15.9305]]]}},{"type":"Feature","properties":{"kind":"flood","area_km2":0.066,"conf":"low","date":"2026-10-09"},"geometry":{"type":"Polygon","coordinates":[[[103.8922,15.9761],[103.8908,15.9748],[103.8908,15.9739],[103.8913,15.974],[103.8922,15.9729],[103.893,15.9729],[103.8936,15.9748],[103.8927,15.975],[103.893,15.9761],[103.8922,15.9761]]]}},{"type":"Feature","properties":{"kind":"flood","area_km2":0.066,"conf":"low","date":"2026-10-09"},"geometry":{"type":"Polygon","coordinates":[[[103.8591,15.0019],[103.8597,15.0003],[103.8588,15.0003],[103.8588,14.9992],[103.8597,14.9992],[103.86,15.0],[103.8625,15.0],[103.8625,15.0008],[103.8608,15.0013],[103.8608,15.0019],[103.8591,15.0019]]]}},{"type":"Feature","properties":{"kind":"flood","area_km2":0.065,"conf":"low","date":"2026-10-09"},"geometry":{"type":"Polygon","coordinates":[[[103.8858,15.0289],[103.8858,15.028],[103.8863,15.0275],[103.8852,15.0272],[103.8852,15.0256],[103.8877,15.0253],[103.8877,15.0264],[103.8866,15.0267],[103.8866,15.0275],[103.8872,15.0275],[103.8869,15.0289],[103.8858,15.0289]]]}},{"type":"Feature","properties":{"kind":"flood","area_km2":0.064,"conf":"low","date":"2026-10-09"},"geometry":{"type":"Polygon","coordinates":[[[103.9943,15.4334],[103.9941,15.4318],[103.9932,15.4318],[103.9927,15.4313],[103.993,15.4302],[103.9938,15.4302],[103.9943,15.4313],[103.9957,15.4313],[103.9955,15.4332],[103.9943,15.4334]]]}},{"type":"Feature","properties":{"kind":"flood","area_km2":0.062,"conf":"low","date":"2026-10-09"},"geometry":{"type":"Polygon","coordinates":[[[103.6285,15.7119],[103.6265,15.7102],[103.6266,15.7094],[103.6279,15.7097],[103.6285,15.7092],[103.6296,15.7092],[103.6296,15.71],[103.6288,15.71],[103.6288,15.7108],[103.6296,15.7111],[103.6296,15.7119],[103.6285,15.7119]]]}},{"type":"Feature","properties":{"kind":"flood","area_km2":0.059,"conf":"low","date":"2026-10-09"},"geometry":{"type":"Polygon","coordinates":[[[103.985,15.9034],[103.985,15.9015],[103.9859,15.9015],[103.9856,15.8998],[103.9859,15.8993],[103.9867,15.8993],[103.987,15.902],[103.9862,15.902],[103.9859,15.9034],[103.985,15.9034]]]}},{"type":"Feature","properties":{"kind":"flood","area_km2":0.059,"conf":"low","date":"2026-10-09"},"geometry":{"type":"Polygon","coordinates":[[[103.7363,15.748],[103.7361,15.7461],[103.7363,15.7456],[103.7375,15.7456],[103.7386,15.747],[103.7386,15.7478],[103.7363,15.748]]]}},{"type":"Feature","properties":{"kind":"flood","area_km2":0.058,"conf":"low","date":"2026-10-04"},"geometry":{"type":"Polygon","coordinates":[[[103.4354,15.2542],[103.4349,15.2526],[103.4335,15.2523],[103.4335,15.2518],[103.4343,15.2518],[103.4343,15.2512],[103.4357,15.2513],[103.4357,15.2526],[103.4374,15.2534],[103.4374,15.254],[103.4354,15.2542]]]}},{"type":"Feature","properties":{"kind":"flood","area_km2":0.058,"conf":"low","date":"2026-10-09"},"geometry":{"type":"Polygon","coordinates":[[[103.88,15.1107],[103.88,15.1099],[103.8792,15.1096],[103.8792,15.1075],[103.88,15.1075],[103.88,15.1088],[103.8809,15.1094],[103.8812,15.1086],[103.882,15.1086],[103.8817,15.1102],[103.88,15.1107]]]}},{"type":"Feature","properties":{"kind":"flood","area_km2":0.056,"conf":"low","date":"2026-10-09"},"geometry":{"type":"Polygon","coordinates":[[[103.9037,15.923],[103.9028,15.9217],[103.9028,15.9206],[103.9034,15.9206],[103.9034,15.9198],[103.9042,15.9198],[103.9042,15.9206],[103.9051,15.9206],[103.9051,15.9217],[103.9048,15.9228],[103.9037,15.923]],[[103.9037,15.9211],[103.9042,15.9211],[103.9042,15.9206],[103.9037,15.9206],[103.9037,15.9211]]]}},{"type":"Feature","properties":{"kind":"flood","area_km2":0.056,"conf":"low","date":"2026-10-09"},"geometry":{"type":"Polygon","coordinates":[[[103.8792,15.0085],[103.8789,15.0069],[103.8783,15.0074],[103.8772,15.0074],[103.8772,15.0066],[103.8786,15.0058],[103.8803,15.0061],[103.88,15.0085],[103.8792,15.0085]]]}},{"type":"Feature","properties":{"kind":"flood","area_km2":0.055,"conf":"low","date":"2026-10-04"},"geometry":{"type":"Polygon","coordinates":[[[103.3125,15.8737],[103.3125,15.8729],[103.312,15.8726],[103.3123,15.8712],[103.3134,15.8712],[103.3134,15.8707],[103.3148,15.8707],[103.3156,15.8713],[103.3148,15.8718],[103.3137,15.8718],[103.3134,15.8737],[103.3125,15.8737]],[[103.3134,15.8715],[103.3137,15.8718],[103.3137,15.8715],[103.3134,15.8715]]]}},{"type":"Feature","properties":{"kind":"flood","area_km2":0.053,"conf":"low","date":"2026-10-09"},"geometry":{"type":"Polygon","coordinates":[[[103.9111,15.9469],[103.9108,15.9458],[103.9114,15.9459],[103.9117,15.9453],[103.9142,15.9453],[103.9139,15.9467],[103.9111,15.9469]]]}},{"type":"Feature","properties":{"kind":"flood","area_km2":0.053,"conf":"low","date":"2026-10-04"},"geometry":{"type":"Polygon","coordinates":[[[103.3872,15.3483],[103.3853,15.3477],[103.3859,15.345],[103.387,15.345],[103.3873,15.3464],[103.3872,15.3483]]]}},{"type":"Feature","properties":{"kind":"flood","area_km2":0.052,"conf":"low","date":"2026-10-09"},"geometry":{"type":"Polygon","coordinates":[[[103.9355,16.0032],[103.9355,16.0024],[103.9346,16.0018],[103.9346,16.001],[103.9366,16.0005],[103.9369,16.0027],[103.9363,16.0027],[103.9363,16.0032],[103.9355,16.0032]]]}},{"type":"Feature","properties":{"kind":"flood","area_km2":0.052,"conf":"low","date":"2026-10-04"},"geometry":{"type":"Polygon","coordinates":[[[103.3678,15.8996],[103.3672,15.8988],[103.3664,15.8988],[103.3658,15.8993],[103.3653,15.8988],[103.3653,15.8971],[103.3656,15.8985],[103.3675,15.8985],[103.3675,15.8977],[103.3695,15.8972],[103.3695,15.8985],[103.3689,15.8985],[103.3678,15.8996]]]}},{"type":"Feature","properties":{"kind":"flood","area_km2":0.052,"conf":"low","date":"2026-10-09"},"geometry":{"type":"Polygon","coordinates":[[[103.9498,15.8378],[103.9492,15.8357],[103.9501,15.8349],[103.9509,15.8349],[103.9506,15.8359],[103.9512,15.836],[103.9512,15.8379],[103.9498,15.8378]]]}},{"type":"Feature","properties":{"kind":"flood","area_km2":0.052,"conf":"low","date":"2026-10-09"},"geometry":{"type":"Polygon","coordinates":[[[103.883,15.0145],[103.883,15.0139],[103.8819,15.0139],[103.8819,15.0128],[103.8828,15.0128],[103.8828,15.0118],[103.8842,15.0118],[103.8847,15.0123],[103.8847,15.0131],[103.883,15.0128],[103.883,15.0137],[103.8842,15.0137],[103.8842,15.0145],[103.883,15.0145]]]}},{"type":"Feature","properties":{"kind":"flood","area_km2":0.051,"conf":"low","date":"2026-10-09"},"geometry":{"type":"Polygon","coordinates":[[[103.6265,15.7119],[103.6237,15.7118],[103.6237,15.7105],[103.626,15.7102],[103.6265,15.7119]]]}},{"type":"Feature","properties":{"kind":"flood","area_km2":0.05,"conf":"low","date":"2026-10-09"},"geometry":{"type":"Polygon","coordinates":[[[103.8375,15.978],[103.8375,15.9764],[103.8403,15.9767],[103.84,15.9777],[103.8375,15.978]]]}},{"type":"Feature","properties":{"kind":"flood","area_km2":0.05,"conf":"low","date":"2026-10-04"},"geometry":{"type":"Polygon","coordinates":[[[103.4672,15.531],[103.4672,15.5299],[103.4681,15.5291],[103.47,15.5294],[103.47,15.5308],[103.4672,15.531]]]}},{"type":"Feature","properties":{"kind":"seasonal","area_km2":1.284,"date":"2026-10-04"},"geometry":{"type":"Polygon","coordinates":[[[103.0325,15.8626],[103.0317,15.8613],[103.0303,15.861],[103.0309,15.8583],[103.0284,15.8583],[103.0284,15.8542],[103.0276,15.8531],[103.0276,15.8523],[103.0265,15.8515],[103.0265,15.8485],[103.0274,15.8485],[103.0276,15.8501],[103.0287,15.8501],[103.0279,15.8504],[103.0285,15.8507],[103.0287,15.8518],[103.0307,15.8523],[103.0307,15.8515],[103.0301,15.8515],[103.0302,15.8491],[103.0288,15.8488],[103.0293,15.8493],[103.0285,15.8493],[103.0285,15.848],[103.0299,15.8477],[103.0299,15.8485],[103.0307,15.8483],[103.0305,15.8466],[103.031,15.8466],[103.031,15.848],[103.033,15.848],[103.0335,15.8477],[103.0335,15.8464],[103.0344,15.8458],[103.0341,15.8483],[103.031,15.8488],[103.0313,15.8493],[103.0321,15.8493],[103.0321,15.8502],[103.0315,15.8499],[103.0313,15.8507],[103.0329,15.8515],[103.0329,15.8496],[103.0338,15.8496],[103.0338,15.8507],[103.0343,15.8507],[103.0346,15.8513],[103.0349,15.8537],[103.0357,15.8537],[103.036,15.8545],[103.0368,15.8545],[103.0368,15.8554],[103.0405,15.8554],[103.041,15.8551],[103.0407,15.854],[103.0413,15.854],[103.0413,15.8551],[103.0421,15.8554],[103.0424,15.8543],[103.043,15.8543],[103.0435,15.8546],[103.0435,15.8557],[103.0427,15.8557],[103.0432,15.856],[103.0432,15.8581],[103.0424,15.8608],[103.0412,15.8616],[103.0401,15.8616],[103.0401,15.8605],[103.041,15.8605],[103.041,15.86],[103.037,15.86],[103.0362,15.8578],[103.0345,15.858],[103.0348,15.8567],[103.0365,15.8564],[103.036,15.8564],[103.0357,15.8559],[103.0337,15.8561],[103.0337,15.8578],[103.0332,15.8578],[103.0331,15.8618],[103.0337,15.8618],[103.0337,15.8626],[103.0325,15.8626]],[[103.0407,15.8586],[103.041,15.8589],[103.041,15.8586],[103.0407,15.8586]],[[103.0424,15.8554],[103.0427,15.8557],[103.0427,15.8554],[103.0424,15.8554]]]}},{"type":"Feature","properties":{"kind":"seasonal","area_km2":0.651,"date":"2026-10-09"},"geometry":{"type":"Polygon","coordinates":[[[103.8419,15.2887],[103.8408,15.2868],[103.8394,15.2863],[103.8394,15.2854],[103.8383,15.2854],[103.8369,15.2841],[103.8369,15.2835],[103.8358,15.283],[103.835,15.2805],[103.8372,15.2808],[103.8375,15.2803],[103.8342,15.2797],[103.8342,15.2792],[103.8333,15.2786],[103.8333,15.2773],[103.8325,15.2767],[103.8322,15.2729],[103.8317,15.2724],[103.8317,15.2713],[103.832,15.2705],[103.8336,15.2702],[103.832,15.2699],[103.8323,15.2691],[103.8317,15.2686],[103.8342,15.2686],[103.8342,15.27],[103.8348,15.27],[103.8342,15.2724],[103.8353,15.2721],[103.8361,15.2746],[103.8361,15.2762],[103.837,15.277],[103.8381,15.2773],[103.8386,15.2792],[103.8395,15.2795],[103.84,15.2811],[103.84,15.2816],[103.8395,15.2816],[103.8389,15.2811],[103.8389,15.2803],[103.8381,15.2806],[103.8381,15.2816],[103.8372,15.2819],[103.8375,15.2822],[103.8375,15.2827],[103.8372,15.2827],[103.8372,15.283],[103.8383,15.2833],[103.8383,15.2838],[103.8392,15.2841],[103.8394,15.2849],[103.84,15.2849],[103.8408,15.286],[103.8419,15.2863],[103.8425,15.2882],[103.8425,15.2887],[103.8419,15.2887]],[[103.8369,15.2824],[103.8372,15.2827],[103.8372,15.2824],[103.8369,15.2824]],[[103.8367,15.2822],[103.8369,15.2824],[103.8369,15.2822],[103.8367,15.2822]],[[103.8361,15.2814],[103.8364,15.2816],[103.8364,15.2814],[103.8361,15.2814]],[[103.8361,15.2789],[103.8367,15.2786],[103.8364,15.2778],[103.8361,15.2778],[103.8361,15.2789]],[[103.8345,15.2765],[103.8347,15.2778],[103.8347,15.2765],[103.8345,15.2765]],[[103.8353,15.2767],[103.8356,15.2762],[103.835,15.2759],[103.8347,15.2765],[103.8353,15.2767]]]}},{"type":"Feature","properties":{"kind":"seasonal","area_km2":0.646,"date":"2026-10-04"},"geometry":{"type":"Polygon","coordinates":[[[103.0314,15.459],[103.0303,15.4582],[103.0294,15.4582],[103.0289,15.4568],[103.0272,15.4565],[103.0273,15.4511],[103.0287,15.4511],[103.0289,15.4503],[103.0298,15.4503],[103.0295,15.4535],[103.03,15.4541],[103.0303,15.4554],[103.0308,15.4555],[103.0303,15.4546],[103.0323,15.4538],[103.0378,15.4539],[103.0378,15.4544],[103.0401,15.4542],[103.0407,15.4507],[103.0421,15.4509],[103.0423,15.452],[103.0446,15.4537],[103.0443,15.4548],[103.0431,15.4553],[103.0412,15.4553],[103.0409,15.4558],[103.0398,15.4561],[103.0384,15.4561],[103.0381,15.4555],[103.037,15.4558],[103.0364,15.4552],[103.0342,15.4558],[103.0331,15.4587],[103.0314,15.459]],[[103.0297,15.4557],[103.03,15.4563],[103.03,15.4557],[103.0297,15.4557]],[[103.0289,15.4557],[103.0292,15.456],[103.0292,15.4557],[103.0289,15.4557]],[[103.032,15.4557],[103.0322,15.456],[103.0322,15.4557],[103.032,15.4557]],[[103.0331,15.4557],[103.0334,15.456],[103.0334,15.4557],[103.0331,15.4557]],[[103.0286,15.4554],[103.0289,15.4557],[103.0289,15.4554],[103.0286,15.4554]],[[103.0292,15.4554],[103.0294,15.4557],[103.0294,15.4554],[103.0292,15.4554]],[[103.0308,15.4555],[103.0311,15.4557],[103.0311,15.4555],[103.0308,15.4555]],[[103.0322,15.4555],[103.0325,15.4557],[103.0325,15.4555],[103.0322,15.4555]],[[103.0281,15.4552],[103.0283,15.4554],[103.0283,15.4552],[103.0281,15.4552]],[[103.0401,15.4553],[103.0403,15.4555],[103.0404,15.4553],[103.0401,15.4553]],[[103.0398,15.455],[103.0401,15.4553],[103.0401,15.455],[103.0398,15.455]],[[103.0325,15.4547],[103.0328,15.4549],[103.0328,15.4547],[103.0325,15.4547]],[[103.0387,15.4547],[103.0398,15.4547],[103.0387,15.4544],[103.0387,15.4547]],[[103.0418,15.4547],[103.042,15.455],[103.042,15.4547],[103.0418,15.4547]],[[103.0328,15.4544],[103.0331,15.4547],[103.0331,15.4544],[103.0328,15.4544]],[[103.042,15.4542],[103.0423,15.4547],[103.0423,15.4542],[103.042,15.4542]],[[103.0418,15.4539],[103.042,15.4542],[103.042,15.4539],[103.0418,15.4539]],[[103.0412,15.4536],[103.0418,15.4537],[103.042,15.4531],[103.0415,15.4531],[103.0412,15.4536]],[[103.0289,15.4527],[103.0292,15.4533],[103.0292,15.4527],[103.0289,15.4527]],[[103.0412,15.4528],[103.0415,15.4531],[103.0415,15.4528],[103.0412,15.4528]],[[103.0421,15.4528],[103.0423,15.4531],[103.0423,15.4528],[103.0421,15.4528]],[[103.0423,15.4526],[103.0426,15.4528],[103.0426,15.4526],[103.0423,15.4526]],[[103.0286,15.4522],[103.0289,15.4525],[103.0289,15.4522],[103.0286,15.4522]],[[103.0292,15.4522],[103.0295,15.4525],[103.0295,15.4522],[103.0292,15.4522]],[[103.0421,15.4523],[103.0423,15.4526],[103.0423,15.4523],[103.0421,15.4523]],[[103.0289,15.4519],[103.0292,15.4522],[103.0292,15.4519],[103.0289,15.4519]]]}},{"type":"Feature","properties":{"kind":"seasonal","area_km2":0.64,"date":"2026-10-09"},"geometry":{"type":"Polygon","coordinates":[[[103.8236,15.8635],[103.8236,15.8627],[103.8227,15.8621],[103.8228,15.8586],[103.8222,15.8581],[103.8222,15.857],[103.8236,15.8567],[103.8236,15.8556],[103.8253,15.8559],[103.8261,15.8567],[103.8267,15.8567],[103.8259,15.8559],[103.8259,15.8551],[103.8315,15.8546],[103.8312,15.8573],[103.8303,15.8576],[103.8306,15.8603],[103.8298,15.8603],[103.8298,15.8611],[103.8292,15.8611],[103.8286,15.8619],[103.8264,15.8619],[103.825,15.8632],[103.8236,15.8635]],[[103.8295,15.8597],[103.8298,15.8603],[103.8298,15.8597],[103.8295,15.8597]],[[103.827,15.857],[103.8275,15.8573],[103.8275,15.857],[103.827,15.857]],[[103.8267,15.8567],[103.827,15.857],[103.827,15.8567],[103.8267,15.8567]]]}},{"type":"Feature","properties":{"kind":"seasonal","area_km2":0.594,"date":"2026-10-04"},"geometry":{"type":"Polygon","coordinates":[[[103.0427,15.8541],[103.0424,15.853],[103.0419,15.853],[103.0422,15.8516],[103.0416,15.8513],[103.0416,15.8497],[103.0405,15.8489],[103.0405,15.8483],[103.0414,15.8478],[103.0414,15.8462],[103.0408,15.8459],[103.0408,15.8454],[103.04,15.8456],[103.0406,15.8445],[103.042,15.8446],[103.042,15.8437],[103.0425,15.8432],[103.0434,15.8432],[103.0434,15.8424],[103.0425,15.8421],[103.0423,15.8402],[103.0417,15.8397],[103.0417,15.8381],[103.0426,15.8356],[103.042,15.8353],[103.0426,15.8351],[103.0426,15.8332],[103.0418,15.8321],[103.0418,15.8305],[103.041,15.8286],[103.0407,15.8264],[103.0405,15.8258],[103.0399,15.8258],[103.0402,15.825],[103.0377,15.8247],[103.0405,15.8248],[103.0413,15.8258],[103.0413,15.8272],[103.0418,15.8275],[103.0424,15.8299],[103.0421,15.8318],[103.0432,15.8329],[103.0435,15.8345],[103.0426,15.837],[103.0426,15.8391],[103.0434,15.8405],[103.0434,15.8419],[103.0439,15.8419],[103.0439,15.843],[103.0445,15.8438],[103.0442,15.8459],[103.0456,15.8459],[103.0453,15.8514],[103.0441,15.8522],[103.0436,15.8538],[103.0427,15.8541]],[[103.0439,15.8486],[103.0442,15.8495],[103.0442,15.8486],[103.0439,15.8486]]]}},{"type":"Feature","properties":{"kind":"seasonal","area_km2":0.578,"date":"2026-10-09"},"geometry":{"type":"Polygon","coordinates":[[[103.5553,15.4519],[103.555,15.4508],[103.5539,15.4503],[103.5531,15.4489],[103.5534,15.447],[103.5495,15.4435],[103.5495,15.4426],[103.5512,15.4424],[103.5512,15.4408],[103.552,15.4408],[103.5526,15.4416],[103.5554,15.443],[103.5553,15.4438],[103.5542,15.4446],[103.5542,15.4451],[103.5553,15.4462],[103.5573,15.4459],[103.5581,15.4476],[103.5587,15.4479],[103.5595,15.4503],[103.5603,15.4503],[103.5603,15.4514],[103.5598,15.4519],[103.5586,15.4519],[103.5581,15.4516],[103.5581,15.4511],[103.557,15.4511],[103.557,15.4516],[103.5553,15.4519]]]}},{"type":"Feature","properties":{"kind":"seasonal","area_km2":0.563,"date":"2026-10-09"},"geometry":{"type":"Polygon","coordinates":[[[103.7337,15.6678],[103.7321,15.6658],[103.7318,15.6583],[103.7324,15.6572],[103.7344,15.6566],[103.7347,15.6558],[103.7361,15.6558],[103.7369,15.6542],[103.738,15.654],[103.7389,15.655],[103.7383,15.6567],[103.7391,15.6569],[103.7391,15.6578],[103.7383,15.6605],[103.7377,15.6607],[103.7377,15.6615],[103.7363,15.6618],[103.7369,15.6613],[103.7369,15.6596],[103.7377,15.6596],[103.7377,15.6591],[103.7369,15.6591],[103.7366,15.6596],[103.7352,15.6602],[103.7327,15.6599],[103.7329,15.6612],[103.7338,15.6612],[103.7338,15.6621],[103.7329,15.6631],[103.7335,15.6648],[103.7338,15.6642],[103.7346,15.6642],[103.7349,15.6648],[103.7349,15.6637],[103.7357,15.6626],[103.7369,15.6629],[103.7368,15.6637],[103.736,15.6648],[103.736,15.6659],[103.7354,15.6661],[103.7351,15.6672],[103.7346,15.6678],[103.7337,15.6678]],[[103.7377,15.6588],[103.738,15.6591],[103.738,15.6588],[103.7377,15.6588]],[[103.738,15.6586],[103.7383,15.6588],[103.7383,15.6586],[103.738,15.6586]]]}},{"type":"Feature","properties":{"kind":"seasonal","area_km2":0.451,"date":"2026-10-04"},"geometry":{"type":"Polygon","coordinates":[[[103.0271,15.8442],[103.0269,15.8431],[103.0257,15.8428],[103.026,15.8417],[103.0255,15.8417],[103.0255,15.8401],[103.0241,15.8373],[103.0241,15.8355],[103.0236,15.8352],[103.0236,15.8341],[103.0211,15.8322],[103.0205,15.8322],[103.0205,15.8316],[103.02,15.8316],[103.0194,15.8327],[103.0174,15.8327],[103.0163,15.8319],[103.0166,15.8297],[103.0177,15.8289],[103.0183,15.8278],[103.02,15.8281],[103.02,15.83],[103.0205,15.8314],[103.0225,15.8311],[103.0222,15.8289],[103.0231,15.8289],[103.0234,15.8281],[103.0234,15.8273],[103.022,15.8262],[103.022,15.8251],[103.0226,15.8246],[103.024,15.8246],[103.0234,15.8249],[103.0234,15.8254],[103.0237,15.8265],[103.0242,15.8265],[103.0245,15.8271],[103.0242,15.8289],[103.0236,15.8289],[103.0239,15.8295],[103.0233,15.8295],[103.0233,15.83],[103.0236,15.8308],[103.0247,15.8317],[103.0244,15.8322],[103.0236,15.8322],[103.023,15.8327],[103.0241,15.8336],[103.0247,15.8376],[103.0255,15.8382],[103.0255,15.8387],[103.0263,15.839],[103.0263,15.8404],[103.0274,15.8433],[103.0271,15.8442]]]}},{"type":"Feature","properties":{"kind":"seasonal","area_km2":0.424,"date":"2026-10-04"},"geometry":{"type":"Polygon","coordinates":[[[103.4325,15.2415],[103.4319,15.2404],[103.4305,15.2401],[103.4302,15.2393],[103.4291,15.2393],[103.4289,15.2385],[103.4289,15.2377],[103.4294,15.2371],[103.4289,15.2363],[103.4294,15.233],[103.4292,15.2306],[103.43,15.2298],[103.4309,15.2298],[103.432,15.2312],[103.4322,15.2361],[103.4333,15.2363],[103.4333,15.2388],[103.4341,15.2399],[103.4341,15.2407],[103.4333,15.2415],[103.4325,15.2415]],[[103.4311,15.2366],[103.4314,15.2369],[103.4314,15.2366],[103.4311,15.2366]],[[103.4317,15.2363],[103.4319,15.2366],[103.4319,15.2363],[103.4317,15.2363]],[[103.4303,15.2344],[103.4306,15.2347],[103.4306,15.2344],[103.4303,15.2344]],[[103.4314,15.2344],[103.4317,15.2347],[103.4317,15.2344],[103.4314,15.2344]]]}},{"type":"Feature","properties":{"kind":"seasonal","area_km2":0.415,"date":"2026-10-09"},"geometry":{"type":"Polygon","coordinates":[[[103.9526,15.6768],[103.9526,15.6738],[103.9531,15.6735],[103.9532,15.6724],[103.9537,15.6724],[103.9543,15.6716],[103.9537,15.6705],[103.9534,15.6714],[103.9526,15.6705],[103.9523,15.6681],[103.9543,15.6684],[103.956,15.67],[103.9574,15.6703],[103.9579,15.6708],[103.9579,15.6716],[103.9585,15.6711],[103.959,15.6719],[103.9596,15.6719],[103.9596,15.6725],[103.9601,15.6725],[103.9601,15.673],[103.9613,15.6736],[103.9613,15.6752],[103.9604,15.6752],[103.9593,15.6744],[103.9579,15.6744],[103.9576,15.6738],[103.9559,15.6738],[103.9551,15.6746],[103.9543,15.6765],[103.9526,15.6768]],[[103.9571,15.6725],[103.9574,15.6716],[103.9565,15.6716],[103.9565,15.6719],[103.9571,15.6725]],[[103.9576,15.6719],[103.9579,15.6722],[103.9579,15.6719],[103.9576,15.6719]],[[103.9582,15.6717],[103.9585,15.6719],[103.9585,15.6717],[103.9582,15.6717]],[[103.9529,15.67],[103.9537,15.6697],[103.9535,15.6686],[103.9529,15.6686],[103.9529,15.67]]]}},{"type":"Feature","properties":{"kind":"seasonal","area_km2":0.385,"date":"2026-10-09"},"geometry":{"type":"Polygon","coordinates":[[[103.6032,15.3063],[103.603,15.3058],[103.6018,15.3058],[103.6016,15.3052],[103.5979,15.3041],[103.5977,15.303],[103.5985,15.3022],[103.6016,15.3025],[103.6021,15.302],[103.6055,15.302],[103.6072,15.3026],[103.6097,15.3026],[103.6114,15.3037],[103.6083,15.3042],[103.6052,15.3063],[103.6032,15.3063]],[[103.6055,15.3053],[103.606,15.3053],[103.606,15.3047],[103.6066,15.3047],[103.6077,15.3036],[103.6091,15.3037],[103.6091,15.3028],[103.6083,15.3034],[103.6052,15.3036],[103.6058,15.3039],[103.6058,15.3044],[103.6046,15.3039],[103.6046,15.3044],[103.6055,15.3047],[103.6055,15.3053]],[[103.6007,15.3033],[103.601,15.3036],[103.601,15.3033],[103.6007,15.3033]],[[103.6049,15.3034],[103.6052,15.3036],[103.6052,15.3034],[103.6049,15.3034]]]}},{"type":"Feature","properties":{"kind":"seasonal","area_km2":0.373,"date":"2026-10-09"},"geometry":{"type":"Polygon","coordinates":[[[103.9133,15.7539],[103.9116,15.7522],[103.9108,15.7476],[103.9113,15.7465],[103.9139,15.746],[103.9139,15.7466],[103.9147,15.7474],[103.9158,15.7474],[103.9158,15.7485],[103.9164,15.7487],[103.9163,15.7514],[103.9144,15.7539],[103.9133,15.7539]],[[103.9133,15.7503],[103.9136,15.7506],[103.9136,15.7503],[103.9133,15.7503]]]}},{"type":"Feature","properties":{"kind":"seasonal","area_km2":0.361,"date":"2026-10-04"},"geometry":{"type":"Polygon","coordinates":[[[103.2278,15.071],[103.2272,15.0697],[103.2267,15.0691],[103.2258,15.0691],[103.225,15.0675],[103.2245,15.0675],[103.2245,15.0661],[103.2234,15.0661],[103.2223,15.0618],[103.2231,15.0618],[103.2237,15.0637],[103.2251,15.0632],[103.2262,15.0621],[103.2284,15.0621],[103.2289,15.0651],[103.2284,15.0675],[103.2278,15.0678],[103.2278,15.0689],[103.2272,15.0694],[103.2286,15.0711],[103.2278,15.071]],[[103.225,15.067],[103.2259,15.0667],[103.2259,15.0656],[103.2248,15.0659],[103.225,15.067]],[[103.2262,15.0651],[103.2267,15.0651],[103.227,15.0643],[103.2262,15.0643],[103.2262,15.0651]]]}},{"type":"Feature","properties":{"kind":"seasonal","area_km2":0.332,"date":"2026-10-04"},"geometry":{"type":"Polygon","coordinates":[[[103.1706,15.3935],[103.17,15.3929],[103.1698,15.3891],[103.1687,15.3878],[103.1687,15.3861],[103.1693,15.3856],[103.1715,15.3856],[103.1732,15.3873],[103.1729,15.3894],[103.1734,15.3897],[103.1739,15.393],[103.1706,15.3935]]]}},{"type":"Feature","properties":{"kind":"seasonal","area_km2":0.323,"date":"2026-10-04"},"geometry":{"type":"Polygon","coordinates":[[[103.1203,15.3876],[103.1184,15.3863],[103.1167,15.3863],[103.1167,15.3868],[103.1156,15.3868],[103.1153,15.3849],[103.1145,15.3841],[103.1128,15.3841],[103.1131,15.3827],[103.1154,15.3824],[103.1165,15.3844],[103.119,15.3838],[103.1195,15.3847],[103.122,15.3847],[103.1223,15.3839],[103.1218,15.3825],[103.1226,15.3817],[103.1265,15.3815],[103.1249,15.3817],[103.1232,15.3831],[103.1231,15.3866],[103.122,15.3874],[103.1203,15.3876]],[[103.1209,15.3866],[103.1229,15.3855],[103.1229,15.385],[103.1198,15.3857],[103.1209,15.3866]],[[103.1176,15.3849],[103.1181,15.3855],[103.1181,15.3849],[103.1176,15.3849]],[[103.1165,15.3846],[103.117,15.3849],[103.117,15.3846],[103.1165,15.3846]]]}},{"type":"Feature","properties":{"kind":"seasonal","area_km2":0.32,"date":"2026-10-04"},"geometry":{"type":"Polygon","coordinates":[[[103.1665,15.6635],[103.1601,15.6631],[103.1584,15.662],[103.1573,15.662],[103.1573,15.6596],[103.1584,15.6593],[103.1593,15.6599],[103.161,15.6599],[103.1618,15.6607],[103.166,15.6605],[103.1665,15.661],[103.1665,15.6635]]]}},{"type":"Feature","properties":{"kind":"seasonal","area_km2":0.311,"date":"2026-10-04"},"geometry":{"type":"Polygon","coordinates":[[[103.4377,15.2543],[103.4371,15.2532],[103.4357,15.2526],[103.436,15.2491],[103.4332,15.2488],[103.4338,15.2469],[103.4333,15.2428],[103.4336,15.2418],[103.4344,15.2418],[103.4352,15.2434],[103.4358,15.2461],[103.4366,15.2472],[103.4363,15.2488],[103.4369,15.2488],[103.4374,15.2505],[103.4391,15.2521],[103.4391,15.254],[103.4377,15.2543]],[[103.4341,15.242],[103.4344,15.2423],[103.4344,15.242],[103.4341,15.242]]]}},{"type":"Feature","properties":{"kind":"seasonal","area_km2":0.3,"date":"2026-10-04"},"geometry":{"type":"Polygon","coordinates":[[[103.0247,15.4568],[103.0241,15.4562],[103.0199,15.4559],[103.0194,15.4554],[103.0163,15.4553],[103.0158,15.455],[103.0158,15.4534],[103.0166,15.4526],[103.0166,15.4521],[103.0186,15.4526],[103.0191,15.4516],[103.02,15.4516],[103.0211,15.454],[103.0219,15.4546],[103.0264,15.4543],[103.0266,15.4565],[103.0247,15.4568]],[[103.0236,15.4557],[103.0239,15.4559],[103.0239,15.4557],[103.0236,15.4557]],[[103.0241,15.4559],[103.0247,15.4559],[103.025,15.4554],[103.0241,15.4554],[103.0239,15.4546],[103.0239,15.4551],[103.0233,15.4554],[103.0239,15.4554],[103.0241,15.4559]],[[103.023,15.4554],[103.0233,15.4557],[103.0233,15.4554],[103.023,15.4554]],[[103.0225,15.4551],[103.0227,15.4554],[103.0227,15.4551],[103.0225,15.4551]],[[103.025,15.4551],[103.0253,15.4554],[103.0253,15.4551],[103.025,15.4551]],[[103.0227,15.4548],[103.023,15.4551],[103.023,15.4548],[103.0227,15.4548]],[[103.0253,15.4549],[103.0255,15.4551],[103.0255,15.4549],[103.0253,15.4549]],[[103.0205,15.4543],[103.0208,15.4546],[103.0208,15.4543],[103.0205,15.4543]],[[103.0188,15.4537],[103.0191,15.454],[103.0191,15.4537],[103.0188,15.4537]],[[103.0172,15.4532],[103.0174,15.4534],[103.0175,15.4532],[103.0172,15.4532]]]}},{"type":"Feature","properties":{"kind":"seasonal","area_km2":0.287,"date":"2026-10-04"},"geometry":{"type":"Polygon","coordinates":[[[103.1978,15.2853],[103.1964,15.2844],[103.1964,15.2831],[103.1961,15.2844],[103.1953,15.2842],[103.1953,15.2831],[103.1945,15.282],[103.1945,15.2801],[103.1928,15.2782],[103.1931,15.2763],[103.1959,15.276],[103.1967,15.2771],[103.1964,15.2798],[103.197,15.2793],[103.1981,15.2793],[103.1973,15.2801],[103.1975,15.2817],[103.1961,15.2815],[103.1961,15.2823],[103.197,15.2823],[103.197,15.2836],[103.1975,15.2836],[103.1973,15.2823],[103.1978,15.2823],[103.1978,15.2831],[103.1995,15.2845],[103.1978,15.2853]],[[103.1942,15.2793],[103.1959,15.2801],[103.1956,15.279],[103.1948,15.2787],[103.1945,15.2779],[103.1937,15.2779],[103.1934,15.2784],[103.1942,15.2787],[103.1942,15.2793]]]}},{"type":"Feature","properties":{"kind":"seasonal","area_km2":0.274,"date":"2026-10-09"},"geometry":{"type":"Polygon","coordinates":[[[103.6475,15.4584],[103.6475,15.4568],[103.6481,15.4566],[103.6481,15.4538],[103.6526,15.4531],[103.6531,15.4522],[103.6531,15.4512],[103.6537,15.4514],[103.6537,15.452],[103.6548,15.4514],[103.6548,15.4544],[103.654,15.4552],[103.652,15.4558],[103.6517,15.4563],[103.6492,15.4568],[103.6483,15.4585],[103.6475,15.4584]]]}},{"type":"Feature","properties":{"kind":"seasonal","area_km2":0.266,"date":"2026-10-04"},"geometry":{"type":"Polygon","coordinates":[[[103.5057,15.387],[103.5054,15.3865],[103.5026,15.3862],[103.5024,15.3848],[103.5027,15.3843],[103.5038,15.3843],[103.5046,15.3849],[103.5066,15.3846],[103.5074,15.3808],[103.508,15.3803],[103.508,15.3778],[103.5089,15.3778],[103.5097,15.3784],[103.5097,15.3803],[103.5085,15.383],[103.5085,15.3843],[103.508,15.3849],[103.508,15.3862],[103.5074,15.3871],[103.5057,15.387]]]}},{"type":"Feature","properties":{"kind":"seasonal","area_km2":0.263,"date":"2026-10-04"},"geometry":{"type":"Polygon","coordinates":[[[103.1403,15.5299],[103.1403,15.5293],[103.1395,15.5285],[103.1344,15.529],[103.1339,15.5295],[103.1319,15.5295],[103.1319,15.5282],[103.1364,15.5263],[103.1389,15.5263],[103.1403,15.5269],[103.1406,15.5274],[103.1426,15.5277],[103.1426,15.5288],[103.1417,15.5293],[103.1417,15.5299],[103.1403,15.5299]]]}},{"type":"Feature","properties":{"kind":"seasonal","area_km2":0.262,"date":"2026-10-04"},"geometry":{"type":"Polygon","coordinates":[[[103.493,15.291],[103.4924,15.2904],[103.4902,15.2901],[103.4902,15.2885],[103.4894,15.2885],[103.4888,15.288],[103.4888,15.2871],[103.4883,15.2869],[103.4886,15.2855],[103.4908,15.2855],[103.4913,15.2861],[103.493,15.2861],[103.4941,15.2869],[103.4941,15.291],[103.493,15.291]],[[103.4913,15.2896],[103.4916,15.2899],[103.4916,15.2896],[103.4913,15.2896]],[[103.4919,15.2872],[103.4922,15.2874],[103.4922,15.2872],[103.4919,15.2872]],[[103.4933,15.2869],[103.4936,15.2872],[103.4936,15.2869],[103.4933,15.2869]],[[103.4908,15.2861],[103.4911,15.2863],[103.4911,15.2861],[103.4908,15.2861]]]}},{"type":"Feature","properties":{"kind":"seasonal","area_km2":0.261,"date":"2026-10-04"},"geometry":{"type":"Polygon","coordinates":[[[103.4381,15.0775],[103.4367,15.0766],[103.437,15.0745],[103.4398,15.0715],[103.441,15.0713],[103.4415,15.0704],[103.4429,15.0705],[103.4432,15.0715],[103.4426,15.0721],[103.4415,15.0721],[103.4415,15.0729],[103.4407,15.0729],[103.4404,15.0737],[103.4412,15.0745],[103.4421,15.0745],[103.4426,15.0742],[103.4426,15.0737],[103.4432,15.0737],[103.4435,15.0729],[103.444,15.0729],[103.4437,15.0737],[103.4426,15.0748],[103.4421,15.0748],[103.4421,15.0751],[103.4418,15.0751],[103.4418,15.0753],[103.4415,15.0753],[103.4415,15.0756],[103.4412,15.0756],[103.4412,15.0759],[103.4409,15.0759],[103.4404,15.0767],[103.4393,15.0769],[103.439,15.0775],[103.4381,15.0775]],[[103.4395,15.0759],[103.4401,15.0761],[103.4401,15.0759],[103.4395,15.0759]],[[103.439,15.0756],[103.4393,15.0759],[103.4393,15.0756],[103.439,15.0756]],[[103.4401,15.0759],[103.4409,15.0759],[103.4407,15.0748],[103.4404,15.0753],[103.4398,15.0753],[103.4401,15.0759]]]}},{"type":"Feature","properties":{"kind":"seasonal","area_km2":0.236,"date":"2026-10-09"},"geometry":{"type":"Polygon","coordinates":[[[103.7531,15.6109],[103.754,15.6069],[103.7571,15.6069],[103.7599,15.6074],[103.7596,15.6088],[103.7587,15.6096],[103.7576,15.6096],[103.7568,15.6107],[103.7531,15.6109]]]}},{"type":"Feature","properties":{"kind":"seasonal","area_km2":0.229,"date":"2026-10-04"},"geometry":{"type":"Polygon","coordinates":[[[103.4266,15.2059],[103.4246,15.2045],[103.4247,15.2016],[103.4255,15.201],[103.4255,15.2002],[103.4261,15.1997],[103.4269,15.1997],[103.4269,15.1989],[103.4277,15.1989],[103.4286,15.2],[103.4286,15.201],[103.4294,15.2019],[103.4294,15.2027],[103.4283,15.2029],[103.4283,15.2038],[103.4291,15.2038],[103.4291,15.2046],[103.428,15.2048],[103.428,15.2038],[103.4272,15.2035],[103.4269,15.2043],[103.4274,15.2059],[103.4266,15.2059]],[[103.4269,15.2024],[103.4277,15.2021],[103.4275,15.2002],[103.4269,15.2002],[103.4266,15.201],[103.4269,15.2024]]]}},{"type":"Feature","properties":{"kind":"seasonal","area_km2":0.228,"date":"2026-10-09"},"geometry":{"type":"Polygon","coordinates":[[[103.9746,15.2416],[103.9746,15.2392],[103.9763,15.2373],[103.9791,15.2378],[103.9796,15.2376],[103.9805,15.2381],[103.9824,15.2376],[103.9824,15.2389],[103.9813,15.2398],[103.9807,15.2387],[103.9805,15.2395],[103.9793,15.2395],[103.9791,15.2389],[103.9788,15.24],[103.9777,15.24],[103.9779,15.2406],[103.9793,15.2408],[103.9779,15.2411],[103.9777,15.2416],[103.9746,15.2416]],[[103.9768,15.2395],[103.9777,15.2395],[103.9782,15.2384],[103.9768,15.2384],[103.9768,15.2395]]]}},{"type":"Feature","properties":{"kind":"seasonal","area_km2":0.224,"date":"2026-10-09"},"geometry":{"type":"Polygon","coordinates":[[[103.6142,15.3736],[103.6143,15.3723],[103.6165,15.3726],[103.6184,15.372],[103.6187,15.3715],[103.6212,15.3712],[103.6215,15.3699],[103.6232,15.3691],[103.6235,15.3661],[103.6244,15.3661],[103.6243,15.3699],[103.6238,15.371],[103.6218,15.3723],[103.6218,15.3729],[103.6196,15.3729],[103.6184,15.3731],[103.6182,15.3737],[103.6142,15.3736]]]}},{"type":"Feature","properties":{"kind":"seasonal","area_km2":0.224,"date":"2026-10-04"},"geometry":{"type":"Polygon","coordinates":[[[103.2003,15.022],[103.1998,15.0199],[103.1992,15.0193],[103.1992,15.0177],[103.2017,15.0169],[103.2037,15.0172],[103.2037,15.0183],[103.2045,15.0185],[103.2045,15.0196],[103.2034,15.0207],[103.2023,15.021],[103.2014,15.022],[103.2003,15.022]]]}},{"type":"Feature","properties":{"kind":"seasonal","area_km2":0.217,"date":"2026-10-09"},"geometry":{"type":"Polygon","coordinates":[[[103.9054,15.7479],[103.9049,15.7473],[103.9049,15.7452],[103.9057,15.7441],[103.9069,15.7435],[103.9085,15.7435],[103.9105,15.7455],[103.9102,15.7476],[103.9054,15.7479]],[[103.906,15.7468],[103.9066,15.7468],[103.9066,15.7462],[103.9069,15.7465],[103.9077,15.7462],[103.9071,15.7462],[103.9069,15.7457],[103.9057,15.7457],[103.906,15.7468]]]}},{"type":"Feature","properties":{"kind":"seasonal","area_km2":0.216,"date":"2026-10-09"},"geometry":{"type":"Polygon","coordinates":[[[103.6391,15.46],[103.6386,15.4592],[103.6369,15.4592],[103.6366,15.4587],[103.6338,15.4581],[103.6338,15.4573],[103.638,15.457],[103.6394,15.4573],[103.6394,15.4584],[103.64,15.4584],[103.6405,15.4565],[103.6425,15.4562],[103.6433,15.4565],[103.6433,15.4573],[103.6439,15.4573],[103.6436,15.4582],[103.6447,15.4582],[103.6456,15.4576],[103.6456,15.4587],[103.6433,15.4582],[103.6411,15.4584],[103.64,15.46],[103.6391,15.46]],[[103.6394,15.4595],[103.6397,15.4598],[103.6397,15.4595],[103.6394,15.4595]],[[103.6405,15.4576],[103.6408,15.4579],[103.6408,15.4576],[103.6405,15.4576]],[[103.6425,15.4579],[103.643,15.4579],[103.643,15.4568],[103.6425,15.4568],[103.6425,15.4579]]]}},{"type":"Feature","properties":{"kind":"seasonal","area_km2":0.211,"date":"2026-10-09"},"geometry":{"type":"Polygon","coordinates":[[[103.7625,15.4412],[103.762,15.4407],[103.7623,15.4393],[103.7617,15.4393],[103.7617,15.4385],[103.7634,15.4385],[103.7637,15.4391],[103.7648,15.4388],[103.7653,15.4393],[103.7665,15.4385],[103.7673,15.4366],[103.7681,15.4366],[103.7687,15.4372],[103.7695,15.4391],[103.7709,15.4388],[103.7709,15.4402],[103.7692,15.4402],[103.769,15.4396],[103.7678,15.4396],[103.7667,15.4407],[103.7645,15.4407],[103.7645,15.4401],[103.7637,15.4399],[103.7634,15.4407],[103.7642,15.441],[103.7625,15.4412]],[[103.7651,15.4396],[103.7656,15.4399],[103.7656,15.4396],[103.7651,15.4396]],[[103.7704,15.4394],[103.7706,15.4396],[103.7706,15.4394],[103.7704,15.4394]],[[103.7623,15.4388],[103.7625,15.4393],[103.7625,15.4388],[103.7623,15.4388]]]}},{"type":"Feature","properties":{"kind":"seasonal","area_km2":0.209,"date":"2026-10-04"},"geometry":{"type":"Polygon","coordinates":[[[103.4429,15.5986],[103.4427,15.5973],[103.4421,15.597],[103.4421,15.5959],[103.4444,15.5949],[103.446,15.5951],[103.4458,15.5932],[103.4472,15.5932],[103.4483,15.5943],[103.4485,15.5962],[103.4474,15.5973],[103.4466,15.5973],[103.446,15.5981],[103.4449,15.5981],[103.4446,15.5987],[103.4429,15.5986]],[[103.4429,15.5981],[103.4452,15.5973],[103.4457,15.5962],[103.4446,15.5962],[103.4441,15.5967],[103.4427,15.597],[103.4429,15.5981]],[[103.446,15.5962],[103.4466,15.5965],[103.4466,15.5962],[103.446,15.5962]]]}},{"type":"Feature","properties":{"kind":"seasonal","area_km2":0.203,"date":"2026-10-04"},"geometry":{"type":"Polygon","coordinates":[[[103.0992,15.4398],[103.0975,15.4384],[103.0975,15.4373],[103.0984,15.4368],[103.0987,15.4349],[103.0992,15.4344],[103.1001,15.4344],[103.1001,15.4355],[103.1023,15.4371],[103.1025,15.4393],[103.0992,15.4398]]]}},{"type":"Feature","properties":{"kind":"seasonal","area_km2":0.191,"date":"2026-10-09"},"geometry":{"type":"Polygon","coordinates":[[[103.657,15.3663],[103.6551,15.3658],[103.6545,15.3649],[103.654,15.3649],[103.6523,15.3633],[103.6523,15.3625],[103.6518,15.3619],[103.6518,15.3592],[103.6526,15.3592],[103.6532,15.3603],[103.6543,15.3611],[103.6548,15.3628],[103.6559,15.3636],[103.6559,15.3641],[103.6568,15.3641],[103.6573,15.3647],[103.657,15.3663]],[[103.6537,15.3641],[103.654,15.3644],[103.654,15.3641],[103.6537,15.3641]],[[103.6529,15.3625],[103.6532,15.3628],[103.6532,15.3625],[103.6529,15.3625]],[[103.6537,15.3625],[103.654,15.3628],[103.654,15.3625],[103.6537,15.3625]],[[103.654,15.362],[103.6543,15.3625],[103.6543,15.362],[103.654,15.362]]]}},{"type":"Feature","properties":{"kind":"seasonal","area_km2":0.179,"date":"2026-10-02"},"geometry":{"type":"Polygon","coordinates":[[[103.5584,15.8039],[103.5576,15.8031],[103.5551,15.8033],[103.5542,15.8022],[103.5526,15.8019],[103.5528,15.8003],[103.5534,15.7998],[103.5554,15.7998],[103.5568,15.8003],[103.5576,15.8012],[103.5579,15.8022],[103.5595,15.8031],[103.5595,15.8039],[103.5584,15.8039]]]}},{"type":"Feature","properties":{"kind":"seasonal","area_km2":0.177,"date":"2026-10-04"},"geometry":{"type":"Polygon","coordinates":[[[103.2512,15.3163],[103.2512,15.3158],[103.2498,15.3144],[103.2495,15.3133],[103.2489,15.3133],[103.2487,15.3122],[103.2481,15.312],[103.2476,15.3101],[103.2487,15.3101],[103.2487,15.3109],[103.249,15.3103],[103.2495,15.3109],[103.2512,15.3109],[103.2529,15.3125],[103.2528,15.3144],[103.2523,15.3142],[103.2523,15.315],[103.2514,15.3155],[103.2512,15.3163]],[[103.2498,15.3133],[103.2501,15.3128],[103.2492,15.312],[103.2492,15.3125],[103.2498,15.3133]],[[103.2501,15.312],[103.2506,15.312],[103.2504,15.3112],[103.2498,15.3112],[103.2501,15.312]],[[103.249,15.3112],[103.2492,15.3117],[103.2492,15.3112],[103.249,15.3112]]]}},{"type":"Feature","properties":{"kind":"seasonal","area_km2":0.175,"date":"2026-10-04"},"geometry":{"type":"Polygon","coordinates":[[[103.3075,15.3599],[103.3073,15.3563],[103.3081,15.3563],[103.3087,15.3555],[103.3087,15.3531],[103.3098,15.3528],[103.3101,15.3523],[103.312,15.3526],[103.312,15.3542],[103.3101,15.3545],[103.3101,15.3569],[103.3092,15.3574],[103.3092,15.358],[103.3098,15.3583],[103.3084,15.3582],[103.3086,15.3599],[103.3075,15.3599]]]}},{"type":"Feature","properties":{"kind":"seasonal","area_km2":0.175,"date":"2026-10-04"},"geometry":{"type":"Polygon","coordinates":[[[103.3132,15.3488],[103.3132,15.3472],[103.3126,15.3466],[103.3127,15.3458],[103.3113,15.3444],[103.3113,15.3431],[103.3121,15.3431],[103.313,15.3439],[103.3155,15.3439],[103.316,15.3447],[103.316,15.3458],[103.3149,15.3469],[103.3146,15.3483],[103.314,15.3488],[103.3132,15.3488]]]}},{"type":"Feature","properties":{"kind":"seasonal","area_km2":0.169,"date":"2026-10-09"},"geometry":{"type":"Polygon","coordinates":[[[103.9627,15.2248],[103.9627,15.2239],[103.9643,15.2231],[103.9643,15.2218],[103.9657,15.221],[103.9658,15.2202],[103.9663,15.2199],[103.9666,15.2175],[103.9672,15.2169],[103.9691,15.2166],[103.9688,15.2172],[103.9691,15.2196],[103.9674,15.2196],[103.9663,15.2218],[103.9657,15.2218],[103.9652,15.224],[103.9643,15.2248],[103.9627,15.2248]],[[103.9686,15.2169],[103.9688,15.2172],[103.9688,15.2169],[103.9686,15.2169]]]}},{"type":"Feature","properties":{"kind":"seasonal","area_km2":0.167,"date":"2026-10-04"},"geometry":{"type":"Polygon","coordinates":[[[103.1277,15.3137],[103.1277,15.3129],[103.1283,15.3126],[103.1294,15.3096],[103.1303,15.3096],[103.1311,15.3113],[103.1325,15.311],[103.1333,15.3102],[103.1344,15.3105],[103.1344,15.3116],[103.1339,15.3121],[103.1319,15.3124],[103.1294,15.3137],[103.1277,15.3137]]]}},{"type":"Feature","properties":{"kind":"seasonal","area_km2":0.166,"date":"2026-10-09"},"geometry":{"type":"Polygon","coordinates":[[[103.5741,15.3173],[103.5727,15.3162],[103.571,15.3162],[103.571,15.3153],[103.5719,15.3153],[103.5724,15.3143],[103.5755,15.3146],[103.5772,15.3138],[103.5775,15.3132],[103.5786,15.3129],[103.5786,15.3143],[103.5766,15.3154],[103.5752,15.3167],[103.5752,15.3173],[103.5741,15.3173]],[[103.5778,15.3143],[103.5783,15.314],[103.5783,15.3135],[103.5778,15.3138],[103.5778,15.3143]]]}},{"type":"Feature","properties":{"kind":"seasonal","area_km2":0.156,"date":"2026-10-02"},"geometry":{"type":"Polygon","coordinates":[[[103.4545,15.8869],[103.4545,15.8864],[103.4539,15.8861],[103.4539,15.8853],[103.4545,15.885],[103.4534,15.8848],[103.4534,15.8812],[103.4545,15.8818],[103.4548,15.8829],[103.4559,15.8829],[103.4556,15.8821],[103.4559,15.8815],[103.4562,15.8834],[103.457,15.8845],[103.4567,15.8864],[103.4561,15.8864],[103.4559,15.8869],[103.4545,15.8869]],[[103.4539,15.8821],[103.4542,15.8823],[103.4542,15.8821],[103.4539,15.8821]]]}},{"type":"Feature","properties":{"kind":"seasonal","area_km2":0.155,"date":"2026-10-02"},"geometry":{"type":"Polygon","coordinates":[[[103.5465,15.7471],[103.546,15.7463],[103.5437,15.7457],[103.5423,15.7444],[103.5421,15.743],[103.5454,15.7439],[103.5476,15.7439],[103.5473,15.7471],[103.5465,15.7471]]]}},{"type":"Feature","properties":{"kind":"seasonal","area_km2":0.153,"date":"2026-10-04"},"geometry":{"type":"Polygon","coordinates":[[[103.1717,15.5841],[103.17,15.5824],[103.1692,15.5822],[103.1692,15.5808],[103.1701,15.5797],[103.1709,15.5797],[103.1737,15.5811],[103.1728,15.5841],[103.1717,15.5841]]]}},{"type":"Feature","properties":{"kind":"seasonal","area_km2":0.149,"date":"2026-10-09"},"geometry":{"type":"Polygon","coordinates":[[[103.8986,15.4585],[103.8983,15.4574],[103.8986,15.4569],[103.8992,15.4569],[103.8994,15.456],[103.9011,15.4561],[103.9017,15.4555],[103.9036,15.4555],[103.9039,15.4561],[103.905,15.4561],[103.905,15.4569],[103.9045,15.4569],[103.9042,15.4574],[103.9028,15.4574],[103.9017,15.4582],[103.8986,15.4585]]]}},{"type":"Feature","properties":{"kind":"seasonal","area_km2":0.144,"date":"2026-10-04"},"geometry":{"type":"Polygon","coordinates":[[[103.1456,15.4109],[103.1436,15.4098],[103.1436,15.4087],[103.1445,15.4079],[103.1442,15.4063],[103.1448,15.4063],[103.1448,15.4057],[103.1464,15.406],[103.1461,15.4079],[103.147,15.4087],[103.147,15.4104],[103.1464,15.4109],[103.1456,15.4109]]]}},{"type":"Feature","properties":{"kind":"seasonal","area_km2":0.144,"date":"2026-10-09"},"geometry":{"type":"Polygon","coordinates":[[[103.7131,15.3439],[103.7114,15.3436],[103.7122,15.3428],[103.7117,15.3411],[103.7156,15.3414],[103.7184,15.3425],[103.7184,15.3434],[103.7134,15.3433],[103.7131,15.3439]],[[103.7145,15.3425],[103.7156,15.3425],[103.7156,15.342],[103.7148,15.3417],[103.7142,15.342],[103.7145,15.3425]],[[103.7159,15.3423],[103.7162,15.3425],[103.7162,15.3423],[103.7159,15.3423]]]}},{"type":"Feature","properties":{"kind":"seasonal","area_km2":0.143,"date":"2026-10-04"},"geometry":{"type":"Polygon","coordinates":[[[103.44,15.4641],[103.4398,15.462],[103.4403,15.4617],[103.4406,15.4603],[103.442,15.4593],[103.442,15.4585],[103.4429,15.4585],[103.4425,15.4639],[103.44,15.4641]]]}},{"type":"Feature","properties":{"kind":"seasonal","area_km2":0.14,"date":"2026-10-09"},"geometry":{"type":"Polygon","coordinates":[[[103.643,15.7242],[103.6436,15.7204],[103.6452,15.7193],[103.6464,15.7193],[103.6466,15.7204],[103.6461,15.7209],[103.6461,15.7223],[103.6455,15.7225],[103.6452,15.7239],[103.643,15.7242]]]}},{"type":"Feature","properties":{"kind":"seasonal","area_km2":0.138,"date":"2026-10-04"},"geometry":{"type":"Polygon","coordinates":[[[103.4359,15.1198],[103.4359,15.1189],[103.435,15.1189],[103.4348,15.1195],[103.4345,15.1173],[103.4339,15.1165],[103.4348,15.1132],[103.4356,15.1132],[103.4362,15.1138],[103.4364,15.1198],[103.4359,15.1198]],[[103.4348,15.1151],[103.4351,15.1154],[103.4351,15.1151],[103.4348,15.1151]]]}},{"type":"Feature","properties":{"kind":"seasonal","area_km2":0.136,"date":"2026-10-09"},"geometry":{"type":"Polygon","coordinates":[[[103.8423,15.4178],[103.8421,15.4167],[103.8429,15.4159],[103.8418,15.4156],[103.841,15.4143],[103.8393,15.414],[103.8393,15.4132],[103.8421,15.4135],[103.8432,15.4143],[103.8435,15.4151],[103.8443,15.4151],[103.8446,15.4143],[103.8454,15.4143],[103.8451,15.4164],[103.8443,15.4164],[103.8437,15.4175],[103.8423,15.4178]]]}},{"type":"Feature","properties":{"kind":"seasonal","area_km2":0.136,"date":"2026-10-04"},"geometry":{"type":"Polygon","coordinates":[[[103.4367,15.3426],[103.4359,15.3421],[103.4359,15.3413],[103.4342,15.3396],[103.4343,15.3383],[103.4348,15.3372],[103.4362,15.3372],[103.4362,15.3388],[103.437,15.3405],[103.4384,15.3413],[103.4384,15.3427],[103.4367,15.3426]]]}},{"type":"Feature","properties":{"kind":"seasonal","area_km2":0.136,"date":"2026-10-04"},"geometry":{"type":"Polygon","coordinates":[[[103.2297,15.3397],[103.2295,15.3378],[103.2289,15.3373],[103.2292,15.3368],[103.2272,15.3367],[103.227,15.3346],[103.2298,15.3338],[103.2303,15.3327],[103.2301,15.3338],[103.2306,15.3341],[103.2306,15.3357],[103.2298,15.3368],[103.2311,15.3376],[103.2311,15.3384],[103.2306,15.3389],[103.2306,15.3397],[103.2297,15.3397]],[[103.2286,15.3357],[103.23,15.3357],[103.2301,15.334],[103.2287,15.3343],[103.2298,15.3343],[103.2298,15.3354],[103.2284,15.3351],[103.2286,15.3357]]]}},{"type":"Feature","properties":{"kind":"seasonal","area_km2":0.135,"date":"2026-10-09"},"geometry":{"type":"Polygon","coordinates":[[[103.6253,15.3081],[103.6247,15.3065],[103.6239,15.3059],[103.6236,15.3043],[103.6228,15.3037],[103.6214,15.2986],[103.6223,15.2986],[103.6228,15.2991],[103.6234,15.3029],[103.6248,15.3035],[103.6248,15.304],[103.6253,15.3043],[103.6253,15.3056],[103.6267,15.3067],[103.6267,15.3073],[103.6256,15.3067],[103.6253,15.3081]]]}},{"type":"Feature","properties":{"kind":"seasonal","area_km2":0.133,"date":"2026-10-09"},"geometry":{"type":"Polygon","coordinates":[[[103.967,15.3731],[103.9664,15.3715],[103.9653,15.3704],[103.9628,15.3693],[103.9628,15.3682],[103.9645,15.3682],[103.9656,15.3688],[103.9656,15.3693],[103.9661,15.3693],[103.9664,15.3699],[103.9675,15.3699],[103.9675,15.3704],[103.9681,15.3707],[103.9681,15.3718],[103.9686,15.372],[103.9686,15.3729],[103.967,15.3731]]]}},{"type":"Feature","properties":{"kind":"seasonal","area_km2":0.132,"date":"2026-10-04"},"geometry":{"type":"Polygon","coordinates":[[[103.3669,15.661],[103.3672,15.6599],[103.3661,15.6599],[103.3661,15.658],[103.3655,15.658],[103.3655,15.6572],[103.3661,15.6566],[103.3672,15.6567],[103.3675,15.658],[103.368,15.658],[103.3683,15.6586],[103.3692,15.6578],[103.3697,15.6578],[103.3697,15.6588],[103.3714,15.658],[103.3708,15.6594],[103.3692,15.6594],[103.3686,15.6602],[103.368,15.6602],[103.3677,15.661],[103.3669,15.661]]]}},{"type":"Feature","properties":{"kind":"seasonal","area_km2":0.13,"date":"2026-10-04"},"geometry":{"type":"Polygon","coordinates":[[[103.5152,15.3895],[103.5147,15.3836],[103.5147,15.38],[103.5158,15.3803],[103.5158,15.3836],[103.5163,15.3858],[103.5163,15.3896],[103.5152,15.3895]]]}},{"type":"Feature","properties":{"kind":"seasonal","area_km2":0.129,"date":"2026-10-09"},"geometry":{"type":"Polygon","coordinates":[[[103.8323,15.4603],[103.8318,15.4598],[103.8318,15.4587],[103.8298,15.4573],[103.8295,15.456],[103.8287,15.4551],[103.8287,15.4541],[103.8301,15.4546],[103.8307,15.4552],[103.8307,15.456],[103.8332,15.4581],[103.8337,15.4582],[103.834,15.4603],[103.8323,15.4603]],[[103.8326,15.4598],[103.8329,15.46],[103.8329,15.4598],[103.8326,15.4598]],[[103.8329,15.4595],[103.8332,15.4598],[103.8332,15.4595],[103.8329,15.4595]],[[103.8307,15.4571],[103.8309,15.4573],[103.8309,15.4571],[103.8307,15.4571]],[[103.8301,15.457],[103.8307,15.4571],[103.8309,15.4565],[103.8301,15.4562],[103.8301,15.457]],[[103.8295,15.4557],[103.8298,15.456],[103.8298,15.4557],[103.8295,15.4557]],[[103.8293,15.4551],[103.8295,15.4554],[103.8295,15.4551],[103.8293,15.4551]]]}},{"type":"Feature","properties":{"kind":"seasonal","area_km2":0.127,"date":"2026-10-04"},"geometry":{"type":"Polygon","coordinates":[[[103.3865,15.8363],[103.3859,15.8357],[103.386,15.8349],[103.3848,15.8346],[103.3846,15.8341],[103.3843,15.8349],[103.3823,15.8346],[103.3818,15.8319],[103.3809,15.8322],[103.3804,15.8319],[103.3812,15.8311],[103.3846,15.8314],[103.3846,15.8319],[103.3843,15.8319],[103.3843,15.8322],[103.384,15.8322],[103.384,15.8325],[103.3837,15.8325],[103.3837,15.8327],[103.3835,15.8327],[103.3834,15.833],[103.3857,15.833],[103.3857,15.8336],[103.3862,15.8338],[103.386,15.8347],[103.3868,15.8352],[103.3865,15.8363]],[[103.3851,15.8341],[103.3857,15.8344],[103.3857,15.8341],[103.3851,15.8341]],[[103.3829,15.8341],[103.384,15.8341],[103.384,15.8336],[103.3829,15.8333],[103.3829,15.8341]],[[103.3846,15.8333],[103.3848,15.8336],[103.3848,15.8333],[103.3846,15.8333]],[[103.3829,15.8327],[103.3835,15.8327],[103.3835,15.8325],[103.3829,15.8322],[103.3829,15.8327]]]}},{"type":"Feature","properties":{"kind":"seasonal","area_km2":0.127,"date":"2026-10-09"},"geometry":{"type":"Polygon","coordinates":[[[103.7932,15.4116],[103.7926,15.4102],[103.7915,15.4091],[103.7912,15.408],[103.7907,15.4078],[103.791,15.4061],[103.7935,15.4064],[103.7935,15.408],[103.7929,15.4091],[103.794,15.4099],[103.7946,15.4116],[103.7932,15.4116]]]}},{"type":"Feature","properties":{"kind":"seasonal","area_km2":0.127,"date":"2026-10-09"},"geometry":{"type":"Polygon","coordinates":[[[103.617,15.3444],[103.6167,15.3433],[103.6158,15.3425],[103.6131,15.3419],[103.6131,15.3411],[103.6139,15.3403],[103.6173,15.3403],[103.6172,15.3425],[103.6178,15.3433],[103.6178,15.3444],[103.617,15.3444]]]}},{"type":"Feature","properties":{"kind":"seasonal","area_km2":0.127,"date":"2026-10-04"},"geometry":{"type":"Polygon","coordinates":[[[103.2535,15.3375],[103.251,15.3364],[103.2496,15.3347],[103.2482,15.3342],[103.2482,15.3334],[103.2496,15.3337],[103.2513,15.335],[103.2544,15.3351],[103.2549,15.3375],[103.2535,15.3375]]]}},{"type":"Feature","properties":{"kind":"seasonal","area_km2":0.125,"date":"2026-10-02"},"geometry":{"type":"Polygon","coordinates":[[[103.4519,15.8872],[103.4514,15.8864],[103.4503,15.8864],[103.4494,15.885],[103.448,15.885],[103.448,15.8845],[103.4466,15.8842],[103.4489,15.8842],[103.4494,15.8834],[103.4508,15.8834],[103.4511,15.8839],[103.4506,15.8842],[103.4517,15.8845],[103.4519,15.885],[103.4531,15.8845],[103.4531,15.8872],[103.4519,15.8872]]]}},{"type":"Feature","properties":{"kind":"seasonal","area_km2":0.125,"date":"2026-10-09"},"geometry":{"type":"Polygon","coordinates":[[[103.6568,15.3189],[103.656,15.3175],[103.6546,15.3186],[103.6534,15.3186],[103.6521,15.3172],[103.6521,15.3161],[103.6526,15.3156],[103.6537,15.3156],[103.6543,15.3161],[103.6574,15.317],[103.6576,15.3183],[103.6571,15.3183],[103.6568,15.3189]]]}},{"type":"Feature","properties":{"kind":"seasonal","area_km2":0.123,"date":"2026-10-09"},"geometry":{"type":"Polygon","coordinates":[[[103.6984,15.0976],[103.6976,15.0959],[103.6976,15.0946],[103.6981,15.0962],[103.7012,15.0951],[103.7048,15.0952],[103.7048,15.0957],[103.7054,15.0957],[103.7054,15.0965],[103.7048,15.0968],[103.702,15.0965],[103.7009,15.0959],[103.7003,15.0965],[103.7003,15.0976],[103.6984,15.0976]]]}},{"type":"Feature","properties":{"kind":"seasonal","area_km2":0.122,"date":"2026-10-09"},"geometry":{"type":"Polygon","coordinates":[[[103.7464,15.3874],[103.7402,15.3871],[103.7391,15.3852],[103.7391,15.3839],[103.7402,15.3839],[103.7411,15.385],[103.7416,15.385],[103.7422,15.3855],[103.7416,15.3858],[103.7419,15.3863],[103.7466,15.3866],[103.7464,15.3874]],[[103.7402,15.3866],[103.7405,15.3869],[103.7405,15.3866],[103.7402,15.3866]],[[103.743,15.3866],[103.7433,15.3869],[103.7433,15.3866],[103.743,15.3866]],[[103.7447,15.3866],[103.745,15.3869],[103.745,15.3866],[103.7447,15.3866]]]}},{"type":"Feature","properties":{"kind":"seasonal","area_km2":0.122,"date":"2026-10-09"},"geometry":{"type":"Polygon","coordinates":[[[103.6737,15.342],[103.6734,15.3409],[103.6726,15.3401],[103.672,15.3401],[103.6712,15.339],[103.6723,15.339],[103.6729,15.3382],[103.6734,15.3382],[103.6734,15.3388],[103.6748,15.3388],[103.6748,15.3382],[103.676,15.3382],[103.6765,15.3399],[103.6748,15.3412],[103.6743,15.3412],[103.6737,15.342]]]}},{"type":"Feature","properties":{"kind":"seasonal","area_km2":0.118,"date":"2026-10-04"},"geometry":{"type":"Polygon","coordinates":[[[103.4826,15.5732],[103.4826,15.5723],[103.482,15.5721],[103.482,15.5704],[103.4812,15.5704],[103.4809,15.5699],[103.4834,15.5696],[103.4831,15.5691],[103.484,15.5691],[103.4851,15.571],[103.4851,15.5726],[103.4848,15.5726],[103.4848,15.5732],[103.4826,15.5732]],[[103.4831,15.5729],[103.4837,15.5729],[103.484,15.5724],[103.4828,15.5723],[103.4831,15.5729]],[[103.4845,15.5721],[103.4848,15.5726],[103.4848,15.5721],[103.4845,15.5721]]]}},{"type":"Feature","properties":{"kind":"seasonal","area_km2":0.118,"date":"2026-10-04"},"geometry":{"type":"Polygon","coordinates":[[[103.2511,15.3201],[103.2503,15.3185],[103.2503,15.3169],[103.2498,15.3166],[103.2498,15.315],[103.2514,15.3166],[103.2531,15.3144],[103.2528,15.3161],[103.2531,15.3174],[103.2528,15.3174],[103.2525,15.318],[103.2525,15.3196],[103.2522,15.3201],[103.2511,15.3201]],[[103.252,15.3177],[103.2523,15.318],[103.2523,15.3177],[103.252,15.3177]],[[103.2517,15.3177],[103.2523,15.3174],[103.252,15.3169],[103.2517,15.3169],[103.2517,15.3177]],[[103.2525,15.3171],[103.2528,15.3174],[103.2528,15.3171],[103.2525,15.3171]],[[103.252,15.3163],[103.2523,15.3169],[103.2523,15.3163],[103.252,15.3163]],[[103.2523,15.3161],[103.2526,15.3163],[103.2526,15.3161],[103.2523,15.3161]],[[103.2526,15.3158],[103.2528,15.3161],[103.2528,15.3158],[103.2526,15.3158]]]}},{"type":"Feature","properties":{"kind":"seasonal","area_km2":0.117,"date":"2026-10-09"},"geometry":{"type":"Polygon","coordinates":[[[103.9806,15.2159],[103.98,15.2151],[103.98,15.214],[103.9817,15.2137],[103.9834,15.2126],[103.9851,15.2129],[103.9851,15.2137],[103.9842,15.2148],[103.9834,15.2148],[103.9828,15.2156],[103.9806,15.2159]]]}},{"type":"Feature","properties":{"kind":"seasonal","area_km2":0.115,"date":"2026-10-04"},"geometry":{"type":"Polygon","coordinates":[[[103.384,15.8395],[103.3831,15.8384],[103.3831,15.8373],[103.3806,15.8365],[103.3817,15.8365],[103.3837,15.8354],[103.3837,15.836],[103.3848,15.8368],[103.3848,15.8376],[103.384,15.8382],[103.3854,15.8384],[103.3854,15.8379],[103.3879,15.8376],[103.3879,15.839],[103.384,15.8395]],[[103.384,15.8387],[103.3842,15.839],[103.3842,15.8387],[103.384,15.8387]],[[103.3848,15.8387],[103.3854,15.839],[103.3854,15.8387],[103.3848,15.8387]],[[103.3854,15.8384],[103.3873,15.8387],[103.3873,15.8382],[103.3854,15.8384]]]}},{"type":"Feature","properties":{"kind":"seasonal","area_km2":0.113,"date":"2026-10-04"},"geometry":{"type":"Polygon","coordinates":[[[103.0959,15.9743],[103.0954,15.9735],[103.0945,15.9735],[103.0945,15.9722],[103.0951,15.9716],[103.0959,15.9716],[103.0962,15.9711],[103.0968,15.9711],[103.0965,15.9716],[103.0971,15.9716],[103.097,15.9725],[103.0979,15.9733],[103.099,15.9733],[103.0996,15.9728],[103.1012,15.973],[103.099,15.9741],[103.0959,15.9743]],[[103.0968,15.973],[103.0973,15.9733],[103.0973,15.973],[103.0968,15.973]]]}},{"type":"Feature","properties":{"kind":"seasonal","area_km2":0.111,"date":"2026-10-09"},"geometry":{"type":"Polygon","coordinates":[[[103.9357,15.137],[103.9324,15.1359],[103.9324,15.1343],[103.9332,15.1335],[103.9343,15.1335],[103.9343,15.1343],[103.9369,15.1351],[103.9368,15.1368],[103.9357,15.137]],[[103.9352,15.1362],[103.9354,15.1365],[103.9355,15.1362],[103.9352,15.1362]],[[103.9357,15.1362],[103.936,15.1365],[103.936,15.1362],[103.9357,15.1362]],[[103.9349,15.1359],[103.9352,15.1362],[103.9352,15.1359],[103.9349,15.1359]],[[103.9355,15.1357],[103.9357,15.1362],[103.936,15.1357],[103.9355,15.1357]],[[103.936,15.1354],[103.9363,15.1357],[103.9363,15.1354],[103.936,15.1354]],[[103.9343,15.1346],[103.9346,15.1349],[103.9346,15.1346],[103.9343,15.1346]],[[103.9341,15.1343],[103.9343,15.1346],[103.9343,15.1343],[103.9341,15.1343]]]}},{"type":"Feature","properties":{"kind":"seasonal","area_km2":0.108,"date":"2026-10-04"},"geometry":{"type":"Polygon","coordinates":[[[103.3178,15.9144],[103.315,15.9141],[103.315,15.913],[103.3153,15.9122],[103.3164,15.9114],[103.3164,15.9106],[103.3173,15.9106],[103.3184,15.9119],[103.3184,15.9133],[103.3178,15.9144]]]}},{"type":"Feature","properties":{"kind":"seasonal","area_km2":0.107,"date":"2026-10-04"},"geometry":{"type":"Polygon","coordinates":[[[103.0343,15.4479],[103.0337,15.4471],[103.0321,15.4462],[103.0307,15.4462],[103.0309,15.4457],[103.0304,15.4457],[103.0301,15.4465],[103.0293,15.4465],[103.029,15.4446],[103.0298,15.4443],[103.0312,15.4446],[103.0315,15.4441],[103.0321,15.4441],[103.0326,15.4446],[103.0326,15.4454],[103.0335,15.4452],[103.0343,15.446],[103.0343,15.4479]],[[103.0309,15.4454],[103.0315,15.4457],[103.0315,15.4454],[103.0309,15.4454]],[[103.0315,15.4454],[103.0321,15.4454],[103.0321,15.4449],[103.0318,15.4449],[103.0315,15.4454]],[[103.0298,15.4446],[103.0301,15.4449],[103.0301,15.4446],[103.0298,15.4446]]]}},{"type":"Feature","properties":{"kind":"seasonal","area_km2":0.107,"date":"2026-10-09"},"geometry":{"type":"Polygon","coordinates":[[[103.6618,15.4518],[103.6624,15.4507],[103.661,15.4504],[103.661,15.4485],[103.6602,15.448],[103.6613,15.4471],[103.6627,15.4474],[103.6627,15.448],[103.6643,15.4496],[103.6643,15.4501],[103.6635,15.4501],[103.6632,15.4512],[103.6618,15.4518]],[[103.6618,15.4501],[103.6624,15.4504],[103.6624,15.4501],[103.6618,15.4501]],[[103.6629,15.4488],[103.6632,15.4493],[103.6632,15.4488],[103.6629,15.4488]],[[103.6618,15.4477],[103.6621,15.4488],[103.6627,15.448],[103.6618,15.4477]]]}},{"type":"Feature","properties":{"kind":"seasonal","area_km2":0.106,"date":"2026-10-09"},"geometry":{"type":"Polygon","coordinates":[[[103.7105,15.5865],[103.7105,15.5849],[103.711,15.5849],[103.7116,15.5841],[103.713,15.5838],[103.7144,15.5825],[103.7152,15.5825],[103.715,15.5844],[103.713,15.5852],[103.7124,15.586],[103.7105,15.5865]]]}},{"type":"Feature","properties":{"kind":"seasonal","area_km2":0.106,"date":"2026-10-09"},"geometry":{"type":"Polygon","coordinates":[[[103.6672,15.4437],[103.6663,15.4423],[103.6664,15.4412],[103.6675,15.4409],[103.668,15.4401],[103.6692,15.4401],[103.6697,15.4437],[103.6672,15.4437]]]}},{"type":"Feature","properties":{"kind":"seasonal","area_km2":0.105,"date":"2026-10-09"},"geometry":{"type":"Polygon","coordinates":[[[103.9311,15.4416],[103.9311,15.4407],[103.9328,15.4405],[103.9334,15.4394],[103.9376,15.44],[103.9375,15.4408],[103.9361,15.4408],[103.935,15.4416],[103.9311,15.4416]]]}},{"type":"Feature","properties":{"kind":"seasonal","area_km2":0.103,"date":"2026-10-04"},"geometry":{"type":"Polygon","coordinates":[[[103.1891,15.3581],[103.1888,15.3565],[103.191,15.3557],[103.1913,15.3552],[103.1924,15.3552],[103.1933,15.356],[103.1933,15.3568],[103.1927,15.3568],[103.1921,15.3576],[103.1907,15.3581],[103.1891,15.3581]]]}},{"type":"Feature","properties":{"kind":"seasonal","area_km2":0.102,"date":"2026-10-04"},"geometry":{"type":"Polygon","coordinates":[[[103.0572,15.4448],[103.0572,15.4438],[103.0567,15.4435],[103.0561,15.4421],[103.0542,15.441],[103.0539,15.4391],[103.0548,15.4389],[103.0548,15.4397],[103.0553,15.4397],[103.0553,15.4389],[103.0559,15.4389],[103.0559,15.4405],[103.057,15.4413],[103.0583,15.4438],[103.0583,15.4446],[103.0572,15.4448]],[[103.0564,15.4421],[103.0567,15.4424],[103.0567,15.4421],[103.0564,15.4421]],[[103.0559,15.4413],[103.0561,15.4416],[103.0561,15.4413],[103.0559,15.4413]],[[103.0545,15.4405],[103.0547,15.4408],[103.0547,15.4405],[103.0545,15.4405]]]}},{"type":"Feature","properties":{"kind":"seasonal","area_km2":0.102,"date":"2026-10-09"},"geometry":{"type":"Polygon","coordinates":[[[103.6861,15.2773],[103.6853,15.2765],[103.6847,15.2764],[103.6847,15.2754],[103.6858,15.2746],[103.6861,15.2737],[103.6875,15.2738],[103.6881,15.2748],[103.6881,15.2765],[103.6875,15.2765],[103.6869,15.2773],[103.6861,15.2773]]]}},{"type":"Feature","properties":{"kind":"seasonal","area_km2":0.1,"date":"2026-10-04"},"geometry":{"type":"Polygon","coordinates":[[[103.3807,15.474],[103.3807,15.4713],[103.3846,15.4716],[103.3846,15.4724],[103.384,15.4724],[103.3832,15.4735],[103.3807,15.474]]]}}]}
