{"type":"FeatureCollection","properties":{"v":3,"id":"t103_18","name":"บึงกาฬ · หนองคาย · สกลนคร","aoi":[103.025,18.0,104.0,18.461],"date":"2026-10-08","dates":["2026-10-08","2026-10-05"],"baseline_years":3,"has_seasonal":true,"totals":{"flood_high":0.0,"flood_low":1.2,"seasonal":25.2},"provinces":[{"name":"บึงกาฬ","zone":"th-ne","flood_high":0.0,"flood_low":1.0,"seasonal":19.8},{"name":"หนองคาย","zone":"th-ne","flood_high":0.0,"flood_low":0.2,"seasonal":3.4},{"name":"สกลนคร","zone":"th-ne","flood_high":0.0,"flood_low":0.0,"seasonal":2.0}],"scenes":{"2026-10-08":1,"2026-10-05":1},"baseline_dates":["2025-10-09","2024-10-02","2023-10-08"],"threshold_db":-15.0,"auto":true,"source":"Sentinel-1 RTC (Copernicus/ESA) via Microsoft Planetary Computer; JRC Global Surface Water; Copernicus DEM","method":"ChatGeo v3: Otsu threshold on VV dB; minus JRC permanent water and slope > 5 deg; unusual = water not present in most of the previous 3 years (same season)","added":"2026-10-10T03:24+07:00"},"features":[{"type":"Feature","properties":{"kind":"flood","area_km2":0.31,"conf":"low","date":"2026-10-05"},"geometry":{"type":"Polygon","coordinates":[[[103.4313,18.3985],[103.4307,18.3979],[103.4307,18.3952],[103.4313,18.3944],[103.4322,18.3942],[103.4322,18.3933],[103.4313,18.3931],[103.4313,18.392],[103.4322,18.3912],[103.4339,18.3917],[103.4342,18.3912],[103.435,18.3912],[103.4359,18.3901],[103.4362,18.3912],[103.4353,18.3917],[103.4353,18.3926],[103.4373,18.3937],[103.4384,18.3956],[103.4361,18.395],[103.4355,18.3961],[103.435,18.3961],[103.4347,18.3947],[103.4358,18.3947],[103.4359,18.3934],[103.4344,18.3931],[103.4344,18.3942],[103.4336,18.3942],[103.433,18.3947],[103.433,18.3961],[103.4341,18.3963],[103.4341,18.3974],[103.4347,18.3977],[103.4341,18.3982],[103.4313,18.3985]]]}},{"type":"Feature","properties":{"kind":"flood","area_km2":0.237,"conf":"low","date":"2026-10-05"},"geometry":{"type":"Polygon","coordinates":[[[103.6561,18.3633],[103.6544,18.3631],[103.6545,18.362],[103.655,18.3617],[103.655,18.3612],[103.6562,18.3612],[103.6562,18.3604],[103.6567,18.3604],[103.6573,18.3593],[103.6579,18.3593],[103.6607,18.3571],[103.6622,18.3572],[103.6621,18.3582],[103.6627,18.3588],[103.6624,18.3601],[103.6613,18.3607],[103.6613,18.3599],[103.6599,18.3598],[103.6599,18.3604],[103.659,18.3604],[103.6584,18.3609],[103.6584,18.3623],[103.659,18.3626],[103.6561,18.3633]],[[103.6562,18.3623],[103.657,18.3623],[103.6567,18.3612],[103.6562,18.3612],[103.6562,18.3623]]]}},{"type":"Feature","properties":{"kind":"flood","area_km2":0.197,"conf":"low","date":"2026-10-08"},"geometry":{"type":"Polygon","coordinates":[[[103.9958,18.0493],[103.9955,18.0482],[103.9964,18.0482],[103.9964,18.0477],[103.9978,18.0477],[103.9987,18.0442],[104.0001,18.0442],[104.0018,18.0428],[104.0018,18.0423],[104.0027,18.0423],[104.0026,18.0447],[104.0007,18.0447],[104.0007,18.0461],[104.0001,18.0466],[104.0001,18.048],[104.0006,18.048],[104.0006,18.0488],[103.9995,18.0491],[103.9995,18.0474],[103.9981,18.0474],[103.9981,18.0488],[103.9989,18.0488],[103.9987,18.0493],[103.9958,18.0493]]]}},{"type":"Feature","properties":{"kind":"flood","area_km2":0.145,"conf":"low","date":"2026-10-08"},"geometry":{"type":"Polygon","coordinates":[[[103.3566,18.2211],[103.3563,18.2192],[103.3543,18.2187],[103.3543,18.2179],[103.3552,18.2179],[103.3552,18.2173],[103.3563,18.2171],[103.3566,18.2181],[103.3589,18.2184],[103.3592,18.2171],[103.3603,18.2163],[103.3603,18.2157],[103.3611,18.2157],[103.3614,18.2168],[103.3609,18.2171],[103.3608,18.2182],[103.3603,18.2184],[103.3603,18.219],[103.3586,18.2187],[103.358,18.2192],[103.358,18.2209],[103.3566,18.2211]]]}},{"type":"Feature","properties":{"kind":"flood","area_km2":0.095,"conf":"low","date":"2026-10-08"},"geometry":{"type":"Polygon","coordinates":[[[103.4957,18.0694],[103.496,18.0675],[103.4974,18.0675],[103.4969,18.0661],[103.4977,18.0659],[103.498,18.0664],[103.4989,18.0664],[103.4994,18.0689],[103.498,18.0694],[103.4957,18.0694]],[[103.4969,18.0683],[103.4971,18.0686],[103.4971,18.0683],[103.4969,18.0683]]]}},{"type":"Feature","properties":{"kind":"flood","area_km2":0.076,"conf":"low","date":"2026-10-08"},"geometry":{"type":"Polygon","coordinates":[[[103.6129,18.0472],[103.6127,18.0448],[103.6135,18.0448],[103.6135,18.0437],[103.6152,18.0437],[103.6158,18.0451],[103.6141,18.0453],[103.6144,18.0472],[103.6129,18.0472]]]}},{"type":"Feature","properties":{"kind":"flood","area_km2":0.073,"conf":"low","date":"2026-10-08"},"geometry":{"type":"Polygon","coordinates":[[[103.14,18.0728],[103.1397,18.072],[103.1392,18.072],[103.1392,18.0709],[103.1381,18.0706],[103.1381,18.0692],[103.1389,18.0693],[103.1389,18.0698],[103.1395,18.0693],[103.1403,18.0693],[103.1403,18.0698],[103.1409,18.0701],[103.1406,18.0712],[103.1412,18.0725],[103.14,18.0728]],[[103.1403,18.0712],[103.1406,18.0714],[103.1406,18.0712],[103.1403,18.0712]],[[103.1389,18.0703],[103.1392,18.0706],[103.1392,18.0703],[103.1389,18.0703]]]}},{"type":"Feature","properties":{"kind":"flood","area_km2":0.053,"conf":"low","date":"2026-10-05"},"geometry":{"type":"Polygon","coordinates":[[[103.6666,18.3355],[103.666,18.3333],[103.6666,18.3333],[103.6675,18.3325],[103.668,18.3306],[103.6686,18.3304],[103.6686,18.3323],[103.6669,18.3344],[103.6666,18.3355]]]}},{"type":"Feature","properties":{"kind":"seasonal","area_km2":3.583,"date":"2026-10-08"},"geometry":{"type":"Polygon","coordinates":[[[103.4866,18.0772],[103.4866,18.0764],[103.4874,18.0761],[103.4874,18.075],[103.4863,18.0747],[103.4863,18.0734],[103.4855,18.0736],[103.4858,18.0723],[103.4846,18.0712],[103.4847,18.0701],[103.4841,18.0698],[103.4838,18.0704],[103.483,18.0704],[103.4818,18.0693],[103.4796,18.0693],[103.4784,18.0687],[103.4784,18.0671],[103.479,18.0665],[103.4799,18.0665],[103.4813,18.0652],[103.4813,18.0647],[103.479,18.0649],[103.4788,18.0638],[103.4785,18.0657],[103.4776,18.0657],[103.4776,18.0644],[103.4762,18.0643],[103.4759,18.0638],[103.4751,18.0638],[103.4751,18.0627],[103.4759,18.0627],[103.4759,18.0622],[103.4725,18.063],[103.4725,18.0608],[103.4751,18.0605],[103.4754,18.0587],[103.4765,18.0584],[103.4765,18.0578],[103.476,18.0578],[103.476,18.0568],[103.4751,18.0562],[103.4751,18.0551],[103.476,18.0546],[103.4757,18.0532],[103.4763,18.0516],[103.4777,18.0516],[103.478,18.053],[103.4786,18.053],[103.4786,18.0522],[103.4794,18.0522],[103.4797,18.0527],[103.4811,18.0527],[103.4808,18.0538],[103.4769,18.0543],[103.4768,18.057],[103.4808,18.056],[103.482,18.053],[103.4814,18.0525],[103.4814,18.0514],[103.4828,18.0517],[103.4834,18.0525],[103.4851,18.0519],[103.4848,18.0547],[103.4871,18.0547],[103.487,18.056],[103.4885,18.0555],[103.4893,18.0539],[103.4899,18.0539],[103.4902,18.0533],[103.4913,18.0534],[103.4919,18.0558],[103.491,18.0558],[103.491,18.0563],[103.4921,18.0563],[103.4921,18.0572],[103.4913,18.0571],[103.4913,18.058],[103.4933,18.0591],[103.493,18.0601],[103.4935,18.0601],[103.4938,18.0623],[103.4944,18.0623],[103.4955,18.0642],[103.496,18.0642],[103.496,18.065],[103.4966,18.0651],[103.4966,18.0661],[103.4949,18.0664],[103.494,18.0675],[103.494,18.0688],[103.4935,18.0691],[103.4934,18.0696],[103.4943,18.0699],[103.4943,18.0691],[103.496,18.0675],[103.496,18.0688],[103.4949,18.0699],[103.4943,18.0724],[103.4937,18.0726],[103.4937,18.0745],[103.4928,18.0745],[103.4928,18.0737],[103.4923,18.0734],[103.4914,18.0742],[103.4914,18.0748],[103.4906,18.0748],[103.4894,18.0758],[103.4894,18.0772],[103.4866,18.0772]],[[103.485,18.0679],[103.4852,18.0682],[103.4852,18.0679],[103.485,18.0679]],[[103.485,18.0669],[103.4855,18.0671],[103.4855,18.0669],[103.485,18.0669]],[[103.4847,18.0669],[103.485,18.0655],[103.4855,18.0655],[103.4856,18.065],[103.4844,18.065],[103.4847,18.0669]],[[103.4895,18.0655],[103.4904,18.0653],[103.4904,18.0628],[103.4918,18.0628],[103.4921,18.0623],[103.4904,18.062],[103.4901,18.0607],[103.4867,18.0601],[103.4867,18.0596],[103.4856,18.059],[103.4859,18.0606],[103.4864,18.0612],[103.4881,18.0612],[103.4881,18.062],[103.487,18.0623],[103.487,18.0628],[103.4898,18.0628],[103.4898,18.0642],[103.4892,18.0647],[103.4895,18.0655]],[[103.4841,18.0647],[103.4844,18.065],[103.4844,18.0647],[103.4841,18.0647]],[[103.4822,18.0639],[103.4824,18.0641],[103.4824,18.0639],[103.4822,18.0639]],[[103.4833,18.0639],[103.4836,18.0641],[103.4836,18.0639],[103.4833,18.0639]],[[103.4816,18.0638],[103.4822,18.0639],[103.4822,18.0633],[103.4816,18.0633],[103.4816,18.0638]],[[103.4824,18.0636],[103.4827,18.0639],[103.4827,18.0636],[103.4824,18.0636]],[[103.489,18.0634],[103.4892,18.0636],[103.4892,18.0634],[103.489,18.0634]],[[103.4825,18.0617],[103.4833,18.0614],[103.4833,18.0609],[103.4825,18.0609],[103.4825,18.0617]],[[103.4759,18.0611],[103.4768,18.0611],[103.4768,18.0606],[103.476,18.0606],[103.4759,18.0611]],[[103.4924,18.0601],[103.493,18.0604],[103.493,18.0601],[103.4924,18.0601]],[[103.4899,18.0563],[103.4904,18.0588],[103.4904,18.0563],[103.4899,18.0563]],[[103.4831,18.0576],[103.4836,18.0579],[103.4836,18.0576],[103.4831,18.0576]],[[103.4853,18.0557],[103.4856,18.056],[103.4856,18.0557],[103.4853,18.0557]],[[103.4856,18.0555],[103.4859,18.0558],[103.4859,18.0555],[103.4856,18.0555]],[[103.4819,18.0552],[103.4822,18.0555],[103.4822,18.0552],[103.4819,18.0552]],[[103.4848,18.0549],[103.4851,18.0552],[103.4851,18.0549],[103.4848,18.0549]],[[103.4856,18.0549],[103.4859,18.0552],[103.4859,18.0549],[103.4856,18.0549]],[[103.4893,18.0542],[103.4896,18.0544],[103.4896,18.0542],[103.4893,18.0542]]]}},{"type":"Feature","properties":{"kind":"seasonal","area_km2":2.4,"date":"2026-10-08"},"geometry":{"type":"Polygon","coordinates":[[[103.5415,18.1508],[103.5415,18.1502],[103.5407,18.15],[103.5407,18.1492],[103.5396,18.1486],[103.5399,18.1467],[103.5393,18.1467],[103.5393,18.1451],[103.5402,18.1445],[103.5402,18.144],[103.5379,18.1415],[103.5379,18.1402],[103.5391,18.1402],[103.539,18.1413],[103.5399,18.141],[103.5393,18.1405],[103.5393,18.1397],[103.5413,18.1394],[103.5413,18.138],[103.5402,18.138],[103.5402,18.1372],[103.5411,18.137],[103.5405,18.1353],[103.5422,18.1356],[103.5425,18.1351],[103.5425,18.1334],[103.5411,18.1332],[103.5411,18.1324],[103.542,18.1321],[103.5417,18.1299],[103.5428,18.1291],[103.5414,18.1288],[103.5417,18.1275],[103.54,18.1269],[103.54,18.1264],[103.5395,18.1261],[103.5398,18.125],[103.5409,18.125],[103.5409,18.1242],[103.5395,18.1239],[103.5395,18.1223],[103.5412,18.122],[103.5415,18.1212],[103.5409,18.121],[103.5409,18.1202],[103.5429,18.1196],[103.5429,18.1191],[103.5424,18.1191],[103.5424,18.118],[103.5432,18.118],[103.5435,18.1175],[103.5432,18.1153],[103.5438,18.1153],[103.5449,18.1142],[103.5449,18.1137],[103.5438,18.1131],[103.5435,18.1137],[103.5421,18.1139],[103.5421,18.1166],[103.5409,18.1188],[103.5401,18.1188],[103.5401,18.1177],[103.5412,18.1166],[103.5413,18.1147],[103.5398,18.115],[103.5398,18.1136],[103.5393,18.1134],[103.5393,18.1125],[103.5401,18.1123],[103.541,18.1123],[103.541,18.1128],[103.5418,18.1126],[103.5418,18.112],[103.5407,18.1115],[103.5407,18.1107],[103.5419,18.1099],[103.5427,18.1099],[103.5427,18.1104],[103.5433,18.1104],[103.5433,18.1115],[103.5444,18.1118],[103.5444,18.1112],[103.5453,18.1112],[103.5455,18.1121],[103.5467,18.1121],[103.5467,18.1131],[103.5472,18.1113],[103.5478,18.1113],[103.5481,18.1107],[103.5495,18.111],[103.5495,18.1118],[103.5486,18.1123],[103.5481,18.1145],[103.5466,18.1148],[103.5457,18.1199],[103.5438,18.1196],[103.5435,18.1202],[103.5435,18.121],[103.5443,18.121],[103.544,18.1221],[103.5435,18.1223],[103.5437,18.1237],[103.5452,18.1229],[103.546,18.1229],[103.5454,18.1234],[103.5454,18.124],[103.5463,18.1237],[103.5466,18.1243],[103.546,18.1262],[103.5465,18.1262],[103.5468,18.1256],[103.548,18.1259],[103.548,18.1267],[103.5457,18.128],[103.546,18.1294],[103.5465,18.1294],[103.5465,18.13],[103.546,18.1297],[103.5459,18.1302],[103.5465,18.1305],[103.5462,18.1316],[103.5465,18.1327],[103.5471,18.1329],[103.5471,18.1338],[103.5459,18.1343],[103.5459,18.1348],[103.5465,18.1348],[103.5462,18.1375],[103.5448,18.1375],[103.5447,18.1386],[103.5459,18.1386],[103.5462,18.1397],[103.5473,18.1394],[103.5476,18.14],[103.5484,18.14],[103.549,18.1405],[103.549,18.1416],[103.5484,18.1422],[103.5487,18.1449],[103.547,18.1449],[103.5467,18.1454],[103.5453,18.1454],[103.545,18.1448],[103.5444,18.1448],[103.5441,18.1467],[103.5433,18.147],[103.5438,18.15],[103.5432,18.15],[103.5427,18.1508],[103.5415,18.1508]],[[103.541,18.1489],[103.5415,18.1489],[103.5415,18.1483],[103.541,18.1483],[103.541,18.1489]],[[103.5458,18.1443],[103.5467,18.1438],[103.5464,18.1424],[103.5458,18.1424],[103.5458,18.1443]],[[103.5422,18.1435],[103.543,18.1435],[103.543,18.1429],[103.5422,18.1429],[103.5422,18.1435]],[[103.5413,18.1427],[103.5419,18.1427],[103.5419,18.1421],[103.5413,18.1421],[103.5413,18.1427]],[[103.5464,18.1413],[103.547,18.1413],[103.5473,18.1408],[103.5464,18.1408],[103.5464,18.1413]],[[103.5413,18.1408],[103.5422,18.1408],[103.5427,18.14],[103.5413,18.1402],[103.5413,18.1408]],[[103.5442,18.1389],[103.5445,18.1394],[103.5447,18.1389],[103.5442,18.1389]],[[103.5425,18.137],[103.5428,18.1375],[103.5428,18.137],[103.5425,18.137]],[[103.5453,18.137],[103.5456,18.1373],[103.5456,18.137],[103.5453,18.137]],[[103.5434,18.1332],[103.5437,18.1335],[103.5437,18.1332],[103.5434,18.1332]],[[103.5448,18.1329],[103.5454,18.1329],[103.5457,18.1305],[103.5445,18.1299],[103.5431,18.1299],[103.5431,18.1307],[103.5445,18.131],[103.5448,18.1329]],[[103.5428,18.1316],[103.5437,18.1318],[103.5437,18.1316],[103.5428,18.1316]],[[103.544,18.1291],[103.5448,18.1291],[103.5445,18.128],[103.5437,18.128],[103.544,18.1291]],[[103.5454,18.1243],[103.5457,18.1245],[103.5457,18.1243],[103.5454,18.1243]],[[103.5415,18.1234],[103.5417,18.1237],[103.5417,18.1234],[103.5415,18.1234]],[[103.5432,18.1226],[103.5435,18.1229],[103.5435,18.1226],[103.5432,18.1226]],[[103.5432,18.1215],[103.5435,18.121],[103.5426,18.1207],[103.5426,18.1212],[103.5432,18.1215]],[[103.5441,18.1188],[103.5449,18.1191],[103.5449,18.1188],[103.5441,18.1188]],[[103.5415,18.1158],[103.5418,18.1161],[103.5418,18.1158],[103.5415,18.1158]],[[103.5407,18.1128],[103.541,18.1131],[103.541,18.1128],[103.5407,18.1128]],[[103.5401,18.1126],[103.5404,18.1128],[103.5404,18.1126],[103.5401,18.1126]],[[103.5472,18.1123],[103.5478,18.1126],[103.5478,18.1123],[103.5472,18.1123]],[[103.5478,18.1121],[103.5481,18.1123],[103.5481,18.1121],[103.5478,18.1121]],[[103.5478,18.1115],[103.5481,18.1118],[103.5481,18.1115],[103.5478,18.1115]]]}},{"type":"Feature","properties":{"kind":"seasonal","area_km2":1.654,"date":"2026-10-08"},"geometry":{"type":"Polygon","coordinates":[[[103.6304,18.0294],[103.6301,18.0284],[103.6295,18.0281],[103.6278,18.0283],[103.6273,18.0273],[103.6276,18.0256],[103.6262,18.0248],[103.6245,18.0251],[103.6239,18.0245],[103.6216,18.0245],[103.6202,18.0253],[103.6171,18.0253],[103.6162,18.0245],[103.6163,18.022],[103.6171,18.0201],[103.618,18.0199],[103.618,18.0188],[103.6197,18.018],[103.6205,18.018],[103.6205,18.0185],[103.6211,18.0188],[103.6211,18.0175],[103.6251,18.0169],[103.6251,18.0183],[103.6256,18.0183],[103.6259,18.0172],[103.6271,18.0172],[103.6271,18.0183],[103.6259,18.0186],[103.6262,18.0194],[103.6273,18.0197],[103.629,18.0191],[103.6293,18.0186],[103.629,18.0181],[103.6273,18.018],[103.6273,18.017],[103.6282,18.017],[103.6288,18.0164],[103.6333,18.0165],[103.6333,18.0173],[103.6327,18.0175],[103.633,18.0181],[103.6339,18.0178],[103.6336,18.0173],[103.6344,18.0173],[103.6347,18.0186],[103.6364,18.0192],[103.6319,18.0194],[103.6313,18.02],[103.6321,18.0202],[103.6321,18.0208],[103.633,18.02],[103.6347,18.0197],[103.6384,18.0197],[103.6389,18.0203],[103.6395,18.02],[103.6401,18.0206],[103.6401,18.0217],[103.6392,18.0216],[103.6392,18.0208],[103.6381,18.0206],[103.6381,18.02],[103.6375,18.0203],[103.6372,18.0216],[103.6361,18.0216],[103.6347,18.0205],[103.6336,18.0205],[103.6335,18.0224],[103.6315,18.0235],[103.631,18.0246],[103.6318,18.027],[103.6332,18.0276],[103.6332,18.0284],[103.6315,18.0281],[103.6309,18.0284],[103.6312,18.0295],[103.6304,18.0294]],[[103.6301,18.0281],[103.6307,18.0281],[103.6307,18.0276],[103.6304,18.0276],[103.6301,18.0281]],[[103.6222,18.024],[103.6228,18.0242],[103.6228,18.024],[103.6222,18.024]],[[103.6202,18.0221],[103.6205,18.0226],[103.6205,18.0221],[103.6202,18.0221]],[[103.625,18.0218],[103.6253,18.0224],[103.6253,18.0218],[103.625,18.0218]],[[103.6233,18.0221],[103.6245,18.0221],[103.6245,18.0218],[103.6233,18.0215],[103.6233,18.0221]],[[103.6307,18.0221],[103.6316,18.0221],[103.6316,18.0216],[103.631,18.0216],[103.6307,18.0221]],[[103.6248,18.0218],[103.625,18.0213],[103.6256,18.0213],[103.6256,18.0205],[103.6245,18.021],[103.6248,18.0218]],[[103.6262,18.0202],[103.6268,18.0205],[103.6268,18.0202],[103.6262,18.0202]]]}},{"type":"Feature","properties":{"kind":"seasonal","area_km2":1.491,"date":"2026-10-08"},"geometry":{"type":"Polygon","coordinates":[[[103.4858,18.0387],[103.4852,18.0381],[103.4858,18.0349],[103.4852,18.0351],[103.485,18.0343],[103.4844,18.0343],[103.4844,18.0349],[103.4835,18.0349],[103.4835,18.0365],[103.4844,18.0365],[103.4838,18.0373],[103.4813,18.037],[103.4807,18.0381],[103.4781,18.0378],[103.477,18.0364],[103.477,18.0348],[103.4765,18.0343],[103.4776,18.0343],[103.4779,18.0351],[103.4787,18.0351],[103.4787,18.0364],[103.4793,18.0365],[103.4793,18.0354],[103.4799,18.0348],[103.481,18.0348],[103.4815,18.0362],[103.4816,18.0348],[103.4818,18.0343],[103.4827,18.0343],[103.4836,18.0324],[103.4844,18.0324],[103.4844,18.0335],[103.4847,18.0327],[103.4864,18.0324],[103.4864,18.0305],[103.4878,18.0306],[103.4881,18.0292],[103.4839,18.0294],[103.4839,18.0284],[103.483,18.0283],[103.4828,18.0273],[103.4824,18.03],[103.4807,18.0302],[103.4802,18.0286],[103.4808,18.0281],[103.4816,18.0281],[103.4816,18.0267],[103.4805,18.027],[103.4805,18.0251],[103.4825,18.0251],[103.4825,18.0259],[103.4836,18.0256],[103.4839,18.024],[103.4831,18.0237],[103.4831,18.0229],[103.4848,18.0229],[103.4851,18.024],[103.4862,18.0246],[103.4865,18.0238],[103.4856,18.0235],[103.4856,18.0227],[103.4862,18.0224],[103.4862,18.0232],[103.487,18.0232],[103.4876,18.0227],[103.4876,18.0219],[103.4885,18.0213],[103.4888,18.02],[103.4896,18.02],[103.4899,18.0205],[103.4899,18.0197],[103.491,18.0197],[103.491,18.0203],[103.4916,18.0206],[103.493,18.0206],[103.493,18.0222],[103.4899,18.0222],[103.4902,18.0233],[103.4913,18.0233],[103.4921,18.0238],[103.4921,18.0249],[103.491,18.0252],[103.4904,18.026],[103.4899,18.026],[103.4898,18.0265],[103.4913,18.0268],[103.4915,18.0295],[103.4921,18.03],[103.4927,18.0295],[103.4938,18.0295],[103.4938,18.0303],[103.4932,18.0303],[103.4929,18.032],[103.4921,18.0322],[103.4921,18.0336],[103.4906,18.0336],[103.4906,18.0341],[103.4912,18.0341],[103.4912,18.0349],[103.4901,18.0352],[103.4889,18.0363],[103.4881,18.0362],[103.4878,18.0368],[103.4869,18.0368],[103.4872,18.0387],[103.4858,18.0387]],[[103.4832,18.0365],[103.4835,18.0368],[103.4835,18.0365],[103.4832,18.0365]],[[103.4858,18.0354],[103.4861,18.0357],[103.4861,18.0354],[103.4858,18.0354]],[[103.4861,18.0352],[103.4864,18.0354],[103.4864,18.0352],[103.4861,18.0352]],[[103.4864,18.0343],[103.4869,18.0341],[103.487,18.0333],[103.4881,18.0327],[103.4884,18.0311],[103.4873,18.0316],[103.4864,18.0333],[103.4864,18.0343]],[[103.4855,18.0338],[103.4861,18.0341],[103.4861,18.0338],[103.4855,18.0338]],[[103.4912,18.0314],[103.4918,18.0319],[103.4918,18.0314],[103.4912,18.0314]],[[103.4881,18.0308],[103.4884,18.03],[103.489,18.03],[103.4898,18.0292],[103.4884,18.0295],[103.4881,18.0308]],[[103.489,18.0289],[103.4895,18.0287],[103.4896,18.0279],[103.4887,18.0284],[103.489,18.0289]],[[103.4859,18.027],[103.4862,18.0278],[103.4862,18.027],[103.4859,18.027]],[[103.485,18.0262],[103.4853,18.0267],[103.4856,18.0262],[103.485,18.0262]],[[103.4879,18.0268],[103.489,18.0265],[103.4887,18.0254],[103.4862,18.0246],[103.4859,18.0251],[103.4873,18.0251],[103.487,18.0262],[103.4879,18.0268]]]}},{"type":"Feature","properties":{"kind":"seasonal","area_km2":1.339,"date":"2026-10-08"},"geometry":{"type":"Polygon","coordinates":[[[103.5289,18.1374],[103.5286,18.1355],[103.5277,18.1369],[103.5269,18.1363],[103.5275,18.136],[103.5272,18.1355],[103.5263,18.1355],[103.5266,18.1366],[103.5258,18.1366],[103.5252,18.1358],[103.5232,18.1363],[103.5232,18.1336],[103.5244,18.1333],[103.5247,18.1317],[103.5258,18.1317],[103.5261,18.1309],[103.5261,18.1303],[103.5253,18.1298],[103.5253,18.129],[103.5247,18.129],[103.5247,18.1295],[103.5238,18.1295],[103.5253,18.1255],[103.5264,18.1255],[103.5258,18.1276],[103.5267,18.1276],[103.5267,18.1265],[103.5276,18.1263],[103.5281,18.1249],[103.5281,18.1228],[103.529,18.1225],[103.529,18.1217],[103.5307,18.1217],[103.5307,18.1222],[103.5321,18.1223],[103.5321,18.1241],[103.5318,18.1252],[103.5301,18.1255],[103.5318,18.1263],[103.5332,18.1263],[103.5332,18.1269],[103.5343,18.1269],[103.5343,18.1277],[103.5357,18.1291],[103.5363,18.1291],[103.5363,18.1299],[103.5346,18.1293],[103.534,18.1296],[103.5343,18.1312],[103.5332,18.1331],[103.5343,18.1326],[103.536,18.1329],[103.536,18.1323],[103.538,18.1323],[103.538,18.1331],[103.5363,18.1331],[103.5366,18.1342],[103.536,18.1342],[103.5357,18.1366],[103.5348,18.1366],[103.5346,18.1356],[103.5329,18.1347],[103.5332,18.1334],[103.5323,18.1334],[103.5323,18.1328],[103.5317,18.1328],[103.532,18.1339],[103.5303,18.1344],[103.5303,18.135],[103.5326,18.1355],[103.5326,18.1369],[103.5306,18.1369],[103.5303,18.1358],[103.5297,18.1355],[103.5297,18.1374],[103.5289,18.1374]],[[103.5289,18.1366],[103.5292,18.1369],[103.5292,18.1366],[103.5289,18.1366]],[[103.5258,18.136],[103.526,18.1363],[103.5261,18.136],[103.5258,18.136]],[[103.5244,18.1349],[103.5249,18.1349],[103.5249,18.1336],[103.5241,18.1344],[103.5244,18.1349]],[[103.5263,18.1344],[103.5266,18.1347],[103.5266,18.1344],[103.5263,18.1344]],[[103.5278,18.1347],[103.5283,18.1347],[103.5283,18.1342],[103.5278,18.1341],[103.5278,18.1347]],[[103.5349,18.1342],[103.5357,18.1342],[103.5357,18.1337],[103.5349,18.1337],[103.5349,18.1342]],[[103.5258,18.133],[103.5264,18.1331],[103.5261,18.1322],[103.5255,18.1322],[103.5258,18.133]],[[103.5298,18.1328],[103.5303,18.1325],[103.5301,18.132],[103.5295,18.1323],[103.5298,18.1328]],[[103.5298,18.1306],[103.5306,18.1306],[103.5306,18.1304],[103.5298,18.1301],[103.5298,18.1306]],[[103.5278,18.1298],[103.5281,18.1304],[103.5281,18.1298],[103.5278,18.1298]],[[103.5323,18.1298],[103.5329,18.1296],[103.5329,18.129],[103.5323,18.129],[103.5323,18.1298]],[[103.5253,18.1287],[103.5255,18.129],[103.5255,18.1287],[103.5253,18.1287]],[[103.5255,18.1282],[103.5258,18.1287],[103.5258,18.1282],[103.5255,18.1282]],[[103.5275,18.1274],[103.5281,18.1276],[103.5281,18.1274],[103.5275,18.1274]]]}},{"type":"Feature","properties":{"kind":"seasonal","area_km2":1.056,"date":"2026-10-05"},"geometry":{"type":"Polygon","coordinates":[[[103.6668,18.3385],[103.6668,18.3377],[103.6674,18.3377],[103.6674,18.3371],[103.6669,18.3369],[103.6669,18.3344],[103.6686,18.3323],[103.6689,18.3295],[103.6678,18.3266],[103.6698,18.3236],[103.6709,18.3233],[103.6715,18.3225],[103.6732,18.3225],[103.6732,18.322],[103.6758,18.3212],[103.6761,18.3207],[103.6775,18.3201],[103.6781,18.319],[103.6786,18.319],[103.6789,18.3185],[103.6786,18.3199],[103.6772,18.3204],[103.6755,18.3225],[103.6746,18.3225],[103.6746,18.3231],[103.6729,18.3231],[103.6724,18.3236],[103.6715,18.3236],[103.6715,18.3244],[103.6703,18.326],[103.6706,18.3287],[103.6715,18.3288],[103.6717,18.3293],[103.6717,18.3285],[103.6723,18.3285],[103.6729,18.3293],[103.6729,18.3288],[103.6734,18.3285],[103.6729,18.3274],[103.6735,18.3271],[103.6738,18.3261],[103.6743,18.3261],[103.6749,18.3244],[103.6775,18.3245],[103.678,18.325],[103.6794,18.325],[103.6809,18.3239],[103.6809,18.3234],[103.6814,18.3234],[103.6817,18.3218],[103.682,18.3223],[103.6851,18.3226],[103.6851,18.3218],[103.686,18.3218],[103.6868,18.321],[103.6869,18.3205],[103.6877,18.3196],[103.6883,18.3197],[103.6886,18.318],[103.6911,18.3183],[103.6914,18.3175],[103.692,18.3175],[103.6923,18.3167],[103.6931,18.3164],[103.6934,18.3156],[103.694,18.3156],[103.6943,18.3135],[103.6968,18.3135],[103.6977,18.3127],[103.6985,18.3129],[103.6985,18.3138],[103.6968,18.3146],[103.6965,18.3151],[103.6954,18.3151],[103.6954,18.3143],[103.6948,18.3143],[103.6951,18.3162],[103.6945,18.3162],[103.6937,18.317],[103.6937,18.3175],[103.6925,18.3181],[103.6923,18.3189],[103.6911,18.3194],[103.6891,18.3194],[103.6888,18.3202],[103.688,18.3205],[103.6871,18.3215],[103.6866,18.3215],[103.6857,18.3229],[103.6846,18.3232],[103.6843,18.3237],[103.682,18.3242],[103.6814,18.325],[103.6806,18.325],[103.6797,18.3258],[103.6763,18.3258],[103.6763,18.3269],[103.6746,18.3274],[103.6749,18.3282],[103.6734,18.3309],[103.6726,18.3312],[103.6709,18.3328],[103.67,18.3344],[103.6703,18.3353],[103.6697,18.3363],[103.6697,18.3377],[103.6688,18.3377],[103.6683,18.3385],[103.6668,18.3385]]]}},{"type":"Feature","properties":{"kind":"seasonal","area_km2":0.861,"date":"2026-10-08"},"geometry":{"type":"Polygon","coordinates":[[[103.1458,18.0625],[103.1444,18.0595],[103.1438,18.0593],[103.1441,18.0587],[103.1436,18.0587],[103.1419,18.0571],[103.141,18.0571],[103.1405,18.0557],[103.1399,18.0557],[103.1396,18.0552],[103.1379,18.0554],[103.1374,18.0549],[103.1365,18.0549],[103.1357,18.053],[103.1357,18.0521],[103.1363,18.0516],[103.1374,18.0516],[103.1374,18.0511],[103.1385,18.0505],[103.1389,18.0473],[103.1397,18.0465],[103.1397,18.0454],[103.1403,18.0451],[103.1406,18.0438],[103.1423,18.043],[103.1437,18.043],[103.1443,18.0436],[103.1443,18.0455],[103.1448,18.0463],[103.1448,18.0506],[103.1456,18.0541],[103.1456,18.056],[103.1461,18.0574],[103.1467,18.0577],[103.1464,18.0582],[103.147,18.0585],[103.147,18.059],[103.1458,18.059],[103.145,18.0574],[103.1444,18.0574],[103.1447,18.0587],[103.1453,18.059],[103.1452,18.0601],[103.1464,18.0607],[103.1458,18.0612],[103.1464,18.0612],[103.1464,18.0617],[103.1469,18.062],[103.1458,18.0625]],[[103.1441,18.0574],[103.1444,18.0568],[103.1439,18.0563],[103.1439,18.0571],[103.1441,18.0574]],[[103.1442,18.056],[103.1447,18.056],[103.1447,18.0558],[103.1442,18.0555],[103.1442,18.056]],[[103.1436,18.0552],[103.1439,18.0555],[103.1439,18.0552],[103.1436,18.0552]],[[103.143,18.0549],[103.1436,18.0552],[103.1436,18.0549],[103.143,18.0549]],[[103.1428,18.0549],[103.1447,18.0547],[103.1442,18.0536],[103.1442,18.052],[103.1436,18.0514],[103.1428,18.0514],[103.1442,18.0509],[103.1442,18.0503],[103.1437,18.0501],[103.1445,18.0498],[103.1445,18.0484],[103.1442,18.0479],[103.1437,18.0479],[103.1434,18.0449],[103.1429,18.0449],[103.1429,18.0441],[103.1434,18.0441],[103.1437,18.0436],[103.1415,18.0435],[103.1415,18.0441],[103.1423,18.0444],[103.1425,18.0479],[103.1414,18.0481],[103.1417,18.0487],[103.1411,18.0487],[103.1411,18.0492],[103.1417,18.049],[103.1414,18.0506],[103.1417,18.0514],[103.1422,18.0511],[103.1422,18.0517],[103.1411,18.0525],[103.1391,18.0522],[103.1391,18.053],[103.1408,18.0533],[103.1413,18.0544],[103.1419,18.0544],[103.1422,18.0533],[103.1422,18.0538],[103.143,18.0541],[103.1428,18.0549]],[[103.1422,18.0541],[103.1425,18.0544],[103.1425,18.0541],[103.1422,18.0541]]]}},{"type":"Feature","properties":{"kind":"seasonal","area_km2":0.691,"date":"2026-10-05"},"geometry":{"type":"Polygon","coordinates":[[[103.4372,18.4031],[103.4355,18.4029],[103.4355,18.4004],[103.4364,18.3996],[103.4369,18.3999],[103.4372,18.3985],[103.4378,18.3985],[103.4381,18.3975],[103.4389,18.3972],[103.4387,18.3956],[103.4392,18.3956],[103.4392,18.395],[103.4381,18.3953],[103.4373,18.3937],[103.4353,18.3926],[103.4356,18.3915],[103.4367,18.3918],[103.4367,18.3926],[103.4379,18.392],[103.4381,18.3929],[103.4376,18.3928],[103.4376,18.3934],[103.4381,18.3939],[103.4384,18.3931],[103.4424,18.3929],[103.4424,18.394],[103.4429,18.3942],[103.4432,18.3956],[103.4415,18.3961],[103.4415,18.3969],[103.4409,18.3972],[103.4421,18.3978],[103.4421,18.3983],[103.4429,18.3983],[103.4429,18.3978],[103.4452,18.3967],[103.448,18.397],[103.4497,18.3965],[103.4506,18.3957],[103.452,18.3957],[103.4517,18.397],[103.45,18.397],[103.4497,18.3976],[103.448,18.3981],[103.448,18.3986],[103.4466,18.3989],[103.4463,18.3997],[103.4418,18.3997],[103.4412,18.4007],[103.44,18.401],[103.4383,18.4004],[103.4383,18.4023],[103.4372,18.4031]],[[103.4364,18.4012],[103.4366,18.4015],[103.4366,18.4012],[103.4364,18.4012]],[[103.4401,18.3948],[103.4407,18.3948],[103.4407,18.394],[103.4398,18.3942],[103.4401,18.3948]]]}},{"type":"Feature","properties":{"kind":"seasonal","area_km2":0.64,"date":"2026-10-08"},"geometry":{"type":"Polygon","coordinates":[[[103.6169,18.0464],[103.6152,18.044],[103.6158,18.0432],[103.6198,18.0435],[103.622,18.0443],[103.6232,18.0432],[103.6237,18.0432],[103.6238,18.0375],[103.6218,18.0367],[103.6215,18.0343],[103.6227,18.0332],[103.6227,18.0324],[103.6238,18.0324],[103.6238,18.0329],[103.6244,18.0332],[103.6241,18.0343],[103.6249,18.0359],[103.6266,18.0359],[103.6286,18.0343],[103.6289,18.0332],[103.6295,18.033],[103.6298,18.0313],[103.6298,18.0343],[103.6286,18.0346],[103.628,18.0368],[103.6269,18.0367],[103.6269,18.0376],[103.6258,18.0375],[103.6249,18.0367],[103.6244,18.037],[103.6243,18.0386],[103.6246,18.0392],[103.6252,18.0392],[103.6252,18.0405],[103.6257,18.0405],[103.6263,18.0416],[103.6274,18.0416],[103.6269,18.0441],[103.6246,18.0446],[103.6237,18.0454],[103.622,18.0459],[103.6217,18.0465],[103.6169,18.0464]],[[103.6232,18.0359],[103.6235,18.0362],[103.6235,18.0359],[103.6232,18.0359]],[[103.6227,18.0335],[103.623,18.0337],[103.623,18.0335],[103.6227,18.0335]]]}},{"type":"Feature","properties":{"kind":"seasonal","area_km2":0.625,"date":"2026-10-05"},"geometry":{"type":"Polygon","coordinates":[[[103.6568,18.3181],[103.6574,18.317],[103.6591,18.3173],[103.6599,18.314],[103.6608,18.3132],[103.6619,18.313],[103.6622,18.3113],[103.6634,18.31],[103.6634,18.3089],[103.6639,18.3086],[103.6645,18.3089],[103.6645,18.3103],[103.6656,18.3103],[103.6662,18.3111],[103.6671,18.3111],[103.6682,18.313],[103.6693,18.313],[103.6702,18.3141],[103.6713,18.3144],[103.671,18.3149],[103.6699,18.3149],[103.6696,18.3155],[103.6682,18.3154],[103.6676,18.316],[103.6656,18.3162],[103.6656,18.3168],[103.6636,18.3176],[103.6633,18.3181],[103.6619,18.3178],[103.6619,18.3162],[103.6608,18.3162],[103.6608,18.3168],[103.6602,18.3167],[103.6599,18.3173],[103.6599,18.3181],[103.6568,18.3181]],[[103.6642,18.3154],[103.6645,18.316],[103.6645,18.3154],[103.6642,18.3154]],[[103.6662,18.3127],[103.667,18.3127],[103.667,18.3119],[103.6665,18.3119],[103.6662,18.3127]],[[103.6645,18.3111],[103.6651,18.3111],[103.6651,18.3105],[103.6645,18.3105],[103.6645,18.3111]]]}},{"type":"Feature","properties":{"kind":"seasonal","area_km2":0.481,"date":"2026-10-08"},"geometry":{"type":"Polygon","coordinates":[[[103.5304,18.1201],[103.5299,18.1193],[103.5299,18.1182],[103.531,18.1184],[103.531,18.1176],[103.5296,18.1174],[103.5293,18.1163],[103.5276,18.1163],[103.5276,18.1157],[103.5293,18.1152],[103.5296,18.1144],[103.5308,18.1144],[103.5316,18.1111],[103.5325,18.1111],[103.5325,18.112],[103.5333,18.1117],[103.5345,18.109],[103.5359,18.1087],[103.5359,18.1106],[103.537,18.1106],[103.537,18.1112],[103.5382,18.1115],[103.5382,18.1125],[103.5387,18.1125],[103.5387,18.1134],[103.5376,18.1133],[103.5373,18.1125],[103.5365,18.1125],[103.5364,18.1139],[103.5376,18.1142],[103.5376,18.1161],[103.5364,18.116],[103.5364,18.1152],[103.5342,18.1149],[103.5342,18.1141],[103.5356,18.1141],[103.5356,18.1133],[103.5342,18.1136],[103.533,18.1147],[103.533,18.1179],[103.5322,18.1182],[103.5321,18.1187],[103.5316,18.119],[103.5316,18.1201],[103.5304,18.1201]],[[103.5293,18.1163],[103.5322,18.1163],[103.5322,18.1157],[103.5293,18.1157],[103.5293,18.1163]],[[103.5313,18.1144],[103.5322,18.1136],[103.5319,18.1122],[103.5311,18.1136],[103.5313,18.1144]],[[103.5353,18.1114],[103.5359,18.1112],[103.5356,18.1106],[103.5351,18.1106],[103.5353,18.1114]]]}},{"type":"Feature","properties":{"kind":"seasonal","area_km2":0.443,"date":"2026-10-08"},"geometry":{"type":"Polygon","coordinates":[[[103.0796,18.128],[103.0774,18.1258],[103.0765,18.1256],[103.0765,18.1247],[103.0749,18.1231],[103.0749,18.1207],[103.0743,18.1201],[103.0743,18.1193],[103.0738,18.1193],[103.0738,18.1185],[103.0746,18.1185],[103.0749,18.1193],[103.0755,18.119],[103.0777,18.1234],[103.0783,18.1237],[103.0782,18.1242],[103.0788,18.1242],[103.0788,18.1212],[103.0783,18.1204],[103.0783,18.1199],[103.0789,18.1202],[103.0789,18.1196],[103.0786,18.1191],[103.078,18.1193],[103.0769,18.1161],[103.0776,18.1096],[103.0781,18.1115],[103.0787,18.1115],[103.0789,18.1188],[103.0794,18.1196],[103.0805,18.1253],[103.0813,18.1264],[103.0813,18.127],[103.0808,18.127],[103.0802,18.1261],[103.0796,18.1261],[103.0796,18.128]],[[103.0797,18.1232],[103.08,18.1234],[103.08,18.1232],[103.0797,18.1232]]]}},{"type":"Feature","properties":{"kind":"seasonal","area_km2":0.412,"date":"2026-10-05"},"geometry":{"type":"Polygon","coordinates":[[[103.2669,18.3927],[103.2658,18.3905],[103.2647,18.3903],[103.2647,18.3897],[103.263,18.3889],[103.2619,18.3867],[103.2613,18.3867],[103.261,18.3859],[103.2602,18.3859],[103.2602,18.3853],[103.2596,18.3851],[103.2596,18.3832],[103.2591,18.3824],[103.2594,18.3813],[103.2602,18.3813],[103.2605,18.3818],[103.2622,18.3824],[103.2642,18.384],[103.2642,18.3848],[103.2647,18.3854],[103.2656,18.3854],[103.2659,18.3862],[103.2667,18.3865],[103.2661,18.3881],[103.2667,18.3889],[103.2667,18.3911],[103.2672,18.3919],[103.2669,18.3927]]]}},{"type":"Feature","properties":{"kind":"seasonal","area_km2":0.373,"date":"2026-10-08"},"geometry":{"type":"Polygon","coordinates":[[[103.5463,18.1576],[103.5452,18.156],[103.5435,18.1557],[103.5438,18.1543],[103.5432,18.1535],[103.5426,18.154],[103.5426,18.1532],[103.5438,18.1532],[103.5449,18.1522],[103.5475,18.1522],[103.548,18.1514],[103.5495,18.1511],[103.5506,18.1544],[103.5506,18.156],[103.548,18.1576],[103.5463,18.1576]],[[103.5454,18.156],[103.5457,18.1562],[103.5457,18.156],[103.5454,18.156]],[[103.5491,18.1557],[103.5494,18.156],[103.5494,18.1557],[103.5491,18.1557]],[[103.5446,18.1546],[103.5449,18.1554],[103.5449,18.1546],[103.5446,18.1546]],[[103.5438,18.1546],[103.544,18.1549],[103.544,18.1546],[103.5438,18.1546]],[[103.5443,18.1543],[103.5446,18.1546],[103.5446,18.1543],[103.5443,18.1543]],[[103.5438,18.1543],[103.5443,18.1543],[103.5443,18.1541],[103.5438,18.1538],[103.5438,18.1543]],[[103.5466,18.153],[103.5469,18.1533],[103.5469,18.153],[103.5466,18.153]],[[103.5489,18.1522],[103.5492,18.1525],[103.5492,18.1522],[103.5489,18.1522]]]}},{"type":"Feature","properties":{"kind":"seasonal","area_km2":0.344,"date":"2026-10-05"},"geometry":{"type":"Polygon","coordinates":[[[103.2415,18.3494],[103.2415,18.3478],[103.2427,18.347],[103.2427,18.3445],[103.2438,18.3445],[103.2444,18.3429],[103.2427,18.3429],[103.2427,18.3437],[103.2413,18.3445],[103.2407,18.3442],[103.2405,18.3421],[103.2431,18.3391],[103.2465,18.3383],[103.247,18.3386],[103.247,18.3405],[103.2464,18.3405],[103.2453,18.344],[103.2447,18.344],[103.2447,18.3445],[103.2441,18.3448],[103.2435,18.347],[103.243,18.3467],[103.243,18.3475],[103.2424,18.3478],[103.2415,18.3494]]]}},{"type":"Feature","properties":{"kind":"seasonal","area_km2":0.33,"date":"2026-10-05"},"geometry":{"type":"Polygon","coordinates":[[[103.8526,18.2402],[103.8526,18.2369],[103.8537,18.2369],[103.8543,18.2375],[103.8552,18.2372],[103.8557,18.2334],[103.8563,18.2329],[103.8572,18.2329],[103.8575,18.2324],[103.8592,18.2324],[103.8591,18.2335],[103.8597,18.2335],[103.8597,18.234],[103.8608,18.2345],[103.8608,18.2356],[103.8603,18.2362],[103.8583,18.2364],[103.8583,18.237],[103.8571,18.2372],[103.8568,18.238],[103.856,18.238],[103.856,18.2375],[103.8557,18.2375],[103.8554,18.2391],[103.8549,18.2391],[103.854,18.2402],[103.8526,18.2402]],[[103.8554,18.2372],[103.8557,18.2375],[103.8557,18.2372],[103.8554,18.2372]]]}},{"type":"Feature","properties":{"kind":"seasonal","area_km2":0.319,"date":"2026-10-08"},"geometry":{"type":"Polygon","coordinates":[[[103.7436,18.207],[103.7442,18.2056],[103.7439,18.2051],[103.7425,18.2048],[103.7425,18.204],[103.743,18.204],[103.743,18.2029],[103.7436,18.2029],[103.7433,18.2024],[103.7439,18.2013],[103.7462,18.1986],[103.7468,18.1986],[103.7488,18.197],[103.7496,18.197],[103.7507,18.1978],[103.7507,18.1989],[103.7502,18.1989],[103.7493,18.1997],[103.7485,18.1994],[103.7467,18.2008],[103.7462,18.2024],[103.7473,18.2032],[103.7473,18.204],[103.7467,18.204],[103.7459,18.2048],[103.7459,18.2054],[103.7453,18.2051],[103.7442,18.207],[103.7436,18.207]]]}},{"type":"Feature","properties":{"kind":"seasonal","area_km2":0.307,"date":"2026-10-08"},"geometry":{"type":"Polygon","coordinates":[[[103.1357,18.1337],[103.1354,18.1321],[103.1346,18.1313],[103.134,18.1313],[103.1335,18.1294],[103.1343,18.1291],[103.1343,18.1286],[103.1355,18.1275],[103.1366,18.1275],[103.1369,18.1283],[103.1372,18.1275],[103.1389,18.1275],[103.1389,18.1292],[103.1403,18.1289],[103.1405,18.1303],[103.1391,18.1302],[103.1386,18.1297],[103.1386,18.1302],[103.1391,18.1305],[103.1391,18.1316],[103.138,18.1329],[103.1371,18.1329],[103.1365,18.1332],[103.1365,18.1337],[103.1357,18.1337]]]}},{"type":"Feature","properties":{"kind":"seasonal","area_km2":0.298,"date":"2026-10-05"},"geometry":{"type":"Polygon","coordinates":[[[103.3694,18.4259],[103.3694,18.4232],[103.3703,18.4232],[103.3703,18.424],[103.3717,18.4232],[103.3706,18.4226],[103.3706,18.4191],[103.3723,18.4194],[103.374,18.4178],[103.3769,18.4178],[103.378,18.42],[103.3797,18.42],[103.3797,18.4211],[103.3785,18.4214],[103.3782,18.4219],[103.3771,18.4219],[103.3763,18.4208],[103.3746,18.4208],[103.3737,18.4197],[103.3723,18.42],[103.3723,18.4208],[103.372,18.4208],[103.372,18.4205],[103.3717,18.4205],[103.3717,18.4224],[103.3723,18.4227],[103.3723,18.4235],[103.3708,18.4243],[103.3708,18.4259],[103.3694,18.4259]],[[103.3714,18.4202],[103.3717,18.4205],[103.3717,18.4202],[103.3714,18.4202]],[[103.3746,18.4202],[103.3751,18.4205],[103.3751,18.4202],[103.3746,18.4202]],[[103.3729,18.4191],[103.3731,18.4194],[103.3731,18.4191],[103.3729,18.4191]],[[103.3732,18.4189],[103.3734,18.4191],[103.3734,18.4189],[103.3732,18.4189]]]}},{"type":"Feature","properties":{"kind":"seasonal","area_km2":0.296,"date":"2026-10-08"},"geometry":{"type":"Polygon","coordinates":[[[103.5288,18.151],[103.5288,18.1501],[103.5274,18.1499],[103.5274,18.1493],[103.5268,18.149],[103.5268,18.1474],[103.526,18.1471],[103.526,18.1463],[103.5251,18.1463],[103.5251,18.145],[103.5243,18.145],[103.524,18.1436],[103.5266,18.1436],[103.5265,18.145],[103.5268,18.1444],[103.5288,18.1445],[103.5288,18.1453],[103.5302,18.145],[103.5302,18.1458],[103.5311,18.1461],[103.531,18.1488],[103.5302,18.1488],[103.5302,18.148],[103.5294,18.148],[103.5296,18.1493],[103.5305,18.1499],[103.5305,18.151],[103.5288,18.151]],[[103.5288,18.1477],[103.5294,18.1477],[103.5294,18.1469],[103.5288,18.1469],[103.5288,18.1477]],[[103.5271,18.1474],[103.5282,18.1466],[103.5282,18.1458],[103.5277,18.1458],[103.5271,18.1474]]]}},{"type":"Feature","properties":{"kind":"seasonal","area_km2":0.287,"date":"2026-10-08"},"geometry":{"type":"Polygon","coordinates":[[[103.1517,18.2016],[103.1517,18.2003],[103.1512,18.1997],[103.1509,18.1984],[103.1512,18.1973],[103.1506,18.1959],[103.1501,18.1908],[103.1496,18.19],[103.1485,18.1856],[103.1479,18.1853],[103.1479,18.1845],[103.1468,18.1824],[103.1462,18.1821],[103.146,18.181],[103.1474,18.1818],[103.1474,18.1826],[103.1479,18.1826],[103.1482,18.184],[103.1493,18.1856],[103.1493,18.1864],[103.1499,18.1864],[103.1496,18.187],[103.1502,18.187],[103.1501,18.1881],[103.151,18.1892],[103.1512,18.1916],[103.1518,18.1922],[103.1526,18.1962],[103.1526,18.2003],[103.1523,18.2014],[103.1517,18.2016]]]}},{"type":"Feature","properties":{"kind":"seasonal","area_km2":0.286,"date":"2026-10-08"},"geometry":{"type":"Polygon","coordinates":[[[103.2981,18.312],[103.2981,18.3114],[103.2975,18.3114],[103.2975,18.3109],[103.297,18.3106],[103.2964,18.3079],[103.2959,18.3076],[103.2959,18.3063],[103.295,18.306],[103.2945,18.3043],[103.2948,18.3016],[103.2962,18.3016],[103.2962,18.3022],[103.2971,18.3025],[103.2982,18.3044],[103.2984,18.3065],[103.299,18.3066],[103.299,18.3095],[103.2984,18.3095],[103.2981,18.312]]]}},{"type":"Feature","properties":{"kind":"seasonal","area_km2":0.266,"date":"2026-10-05"},"geometry":{"type":"Polygon","coordinates":[[[103.671,18.3163],[103.671,18.3152],[103.6716,18.3152],[103.6716,18.3147],[103.673,18.3147],[103.673,18.3141],[103.6736,18.3139],[103.6733,18.3128],[103.6741,18.3125],[103.6744,18.3114],[103.6773,18.3106],[103.6778,18.3101],[103.6795,18.3101],[103.6796,18.3096],[103.6801,18.3096],[103.6801,18.3106],[103.6815,18.3107],[103.681,18.3112],[103.6798,18.3112],[103.6795,18.3106],[103.6776,18.3106],[103.677,18.3109],[103.677,18.3114],[103.6744,18.3125],[103.6747,18.3139],[103.6755,18.3144],[103.6767,18.3139],[103.679,18.3139],[103.6804,18.3134],[103.6804,18.3142],[103.6795,18.3144],[103.6781,18.3163],[103.6767,18.3163],[103.6761,18.3158],[103.671,18.3163]]]}},{"type":"Feature","properties":{"kind":"seasonal","area_km2":0.263,"date":"2026-10-08"},"geometry":{"type":"Polygon","coordinates":[[[103.0768,18.0987],[103.0769,18.096],[103.0746,18.0911],[103.0738,18.0911],[103.0741,18.0919],[103.0732,18.0919],[103.0726,18.0938],[103.0718,18.0941],[103.0721,18.0857],[103.0724,18.0865],[103.0741,18.0873],[103.0752,18.0895],[103.0752,18.0906],[103.0758,18.0909],[103.0763,18.0933],[103.0777,18.0949],[103.0777,18.0974],[103.0771,18.0974],[103.0768,18.0987]],[[103.0721,18.0927],[103.0724,18.093],[103.0724,18.0927],[103.0721,18.0927]],[[103.0724,18.0925],[103.0726,18.0927],[103.0726,18.0925],[103.0724,18.0925]],[[103.0724,18.0906],[103.0727,18.0911],[103.0727,18.0906],[103.0724,18.0906]],[[103.0727,18.09],[103.0729,18.0906],[103.073,18.09],[103.0727,18.09]],[[103.0738,18.09],[103.0741,18.0903],[103.0741,18.09],[103.0738,18.09]],[[103.0735,18.0898],[103.0738,18.09],[103.0738,18.0898],[103.0735,18.0898]]]}},{"type":"Feature","properties":{"kind":"seasonal","area_km2":0.261,"date":"2026-10-08"},"geometry":{"type":"Polygon","coordinates":[[[103.3572,18.2184],[103.3563,18.2179],[103.3563,18.2171],[103.3552,18.2173],[103.3552,18.2179],[103.3543,18.2179],[103.3546,18.2146],[103.3561,18.2146],[103.3555,18.2141],[103.3544,18.2141],[103.3544,18.2127],[103.3552,18.2111],[103.3561,18.2111],[103.3561,18.2122],[103.3555,18.2122],[103.3552,18.213],[103.3566,18.213],[103.3569,18.2141],[103.3597,18.2141],[103.3597,18.2152],[103.3589,18.2152],[103.3586,18.216],[103.3612,18.2155],[103.3603,18.2157],[103.3603,18.2163],[103.3592,18.2171],[103.3589,18.2184],[103.3572,18.2184]],[[103.3563,18.2171],[103.3572,18.2165],[103.3572,18.2146],[103.3566,18.2146],[103.3563,18.2171]]]}},{"type":"Feature","properties":{"kind":"seasonal","area_km2":0.249,"date":"2026-10-08"},"geometry":{"type":"Polygon","coordinates":[[[103.9984,18.045],[103.9981,18.0442],[103.9975,18.0442],[103.9976,18.0434],[103.9967,18.0428],[103.9967,18.042],[103.9959,18.0415],[103.9962,18.0393],[103.9973,18.0385],[103.9981,18.0385],[103.9984,18.0398],[104.0001,18.0398],[104.0001,18.0404],[104.0018,18.0399],[104.0018,18.0404],[104.0027,18.0407],[104.0027,18.0418],[104.0007,18.0426],[103.9995,18.0439],[103.9987,18.0442],[103.9984,18.045]],[[103.9981,18.0417],[103.9998,18.0423],[103.9998,18.0415],[103.9984,18.0412],[103.9981,18.0417]]]}},{"type":"Feature","properties":{"kind":"seasonal","area_km2":0.246,"date":"2026-10-08"},"geometry":{"type":"Polygon","coordinates":[[[103.8994,18.1415],[103.8966,18.1412],[103.8955,18.1396],[103.8935,18.139],[103.8941,18.1371],[103.8952,18.1369],[103.895,18.135],[103.8958,18.1347],[103.8958,18.1336],[103.895,18.1334],[103.8953,18.1315],[103.8967,18.1317],[103.8972,18.1323],[103.8972,18.1331],[103.8978,18.1336],[103.8975,18.135],[103.8981,18.1358],[103.8972,18.1363],[103.8972,18.1353],[103.8958,18.1353],[103.8966,18.1369],[103.8961,18.1369],[103.8949,18.1385],[103.8961,18.1385],[103.8961,18.1396],[103.8966,18.1401],[103.8983,18.1404],[103.8983,18.1393],[103.8978,18.1393],[103.8978,18.1388],[103.8972,18.1388],[103.8969,18.1382],[103.8969,18.1372],[103.8975,18.1366],[103.8975,18.1382],[103.8986,18.1391],[103.8989,18.1399],[103.8997,18.1402],[103.8994,18.1415]]]}},{"type":"Feature","properties":{"kind":"seasonal","area_km2":0.24,"date":"2026-10-08"},"geometry":{"type":"Polygon","coordinates":[[[103.4845,18.0221],[103.4845,18.021],[103.4834,18.0213],[103.4822,18.0205],[103.4823,18.0197],[103.4811,18.0197],[103.4806,18.0191],[103.4803,18.0169],[103.4826,18.0167],[103.4826,18.018],[103.4834,18.0186],[103.4837,18.0181],[103.4848,18.0183],[103.4851,18.0178],[103.4862,18.0178],[103.4871,18.0184],[103.4871,18.02],[103.4862,18.02],[103.4862,18.0219],[103.4845,18.0221]],[[103.4859,18.0197],[103.4862,18.02],[103.4862,18.0197],[103.4859,18.0197]]]}},{"type":"Feature","properties":{"kind":"seasonal","area_km2":0.232,"date":"2026-10-08"},"geometry":{"type":"Polygon","coordinates":[[[103.0602,18.0121],[103.0596,18.0118],[103.0594,18.0105],[103.0588,18.0102],[103.0566,18.0061],[103.056,18.0058],[103.0555,18.0042],[103.0538,18.0026],[103.0538,18.002],[103.0521,18.0001],[103.0518,17.999],[103.0513,17.9987],[103.051,17.9976],[103.0488,17.9949],[103.0479,17.993],[103.0513,17.9963],[103.0527,17.9993],[103.0535,17.9996],[103.0538,18.0004],[103.0544,18.0004],[103.0549,18.0023],[103.0566,18.0039],[103.0566,18.0048],[103.0574,18.005],[103.0569,18.0061],[103.058,18.0067],[103.0585,18.0083],[103.0594,18.0088],[103.0599,18.0116],[103.0605,18.0116],[103.0602,18.0121]],[[103.0563,18.0053],[103.0566,18.0056],[103.0566,18.0053],[103.0563,18.0053]]]}},{"type":"Feature","properties":{"kind":"seasonal","area_km2":0.223,"date":"2026-10-08"},"geometry":{"type":"Polygon","coordinates":[[[103.4913,18.0509],[103.4913,18.0498],[103.4896,18.0498],[103.4891,18.0506],[103.4882,18.0506],[103.4882,18.0501],[103.4874,18.0498],[103.4877,18.0487],[103.4885,18.0487],[103.4885,18.0482],[103.4902,18.0477],[103.4902,18.0468],[103.4897,18.0466],[103.4891,18.0447],[103.4886,18.0449],[103.488,18.0444],[103.488,18.0436],[103.4894,18.0447],[103.4903,18.0447],[103.4908,18.0455],[103.4914,18.0455],[103.4917,18.0466],[103.4922,18.0466],[103.4922,18.0477],[103.4928,18.0477],[103.493,18.0509],[103.4913,18.0509]],[[103.4908,18.0466],[103.4911,18.0468],[103.4911,18.0466],[103.4908,18.0466]]]}},{"type":"Feature","properties":{"kind":"seasonal","area_km2":0.209,"date":"2026-10-08"},"geometry":{"type":"Polygon","coordinates":[[[103.1454,18.1764],[103.1443,18.1753],[103.1443,18.1747],[103.1426,18.1736],[103.1424,18.1726],[103.1407,18.1715],[103.1393,18.1674],[103.1399,18.1679],[103.1407,18.1679],[103.1421,18.1693],[103.1424,18.1704],[103.1435,18.1707],[103.1446,18.1734],[103.146,18.1748],[103.1463,18.1758],[103.1469,18.1758],[103.1469,18.1764],[103.1454,18.1764]]]}},{"type":"Feature","properties":{"kind":"seasonal","area_km2":0.204,"date":"2026-10-05"},"geometry":{"type":"Polygon","coordinates":[[[103.4557,18.3984],[103.4551,18.3979],[103.4551,18.3971],[103.4529,18.3968],[103.4529,18.3938],[103.4537,18.3941],[103.454,18.3949],[103.4549,18.3949],[103.4549,18.3954],[103.4571,18.3954],[103.4571,18.396],[103.4591,18.396],[103.46,18.3952],[103.4606,18.393],[103.4614,18.3928],[103.462,18.3917],[103.4628,18.3917],[103.4628,18.3933],[103.4614,18.3933],[103.4614,18.3952],[103.4605,18.396],[103.4591,18.3963],[103.4588,18.3968],[103.4577,18.3968],[103.4565,18.3984],[103.4557,18.3984]],[[103.4551,18.3968],[103.4563,18.3968],[103.4568,18.396],[103.4551,18.3957],[103.4551,18.3968]]]}},{"type":"Feature","properties":{"kind":"seasonal","area_km2":0.204,"date":"2026-10-05"},"geometry":{"type":"Polygon","coordinates":[[[103.6841,18.308],[103.6835,18.3071],[103.6836,18.3055],[103.6841,18.3042],[103.6844,18.3006],[103.6839,18.3006],[103.6819,18.299],[103.6779,18.2987],[103.6782,18.2982],[103.6822,18.2985],[103.6822,18.2979],[103.6811,18.2982],[103.6811,18.2974],[103.6822,18.2971],[103.6822,18.2977],[103.6833,18.2977],[103.683,18.2993],[103.6864,18.3012],[103.6861,18.3034],[103.6853,18.3042],[103.6847,18.3042],[103.6847,18.3047],[103.6856,18.3047],[103.6855,18.3055],[103.6841,18.308]]]}},{"type":"Feature","properties":{"kind":"seasonal","area_km2":0.197,"date":"2026-10-05"},"geometry":{"type":"Polygon","coordinates":[[[103.4088,18.4341],[103.4088,18.4314],[103.408,18.4306],[103.4057,18.4305],[103.4057,18.4292],[103.4074,18.4295],[103.4077,18.4289],[103.4091,18.4289],[103.4102,18.43],[103.4117,18.4303],[103.4117,18.4314],[103.4111,18.4322],[103.4116,18.4341],[103.4088,18.4341]]]}},{"type":"Feature","properties":{"kind":"seasonal","area_km2":0.188,"date":"2026-10-08"},"geometry":{"type":"Polygon","coordinates":[[[103.2806,18.3278],[103.2806,18.3273],[103.2812,18.3273],[103.2826,18.3259],[103.2841,18.3254],[103.2866,18.323],[103.2878,18.323],[103.2883,18.3224],[103.2881,18.3214],[103.2892,18.3206],[103.2898,18.3192],[103.2907,18.3187],[103.2912,18.3171],[103.2918,18.3168],[103.2924,18.3125],[103.2924,18.3176],[103.2921,18.3181],[103.2915,18.3181],[103.2906,18.3208],[103.286,18.3251],[103.2852,18.3251],[103.2852,18.3257],[103.2829,18.3265],[103.282,18.3275],[103.2806,18.3278]]]}},{"type":"Feature","properties":{"kind":"seasonal","area_km2":0.181,"date":"2026-10-08"},"geometry":{"type":"Polygon","coordinates":[[[103.2177,18.2329],[103.2172,18.2324],[103.2138,18.2323],[103.2138,18.2318],[103.2195,18.2318],[103.2195,18.231],[103.2206,18.2299],[103.22,18.2291],[103.2203,18.2283],[103.2195,18.2283],[103.2189,18.2278],[103.2178,18.228],[103.2181,18.2275],[103.2212,18.2272],[103.2237,18.2281],[103.2251,18.2311],[103.224,18.2305],[103.224,18.2297],[103.2235,18.2292],[103.2215,18.2289],[103.2214,18.231],[103.2206,18.2313],[103.2192,18.2329],[103.2177,18.2329]]]}},{"type":"Feature","properties":{"kind":"seasonal","area_km2":0.179,"date":"2026-10-05"},"geometry":{"type":"Polygon","coordinates":[[[103.7213,18.2727],[103.721,18.2719],[103.7218,18.2716],[103.7224,18.27],[103.7236,18.2697],[103.7235,18.2708],[103.7241,18.2708],[103.7238,18.2695],[103.7247,18.2695],[103.7264,18.2679],[103.7273,18.2679],[103.727,18.2698],[103.7275,18.2698],[103.7278,18.2692],[103.7292,18.2695],[103.7289,18.2706],[103.7281,18.2706],[103.7275,18.2711],[103.7261,18.2708],[103.7258,18.2714],[103.7241,18.2711],[103.7241,18.2719],[103.7213,18.2727]],[[103.7255,18.27],[103.7264,18.27],[103.7264,18.2698],[103.7258,18.2695],[103.7255,18.27]]]}},{"type":"Feature","properties":{"kind":"seasonal","area_km2":0.169,"date":"2026-10-08"},"geometry":{"type":"Polygon","coordinates":[[[103.2052,18.242],[103.2049,18.2415],[103.2069,18.2409],[103.2066,18.2401],[103.2083,18.2399],[103.2083,18.2388],[103.2072,18.2388],[103.208,18.2377],[103.2089,18.2377],[103.2086,18.2371],[103.2078,18.2374],[103.2081,18.2363],[103.2075,18.2352],[103.2084,18.2352],[103.2078,18.235],[103.2078,18.2344],[103.2101,18.2342],[103.2103,18.2372],[103.2089,18.2388],[103.2092,18.2399],[103.2086,18.2409],[103.208,18.2415],[103.2069,18.2415],[103.2066,18.242],[103.2052,18.242]]]}},{"type":"Feature","properties":{"kind":"seasonal","area_km2":0.159,"date":"2026-10-05"},"geometry":{"type":"Polygon","coordinates":[[[103.7166,18.2841],[103.7144,18.2835],[103.7144,18.2811],[103.7155,18.2803],[103.7158,18.2794],[103.7167,18.2795],[103.7175,18.2797],[103.7175,18.2805],[103.7186,18.2811],[103.7186,18.2822],[103.7175,18.2827],[103.7166,18.2841]],[[103.7161,18.2824],[103.7164,18.2827],[103.7164,18.2824],[103.7161,18.2824]]]}},{"type":"Feature","properties":{"kind":"seasonal","area_km2":0.158,"date":"2026-10-08"},"geometry":{"type":"Polygon","coordinates":[[[103.4145,18.2127],[103.4122,18.2127],[103.4122,18.2118],[103.4139,18.211],[103.4154,18.2094],[103.4168,18.2094],[103.4174,18.2086],[103.4199,18.2086],[103.4199,18.2095],[103.4185,18.2095],[103.4176,18.2103],[103.4179,18.2119],[103.4154,18.2116],[103.4151,18.2121],[103.4145,18.2121],[103.4145,18.2127]]]}},{"type":"Feature","properties":{"kind":"seasonal","area_km2":0.157,"date":"2026-10-08"},"geometry":{"type":"Polygon","coordinates":[[[103.8339,18.0679],[103.8339,18.0658],[103.8333,18.0652],[103.8333,18.0614],[103.8336,18.062],[103.835,18.062],[103.8348,18.0614],[103.8356,18.0614],[103.8356,18.0628],[103.8362,18.0625],[103.8362,18.0636],[103.8356,18.0639],[103.8356,18.0679],[103.8339,18.0679]]]}},{"type":"Feature","properties":{"kind":"seasonal","area_km2":0.155,"date":"2026-10-05"},"geometry":{"type":"Polygon","coordinates":[[[103.691,18.2955],[103.6916,18.2934],[103.6905,18.2934],[103.6905,18.2926],[103.6913,18.2923],[103.6925,18.2907],[103.6936,18.2907],[103.6939,18.2899],[103.6947,18.2899],[103.695,18.291],[103.6962,18.2912],[103.6961,18.2926],[103.6944,18.2929],[103.693,18.2939],[103.6924,18.2939],[103.6924,18.2931],[103.693,18.2928],[103.6919,18.2926],[103.6919,18.2955],[103.691,18.2955]],[[103.6939,18.2918],[103.6944,18.2918],[103.6944,18.2912],[103.6939,18.2912],[103.6939,18.2918]]]}},{"type":"Feature","properties":{"kind":"seasonal","area_km2":0.148,"date":"2026-10-08"},"geometry":{"type":"Polygon","coordinates":[[[103.9237,18.1715],[103.9234,18.1701],[103.9245,18.1685],[103.9262,18.1677],[103.9274,18.1677],[103.9274,18.1688],[103.9285,18.1691],[103.9279,18.1715],[103.9273,18.1715],[103.9265,18.1707],[103.9254,18.1707],[103.9251,18.1712],[103.9237,18.1715]]]}},{"type":"Feature","properties":{"kind":"seasonal","area_km2":0.138,"date":"2026-10-08"},"geometry":{"type":"Polygon","coordinates":[[[103.61,18.0214],[103.61,18.0198],[103.6109,18.0196],[103.6106,18.019],[103.6112,18.0185],[103.612,18.0185],[103.612,18.0179],[103.6132,18.0179],[103.614,18.0171],[103.6138,18.016],[103.616,18.0161],[103.616,18.0171],[103.6154,18.0174],[103.6154,18.019],[103.6146,18.0188],[103.6132,18.0196],[103.6117,18.0193],[103.6114,18.0212],[103.61,18.0214]],[[103.614,18.0166],[103.6143,18.0169],[103.6143,18.0166],[103.614,18.0166]],[[103.6146,18.0163],[103.6152,18.0166],[103.6152,18.0163],[103.6146,18.0163]]]}},{"type":"Feature","properties":{"kind":"seasonal","area_km2":0.137,"date":"2026-10-05"},"geometry":{"type":"Polygon","coordinates":[[[103.8125,18.3272],[103.812,18.3253],[103.8134,18.3251],[103.8143,18.3243],[103.8117,18.3245],[103.8114,18.3232],[103.8129,18.3229],[103.8134,18.3221],[103.8149,18.3221],[103.8151,18.3235],[103.8146,18.324],[103.8151,18.324],[103.8157,18.3248],[103.8125,18.3272]]]}},{"type":"Feature","properties":{"kind":"seasonal","area_km2":0.136,"date":"2026-10-05"},"geometry":{"type":"Polygon","coordinates":[[[103.8782,18.2756],[103.8782,18.2748],[103.8776,18.2745],[103.8742,18.2742],[103.8731,18.2737],[103.8728,18.2726],[103.8751,18.2726],[103.8759,18.2721],[103.8785,18.2718],[103.8785,18.2748],[103.879,18.2748],[103.879,18.2756],[103.8782,18.2756]],[[103.8753,18.2731],[103.8768,18.2734],[103.8768,18.2731],[103.8753,18.2731]],[[103.8776,18.2726],[103.8779,18.2729],[103.8779,18.2726],[103.8776,18.2726]]]}},{"type":"Feature","properties":{"kind":"seasonal","area_km2":0.13,"date":"2026-10-05"},"geometry":{"type":"Polygon","coordinates":[[[103.6859,18.2979],[103.6859,18.2971],[103.6848,18.2966],[103.6845,18.2971],[103.6819,18.2968],[103.6811,18.2952],[103.6825,18.2955],[103.6836,18.2944],[103.6851,18.2944],[103.6851,18.2955],[103.6862,18.2958],[103.6865,18.2966],[103.6876,18.2969],[103.6876,18.2977],[103.6859,18.2979]]]}},{"type":"Feature","properties":{"kind":"seasonal","area_km2":0.125,"date":"2026-10-05"},"geometry":{"type":"Polygon","coordinates":[[[103.7326,18.3462],[103.7295,18.346],[103.729,18.3454],[103.7278,18.3457],[103.7256,18.3451],[103.7199,18.3448],[103.7193,18.3443],[103.7261,18.3443],[103.7287,18.3449],[103.7315,18.3449],[103.7312,18.3454],[103.7327,18.3454],[103.7326,18.3462]]]}},{"type":"Feature","properties":{"kind":"seasonal","area_km2":0.124,"date":"2026-10-05"},"geometry":{"type":"Polygon","coordinates":[[[103.6611,18.3043],[103.6606,18.3035],[103.6609,18.3016],[103.66,18.3008],[103.6606,18.2989],[103.6629,18.2994],[103.6629,18.3002],[103.6646,18.3],[103.6646,18.3008],[103.6629,18.301],[103.6629,18.3021],[103.6612,18.3021],[103.6617,18.3024],[103.6617,18.3043],[103.6611,18.3043]]]}},{"type":"Feature","properties":{"kind":"seasonal","area_km2":0.123,"date":"2026-10-08"},"geometry":{"type":"Polygon","coordinates":[[[103.5378,18.122],[103.5378,18.1209],[103.5361,18.1212],[103.5358,18.1198],[103.5381,18.1199],[103.5384,18.1193],[103.5372,18.1193],[103.5373,18.1188],[103.5367,18.119],[103.5364,18.1185],[103.5375,18.1182],[103.5375,18.1188],[103.5409,18.1193],[103.5406,18.1212],[103.5395,18.1212],[103.5389,18.1215],[103.5389,18.122],[103.5378,18.122]],[[103.5364,18.1201],[103.5367,18.1204],[103.5367,18.1201],[103.5364,18.1201]]]}},{"type":"Feature","properties":{"kind":"seasonal","area_km2":0.122,"date":"2026-10-08"},"geometry":{"type":"Polygon","coordinates":[[[103.4709,18.0521],[103.4698,18.0513],[103.4698,18.0502],[103.4709,18.0505],[103.4709,18.0494],[103.4704,18.0489],[103.4695,18.0488],[103.4698,18.0472],[103.4721,18.0472],[103.4724,18.0481],[103.4723,18.0521],[103.4709,18.0521]]]}},{"type":"Feature","properties":{"kind":"seasonal","area_km2":0.119,"date":"2026-10-05"},"geometry":{"type":"Polygon","coordinates":[[[103.9733,18.3195],[103.9733,18.3184],[103.975,18.3179],[103.9753,18.3168],[103.9773,18.3165],[103.9784,18.3157],[103.9795,18.3157],[103.9795,18.3168],[103.9781,18.3174],[103.9775,18.3182],[103.9747,18.3195],[103.9733,18.3195]]]}},{"type":"Feature","properties":{"kind":"seasonal","area_km2":0.118,"date":"2026-10-05"},"geometry":{"type":"Polygon","coordinates":[[[103.7192,18.3272],[103.7192,18.3264],[103.72,18.3258],[103.72,18.3253],[103.7192,18.3234],[103.7183,18.3228],[103.7183,18.322],[103.7189,18.322],[103.7195,18.3209],[103.7209,18.3207],[103.7212,18.322],[103.7206,18.3223],[103.7203,18.3234],[103.7212,18.3248],[103.7212,18.3261],[103.72,18.3272],[103.7192,18.3272]]]}},{"type":"Feature","properties":{"kind":"seasonal","area_km2":0.117,"date":"2026-10-08"},"geometry":{"type":"Polygon","coordinates":[[[103.1986,18.2484],[103.1986,18.2465],[103.1997,18.2466],[103.1997,18.2457],[103.2006,18.2457],[103.2015,18.2441],[103.2023,18.2441],[103.2029,18.2431],[103.2026,18.2422],[103.2038,18.2417],[103.2037,18.2428],[103.2032,18.2428],[103.2029,18.2444],[103.2017,18.2455],[103.2017,18.2466],[103.2003,18.2466],[103.2003,18.2471],[103.1997,18.2471],[103.2006,18.2474],[103.2006,18.2468],[103.2014,18.2468],[103.2014,18.2479],[103.2009,18.2479],[103.2006,18.2485],[103.1986,18.2484]]]}},{"type":"Feature","properties":{"kind":"seasonal","area_km2":0.115,"date":"2026-10-05"},"geometry":{"type":"Polygon","coordinates":[[[103.3051,18.3828],[103.3051,18.382],[103.3059,18.3817],[103.3065,18.3801],[103.3071,18.3801],[103.3071,18.3795],[103.3079,18.379],[103.308,18.3779],[103.3099,18.3777],[103.3105,18.3782],[103.3105,18.379],[103.3099,18.379],[103.3094,18.3798],[103.3085,18.3798],[103.3079,18.3804],[103.3079,18.3814],[103.3068,18.3825],[103.3051,18.3828]]]}},{"type":"Feature","properties":{"kind":"seasonal","area_km2":0.112,"date":"2026-10-05"},"geometry":{"type":"Polygon","coordinates":[[[103.7051,18.3447],[103.7051,18.3439],[103.7071,18.3442],[103.7114,18.3434],[103.7148,18.3434],[103.7151,18.344],[103.719,18.3443],[103.7145,18.3445],[103.7142,18.3437],[103.7142,18.3445],[103.7051,18.3447]]]}},{"type":"Feature","properties":{"kind":"seasonal","area_km2":0.112,"date":"2026-10-05"},"geometry":{"type":"Polygon","coordinates":[[[103.8266,18.3094],[103.8266,18.3059],[103.8292,18.3057],[103.8297,18.3065],[103.8297,18.3076],[103.8286,18.3086],[103.828,18.3086],[103.8277,18.3094],[103.8266,18.3094]]]}},{"type":"Feature","properties":{"kind":"seasonal","area_km2":0.107,"date":"2026-10-08"},"geometry":{"type":"Polygon","coordinates":[[[103.0812,18.0885],[103.0809,18.0871],[103.0801,18.0868],[103.0801,18.0852],[103.0804,18.0841],[103.0815,18.0831],[103.0824,18.0831],[103.0821,18.0866],[103.0826,18.0882],[103.0812,18.0885]]]}},{"type":"Feature","properties":{"kind":"seasonal","area_km2":0.105,"date":"2026-10-08"},"geometry":{"type":"Polygon","coordinates":[[[103.5175,18.1398],[103.5175,18.1389],[103.517,18.1387],[103.5178,18.1384],[103.5184,18.1368],[103.5207,18.1368],[103.5209,18.1363],[103.5224,18.136],[103.5226,18.1374],[103.5212,18.1373],[103.5204,18.1379],[103.5201,18.139],[103.5175,18.1398]]]}},{"type":"Feature","properties":{"kind":"seasonal","area_km2":0.103,"date":"2026-10-08"},"geometry":{"type":"Polygon","coordinates":[[[103.531,18.0873],[103.531,18.0865],[103.5316,18.0865],[103.533,18.0848],[103.5327,18.0824],[103.5339,18.0824],[103.535,18.0857],[103.5336,18.0862],[103.5324,18.0873],[103.531,18.0873]]]}},{"type":"Feature","properties":{"kind":"seasonal","area_km2":0.102,"date":"2026-10-05"},"geometry":{"type":"Polygon","coordinates":[[[103.9944,18.3039],[103.9949,18.3023],[103.9964,18.3009],[103.9969,18.2993],[103.9992,18.2979],[103.9989,18.2993],[103.9984,18.2996],[103.9984,18.3004],[103.9975,18.3009],[103.9975,18.3017],[103.9964,18.3028],[103.9964,18.3034],[103.9944,18.3039]]]}},{"type":"Feature","properties":{"kind":"seasonal","area_km2":0.101,"date":"2026-10-05"},"geometry":{"type":"Polygon","coordinates":[[[103.4435,18.3929],[103.4433,18.391],[103.4421,18.3907],[103.4413,18.3899],[103.4407,18.3899],[103.4399,18.3907],[103.4381,18.391],[103.4359,18.3909],[103.4359,18.3901],[103.439,18.3904],[103.4399,18.3899],[103.4402,18.3883],[103.4419,18.3883],[103.4421,18.3896],[103.4435,18.391],[103.4441,18.391],[103.4441,18.3929],[103.4435,18.3929]]]}},{"type":"Feature","properties":{"kind":"seasonal","area_km2":0.101,"date":"2026-10-05"},"geometry":{"type":"Polygon","coordinates":[[[103.8651,18.2313],[103.8643,18.2281],[103.8663,18.2283],[103.8671,18.227],[103.8683,18.227],[103.8674,18.2294],[103.8663,18.23],[103.866,18.2313],[103.8651,18.2313]]]}}]}
