{"type":"FeatureCollection","properties":{"v":3,"id":"t104_15","name":"ยโสธร · อำนาจเจริญ · ศรีสะเกษ","aoi":[104.0,15.0,105.0,16.0],"date":"2026-10-09","dates":["2026-10-09"],"baseline_years":3,"has_seasonal":true,"totals":{"flood_high":0.0,"flood_low":1.8,"seasonal":36.0},"provinces":[{"name":"ศรีสะเกษ","zone":"th-ne","flood_high":0.0,"flood_low":0.5,"seasonal":15.1},{"name":"ร้อยเอ็ด","zone":"th-ne","flood_high":0.0,"flood_low":0.5,"seasonal":1.8},{"name":"ยโสธร","zone":"th-ne","flood_high":0.0,"flood_low":0.3,"seasonal":4.3},{"name":"อำนาจเจริญ","zone":"th-ne","flood_high":0.0,"flood_low":0.2,"seasonal":5.0},{"name":"อุบลราชธานี","zone":"th-ne","flood_high":0.0,"flood_low":0.2,"seasonal":6.9},{"name":"สุรินทร์","zone":"th-ne","flood_high":0.0,"flood_low":0.1,"seasonal":2.8}],"scenes":{"2026-10-09":2},"baseline_dates":["2025-10-09","2024-10-06","2023-10-08"],"threshold_db":-15.0,"auto":true,"source":"Sentinel-1 RTC (Copernicus/ESA) via Microsoft Planetary Computer; JRC Global Surface Water; Copernicus DEM","method":"ChatGeo v3: Otsu threshold on VV dB; minus JRC permanent water and slope > 5 deg; unusual = water not present in most of the previous 3 years (same season)","added":"2026-10-11T01:54+07:00"},"features":[{"type":"Feature","properties":{"kind":"flood","area_km2":0.286,"conf":"low","date":"2026-10-09"},"geometry":{"type":"Polygon","coordinates":[[[104.361,15.1983],[104.3608,15.1975],[104.3597,15.1969],[104.3577,15.1972],[104.3577,15.1956],[104.3588,15.1953],[104.3588,15.1948],[104.3599,15.1948],[104.3599,15.1961],[104.3622,15.1961],[104.3622,15.1967],[104.3636,15.197],[104.365,15.197],[104.365,15.1956],[104.3636,15.1937],[104.3613,15.1937],[104.3613,15.1948],[104.3605,15.1948],[104.3602,15.1926],[104.3619,15.1926],[104.3625,15.1932],[104.3639,15.1932],[104.3644,15.1937],[104.3658,15.194],[104.3666,15.194],[104.3666,15.1932],[104.3672,15.1926],[104.3683,15.1926],[104.3689,15.1932],[104.3675,15.1934],[104.3675,15.1948],[104.3658,15.1953],[104.3658,15.1978],[104.3664,15.198],[104.3644,15.1983],[104.3619,15.1972],[104.3619,15.1983],[104.361,15.1983]]]}},{"type":"Feature","properties":{"kind":"flood","area_km2":0.144,"conf":"low","date":"2026-10-09"},"geometry":{"type":"Polygon","coordinates":[[[104.9743,15.9307],[104.9737,15.9299],[104.9726,15.9299],[104.9732,15.928],[104.9721,15.9272],[104.9721,15.9223],[104.9712,15.9212],[104.9695,15.9209],[104.9704,15.9199],[104.9726,15.9215],[104.9726,15.9258],[104.9729,15.9266],[104.9735,15.9266],[104.9735,15.9274],[104.974,15.9266],[104.9737,15.9255],[104.9746,15.9253],[104.974,15.9274],[104.9751,15.9291],[104.9751,15.9307],[104.9743,15.9307]],[[104.9732,15.9291],[104.9737,15.9293],[104.9737,15.9291],[104.9732,15.9291]],[[104.9737,15.9277],[104.974,15.9283],[104.974,15.9277],[104.9737,15.9277]]]}},{"type":"Feature","properties":{"kind":"flood","area_km2":0.133,"conf":"low","date":"2026-10-09"},"geometry":{"type":"Polygon","coordinates":[[[104.3454,15.8128],[104.3432,15.8125],[104.3432,15.8098],[104.3404,15.8098],[104.3404,15.8085],[104.344,15.8085],[104.3443,15.8093],[104.3452,15.8093],[104.3454,15.8128]]]}},{"type":"Feature","properties":{"kind":"flood","area_km2":0.118,"conf":"low","date":"2026-10-09"},"geometry":{"type":"Polygon","coordinates":[[[104.6284,15.4983],[104.6284,15.4975],[104.6278,15.4975],[104.6275,15.4945],[104.627,15.4937],[104.6273,15.4924],[104.6284,15.4924],[104.6298,15.4951],[104.6292,15.4983],[104.6284,15.4983]]]}},{"type":"Feature","properties":{"kind":"flood","area_km2":0.108,"conf":"low","date":"2026-10-09"},"geometry":{"type":"Polygon","coordinates":[[[104.1288,15.7608],[104.1288,15.76],[104.1274,15.76],[104.128,15.7565],[104.1291,15.7551],[104.1303,15.7551],[104.1297,15.7592],[104.1288,15.7608]]]}},{"type":"Feature","properties":{"kind":"flood","area_km2":0.104,"conf":"low","date":"2026-10-09"},"geometry":{"type":"Polygon","coordinates":[[[104.5178,15.1599],[104.5173,15.1591],[104.5175,15.1583],[104.5195,15.158],[104.5195,15.1575],[104.5203,15.1567],[104.5229,15.1567],[104.5228,15.158],[104.522,15.1583],[104.5212,15.1594],[104.5178,15.1599]],[[104.5201,15.1586],[104.5215,15.1586],[104.5215,15.1572],[104.5201,15.1572],[104.5201,15.1586]]]}},{"type":"Feature","properties":{"kind":"flood","area_km2":0.103,"conf":"low","date":"2026-10-09"},"geometry":{"type":"Polygon","coordinates":[[[104.3813,15.0687],[104.3804,15.0679],[104.3804,15.0674],[104.3821,15.0674],[104.3821,15.0679],[104.3829,15.0679],[104.3829,15.0668],[104.3821,15.0668],[104.3824,15.0663],[104.3838,15.0666],[104.3843,15.0657],[104.386,15.0655],[104.3854,15.0674],[104.384,15.0676],[104.384,15.0687],[104.3813,15.0687]]]}},{"type":"Feature","properties":{"kind":"flood","area_km2":0.096,"conf":"low","date":"2026-10-09"},"geometry":{"type":"Polygon","coordinates":[[[104.3356,15.8071],[104.334,15.8052],[104.3343,15.8038],[104.3354,15.8038],[104.3362,15.8047],[104.3376,15.8047],[104.3379,15.8052],[104.3379,15.806],[104.337,15.8068],[104.3356,15.8071]],[[104.3362,15.8049],[104.3365,15.8052],[104.3365,15.8049],[104.3362,15.8049]],[[104.3359,15.8047],[104.3362,15.8049],[104.3362,15.8047],[104.3359,15.8047]]]}},{"type":"Feature","properties":{"kind":"flood","area_km2":0.087,"conf":"low","date":"2026-10-09"},"geometry":{"type":"Polygon","coordinates":[[[104.0549,15.3949],[104.0546,15.393],[104.0594,15.3922],[104.0588,15.3925],[104.0588,15.3936],[104.0597,15.3936],[104.0599,15.3941],[104.058,15.3941],[104.0571,15.3936],[104.0571,15.3941],[104.0563,15.3941],[104.0557,15.3949],[104.0549,15.3949]]]}},{"type":"Feature","properties":{"kind":"flood","area_km2":0.077,"conf":"low","date":"2026-10-09"},"geometry":{"type":"Polygon","coordinates":[[[104.781,15.5973],[104.7804,15.5948],[104.7832,15.5948],[104.7841,15.5956],[104.7841,15.5965],[104.781,15.5973]]]}},{"type":"Feature","properties":{"kind":"flood","area_km2":0.075,"conf":"low","date":"2026-10-09"},"geometry":{"type":"Polygon","coordinates":[[[104.5698,15.5609],[104.5684,15.5595],[104.5673,15.5592],[104.5661,15.5579],[104.5689,15.5584],[104.5698,15.5593],[104.5712,15.5593],[104.5709,15.5609],[104.5698,15.5609]]]}},{"type":"Feature","properties":{"kind":"flood","area_km2":0.068,"conf":"low","date":"2026-10-09"},"geometry":{"type":"Polygon","coordinates":[[[104.0753,15.5284],[104.0739,15.5276],[104.0736,15.5263],[104.0761,15.5257],[104.0764,15.5284],[104.0753,15.5284]],[[104.0739,15.5268],[104.0742,15.5271],[104.0742,15.5268],[104.0739,15.5268]]]}},{"type":"Feature","properties":{"kind":"flood","area_km2":0.064,"conf":"low","date":"2026-10-09"},"geometry":{"type":"Polygon","coordinates":[[[104.0964,15.8033],[104.0967,15.8011],[104.0973,15.8011],[104.0979,15.8003],[104.0995,15.8006],[104.0976,15.8033],[104.0964,15.8033]]]}},{"type":"Feature","properties":{"kind":"flood","area_km2":0.061,"conf":"low","date":"2026-10-09"},"geometry":{"type":"Polygon","coordinates":[[[104.0843,15.8178],[104.0843,15.8168],[104.0838,15.8162],[104.0838,15.8146],[104.0852,15.8149],[104.086,15.8165],[104.0857,15.8176],[104.0843,15.8178]]]}},{"type":"Feature","properties":{"kind":"flood","area_km2":0.06,"conf":"low","date":"2026-10-09"},"geometry":{"type":"Polygon","coordinates":[[[104.069,15.8099],[104.067,15.8096],[104.067,15.8088],[104.0676,15.8088],[104.0676,15.808],[104.0681,15.808],[104.0676,15.8072],[104.0676,15.8061],[104.0693,15.8067],[104.0693,15.808],[104.0684,15.8083],[104.069,15.8099]]]}},{"type":"Feature","properties":{"kind":"flood","area_km2":0.059,"conf":"low","date":"2026-10-09"},"geometry":{"type":"Polygon","coordinates":[[[104.3415,15.8079],[104.3412,15.806],[104.3435,15.8055],[104.3435,15.8074],[104.3429,15.8079],[104.3415,15.8079]]]}},{"type":"Feature","properties":{"kind":"flood","area_km2":0.054,"conf":"low","date":"2026-10-09"},"geometry":{"type":"Polygon","coordinates":[[[104.0719,15.6678],[104.0716,15.6657],[104.0727,15.6657],[104.0727,15.6665],[104.073,15.6659],[104.0744,15.6662],[104.0744,15.6676],[104.073,15.6673],[104.0727,15.6678],[104.0719,15.6678]]]}},{"type":"Feature","properties":{"kind":"flood","area_km2":0.052,"conf":"low","date":"2026-10-09"},"geometry":{"type":"Polygon","coordinates":[[[104.1824,15.6715],[104.1824,15.6699],[104.1849,15.6699],[104.1846,15.6715],[104.1824,15.6715]]]}},{"type":"Feature","properties":{"kind":"flood","area_km2":0.051,"conf":"low","date":"2026-10-09"},"geometry":{"type":"Polygon","coordinates":[[[104.1082,15.01],[104.1077,15.0092],[104.1068,15.0092],[104.1066,15.0087],[104.1052,15.0087],[104.1052,15.0079],[104.1082,15.0079],[104.1082,15.0087],[104.1091,15.0092],[104.1091,15.01],[104.1082,15.01]]]}},{"type":"Feature","properties":{"kind":"flood","area_km2":0.05,"conf":"low","date":"2026-10-09"},"geometry":{"type":"Polygon","coordinates":[[[104.0527,15.8047],[104.0527,15.8039],[104.0533,15.8039],[104.0536,15.8033],[104.0544,15.8033],[104.055,15.8039],[104.0558,15.8028],[104.0567,15.8028],[104.0567,15.8039],[104.0558,15.8039],[104.0558,15.8044],[104.0527,15.8047]]]}},{"type":"Feature","properties":{"kind":"seasonal","area_km2":2.921,"date":"2026-10-09"},"geometry":{"type":"Polygon","coordinates":[[[104.0633,15.3855],[104.0628,15.3847],[104.0622,15.3847],[104.0619,15.3852],[104.0597,15.3852],[104.0603,15.3809],[104.0628,15.3795],[104.0636,15.3798],[104.0634,15.3792],[104.0639,15.3792],[104.0642,15.3787],[104.0653,15.3784],[104.0659,15.3776],[104.0667,15.3776],[104.0676,15.3768],[104.0676,15.376],[104.0681,15.3757],[104.0681,15.3725],[104.0687,15.3736],[104.0698,15.3736],[104.0701,15.373],[104.0695,15.3711],[104.069,15.3711],[104.069,15.3703],[104.0695,15.3703],[104.0696,15.3695],[104.069,15.3695],[104.069,15.369],[104.0701,15.3692],[104.0701,15.3687],[104.069,15.3681],[104.0684,15.3681],[104.0682,15.3687],[104.067,15.3681],[104.067,15.3687],[104.0665,15.3687],[104.0668,15.3679],[104.0662,15.3662],[104.0668,15.366],[104.0671,15.3665],[104.0671,15.3657],[104.0693,15.3635],[104.0699,15.3635],[104.0699,15.3646],[104.069,15.3649],[104.0687,15.366],[104.0696,15.3657],[104.0704,15.3635],[104.071,15.3633],[104.0724,15.3633],[104.0735,15.3646],[104.0746,15.3646],[104.0754,15.3655],[104.0754,15.366],[104.0743,15.3657],[104.0746,15.3665],[104.078,15.3663],[104.0788,15.3652],[104.0788,15.3641],[104.0794,15.3641],[104.0794,15.3622],[104.0802,15.362],[104.0799,15.3609],[104.0794,15.3609],[104.0794,15.3598],[104.0799,15.3598],[104.0799,15.3584],[104.0805,15.3579],[104.0808,15.3565],[104.0816,15.356],[104.0819,15.3571],[104.0819,15.3563],[104.0836,15.3557],[104.085,15.3541],[104.085,15.3536],[104.0856,15.3536],[104.0856,15.3528],[104.085,15.3528],[104.085,15.3522],[104.0861,15.3519],[104.0847,15.3517],[104.0858,15.3511],[104.0856,15.3503],[104.087,15.3509],[104.0878,15.3498],[104.0886,15.3495],[104.0886,15.349],[104.0895,15.349],[104.0892,15.3503],[104.0884,15.3506],[104.0889,15.3509],[104.0884,15.352],[104.0886,15.3536],[104.0872,15.3538],[104.087,15.353],[104.0861,15.3528],[104.0861,15.3541],[104.0883,15.3544],[104.0883,15.3549],[104.0847,15.3549],[104.0839,15.3557],[104.0836,15.3582],[104.0841,15.359],[104.0841,15.3606],[104.0855,15.3609],[104.0858,15.3614],[104.0866,15.3614],[104.0878,15.3623],[104.0886,15.3623],[104.0894,15.3631],[104.0894,15.3636],[104.0903,15.3639],[104.0903,15.365],[104.0894,15.3652],[104.0889,15.3647],[104.0889,15.3633],[104.0875,15.3623],[104.0855,15.3622],[104.0847,15.3628],[104.0838,15.3647],[104.0844,15.3652],[104.0844,15.3671],[104.0849,15.3677],[104.0849,15.3698],[104.0844,15.3701],[104.0844,15.3712],[104.0835,15.372],[104.0827,15.372],[104.0793,15.3739],[104.0785,15.376],[104.0787,15.3777],[104.0776,15.3777],[104.0768,15.3769],[104.0748,15.3766],[104.0748,15.3755],[104.0757,15.3755],[104.076,15.3741],[104.0771,15.3736],[104.0762,15.3731],[104.0748,15.3733],[104.0748,15.3725],[104.0743,15.3725],[104.0737,15.3714],[104.0729,15.3714],[104.0743,15.3733],[104.0743,15.3758],[104.0734,15.3763],[104.0734,15.3768],[104.0729,15.3768],[104.0729,15.3774],[104.0723,15.3774],[104.072,15.3785],[104.0712,15.379],[104.0695,15.3787],[104.0681,15.3801],[104.0659,15.3798],[104.0653,15.3803],[104.0653,15.3811],[104.0639,15.3809],[104.0628,15.3825],[104.0617,15.3828],[104.0617,15.3836],[104.0628,15.3838],[104.0642,15.383],[104.0673,15.3831],[104.0673,15.3822],[104.0678,15.382],[104.0709,15.3814],[104.0706,15.3847],[104.07,15.3841],[104.0701,15.3833],[104.0695,15.3831],[104.0692,15.385],[104.0667,15.3849],[104.0667,15.3844],[104.0661,15.3844],[104.0658,15.3852],[104.0633,15.3855]],[[104.0636,15.3844],[104.0639,15.3849],[104.0639,15.3844],[104.0636,15.3844]],[[104.0605,15.3833],[104.0608,15.3841],[104.0608,15.3833],[104.0605,15.3833]],[[104.0675,15.3831],[104.0678,15.3836],[104.0678,15.3831],[104.0675,15.3831]],[[104.0678,15.3782],[104.0681,15.3784],[104.0681,15.3782],[104.0678,15.3782]],[[104.0681,15.3782],[104.0695,15.3782],[104.0698,15.3776],[104.0687,15.3776],[104.0681,15.3782]],[[104.0698,15.3774],[104.0704,15.3776],[104.0704,15.3774],[104.0698,15.3774]],[[104.0704,15.3771],[104.0706,15.3774],[104.0706,15.3771],[104.0704,15.3771]],[[104.0687,15.3768],[104.0704,15.3763],[104.0704,15.3747],[104.0695,15.3757],[104.0684,15.3763],[104.0687,15.3768]],[[104.0706,15.3766],[104.0709,15.3768],[104.0709,15.3766],[104.0706,15.3766]],[[104.0709,15.3763],[104.0712,15.3766],[104.0712,15.3763],[104.0709,15.3763]],[[104.0712,15.3763],[104.0718,15.376],[104.0718,15.3744],[104.0712,15.3747],[104.0712,15.3763]],[[104.0768,15.3763],[104.0779,15.376],[104.0776,15.3747],[104.0765,15.3752],[104.0768,15.3763]],[[104.0684,15.3746],[104.069,15.3744],[104.069,15.3738],[104.0684,15.3738],[104.0684,15.3746]],[[104.079,15.3728],[104.0807,15.3728],[104.0807,15.3723],[104.079,15.372],[104.079,15.3728]],[[104.0715,15.3722],[104.0718,15.3725],[104.0718,15.3722],[104.0715,15.3722]],[[104.0771,15.3717],[104.0776,15.3714],[104.0777,15.3693],[104.0757,15.3693],[104.0749,15.3682],[104.0729,15.3684],[104.0724,15.3682],[104.0724,15.3676],[104.0718,15.3676],[104.0718,15.3671],[104.0707,15.3671],[104.071,15.3682],[104.0704,15.3679],[104.0701,15.3684],[104.0718,15.3687],[104.0718,15.3692],[104.0723,15.3692],[104.0726,15.3701],[104.0735,15.3703],[104.0737,15.3692],[104.0754,15.3693],[104.0754,15.3703],[104.0765,15.3706],[104.0771,15.3717]],[[104.0818,15.3709],[104.0824,15.3687],[104.0835,15.3682],[104.0841,15.3671],[104.0841,15.3658],[104.0835,15.3655],[104.0835,15.366],[104.0827,15.366],[104.083,15.3652],[104.0819,15.3652],[104.0819,15.3663],[104.0824,15.3663],[104.0818,15.3709]],[[104.0701,15.3692],[104.0704,15.3695],[104.0704,15.3692],[104.0701,15.3692]],[[104.0673,15.3676],[104.0676,15.3679],[104.0676,15.3676],[104.0673,15.3676]],[[104.0684,15.3671],[104.0687,15.3679],[104.0687,15.3671],[104.0684,15.3671]],[[104.0796,15.3674],[104.0799,15.3679],[104.0799,15.3674],[104.0796,15.3674]],[[104.0682,15.3662],[104.0687,15.3665],[104.0687,15.3662],[104.0682,15.3662]],[[104.0729,15.3663],[104.0738,15.3665],[104.0738,15.3663],[104.0729,15.3663]],[[104.0796,15.3655],[104.081,15.3658],[104.081,15.3652],[104.0799,15.3647],[104.0796,15.3655]],[[104.0813,15.3652],[104.0816,15.3658],[104.0816,15.3652],[104.0813,15.3652]],[[104.0819,15.3633],[104.0822,15.3647],[104.0819,15.3622],[104.0808,15.3622],[104.0819,15.3633]],[[104.0802,15.362],[104.0808,15.3622],[104.0808,15.362],[104.0802,15.362]],[[104.0844,15.3622],[104.085,15.3622],[104.0847,15.3612],[104.0844,15.3612],[104.0844,15.3622]]]}},{"type":"Feature","properties":{"kind":"seasonal","area_km2":2.489,"date":"2026-10-09"},"geometry":{"type":"Polygon","coordinates":[[[104.0852,15.382],[104.0852,15.3777],[104.0841,15.3777],[104.0843,15.3763],[104.0838,15.3763],[104.0838,15.3753],[104.0852,15.3747],[104.0855,15.3742],[104.0869,15.3739],[104.086,15.3728],[104.0849,15.3723],[104.0849,15.3717],[104.0858,15.3712],[104.0858,15.3704],[104.0863,15.3704],[104.0863,15.3677],[104.0855,15.3658],[104.0858,15.3641],[104.0875,15.3636],[104.0872,15.3669],[104.0883,15.3669],[104.0897,15.3661],[104.0914,15.3658],[104.0919,15.3644],[104.0919,15.3636],[104.0905,15.3636],[104.0903,15.3628],[104.0897,15.3628],[104.0886,15.3614],[104.0864,15.3606],[104.0864,15.3598],[104.0858,15.3598],[104.085,15.3587],[104.0853,15.3563],[104.0861,15.3563],[104.0864,15.3557],[104.0878,15.3557],[104.0886,15.3563],[104.0889,15.3574],[104.0889,15.3582],[104.0883,15.3582],[104.0883,15.3593],[104.0894,15.3587],[104.0914,15.359],[104.0922,15.3582],[104.0922,15.3563],[104.0911,15.3547],[104.0895,15.3541],[104.0895,15.3514],[104.0903,15.3511],[104.0912,15.3482],[104.0917,15.3476],[104.0928,15.3476],[104.092,15.3493],[104.0926,15.3493],[104.0931,15.3484],[104.0931,15.3503],[104.0937,15.3503],[104.0937,15.3512],[104.0931,15.3514],[104.0939,15.3517],[104.0942,15.3463],[104.0951,15.346],[104.0956,15.3468],[104.0959,15.346],[104.0984,15.3458],[104.0979,15.3463],[104.0979,15.3471],[104.0984,15.3471],[104.0987,15.3458],[104.0993,15.3458],[104.1001,15.3466],[104.1004,15.3482],[104.0984,15.3487],[104.0979,15.3498],[104.0979,15.3514],[104.0995,15.352],[104.1001,15.3553],[104.0992,15.3552],[104.0987,15.3536],[104.0981,15.3536],[104.0981,15.3531],[104.0973,15.3528],[104.0973,15.3536],[104.0959,15.3544],[104.0959,15.3555],[104.095,15.3558],[104.0945,15.3569],[104.095,15.3601],[104.0945,15.3604],[104.0945,15.3609],[104.097,15.3615],[104.097,15.3623],[104.0964,15.3628],[104.0945,15.3626],[104.0945,15.3631],[104.0939,15.3631],[104.0939,15.365],[104.0928,15.3658],[104.0928,15.3663],[104.0936,15.3663],[104.0942,15.3669],[104.0942,15.3677],[104.0919,15.3699],[104.0919,15.3704],[104.0908,15.369],[104.0902,15.3715],[104.0894,15.3718],[104.0894,15.3728],[104.0888,15.3734],[104.0916,15.3734],[104.0916,15.3745],[104.0922,15.3747],[104.0922,15.3761],[104.0916,15.3764],[104.0919,15.3804],[104.091,15.3815],[104.0902,15.3818],[104.0877,15.3815],[104.0874,15.382],[104.0852,15.382]],[[104.0877,15.3807],[104.0885,15.3802],[104.088,15.3785],[104.0868,15.3788],[104.0868,15.3799],[104.0877,15.3807]],[[104.0866,15.3782],[104.0868,15.3788],[104.0868,15.3783],[104.0866,15.3782]],[[104.091,15.3785],[104.0913,15.3788],[104.0913,15.3785],[104.091,15.3785]],[[104.0905,15.3772],[104.091,15.378],[104.0908,15.3737],[104.0894,15.3737],[104.0891,15.3753],[104.0896,15.3758],[104.0905,15.3758],[104.0905,15.3766],[104.0896,15.3766],[104.0894,15.3772],[104.0905,15.3772]],[[104.0871,15.3755],[104.088,15.3753],[104.0885,15.3739],[104.0871,15.375],[104.0871,15.3755]],[[104.086,15.372],[104.0869,15.3717],[104.0872,15.3709],[104.0877,15.3709],[104.0874,15.3696],[104.0866,15.3698],[104.0869,15.3704],[104.086,15.372]],[[104.0874,15.3688],[104.0886,15.3688],[104.0891,15.3677],[104.0875,15.3674],[104.0874,15.3688]],[[104.0894,15.3671],[104.09,15.3674],[104.09,15.3671],[104.0894,15.3671]],[[104.0931,15.3644],[104.0936,15.3642],[104.0936,15.3634],[104.0933,15.3639],[104.0928,15.3639],[104.0931,15.3644]],[[104.0919,15.3617],[104.0925,15.3617],[104.0928,15.3609],[104.0922,15.3609],[104.0919,15.3617]],[[104.0939,15.3604],[104.0942,15.3609],[104.0942,15.3604],[104.0939,15.3604]],[[104.0942,15.3601],[104.0945,15.3604],[104.0945,15.3601],[104.0942,15.3601]],[[104.092,15.359],[104.0925,15.3598],[104.0931,15.359],[104.092,15.359]],[[104.0931,15.3587],[104.0934,15.359],[104.0934,15.3588],[104.0931,15.3587]],[[104.0934,15.3585],[104.0936,15.3588],[104.0936,15.3585],[104.0934,15.3585]],[[104.0942,15.3563],[104.0945,15.3566],[104.0945,15.3563],[104.0942,15.3563]],[[104.0931,15.356],[104.0934,15.3563],[104.0934,15.356],[104.0931,15.356]],[[104.0934,15.355],[104.0948,15.355],[104.0953,15.3539],[104.0945,15.3539],[104.0942,15.3544],[104.0934,15.3541],[104.0934,15.355]],[[104.092,15.3528],[104.0923,15.3541],[104.0923,15.3528],[104.092,15.3528]],[[104.0917,15.3517],[104.092,15.3528],[104.092,15.3517],[104.0917,15.3517]],[[104.0914,15.3509],[104.0917,15.3512],[104.0917,15.3509],[104.0914,15.3509]],[[104.0945,15.3506],[104.0948,15.3509],[104.0948,15.3506],[104.0945,15.3506]],[[104.0962,15.3504],[104.0965,15.349],[104.0973,15.3487],[104.0973,15.3479],[104.0962,15.3485],[104.0962,15.3504]],[[104.0973,15.3479],[104.0979,15.3479],[104.0979,15.3474],[104.0976,15.3474],[104.0973,15.3479]]]}},{"type":"Feature","properties":{"kind":"seasonal","area_km2":1.724,"date":"2026-10-09"},"geometry":{"type":"Polygon","coordinates":[[[104.8239,15.4229],[104.8231,15.4218],[104.8234,15.4194],[104.8228,15.4191],[104.8223,15.4169],[104.8234,15.4167],[104.8239,15.4175],[104.8251,15.4172],[104.8253,15.4164],[104.8242,15.4161],[104.8242,15.415],[104.8248,15.4148],[104.8248,15.4142],[104.8242,15.4142],[104.8237,15.4153],[104.8203,15.4145],[104.8206,15.4118],[104.8223,15.4104],[104.8228,15.4091],[104.8226,15.4069],[104.822,15.4064],[104.8203,15.4061],[104.8178,15.4069],[104.8172,15.4064],[104.8172,15.4055],[104.8181,15.4045],[104.8192,15.4045],[104.8192,15.4034],[104.82,15.4028],[104.8212,15.4028],[104.8214,15.4036],[104.8237,15.4036],[104.8251,15.4031],[104.8251,15.4007],[104.8256,15.4001],[104.8276,15.3996],[104.8282,15.3985],[104.8298,15.3985],[104.8315,15.4001],[104.8312,15.402],[104.8301,15.4031],[104.827,15.4028],[104.8268,15.4034],[104.8259,15.4034],[104.8254,15.4045],[104.8259,15.4045],[104.8259,15.4053],[104.8273,15.4066],[104.829,15.4066],[104.8295,15.4058],[104.8304,15.4058],[104.8304,15.4107],[104.8309,15.4112],[104.8309,15.4129],[104.8304,15.4137],[104.8293,15.414],[104.8293,15.4161],[104.8281,15.4164],[104.8281,15.4169],[104.829,15.4175],[104.829,15.4188],[104.8279,15.4188],[104.8279,15.4183],[104.8267,15.418],[104.8267,15.4175],[104.8251,15.4188],[104.8239,15.4188],[104.8242,15.4199],[104.8253,15.4202],[104.8253,15.4191],[104.8262,15.4183],[104.827,15.4183],[104.827,15.4197],[104.8265,15.4207],[104.8259,15.4213],[104.8251,15.4213],[104.8251,15.4229],[104.8239,15.4229]],[[104.8259,15.4159],[104.8265,15.4159],[104.8276,15.4145],[104.8267,15.4142],[104.8259,15.4131],[104.8253,15.4131],[104.8251,15.414],[104.8259,15.414],[104.8259,15.4159]],[[104.8234,15.4126],[104.8242,15.4126],[104.8242,15.4123],[104.8231,15.4121],[104.8234,15.4126]],[[104.8251,15.4045],[104.8254,15.405],[104.8254,15.4045],[104.8251,15.4045]],[[104.8251,15.4034],[104.8254,15.4037],[104.8254,15.4034],[104.8251,15.4034]],[[104.8254,15.4031],[104.8256,15.4034],[104.8256,15.4031],[104.8254,15.4031]],[[104.827,15.4026],[104.8279,15.4023],[104.8279,15.4009],[104.8276,15.4009],[104.827,15.4026]],[[104.8287,15.4004],[104.8301,15.4001],[104.8301,15.3996],[104.8293,15.3996],[104.8287,15.4004]]]}},{"type":"Feature","properties":{"kind":"seasonal","area_km2":1.569,"date":"2026-10-09"},"geometry":{"type":"Polygon","coordinates":[[[104.7481,15.9162],[104.7481,15.9121],[104.7493,15.911],[104.7481,15.9097],[104.7456,15.9097],[104.7462,15.9072],[104.7451,15.9075],[104.7436,15.9089],[104.7417,15.9091],[104.7417,15.9078],[104.7425,15.9072],[104.7422,15.9064],[104.7417,15.9064],[104.742,15.9045],[104.7445,15.9045],[104.7462,15.9037],[104.7467,15.9032],[104.7465,15.9007],[104.7479,15.8996],[104.7479,15.8991],[104.7465,15.8983],[104.7456,15.8964],[104.7448,15.8964],[104.7437,15.898],[104.7437,15.8999],[104.7425,15.9002],[104.7423,15.898],[104.7417,15.898],[104.7411,15.8958],[104.7403,15.8947],[104.7403,15.8926],[104.7395,15.892],[104.7406,15.8893],[104.7403,15.8885],[104.7395,15.8882],[104.7395,15.8874],[104.7403,15.8866],[104.7423,15.8869],[104.742,15.8874],[104.7409,15.8874],[104.7409,15.8923],[104.7414,15.8923],[104.7411,15.8934],[104.7423,15.8939],[104.742,15.895],[104.7428,15.8945],[104.7428,15.895],[104.7437,15.8953],[104.7437,15.8966],[104.7448,15.8942],[104.7459,15.8945],[104.7465,15.8953],[104.7473,15.8956],[104.7473,15.8964],[104.7487,15.8986],[104.7487,15.8999],[104.7479,15.901],[104.7481,15.9021],[104.7484,15.901],[104.7493,15.901],[104.7493,15.9005],[104.7512,15.9007],[104.7501,15.9005],[104.7501,15.8999],[104.7493,15.8996],[104.7487,15.8969],[104.7487,15.8964],[104.7495,15.8964],[104.7495,15.8958],[104.7512,15.8958],[104.7512,15.8953],[104.749,15.8945],[104.7482,15.8934],[104.7504,15.8934],[104.751,15.8942],[104.7526,15.8948],[104.7538,15.8958],[104.7535,15.8969],[104.7515,15.8969],[104.7509,15.8977],[104.7501,15.898],[104.7501,15.8991],[104.7507,15.8996],[104.7526,15.8999],[104.7526,15.9018],[104.7532,15.9021],[104.7532,15.9032],[104.7515,15.9034],[104.7507,15.9042],[104.7507,15.9048],[104.7526,15.9053],[104.7532,15.9062],[104.7549,15.9067],[104.7551,15.9072],[104.756,15.9072],[104.756,15.9091],[104.7549,15.9091],[104.754,15.9081],[104.7515,15.9083],[104.7509,15.9089],[104.7509,15.9108],[104.7504,15.911],[104.7506,15.9127],[104.7492,15.9129],[104.7495,15.9159],[104.7481,15.9162]],[[104.7487,15.907],[104.749,15.9075],[104.7487,15.9064],[104.7493,15.9059],[104.7484,15.9056],[104.7484,15.9037],[104.7493,15.9034],[104.749,15.9026],[104.7484,15.9029],[104.7481,15.904],[104.7473,15.9045],[104.7473,15.9053],[104.7479,15.9053],[104.7481,15.9048],[104.7481,15.9067],[104.7487,15.907]],[[104.7481,15.9023],[104.7484,15.9029],[104.7484,15.9023],[104.7481,15.9023]],[[104.749,15.9015],[104.7493,15.9021],[104.7493,15.9015],[104.749,15.9015]],[[104.7487,15.9013],[104.749,15.9015],[104.749,15.9013],[104.7487,15.9013]]]}},{"type":"Feature","properties":{"kind":"seasonal","area_km2":1.032,"date":"2026-10-09"},"geometry":{"type":"Polygon","coordinates":[[[104.7974,15.4259],[104.7974,15.424],[104.8002,15.4226],[104.8002,15.421],[104.7993,15.4202],[104.7974,15.4202],[104.7968,15.4196],[104.796,15.4196],[104.7949,15.4185],[104.7949,15.4175],[104.796,15.4169],[104.796,15.4161],[104.7957,15.4153],[104.7946,15.4153],[104.7946,15.4139],[104.7979,15.4142],[104.7982,15.4147],[104.7996,15.4147],[104.8002,15.4156],[104.8024,15.4156],[104.8024,15.4164],[104.8033,15.4164],[104.8035,15.4169],[104.8041,15.4169],[104.8041,15.4161],[104.8027,15.4156],[104.8027,15.4148],[104.8066,15.4148],[104.8069,15.4156],[104.808,15.4156],[104.808,15.4167],[104.8074,15.4172],[104.8072,15.4186],[104.8086,15.4188],[104.8086,15.4183],[104.8097,15.4183],[104.81,15.4153],[104.8094,15.415],[104.8094,15.4142],[104.8102,15.4134],[104.8116,15.4131],[104.8116,15.4142],[104.8108,15.4148],[104.8108,15.4175],[104.8122,15.4183],[104.8122,15.4194],[104.8108,15.4194],[104.8105,15.4199],[104.8069,15.4199],[104.8066,15.4186],[104.8052,15.4183],[104.8035,15.4191],[104.8033,15.4202],[104.8019,15.4213],[104.8019,15.4223],[104.8013,15.4226],[104.8016,15.4256],[104.7974,15.4259]]]}},{"type":"Feature","properties":{"kind":"seasonal","area_km2":0.932,"date":"2026-10-09"},"geometry":{"type":"Polygon","coordinates":[[[104.4411,15.6528],[104.4408,15.6517],[104.4414,15.6514],[104.4414,15.6509],[104.4408,15.6509],[104.4408,15.6504],[104.4403,15.6504],[104.4403,15.6512],[104.4397,15.6514],[104.438,15.6504],[104.4375,15.6504],[104.4372,15.6509],[104.4361,15.6509],[104.4358,15.6504],[104.4352,15.6503],[104.4352,15.6493],[104.4344,15.649],[104.4344,15.6482],[104.435,15.6476],[104.435,15.6468],[104.4361,15.6468],[104.4369,15.6476],[104.4392,15.6476],[104.4392,15.6471],[104.44,15.6468],[104.4397,15.6466],[104.44,15.6452],[104.4392,15.6438],[104.4381,15.6438],[104.4375,15.6433],[104.4375,15.6425],[104.4389,15.6414],[104.4389,15.6409],[104.44,15.6398],[104.4409,15.6398],[104.4417,15.6387],[104.4425,15.6387],[104.442,15.6392],[104.4428,15.6392],[104.4431,15.6387],[104.4451,15.6387],[104.4451,15.6371],[104.4462,15.6371],[104.4465,15.6365],[104.4462,15.6355],[104.444,15.6357],[104.4431,15.6327],[104.4434,15.6317],[104.4426,15.6314],[104.442,15.6298],[104.4417,15.6232],[104.4423,15.6232],[104.4429,15.6249],[104.4426,15.6268],[104.4431,15.6273],[104.4431,15.6289],[104.4442,15.6308],[104.4454,15.6317],[104.4454,15.6325],[104.4459,15.6325],[104.4468,15.6341],[104.4473,15.6344],[104.4479,15.6371],[104.4467,15.6379],[104.4467,15.6387],[104.4453,15.6401],[104.4437,15.6403],[104.4431,15.6411],[104.4409,15.6417],[104.44,15.6425],[104.44,15.643],[104.4409,15.643],[104.4417,15.6441],[104.4425,15.6441],[104.4425,15.6449],[104.4414,15.6455],[104.4417,15.6477],[104.4425,15.6485],[104.4425,15.6493],[104.442,15.6493],[104.4417,15.6485],[104.4411,15.6487],[104.4417,15.6493],[104.4414,15.6504],[104.442,15.6506],[104.4419,15.6528],[104.4411,15.6528]],[[104.4397,15.6495],[104.4403,15.6493],[104.4403,15.6487],[104.4397,15.649],[104.4397,15.6495]],[[104.4392,15.649],[104.4394,15.6493],[104.4394,15.649],[104.4392,15.649]],[[104.4406,15.649],[104.4411,15.6485],[104.4406,15.6485],[104.4406,15.6482],[104.4403,15.6482],[104.4406,15.649]],[[104.44,15.6479],[104.4403,15.6482],[104.4403,15.6479],[104.44,15.6479]],[[104.44,15.6463],[104.4403,15.6466],[104.4403,15.6463],[104.44,15.6463]],[[104.4462,15.6352],[104.4465,15.6355],[104.4465,15.6352],[104.4462,15.6352]],[[104.4462,15.6341],[104.4465,15.6344],[104.4465,15.6341],[104.4462,15.6341]],[[104.4459,15.6338],[104.4462,15.6341],[104.4462,15.6338],[104.4459,15.6338]],[[104.4442,15.6322],[104.4445,15.6325],[104.4445,15.6322],[104.4442,15.6322]],[[104.444,15.6319],[104.4442,15.6322],[104.4442,15.6319],[104.444,15.6319]]]}},{"type":"Feature","properties":{"kind":"seasonal","area_km2":0.898,"date":"2026-10-09"},"geometry":{"type":"Polygon","coordinates":[[[104.5976,15.9075],[104.5971,15.907],[104.5971,15.9059],[104.596,15.9051],[104.596,15.9037],[104.5923,15.9046],[104.5898,15.9037],[104.5895,15.8978],[104.5887,15.8978],[104.5873,15.8967],[104.5859,15.8967],[104.585,15.8978],[104.585,15.8986],[104.5842,15.8986],[104.5839,15.8972],[104.5825,15.8959],[104.5789,15.8969],[104.5786,15.8964],[104.578,15.8964],[104.5783,15.8948],[104.5789,15.8948],[104.5789,15.8942],[104.5794,15.8942],[104.5803,15.8934],[104.5814,15.8934],[104.582,15.8929],[104.5834,15.8926],[104.5839,15.8915],[104.5851,15.8912],[104.5845,15.8929],[104.5836,15.8929],[104.5825,15.8937],[104.5811,15.8937],[104.5811,15.8945],[104.5806,15.8948],[104.582,15.8948],[104.5822,15.8942],[104.5845,15.8948],[104.585,15.895],[104.585,15.8967],[104.5859,15.8959],[104.5859,15.8953],[104.5881,15.8951],[104.5884,15.8967],[104.5901,15.8972],[104.5906,15.898],[104.5904,15.9002],[104.5915,15.9005],[104.5915,15.9013],[104.592,15.9018],[104.5929,15.901],[104.5929,15.9016],[104.594,15.9013],[104.5943,15.9021],[104.5951,15.9018],[104.5946,15.9018],[104.594,15.9008],[104.5929,15.9008],[104.5926,15.8991],[104.592,15.8991],[104.5918,15.8983],[104.5929,15.8975],[104.5929,15.897],[104.5951,15.8967],[104.594,15.8967],[104.594,15.8961],[104.5915,15.8961],[104.5918,15.894],[104.5904,15.8934],[104.5901,15.8929],[104.589,15.8929],[104.589,15.8923],[104.5926,15.8937],[104.5935,15.8951],[104.5954,15.8948],[104.5957,15.8962],[104.5965,15.8967],[104.5965,15.8975],[104.5937,15.898],[104.5932,15.8986],[104.5932,15.8997],[104.5962,15.9018],[104.5993,15.9021],[104.5993,15.9029],[104.5982,15.9035],[104.5982,15.9056],[104.5988,15.9059],[104.5988,15.9075],[104.5976,15.9075]],[[104.5957,15.9024],[104.596,15.9029],[104.596,15.9024],[104.5957,15.9024]],[[104.5951,15.9021],[104.5954,15.9024],[104.5954,15.9021],[104.5951,15.9021]]]}},{"type":"Feature","properties":{"kind":"seasonal","area_km2":0.806,"date":"2026-10-09"},"geometry":{"type":"Polygon","coordinates":[[[104.6562,15.9038],[104.6534,15.9017],[104.6515,15.9017],[104.6509,15.9022],[104.6501,15.9019],[104.6498,15.9025],[104.6489,15.9025],[104.6492,15.9],[104.6487,15.9],[104.6484,15.899],[104.6422,15.897],[104.6442,15.897],[104.6461,15.8976],[104.6467,15.8981],[104.6489,15.8981],[104.6495,15.8973],[104.6509,15.8973],[104.6523,15.8979],[104.6529,15.8987],[104.6537,15.8987],[104.654,15.8992],[104.6543,15.8984],[104.6529,15.8981],[104.6543,15.8979],[104.6537,15.8976],[104.6537,15.8971],[104.6531,15.8971],[104.6529,15.8962],[104.6531,15.8954],[104.6543,15.8965],[104.6543,15.8971],[104.6571,15.8973],[104.6576,15.8984],[104.6587,15.8992],[104.6618,15.899],[104.6643,15.8993],[104.6649,15.8998],[104.6649,15.9006],[104.6618,15.9014],[104.6621,15.903],[104.6615,15.903],[104.6613,15.9036],[104.6604,15.9036],[104.6599,15.9025],[104.659,15.9025],[104.659,15.903],[104.6582,15.9039],[104.6562,15.9038]],[[104.6562,15.902],[104.6568,15.9022],[104.6568,15.902],[104.6562,15.902]],[[104.6554,15.9019],[104.6562,15.902],[104.6562,15.9014],[104.6557,15.9003],[104.6557,15.899],[104.6548,15.899],[104.6548,15.8998],[104.6554,15.8998],[104.6554,15.9019]],[[104.6548,15.9009],[104.6551,15.9011],[104.6551,15.9009],[104.6548,15.9009]],[[104.6601,15.9001],[104.6604,15.9003],[104.6604,15.9001],[104.6601,15.9001]],[[104.6635,15.9001],[104.6638,15.9003],[104.6638,15.9001],[104.6635,15.9001]],[[104.6624,15.8995],[104.6627,15.8998],[104.6627,15.8995],[104.6624,15.8995]],[[104.6545,15.8987],[104.6548,15.899],[104.6548,15.8987],[104.6545,15.8987]],[[104.6489,15.8981],[104.6492,15.8984],[104.6492,15.8981],[104.6489,15.8981]],[[104.6565,15.8982],[104.6568,15.8984],[104.6568,15.8982],[104.6565,15.8982]]]}},{"type":"Feature","properties":{"kind":"seasonal","area_km2":0.771,"date":"2026-10-09"},"geometry":{"type":"Polygon","coordinates":[[[104.0802,15.6055],[104.08,15.6044],[104.0786,15.6044],[104.078,15.6036],[104.0758,15.6028],[104.0749,15.6019],[104.075,15.6009],[104.0755,15.6006],[104.0755,15.5998],[104.0761,15.5995],[104.0766,15.5976],[104.0778,15.5968],[104.0778,15.5952],[104.0783,15.5946],[104.0828,15.5946],[104.0831,15.5952],[104.0862,15.5955],[104.0864,15.6006],[104.0856,15.6042],[104.0842,15.6044],[104.0836,15.6052],[104.0802,15.6055]],[[104.0822,15.6031],[104.0825,15.6033],[104.0825,15.6031],[104.0822,15.6031]],[[104.0808,15.603],[104.0814,15.603],[104.0819,15.6009],[104.0828,15.6014],[104.0831,15.6031],[104.0842,15.6031],[104.0845,15.6025],[104.085,15.6025],[104.0848,15.5993],[104.0839,15.599],[104.0839,15.5976],[104.0825,15.596],[104.0817,15.596],[104.0808,15.5976],[104.0792,15.5982],[104.0792,15.599],[104.08,15.599],[104.0803,15.5995],[104.0789,15.5992],[104.0792,15.6003],[104.0783,15.6011],[104.0794,15.6017],[104.0794,15.6025],[104.0805,15.6025],[104.0808,15.603]],[[104.0769,15.6022],[104.0775,15.6019],[104.0772,15.6011],[104.0766,15.6011],[104.0769,15.6022]]]}},{"type":"Feature","properties":{"kind":"seasonal","area_km2":0.76,"date":"2026-10-09"},"geometry":{"type":"Polygon","coordinates":[[[104.2422,15.6888],[104.2422,15.6869],[104.2409,15.6861],[104.2403,15.6842],[104.2389,15.6831],[104.2392,15.679],[104.2398,15.6788],[104.2398,15.6771],[104.2339,15.6771],[104.2336,15.6766],[104.2311,15.6755],[104.2308,15.6744],[104.2294,15.6733],[104.2283,15.6728],[104.2269,15.6728],[104.2266,15.6698],[104.2294,15.6701],[104.2303,15.6711],[104.2314,15.6712],[104.2317,15.6717],[104.2322,15.6717],[104.2334,15.6695],[104.2342,15.6695],[104.2345,15.6706],[104.2336,15.6717],[104.2336,15.6736],[104.2342,15.6741],[104.2333,15.6739],[104.2331,15.6728],[104.2322,15.6728],[104.2311,15.6717],[104.2297,15.6714],[104.2297,15.6709],[104.2292,15.6711],[104.228,15.6703],[104.2269,15.6706],[104.2275,15.6706],[104.228,15.6717],[104.2289,15.6717],[104.2289,15.6722],[104.2297,15.6725],[104.2297,15.6733],[104.2311,15.6736],[104.2322,15.6744],[104.2325,15.6752],[104.2336,15.6755],[104.2339,15.676],[104.2384,15.6769],[104.24,15.6766],[104.2406,15.6772],[104.2414,15.6769],[104.2415,15.6758],[104.2426,15.6753],[104.2426,15.6742],[104.242,15.6744],[104.2403,15.6739],[104.2381,15.6739],[104.2373,15.6744],[104.2364,15.6742],[104.2381,15.6733],[104.2437,15.6734],[104.2445,15.6723],[104.2454,15.6723],[104.2459,15.6717],[104.2479,15.672],[104.2479,15.6728],[104.2473,15.6734],[104.2426,15.6755],[104.242,15.6766],[104.2411,15.6815],[104.242,15.6839],[104.2425,15.6842],[104.2425,15.685],[104.2453,15.6877],[104.2453,15.6888],[104.2422,15.6888]],[[104.2406,15.6826],[104.2409,15.682],[104.2403,15.6815],[104.2403,15.6823],[104.2406,15.6826]],[[104.24,15.6812],[104.2406,15.6812],[104.2406,15.6807],[104.24,15.6807],[104.24,15.6812]]]}},{"type":"Feature","properties":{"kind":"seasonal","area_km2":0.752,"date":"2026-10-09"},"geometry":{"type":"Polygon","coordinates":[[[104.7102,15.1564],[104.7086,15.1551],[104.7086,15.1545],[104.7046,15.1526],[104.7044,15.1521],[104.7033,15.1521],[104.7021,15.1513],[104.6988,15.151],[104.6985,15.1505],[104.6974,15.1507],[104.6982,15.1521],[104.7021,15.1521],[104.7024,15.1526],[104.7046,15.1535],[104.7058,15.1545],[104.7058,15.1554],[104.7032,15.1553],[104.703,15.1543],[104.7021,15.1543],[104.7019,15.1537],[104.6993,15.1537],[104.6988,15.1532],[104.6946,15.1532],[104.6968,15.1526],[104.6968,15.1515],[104.6946,15.1521],[104.6938,15.1529],[104.6943,15.1534],[104.6929,15.1537],[104.6918,15.1545],[104.691,15.1545],[104.691,15.1532],[104.6915,15.1529],[104.6915,15.1521],[104.6924,15.1521],[104.6924,15.1526],[104.6929,15.1526],[104.6926,15.1513],[104.6935,15.151],[104.694,15.1502],[104.6974,15.1494],[104.6982,15.1486],[104.7002,15.1486],[104.7005,15.1478],[104.7019,15.1475],[104.7058,15.1478],[104.7063,15.148],[104.7063,15.1486],[104.7044,15.1483],[104.7038,15.1494],[104.7047,15.1502],[104.7069,15.1505],[104.7069,15.1513],[104.7077,15.1513],[104.7077,15.1505],[104.7066,15.1494],[104.7069,15.1488],[104.7094,15.151],[104.7097,15.1526],[104.708,15.1526],[104.7077,15.1521],[104.7074,15.1526],[104.7091,15.1535],[104.7091,15.154],[104.7097,15.154],[104.7097,15.1545],[104.7111,15.1556],[104.7111,15.1564],[104.7102,15.1564]],[[104.7038,15.1537],[104.7041,15.154],[104.7041,15.1537],[104.7038,15.1537]],[[104.6924,15.1534],[104.6926,15.1537],[104.6926,15.1534],[104.6924,15.1534]],[[104.6996,15.1532],[104.703,15.1537],[104.703,15.1532],[104.7005,15.1524],[104.6991,15.1526],[104.6996,15.1532]],[[104.6971,15.1526],[104.6974,15.1529],[104.6974,15.1526],[104.6971,15.1526]],[[104.6935,15.1518],[104.6943,15.1521],[104.6943,15.1518],[104.6935,15.1518]],[[104.7063,15.1521],[104.7069,15.1516],[104.7055,15.1505],[104.7044,15.1505],[104.7038,15.1497],[104.7005,15.1494],[104.7005,15.1499],[104.7019,15.1499],[104.7021,15.1505],[104.7055,15.1513],[104.7063,15.1521]]]}},{"type":"Feature","properties":{"kind":"seasonal","area_km2":0.718,"date":"2026-10-09"},"geometry":{"type":"Polygon","coordinates":[[[104.3571,15.7448],[104.3574,15.7434],[104.3568,15.7434],[104.3568,15.7445],[104.3557,15.7445],[104.3549,15.7437],[104.3549,15.7429],[104.3557,15.7418],[104.3557,15.741],[104.3566,15.7407],[104.3591,15.7383],[104.3597,15.7367],[104.3622,15.7367],[104.363,15.7361],[104.3644,15.7361],[104.365,15.7356],[104.3672,15.7359],[104.3681,15.7356],[104.3686,15.7345],[104.3695,15.7345],[104.37,15.7351],[104.3731,15.7351],[104.3737,15.7345],[104.3737,15.7337],[104.3745,15.7334],[104.3745,15.7324],[104.3754,15.7324],[104.3756,15.7332],[104.3768,15.7343],[104.3773,15.7343],[104.3776,15.7351],[104.3787,15.7359],[104.3787,15.7389],[104.3795,15.7389],[104.3795,15.7397],[104.3812,15.7411],[104.3807,15.7413],[104.3793,15.7408],[104.3793,15.7402],[104.3784,15.7397],[104.3781,15.7383],[104.3784,15.7362],[104.3776,15.7354],[104.3768,15.7353],[104.3765,15.7345],[104.3754,15.7337],[104.3754,15.7332],[104.3748,15.7332],[104.374,15.7353],[104.3689,15.7351],[104.3686,15.7359],[104.3678,15.7364],[104.3647,15.7361],[104.3644,15.738],[104.3639,15.7383],[104.3639,15.7388],[104.3622,15.7388],[104.3627,15.7394],[104.3627,15.7407],[104.3608,15.7424],[104.3619,15.7424],[104.3619,15.7418],[104.3633,15.7421],[104.3641,15.7416],[104.3641,15.741],[104.3653,15.7407],[104.3653,15.7402],[104.3661,15.7402],[104.3667,15.7394],[104.3675,15.7397],[104.3667,15.7399],[104.3664,15.7407],[104.3647,15.7413],[104.363,15.7437],[104.3616,15.7437],[104.3608,15.7443],[104.3582,15.7442],[104.358,15.7448],[104.3571,15.7448]],[[104.3585,15.7432],[104.3594,15.7432],[104.3591,15.7415],[104.3594,15.7407],[104.3599,15.7407],[104.3599,15.7399],[104.3594,15.7399],[104.3591,15.741],[104.3583,15.7413],[104.3585,15.7426],[104.3591,15.7426],[104.3585,15.7432]]]}},{"type":"Feature","properties":{"kind":"seasonal","area_km2":0.703,"date":"2026-10-09"},"geometry":{"type":"Polygon","coordinates":[[[104.318,15.2231],[104.3174,15.2223],[104.3174,15.2204],[104.3199,15.2193],[104.3202,15.2169],[104.3208,15.2164],[104.3222,15.2161],[104.3236,15.2147],[104.3236,15.2126],[104.325,15.2112],[104.3255,15.2112],[104.3255,15.2107],[104.3261,15.2107],[104.3264,15.2096],[104.3269,15.2093],[104.3272,15.2077],[104.3281,15.2072],[104.33,15.2072],[104.3311,15.2077],[104.3314,15.2099],[104.3297,15.2112],[104.3297,15.2118],[104.3292,15.212],[104.3292,15.2131],[104.3283,15.2131],[104.328,15.2139],[104.3266,15.215],[104.3261,15.2164],[104.3252,15.2169],[104.3252,15.2185],[104.3236,15.2194],[104.321,15.2215],[104.3205,15.2215],[104.3188,15.2231],[104.318,15.2231]],[[104.3208,15.2199],[104.321,15.2202],[104.321,15.2199],[104.3208,15.2199]],[[104.321,15.2199],[104.3233,15.2194],[104.3241,15.2175],[104.3224,15.2174],[104.3213,15.218],[104.3213,15.2188],[104.3208,15.2191],[104.321,15.2199]],[[104.3261,15.2131],[104.3266,15.2129],[104.3264,15.2123],[104.3258,15.2123],[104.3261,15.2131]],[[104.3255,15.212],[104.3258,15.2123],[104.3258,15.212],[104.3255,15.212]],[[104.3267,15.2112],[104.3278,15.211],[104.3283,15.2101],[104.3289,15.2104],[104.3306,15.2102],[104.3294,15.2101],[104.3286,15.2091],[104.3281,15.2091],[104.3281,15.2101],[104.3267,15.2099],[104.3267,15.2112]],[[104.3289,15.2088],[104.3295,15.2091],[104.3295,15.2088],[104.3289,15.2088]]]}},{"type":"Feature","properties":{"kind":"seasonal","area_km2":0.57,"date":"2026-10-09"},"geometry":{"type":"Polygon","coordinates":[[[104.8097,15.4329],[104.8094,15.4321],[104.8074,15.4321],[104.8063,15.4313],[104.803,15.4316],[104.8024,15.4305],[104.8024,15.4289],[104.8013,15.4294],[104.8016,15.4324],[104.8007,15.4324],[104.7982,15.4299],[104.7971,15.4297],[104.7968,15.4275],[104.7977,15.4267],[104.7985,15.4267],[104.7988,15.4261],[104.8016,15.4261],[104.8021,15.4278],[104.8032,15.4291],[104.8044,15.4294],[104.8049,15.4302],[104.8072,15.4305],[104.8074,15.4289],[104.8094,15.4289],[104.8105,15.4283],[104.8102,15.427],[104.8125,15.4272],[104.8125,15.4286],[104.8114,15.4294],[104.8114,15.4313],[104.8105,15.4313],[104.8105,15.4329],[104.8097,15.4329]]]}},{"type":"Feature","properties":{"kind":"seasonal","area_km2":0.555,"date":"2026-10-09"},"geometry":{"type":"Polygon","coordinates":[[[104.3737,15.0717],[104.3734,15.0706],[104.3718,15.0706],[104.3709,15.0698],[104.3709,15.0692],[104.3729,15.0695],[104.374,15.0692],[104.3743,15.0684],[104.3773,15.0684],[104.3779,15.0682],[104.3779,15.0676],[104.3793,15.0674],[104.3762,15.0676],[104.376,15.0663],[104.3768,15.0655],[104.3737,15.0657],[104.3729,15.0652],[104.3729,15.0646],[104.3715,15.0646],[104.3715,15.0641],[104.3707,15.0641],[104.3709,15.0652],[104.3695,15.0657],[104.3701,15.0633],[104.3715,15.0633],[104.3718,15.0638],[104.3732,15.0641],[104.3732,15.0646],[104.3737,15.0646],[104.3743,15.0654],[104.3748,15.0654],[104.3748,15.0641],[104.3762,15.0641],[104.3762,15.0649],[104.3793,15.0646],[104.3807,15.0655],[104.3807,15.0663],[104.3815,15.0671],[104.3829,15.0668],[104.3829,15.0679],[104.3821,15.0679],[104.3821,15.0674],[104.3804,15.0674],[104.3804,15.0679],[104.3813,15.0687],[104.384,15.0687],[104.384,15.0701],[104.3829,15.0706],[104.3773,15.0701],[104.3768,15.0706],[104.3754,15.0706],[104.3745,15.0717],[104.3737,15.0717]],[[104.3776,15.0687],[104.3779,15.069],[104.3779,15.0687],[104.3776,15.0687]],[[104.3796,15.0676],[104.3799,15.0679],[104.3799,15.0676],[104.3796,15.0676]]]}},{"type":"Feature","properties":{"kind":"seasonal","area_km2":0.536,"date":"2026-10-09"},"geometry":{"type":"Polygon","coordinates":[[[104.0573,15.3586],[104.0568,15.3567],[104.0556,15.3564],[104.0556,15.3556],[104.057,15.3545],[104.0576,15.3534],[104.0593,15.3532],[104.0598,15.3537],[104.0607,15.3537],[104.0615,15.3524],[104.0632,15.3516],[104.0632,15.3497],[104.0618,15.3491],[104.0618,15.3478],[104.0613,15.3483],[104.0616,15.3453],[104.0616,15.3461],[104.0621,15.3461],[104.0621,15.3478],[104.0641,15.3489],[104.0635,15.3494],[104.0654,15.3497],[104.0657,15.3502],[104.0657,15.3508],[104.0646,15.3508],[104.0649,15.3519],[104.0657,15.3513],[104.0657,15.3519],[104.0652,15.3521],[104.0651,15.3546],[104.064,15.3548],[104.0637,15.3554],[104.0629,15.3554],[104.0615,15.3567],[104.0615,15.3573],[104.0607,15.3575],[104.0601,15.3583],[104.0573,15.3586]],[[104.057,15.3559],[104.0579,15.3559],[104.0579,15.3556],[104.0573,15.3553],[104.057,15.3559]],[[104.0643,15.3505],[104.0646,15.3508],[104.0646,15.3505],[104.0643,15.3505]]]}},{"type":"Feature","properties":{"kind":"seasonal","area_km2":0.527,"date":"2026-10-09"},"geometry":{"type":"Polygon","coordinates":[[[104.6394,15.925],[104.6374,15.9231],[104.6366,15.9231],[104.6366,15.9217],[104.6394,15.9212],[104.638,15.9209],[104.6371,15.9201],[104.6371,15.919],[104.6383,15.9182],[104.6383,15.9177],[104.6388,15.9179],[104.6394,15.9163],[104.6383,15.9141],[104.6385,15.9122],[104.6394,15.9122],[104.6391,15.9149],[104.6399,15.9158],[104.6399,15.9177],[104.6402,15.916],[104.6416,15.9158],[104.6397,15.9149],[104.6397,15.9144],[104.6405,15.9141],[104.6399,15.9114],[104.6411,15.9111],[104.6413,15.912],[104.643,15.9117],[104.6408,15.9128],[104.6405,15.9136],[104.6411,15.9139],[104.6413,15.9149],[104.6433,15.9163],[104.6433,15.9171],[104.6439,15.9166],[104.6461,15.9187],[104.6475,15.919],[104.6481,15.9209],[104.6475,15.9215],[104.6464,15.9215],[104.6458,15.9204],[104.6453,15.9204],[104.6447,15.9196],[104.6436,15.9193],[104.6425,15.9182],[104.6411,15.9193],[104.6394,15.9187],[104.6396,15.9198],[104.6402,15.9198],[104.6399,15.922],[104.6394,15.9225],[104.6396,15.9233],[104.6405,15.9239],[104.6402,15.925],[104.6394,15.925]],[[104.638,15.9204],[104.6382,15.9206],[104.6382,15.9204],[104.638,15.9204]],[[104.6397,15.9177],[104.6399,15.9179],[104.6399,15.9177],[104.6397,15.9177]],[[104.6439,15.9174],[104.6441,15.9177],[104.6441,15.9174],[104.6439,15.9174]],[[104.6422,15.9174],[104.6427,15.9171],[104.6427,15.9166],[104.6416,15.916],[104.6422,15.9174]],[[104.6436,15.9171],[104.6439,15.9174],[104.6439,15.9171],[104.6436,15.9171]],[[104.6402,15.9144],[104.6405,15.9147],[104.6405,15.9144],[104.6402,15.9144]]]}},{"type":"Feature","properties":{"kind":"seasonal","area_km2":0.526,"date":"2026-10-09"},"geometry":{"type":"Polygon","coordinates":[[[104.0673,15.4248],[104.0674,15.4235],[104.0665,15.4235],[104.066,15.4224],[104.0637,15.4224],[104.0637,15.4213],[104.0646,15.4207],[104.0649,15.4199],[104.066,15.4202],[104.0657,15.4218],[104.0668,15.4218],[104.0662,15.4216],[104.0662,15.4207],[104.0668,15.4207],[104.0668,15.4213],[104.0676,15.4216],[104.0676,15.4229],[104.0682,15.4229],[104.0682,15.4208],[104.069,15.4208],[104.0676,15.4205],[104.0674,15.4191],[104.0657,15.4175],[104.0668,15.4169],[104.0668,15.4161],[104.0663,15.4159],[104.066,15.4145],[104.0652,15.4145],[104.0654,15.4129],[104.0649,15.4129],[104.0646,15.4118],[104.066,15.4107],[104.0671,15.4107],[104.0688,15.4121],[104.0693,15.4161],[104.0682,15.4172],[104.0682,15.418],[104.0693,15.4186],[104.0696,15.4199],[104.0704,15.421],[104.0718,15.4213],[104.0718,15.4221],[104.0699,15.4221],[104.0693,15.4227],[104.069,15.4248],[104.0673,15.4248]],[[104.0674,15.4175],[104.0677,15.4178],[104.0677,15.4175],[104.0674,15.4175]],[[104.0671,15.4172],[104.0674,15.4175],[104.0674,15.4172],[104.0671,15.4172]],[[104.068,15.4137],[104.0682,15.4142],[104.0682,15.4137],[104.068,15.4137]],[[104.068,15.4129],[104.0682,15.4134],[104.0682,15.4129],[104.068,15.4129]],[[104.0654,15.4126],[104.0663,15.4129],[104.0663,15.4126],[104.0654,15.4126]],[[104.0666,15.4123],[104.0671,15.4126],[104.0671,15.4123],[104.0666,15.4123]]]}},{"type":"Feature","properties":{"kind":"seasonal","area_km2":0.501,"date":"2026-10-09"},"geometry":{"type":"Polygon","coordinates":[[[104.039,15.9923],[104.0387,15.9917],[104.0367,15.9917],[104.0367,15.9909],[104.0373,15.9909],[104.0373,15.9904],[104.0365,15.9909],[104.0337,15.9909],[104.0337,15.9893],[104.0334,15.9887],[104.0325,15.9887],[104.0323,15.9879],[104.0311,15.9885],[104.0317,15.9887],[104.0317,15.9895],[104.0306,15.9895],[104.0306,15.9906],[104.0272,15.9906],[104.0272,15.9898],[104.0295,15.9895],[104.0295,15.989],[104.0303,15.9887],[104.03,15.9868],[104.0292,15.9868],[104.0292,15.9857],[104.0306,15.9857],[104.0306,15.9849],[104.0314,15.9849],[104.0314,15.9857],[104.0309,15.9857],[104.0311,15.9871],[104.032,15.9863],[104.0331,15.9863],[104.0328,15.9874],[104.0334,15.9885],[104.0342,15.9882],[104.0337,15.9877],[104.034,15.9863],[104.0356,15.9866],[104.0362,15.9858],[104.037,15.9858],[104.0376,15.9869],[104.0387,15.9866],[104.039,15.9877],[104.0401,15.9877],[104.0401,15.9888],[104.0393,15.9888],[104.0395,15.9909],[104.0415,15.9909],[104.0415,15.9918],[104.0404,15.9918],[104.0404,15.9923],[104.039,15.9923]],[[104.0283,15.9901],[104.0286,15.9903],[104.0286,15.9901],[104.0283,15.9901]],[[104.037,15.9893],[104.0376,15.989],[104.0373,15.9877],[104.0351,15.9877],[104.0353,15.9885],[104.037,15.9893]]]}},{"type":"Feature","properties":{"kind":"seasonal","area_km2":0.444,"date":"2026-10-09"},"geometry":{"type":"Polygon","coordinates":[[[104.391,15.168],[104.391,15.1675],[104.3896,15.1669],[104.3896,15.1661],[104.3907,15.1661],[104.3921,15.165],[104.3935,15.1623],[104.3935,15.1615],[104.3944,15.161],[104.3941,15.1588],[104.3947,15.1585],[104.3947,15.158],[104.3955,15.1574],[104.3991,15.1569],[104.3997,15.1575],[104.3997,15.1599],[104.3989,15.1607],[104.3989,15.1613],[104.3969,15.1629],[104.3969,15.1634],[104.3958,15.1645],[104.3955,15.164],[104.3963,15.1634],[104.3966,15.1621],[104.3955,15.1631],[104.3944,15.1634],[104.3944,15.164],[104.393,15.165],[104.393,15.1656],[104.3941,15.1653],[104.3944,15.1648],[104.3952,15.165],[104.3938,15.1664],[104.3933,15.1664],[104.3927,15.1675],[104.391,15.168]],[[104.3966,15.1618],[104.3969,15.1621],[104.3969,15.1618],[104.3966,15.1618]],[[104.3969,15.1596],[104.3986,15.1599],[104.3991,15.1594],[104.3989,15.1583],[104.3969,15.1591],[104.3969,15.1596]]]}},{"type":"Feature","properties":{"kind":"seasonal","area_km2":0.418,"date":"2026-10-09"},"geometry":{"type":"Polygon","coordinates":[[[104.0055,15.3269],[104.0052,15.3264],[104.0044,15.3264],[104.0021,15.3253],[104.0016,15.3247],[104.0016,15.3231],[104.0024,15.3231],[104.0024,15.3242],[104.0032,15.3247],[104.0044,15.3247],[104.0049,15.3239],[104.0058,15.3239],[104.006,15.3245],[104.0072,15.3245],[104.0074,15.325],[104.008,15.325],[104.0083,15.3234],[104.0069,15.3237],[104.0069,15.3226],[104.008,15.3226],[104.0083,15.322],[104.0097,15.3223],[104.0116,15.3199],[104.0125,15.3199],[104.0125,15.3207],[104.013,15.3207],[104.0131,15.3191],[104.0142,15.3196],[104.0142,15.321],[104.0136,15.3215],[104.0142,15.3215],[104.0144,15.3221],[104.015,15.3218],[104.0164,15.3224],[104.0161,15.3229],[104.0172,15.3234],[104.0169,15.324],[104.0175,15.324],[104.0172,15.3248],[104.0167,15.3248],[104.0155,15.324],[104.0133,15.3237],[104.0128,15.3229],[104.0102,15.3229],[104.0091,15.324],[104.0091,15.3248],[104.0097,15.325],[104.0094,15.3264],[104.0069,15.3267],[104.0066,15.3256],[104.0066,15.3269],[104.0055,15.3269]],[[104.0085,15.3261],[104.0091,15.3256],[104.0088,15.325],[104.0086,15.325],[104.0085,15.3261]],[[104.0058,15.3247],[104.0066,15.325],[104.0066,15.3248],[104.0058,15.3247]],[[104.0052,15.3245],[104.0055,15.3247],[104.0055,15.3245],[104.0052,15.3245]],[[104.0161,15.324],[104.0164,15.3243],[104.0164,15.324],[104.0161,15.324]],[[104.0116,15.3221],[104.0136,15.3223],[104.013,15.3215],[104.0116,15.3215],[104.0116,15.3221]],[[104.0114,15.321],[104.0116,15.3213],[104.0116,15.321],[104.0114,15.321]]]}},{"type":"Feature","properties":{"kind":"seasonal","area_km2":0.387,"date":"2026-10-09"},"geometry":{"type":"Polygon","coordinates":[[[104.0975,15.4317],[104.0925,15.4303],[104.0903,15.4303],[104.0875,15.4282],[104.0863,15.4279],[104.0858,15.4273],[104.0858,15.4262],[104.0878,15.4254],[104.088,15.4263],[104.0891,15.4268],[104.0897,15.4276],[104.0936,15.4274],[104.0942,15.4282],[104.0964,15.4282],[104.097,15.4276],[104.0978,15.4277],[104.0978,15.4285],[104.0967,15.429],[104.0975,15.4317]]]}},{"type":"Feature","properties":{"kind":"seasonal","area_km2":0.383,"date":"2026-10-09"},"geometry":{"type":"Polygon","coordinates":[[[104.059,15.4096],[104.0582,15.408],[104.0554,15.4077],[104.0551,15.4061],[104.056,15.4055],[104.0557,15.4047],[104.0526,15.4047],[104.0529,15.4031],[104.0521,15.4028],[104.0521,15.402],[104.0526,15.402],[104.0529,15.4012],[104.0518,15.4006],[104.0512,15.3998],[104.0507,15.3998],[104.0507,15.3979],[104.0499,15.3976],[104.0499,15.396],[104.051,15.396],[104.0515,15.3974],[104.0524,15.3976],[104.0527,15.3984],[104.0546,15.3998],[104.0552,15.402],[104.0557,15.402],[104.0563,15.4047],[104.0585,15.4069],[104.0593,15.4069],[104.0599,15.4093],[104.059,15.4096]],[[104.0582,15.4071],[104.0588,15.4077],[104.0588,15.4072],[104.0582,15.4071]],[[104.0529,15.4041],[104.0549,15.4044],[104.0549,15.4042],[104.0529,15.4041]]]}},{"type":"Feature","properties":{"kind":"seasonal","area_km2":0.375,"date":"2026-10-09"},"geometry":{"type":"Polygon","coordinates":[[[104.3287,15.1011],[104.3276,15.0992],[104.3273,15.0973],[104.3267,15.097],[104.3267,15.0957],[104.3262,15.0951],[104.3254,15.0916],[104.3267,15.0916],[104.3281,15.0932],[104.329,15.0935],[104.3295,15.0954],[104.3301,15.096],[104.3315,15.0957],[104.3318,15.0968],[104.3326,15.0968],[104.3323,15.0984],[104.332,15.099],[104.3315,15.099],[104.3312,15.1003],[104.3301,15.1011],[104.3287,15.1011]],[[104.3298,15.0979],[104.3301,15.0981],[104.3301,15.0979],[104.3298,15.0979]],[[104.3309,15.0981],[104.3315,15.0981],[104.3312,15.0968],[104.3309,15.0968],[104.3309,15.0981]],[[104.3281,15.097],[104.329,15.0973],[104.329,15.0968],[104.3281,15.097]],[[104.3279,15.096],[104.3287,15.096],[104.3287,15.0951],[104.3281,15.0951],[104.3279,15.096]],[[104.329,15.0957],[104.3295,15.096],[104.3295,15.0957],[104.329,15.0957]],[[104.3279,15.0938],[104.3281,15.0941],[104.3281,15.0938],[104.3279,15.0938]]]}},{"type":"Feature","properties":{"kind":"seasonal","area_km2":0.372,"date":"2026-10-09"},"geometry":{"type":"Polygon","coordinates":[[[104.9241,15.2491],[104.9224,15.2475],[104.9216,15.2453],[104.9208,15.2442],[104.9199,15.244],[104.9194,15.2429],[104.9157,15.241],[104.9132,15.2407],[104.9121,15.2396],[104.9124,15.238],[104.9171,15.238],[104.9174,15.2385],[104.9194,15.2391],[104.9205,15.2402],[104.9219,15.2404],[104.9233,15.2421],[104.9233,15.2434],[104.9241,15.244],[104.9241,15.2475],[104.9249,15.2483],[104.9249,15.2491],[104.9241,15.2491]],[[104.9233,15.2467],[104.9238,15.2461],[104.9238,15.2448],[104.9233,15.2437],[104.9227,15.2437],[104.9219,15.2412],[104.9205,15.241],[104.9194,15.2399],[104.918,15.2399],[104.9177,15.2391],[104.9168,15.2388],[104.9171,15.2396],[104.9166,15.2399],[104.9171,15.2402],[104.9171,15.2407],[104.9199,15.2421],[104.9202,15.2431],[104.9219,15.2442],[104.9224,15.2459],[104.9233,15.2461],[104.9233,15.2467]],[[104.9163,15.2399],[104.9166,15.2402],[104.9166,15.2399],[104.9163,15.2399]]]}},{"type":"Feature","properties":{"kind":"seasonal","area_km2":0.367,"date":"2026-10-09"},"geometry":{"type":"Polygon","coordinates":[[[104.2349,15.2402],[104.2344,15.2378],[104.2352,15.237],[104.2352,15.2356],[104.2369,15.2337],[104.2369,15.2324],[104.2383,15.2324],[104.2389,15.2316],[104.2403,15.2318],[104.2405,15.2332],[104.2397,15.2351],[104.2391,15.2389],[104.2386,15.24],[104.2366,15.24],[104.2361,15.2394],[104.2361,15.2402],[104.2349,15.2402]],[[104.2375,15.2351],[104.2383,15.2351],[104.2391,15.2335],[104.2397,15.2332],[104.2389,15.2332],[104.2389,15.2337],[104.2375,15.2343],[104.2375,15.2351]]]}},{"type":"Feature","properties":{"kind":"seasonal","area_km2":0.364,"date":"2026-10-09"},"geometry":{"type":"Polygon","coordinates":[[[104.0778,15.391],[104.0778,15.3904],[104.0764,15.3904],[104.0762,15.3896],[104.0756,15.3901],[104.0753,15.388],[104.0765,15.3882],[104.0778,15.3896],[104.0793,15.388],[104.0793,15.3872],[104.0784,15.3869],[104.0779,15.3858],[104.0759,15.3855],[104.0759,15.3847],[104.0742,15.3847],[104.074,15.3834],[104.0726,15.3831],[104.0726,15.3825],[104.0731,15.3825],[104.0734,15.3817],[104.0745,15.3815],[104.0768,15.382],[104.0779,15.3828],[104.0782,15.3836],[104.0793,15.3842],[104.0795,15.385],[104.0801,15.385],[104.0801,15.3853],[104.0787,15.385],[104.0787,15.3858],[104.0801,15.3858],[104.0801,15.3869],[104.0807,15.3874],[104.0823,15.3875],[104.082,15.3885],[104.0804,15.3891],[104.0787,15.391],[104.0778,15.391]],[[104.0773,15.3834],[104.0776,15.3836],[104.0776,15.3834],[104.0773,15.3834]]]}},{"type":"Feature","properties":{"kind":"seasonal","area_km2":0.358,"date":"2026-10-09"},"geometry":{"type":"Polygon","coordinates":[[[104.7765,15.6021],[104.7762,15.6011],[104.7751,15.6008],[104.774,15.5997],[104.774,15.5989],[104.7771,15.5989],[104.7799,15.5975],[104.7804,15.5975],[104.7813,15.5986],[104.7821,15.5975],[104.7835,15.5973],[104.7846,15.5992],[104.7857,15.5989],[104.7843,15.6003],[104.7863,15.6003],[104.7869,15.5997],[104.7877,15.6],[104.7877,15.6008],[104.7869,15.6005],[104.7871,15.6011],[104.7866,15.6011],[104.7863,15.6019],[104.7852,15.6019],[104.7846,15.6011],[104.7807,15.5997],[104.7796,15.6008],[104.7785,15.6011],[104.7785,15.6016],[104.7779,15.6016],[104.7776,15.6021],[104.7765,15.6021]],[[104.786,15.6011],[104.7863,15.6013],[104.7863,15.6011],[104.786,15.6011]],[[104.7771,15.6008],[104.7782,15.6011],[104.7782,15.6008],[104.7771,15.6008]],[[104.7857,15.6008],[104.786,15.6011],[104.786,15.6008],[104.7857,15.6008]],[[104.7863,15.6003],[104.7866,15.6005],[104.7866,15.6003],[104.7863,15.6003]],[[104.7821,15.5986],[104.7824,15.5989],[104.7824,15.5986],[104.7821,15.5986]]]}},{"type":"Feature","properties":{"kind":"seasonal","area_km2":0.355,"date":"2026-10-09"},"geometry":{"type":"Polygon","coordinates":[[[104.026,15.4127],[104.0224,15.4121],[104.0224,15.4092],[104.0241,15.4078],[104.0241,15.407],[104.0235,15.4067],[104.0238,15.4062],[104.0244,15.4062],[104.0247,15.4054],[104.0258,15.4051],[104.0263,15.4043],[104.0277,15.4043],[104.0277,15.4051],[104.0297,15.4057],[104.0297,15.407],[104.0302,15.4073],[104.0302,15.4078],[104.0291,15.4076],[104.0289,15.407],[104.0277,15.4073],[104.0277,15.4067],[104.0252,15.4075],[104.0261,15.4078],[104.0258,15.4097],[104.0266,15.4095],[104.0272,15.4097],[104.0272,15.4103],[104.0266,15.4105],[104.0269,15.4122],[104.026,15.4127]],[[104.0263,15.4103],[104.0266,15.4105],[104.0266,15.4103],[104.0263,15.4103]],[[104.0238,15.41],[104.0244,15.4103],[104.0244,15.41],[104.0238,15.41]],[[104.0241,15.4094],[104.0246,15.4097],[104.0246,15.4094],[104.0241,15.4094]],[[104.0232,15.4092],[104.0235,15.4094],[104.0235,15.4092],[104.0232,15.4092]],[[104.0244,15.4084],[104.0246,15.4089],[104.0249,15.4084],[104.0244,15.4084]],[[104.0247,15.4056],[104.0249,15.4062],[104.0252,15.4057],[104.0247,15.4056]],[[104.0291,15.4059],[104.0294,15.4062],[104.0294,15.4059],[104.0291,15.4059]]]}},{"type":"Feature","properties":{"kind":"seasonal","area_km2":0.346,"date":"2026-10-09"},"geometry":{"type":"Polygon","coordinates":[[[104.0185,15.4116],[104.019,15.411],[104.0185,15.4108],[104.0185,15.4094],[104.0177,15.4089],[104.0171,15.4097],[104.0165,15.4097],[104.0163,15.4056],[104.0168,15.4072],[104.0174,15.4067],[104.0205,15.4067],[104.0196,15.4064],[104.0196,15.4051],[104.0202,15.4045],[104.0199,15.4035],[104.0213,15.4035],[104.0222,15.4027],[104.0216,15.4021],[104.023,15.4018],[104.0227,15.4032],[104.0238,15.4035],[104.0241,15.4046],[104.0247,15.4048],[104.0235,15.4051],[104.0233,15.4056],[104.0227,15.4056],[104.0224,15.4051],[104.021,15.4056],[104.0207,15.4064],[104.0221,15.4065],[104.0224,15.4059],[104.023,15.4062],[104.0216,15.4073],[104.0219,15.4081],[104.0213,15.4089],[104.0207,15.4089],[104.0199,15.4113],[104.0185,15.4116]]]}},{"type":"Feature","properties":{"kind":"seasonal","area_km2":0.31,"date":"2026-10-09"},"geometry":{"type":"Polygon","coordinates":[[[104.0325,15.4073],[104.033,15.407],[104.0328,15.4057],[104.0317,15.4051],[104.0305,15.404],[104.0305,15.4035],[104.0283,15.403],[104.0269,15.4029],[104.0266,15.4035],[104.0261,15.4035],[104.0261,15.4027],[104.025,15.4027],[104.0255,15.3997],[104.0264,15.3997],[104.0269,15.3989],[104.0286,15.3989],[104.0286,15.3997],[104.028,15.4],[104.0283,15.4008],[104.0289,15.4013],[104.0303,15.4011],[104.0306,15.4016],[104.0317,15.4013],[104.0322,15.4019],[104.0325,15.4038],[104.0328,15.4043],[104.0333,15.4043],[104.0328,15.4046],[104.0328,15.4051],[104.0336,15.4062],[104.0344,15.4062],[104.0342,15.4057],[104.0361,15.4054],[104.0361,15.406],[104.0353,15.406],[104.035,15.4065],[104.0325,15.4073]],[[104.0275,15.4024],[104.0278,15.4027],[104.0278,15.4024],[104.0275,15.4024]],[[104.0272,15.4016],[104.0275,15.4019],[104.0275,15.4016],[104.0272,15.4016]],[[104.0261,15.401],[104.0264,15.4013],[104.0264,15.401],[104.0261,15.401]],[[104.0264,15.4005],[104.0266,15.4008],[104.0266,15.4005],[104.0264,15.4005]]]}},{"type":"Feature","properties":{"kind":"seasonal","area_km2":0.296,"date":"2026-10-09"},"geometry":{"type":"Polygon","coordinates":[[[104.2889,15.2296],[104.288,15.2285],[104.2881,15.2276],[104.2889,15.2274],[104.2889,15.2241],[104.2903,15.2228],[104.2923,15.2225],[104.2928,15.2214],[104.2962,15.2212],[104.2959,15.2222],[104.2945,15.2228],[104.2934,15.2241],[104.2928,15.2241],[104.292,15.2249],[104.2917,15.2266],[104.2903,15.229],[104.2897,15.2296],[104.2889,15.2296]]]}},{"type":"Feature","properties":{"kind":"seasonal","area_km2":0.292,"date":"2026-10-09"},"geometry":{"type":"Polygon","coordinates":[[[104.9322,15.2377],[104.9289,15.2353],[104.9266,15.2353],[104.9238,15.2331],[104.9236,15.232],[104.9224,15.232],[104.9219,15.2317],[104.9219,15.2312],[104.9236,15.2312],[104.9238,15.2307],[104.9244,15.2307],[104.9241,15.2312],[104.9255,15.2328],[104.9277,15.2331],[104.928,15.2326],[104.9289,15.2326],[104.9297,15.2334],[104.9303,15.2334],[104.9303,15.2339],[104.9308,15.2339],[104.9319,15.2353],[104.9336,15.2353],[104.9339,15.2364],[104.9333,15.2377],[104.9322,15.2377]],[[104.9289,15.2336],[104.9291,15.2339],[104.9291,15.2336],[104.9289,15.2336]],[[104.9286,15.2334],[104.9289,15.2336],[104.9289,15.2334],[104.9286,15.2334]],[[104.9283,15.2331],[104.9286,15.2334],[104.9286,15.2331],[104.9283,15.2331]],[[104.928,15.2328],[104.9283,15.2331],[104.9283,15.2328],[104.928,15.2328]]]}},{"type":"Feature","properties":{"kind":"seasonal","area_km2":0.281,"date":"2026-10-09"},"geometry":{"type":"Polygon","coordinates":[[[104.2965,15.2217],[104.2967,15.219],[104.2979,15.2179],[104.299,15.2174],[104.3012,15.2174],[104.3023,15.2166],[104.304,15.2166],[104.3062,15.2152],[104.3071,15.2152],[104.3071,15.216],[104.3057,15.2174],[104.3037,15.2182],[104.3032,15.219],[104.3006,15.2196],[104.2995,15.2206],[104.2981,15.2206],[104.2978,15.2212],[104.2973,15.2212],[104.2973,15.2217],[104.2965,15.2217]]]}},{"type":"Feature","properties":{"kind":"seasonal","area_km2":0.279,"date":"2026-10-09"},"geometry":{"type":"Polygon","coordinates":[[[104.004,15.9742],[104.0026,15.9729],[104.0026,15.9715],[104.0035,15.9699],[104.0024,15.9691],[104.0015,15.9693],[104.0015,15.9674],[104.0018,15.968],[104.0026,15.968],[104.0029,15.9672],[104.0021,15.9672],[104.0021,15.9666],[104.0032,15.9656],[104.0041,15.9656],[104.0043,15.9664],[104.0055,15.9658],[104.006,15.968],[104.0054,15.968],[104.0046,15.9694],[104.006,15.9704],[104.006,15.9715],[104.0066,15.9718],[104.006,15.9721],[104.0054,15.974],[104.004,15.9742]],[[104.0046,15.9723],[104.0049,15.9726],[104.0049,15.9723],[104.0046,15.9723]],[[104.0049,15.9723],[104.0054,15.9723],[104.0054,15.9715],[104.0046,15.971],[104.0043,15.9718],[104.0049,15.9718],[104.0049,15.9723]],[[104.0018,15.9685],[104.0021,15.9688],[104.0021,15.9685],[104.0018,15.9685]],[[104.0046,15.9672],[104.0052,15.9675],[104.0052,15.9672],[104.0046,15.9672]]]}},{"type":"Feature","properties":{"kind":"seasonal","area_km2":0.275,"date":"2026-10-09"},"geometry":{"type":"Polygon","coordinates":[[[104.6019,15.1397],[104.6016,15.1381],[104.6008,15.1373],[104.6008,15.1367],[104.5966,15.1329],[104.5966,15.1319],[104.5958,15.1305],[104.5961,15.1289],[104.5986,15.1286],[104.5997,15.1302],[104.5997,15.131],[104.6008,15.1321],[104.6008,15.133],[104.6014,15.1332],[104.6014,15.134],[104.6022,15.1349],[104.6025,15.137],[104.603,15.1376],[104.6027,15.1397],[104.6019,15.1397]],[[104.6022,15.1392],[104.6025,15.1395],[104.6025,15.1392],[104.6022,15.1392]],[[104.6011,15.1365],[104.6019,15.1362],[104.6016,15.1354],[104.6011,15.1354],[104.6008,15.1332],[104.5989,15.1313],[104.5986,15.1321],[104.5975,15.1321],[104.5975,15.1327],[104.598,15.1329],[104.598,15.1335],[104.5986,15.1335],[104.5994,15.1351],[104.6011,15.1359],[104.6011,15.1365]]]}},{"type":"Feature","properties":{"kind":"seasonal","area_km2":0.263,"date":"2026-10-09"},"geometry":{"type":"Polygon","coordinates":[[[104.0711,15.4571],[104.0708,15.4566],[104.07,15.4566],[104.07,15.4555],[104.0706,15.4555],[104.0714,15.4544],[104.0703,15.4538],[104.0703,15.4528],[104.0695,15.4525],[104.0692,15.4514],[104.0689,15.4528],[104.0681,15.4528],[104.0675,15.4511],[104.0689,15.4511],[104.0681,15.4509],[104.0681,15.4498],[104.0686,15.4492],[104.0695,15.4492],[104.0692,15.4506],[104.0711,15.4517],[104.0714,15.4511],[104.072,15.4511],[104.0712,15.4484],[104.0723,15.4482],[104.0725,15.4503],[104.0731,15.4503],[104.0734,15.4509],[104.0734,15.4517],[104.0728,15.4517],[104.0728,15.4539],[104.0736,15.4541],[104.0736,15.4547],[104.0722,15.4552],[104.0722,15.4571],[104.0711,15.4571]],[[104.0723,15.4514],[104.0725,15.4517],[104.0725,15.4514],[104.0723,15.4514]]]}},{"type":"Feature","properties":{"kind":"seasonal","area_km2":0.262,"date":"2026-10-09"},"geometry":{"type":"Polygon","coordinates":[[[104.7872,15.2298],[104.787,15.2284],[104.7878,15.2276],[104.7889,15.2276],[104.7895,15.2271],[104.7889,15.2257],[104.7892,15.2227],[104.79,15.2227],[104.7903,15.2233],[104.7925,15.223],[104.7925,15.2271],[104.7917,15.2273],[104.7917,15.2279],[104.79,15.2276],[104.79,15.229],[104.7895,15.2289],[104.7886,15.2298],[104.7872,15.2298]],[[104.7911,15.2233],[104.7914,15.2235],[104.7914,15.2233],[104.7911,15.2233]]]}},{"type":"Feature","properties":{"kind":"seasonal","area_km2":0.239,"date":"2026-10-09"},"geometry":{"type":"Polygon","coordinates":[[[104.4281,15.7054],[104.4281,15.7032],[104.4273,15.7027],[104.4261,15.7027],[104.4253,15.7016],[104.4242,15.7013],[104.4242,15.6997],[104.4273,15.6997],[104.4278,15.7005],[104.4298,15.7011],[104.4303,15.7021],[104.432,15.703],[104.432,15.7035],[104.43,15.7038],[104.43,15.7043],[104.4295,15.7043],[104.4289,15.7054],[104.4281,15.7054]]]}},{"type":"Feature","properties":{"kind":"seasonal","area_km2":0.239,"date":"2026-10-09"},"geometry":{"type":"Polygon","coordinates":[[[104.708,15.1743],[104.708,15.173],[104.7094,15.1705],[104.7094,15.1697],[104.7108,15.1692],[104.711,15.1686],[104.713,15.1689],[104.7136,15.1695],[104.7133,15.1716],[104.7119,15.173],[104.7113,15.173],[104.7113,15.1735],[104.7099,15.1738],[104.7094,15.1743],[104.708,15.1743]]]}},{"type":"Feature","properties":{"kind":"seasonal","area_km2":0.238,"date":"2026-10-09"},"geometry":{"type":"Polygon","coordinates":[[[104.313,15.8618],[104.313,15.8613],[104.3136,15.8613],[104.3136,15.8607],[104.3153,15.8594],[104.3198,15.8594],[104.3198,15.8588],[104.3203,15.8588],[104.3198,15.8578],[104.3198,15.8564],[104.3192,15.8559],[104.3131,15.8558],[104.3122,15.8564],[104.3091,15.8561],[104.3114,15.8561],[104.3128,15.8553],[104.3167,15.8556],[104.3209,15.8542],[104.3209,15.8548],[104.3215,15.8551],[104.3215,15.8583],[104.3209,15.8599],[104.3195,15.8607],[104.3184,15.8607],[104.3175,15.8597],[104.3156,15.8596],[104.3142,15.8618],[104.313,15.8618]]]}},{"type":"Feature","properties":{"kind":"seasonal","area_km2":0.234,"date":"2026-10-09"},"geometry":{"type":"Polygon","coordinates":[[[104.6382,15.4764],[104.6376,15.4758],[104.6376,15.475],[104.6388,15.4731],[104.6388,15.468],[104.6413,15.4677],[104.6416,15.4688],[104.6404,15.471],[104.6399,15.4712],[104.6396,15.4729],[104.6399,15.4742],[104.6404,15.4748],[104.6429,15.475],[104.6429,15.4758],[104.6418,15.4764],[104.6407,15.4764],[104.6404,15.4758],[104.6382,15.4764]]]}},{"type":"Feature","properties":{"kind":"seasonal","area_km2":0.229,"date":"2026-10-09"},"geometry":{"type":"Polygon","coordinates":[[[104.9308,15.1422],[104.9306,15.1341],[104.9314,15.1333],[104.9325,15.1333],[104.9334,15.1346],[104.9334,15.1355],[104.9328,15.136],[104.9331,15.142],[104.9308,15.1422]],[[104.9308,15.1352],[104.9311,15.1355],[104.9311,15.1352],[104.9308,15.1352]],[[104.9308,15.1346],[104.9311,15.1349],[104.9311,15.1346],[104.9308,15.1346]]]}},{"type":"Feature","properties":{"kind":"seasonal","area_km2":0.225,"date":"2026-10-09"},"geometry":{"type":"Polygon","coordinates":[[[104.9892,15.187],[104.9892,15.1848],[104.9875,15.1846],[104.9878,15.1851],[104.9872,15.1854],[104.9872,15.1859],[104.9867,15.1857],[104.9867,15.1848],[104.9872,15.1838],[104.9884,15.1835],[104.9892,15.1827],[104.9898,15.18],[104.9914,15.1797],[104.9923,15.1808],[104.9923,15.1824],[104.9931,15.1832],[104.9939,15.1832],[104.9939,15.184],[104.9923,15.184],[104.992,15.1846],[104.9903,15.1843],[104.9898,15.1848],[104.9892,15.187]],[[104.9892,15.1838],[104.9895,15.1843],[104.9895,15.1838],[104.9892,15.1838]],[[104.9895,15.1835],[104.99,15.1843],[104.99,15.1835],[104.9895,15.1835]],[[104.99,15.1824],[104.9903,15.1827],[104.9903,15.1824],[104.99,15.1824]],[[104.9909,15.1824],[104.9912,15.1827],[104.9912,15.1824],[104.9909,15.1824]],[[104.9906,15.1819],[104.9909,15.1824],[104.9909,15.1819],[104.9906,15.1819]]]}},{"type":"Feature","properties":{"kind":"seasonal","area_km2":0.223,"date":"2026-10-09"},"geometry":{"type":"Polygon","coordinates":[[[104.574,15.1367],[104.574,15.1353],[104.5746,15.1362],[104.5751,15.1362],[104.5751,15.1353],[104.5757,15.1356],[104.576,15.1351],[104.5768,15.1351],[104.5768,15.1345],[104.5773,15.1345],[104.5771,15.134],[104.5779,15.1337],[104.5779,15.1324],[104.5768,15.1316],[104.5768,15.1305],[104.5799,15.1302],[104.5807,15.131],[104.5804,15.1343],[104.5799,15.1343],[104.5799,15.1348],[104.5793,15.1348],[104.5793,15.1354],[104.5787,15.1354],[104.5787,15.1359],[104.5779,15.1367],[104.574,15.1367]],[[104.5782,15.1332],[104.5785,15.1335],[104.5785,15.1332],[104.5782,15.1332]],[[104.5787,15.1332],[104.579,15.1335],[104.579,15.1332],[104.5787,15.1332]],[[104.5793,15.1329],[104.5796,15.1332],[104.5796,15.1329],[104.5793,15.1329]],[[104.5782,15.1326],[104.579,15.1326],[104.5799,15.1313],[104.5776,15.1313],[104.5776,15.1321],[104.5782,15.1321],[104.5782,15.1326]],[[104.5799,15.1316],[104.5801,15.1318],[104.5801,15.1316],[104.5799,15.1316]]]}},{"type":"Feature","properties":{"kind":"seasonal","area_km2":0.22,"date":"2026-10-09"},"geometry":{"type":"Polygon","coordinates":[[[104.0774,15.366],[104.076,15.3657],[104.0757,15.3646],[104.0749,15.3646],[104.0746,15.3641],[104.0735,15.3638],[104.0746,15.363],[104.0749,15.3636],[104.0754,15.3636],[104.076,15.3627],[104.0766,15.3627],[104.0766,15.3622],[104.076,15.3619],[104.0771,15.3609],[104.0771,15.3587],[104.0777,15.3581],[104.0788,15.3581],[104.0791,15.3571],[104.0799,15.3571],[104.0799,15.3576],[104.0794,15.3576],[104.0791,15.3582],[104.0788,15.3595],[104.0791,15.3622],[104.0785,15.3622],[104.0782,15.3633],[104.0777,15.3636],[104.0777,15.3641],[104.0782,15.3641],[104.0782,15.3649],[104.0774,15.366]],[[104.0766,15.3644],[104.0768,15.3646],[104.0768,15.3644],[104.0766,15.3644]],[[104.0783,15.3595],[104.0788,15.3595],[104.0788,15.3587],[104.0783,15.3587],[104.0783,15.3595]]]}},{"type":"Feature","properties":{"kind":"seasonal","area_km2":0.216,"date":"2026-10-09"},"geometry":{"type":"Polygon","coordinates":[[[104.0241,15.3384],[104.0227,15.3368],[104.0228,15.3357],[104.0261,15.3341],[104.0278,15.3341],[104.0286,15.3352],[104.0283,15.3371],[104.0258,15.3384],[104.0241,15.3384]]]}},{"type":"Feature","properties":{"kind":"seasonal","area_km2":0.212,"date":"2026-10-09"},"geometry":{"type":"Polygon","coordinates":[[[104.8139,15.4356],[104.8136,15.4348],[104.8122,15.4337],[104.8105,15.4337],[104.8105,15.4329],[104.8144,15.4329],[104.8144,15.4337],[104.8155,15.4337],[104.8153,15.4324],[104.8161,15.4324],[104.8161,15.4332],[104.8167,15.4335],[104.8175,15.4321],[104.8169,15.4316],[104.8169,15.43],[104.8186,15.4305],[104.8186,15.4338],[104.8181,15.4343],[104.8172,15.4343],[104.8158,15.4356],[104.8139,15.4356]]]}},{"type":"Feature","properties":{"kind":"seasonal","area_km2":0.21,"date":"2026-10-09"},"geometry":{"type":"Polygon","coordinates":[[[104.534,15.1439],[104.5335,15.1431],[104.5315,15.1426],[104.5307,15.1415],[104.5296,15.1415],[104.5296,15.141],[104.5288,15.1409],[104.5288,15.1404],[104.5293,15.1404],[104.5293,15.1396],[104.5276,15.1401],[104.5276,15.1393],[104.5285,15.1393],[104.5285,15.1388],[104.5302,15.1391],[104.5296,15.1393],[104.5296,15.1401],[104.5301,15.1401],[104.5301,15.1407],[104.531,15.141],[104.5363,15.1407],[104.5382,15.1418],[104.5382,15.1412],[104.5371,15.1407],[104.5377,15.1404],[104.5388,15.1412],[104.5388,15.1431],[104.538,15.1431],[104.5363,15.142],[104.5363,15.1434],[104.5354,15.1434],[104.5354,15.1439],[104.534,15.1439]],[[104.5346,15.1431],[104.5354,15.1431],[104.5352,15.142],[104.5343,15.1423],[104.5346,15.1431]],[[104.5327,15.1429],[104.5335,15.1429],[104.5335,15.1415],[104.5329,15.141],[104.5315,15.1412],[104.5315,15.142],[104.5327,15.1423],[104.5327,15.1429]]]}},{"type":"Feature","properties":{"kind":"seasonal","area_km2":0.205,"date":"2026-10-09"},"geometry":{"type":"Polygon","coordinates":[[[104.0081,15.0568],[104.0076,15.056],[104.0076,15.0538],[104.007,15.053],[104.007,15.0519],[104.0076,15.0517],[104.0076,15.0511],[104.009,15.0514],[104.0098,15.0536],[104.0126,15.0536],[104.0126,15.0547],[104.012,15.0555],[104.0101,15.0557],[104.0092,15.0568],[104.0081,15.0568]]]}},{"type":"Feature","properties":{"kind":"seasonal","area_km2":0.201,"date":"2026-10-09"},"geometry":{"type":"Polygon","coordinates":[[[104.4853,15.5439],[104.4842,15.5428],[104.4848,15.5406],[104.4837,15.5398],[104.4825,15.5398],[104.4817,15.539],[104.4817,15.5385],[104.4809,15.5382],[104.4803,15.5374],[104.4792,15.5376],[104.4792,15.5363],[104.4797,15.5357],[104.4811,15.536],[104.4811,15.5357],[104.482,15.5352],[104.4823,15.5338],[104.4834,15.5341],[104.4834,15.5357],[104.4828,15.536],[104.4828,15.5368],[104.4848,15.5368],[104.4848,15.5374],[104.4842,15.5371],[104.4842,15.5376],[104.4823,15.5374],[104.4809,15.5376],[104.4823,15.5379],[104.4825,15.5387],[104.4842,15.5387],[104.4848,15.5393],[104.4848,15.5404],[104.4853,15.5406],[104.485,15.5431],[104.4862,15.5431],[104.4862,15.5425],[104.4867,15.5423],[104.4864,15.5439],[104.4853,15.5439]],[[104.482,15.5363],[104.4823,15.5368],[104.4823,15.5363],[104.482,15.5363]],[[104.4814,15.5363],[104.482,15.5363],[104.4823,15.5357],[104.4814,15.5357],[104.4814,15.5363]]]}},{"type":"Feature","properties":{"kind":"seasonal","area_km2":0.201,"date":"2026-10-09"},"geometry":{"type":"Polygon","coordinates":[[[104.067,15.437],[104.067,15.4327],[104.0665,15.4324],[104.0656,15.4338],[104.0648,15.4338],[104.0642,15.4332],[104.0642,15.4324],[104.0662,15.4319],[104.0668,15.4321],[104.0679,15.4316],[104.0676,15.43],[104.0698,15.4294],[104.0695,15.4338],[104.0679,15.437],[104.067,15.437]]]}},{"type":"Feature","properties":{"kind":"seasonal","area_km2":0.197,"date":"2026-10-09"},"geometry":{"type":"Polygon","coordinates":[[[104.6433,15.8922],[104.6422,15.8919],[104.6422,15.8908],[104.647,15.8903],[104.6473,15.8895],[104.6459,15.8895],[104.6459,15.8886],[104.6453,15.8886],[104.6453,15.8881],[104.6436,15.8884],[104.6425,15.8876],[104.6391,15.8878],[104.6389,15.887],[104.6377,15.887],[104.638,15.8865],[104.64,15.8865],[104.6403,15.887],[104.6422,15.8873],[104.6456,15.8873],[104.6464,15.8886],[104.6487,15.8886],[104.6492,15.8889],[104.6492,15.8903],[104.6504,15.8903],[104.645,15.8914],[104.6431,15.8914],[104.6433,15.8922]],[[104.6475,15.8897],[104.6478,15.89],[104.6478,15.8897],[104.6475,15.8897]]]}},{"type":"Feature","properties":{"kind":"seasonal","area_km2":0.197,"date":"2026-10-09"},"geometry":{"type":"Polygon","coordinates":[[[104.286,15.2445],[104.2841,15.2426],[104.2835,15.2409],[104.2838,15.239],[104.2847,15.239],[104.2852,15.2401],[104.2858,15.2401],[104.2863,15.2409],[104.288,15.2415],[104.288,15.242],[104.2888,15.242],[104.2894,15.2426],[104.2894,15.2434],[104.286,15.2445]]]}},{"type":"Feature","properties":{"kind":"seasonal","area_km2":0.196,"date":"2026-10-09"},"geometry":{"type":"Polygon","coordinates":[[[104.77,15.6103],[104.7701,15.6092],[104.7706,15.6084],[104.7703,15.6067],[104.7712,15.6059],[104.7723,15.6059],[104.7726,15.6051],[104.7737,15.6046],[104.7737,15.6035],[104.7745,15.6027],[104.7745,15.6021],[104.7759,15.6021],[104.7765,15.6027],[104.7762,15.6043],[104.7757,15.6043],[104.7748,15.6059],[104.7731,15.607],[104.7731,15.6076],[104.7723,15.6081],[104.7723,15.6086],[104.7717,15.6086],[104.7712,15.61],[104.77,15.6103]],[[104.7715,15.6076],[104.7717,15.6078],[104.7717,15.6076],[104.7715,15.6076]],[[104.7717,15.6067],[104.772,15.607],[104.772,15.6067],[104.7717,15.6067]],[[104.772,15.6065],[104.7723,15.6067],[104.7723,15.6065],[104.772,15.6065]],[[104.7723,15.6062],[104.7726,15.6065],[104.7726,15.6062],[104.7723,15.6062]],[[104.7748,15.6035],[104.7759,15.6038],[104.7757,15.6024],[104.7748,15.603],[104.7748,15.6035]]]}},{"type":"Feature","properties":{"kind":"seasonal","area_km2":0.193,"date":"2026-10-09"},"geometry":{"type":"Polygon","coordinates":[[[104.5616,15.4508],[104.5611,15.4499],[104.5608,15.447],[104.5622,15.4448],[104.5619,15.4434],[104.563,15.4434],[104.5641,15.4445],[104.563,15.4442],[104.5625,15.4453],[104.563,15.4459],[104.5644,15.4459],[104.5653,15.4464],[104.5644,15.4472],[104.5627,15.4505],[104.5616,15.4508]]]}},{"type":"Feature","properties":{"kind":"seasonal","area_km2":0.191,"date":"2026-10-09"},"geometry":{"type":"Polygon","coordinates":[[[104.4473,15.6466],[104.447,15.6444],[104.4476,15.6433],[104.4459,15.6428],[104.4456,15.6412],[104.4459,15.6401],[104.447,15.639],[104.4479,15.639],[104.4484,15.642],[104.449,15.642],[104.4487,15.6436],[104.4495,15.6441],[104.4495,15.6452],[104.449,15.6463],[104.4473,15.6466]],[[104.4476,15.6425],[104.4481,15.6425],[104.4479,15.6417],[104.4476,15.6417],[104.4476,15.6425]]]}},{"type":"Feature","properties":{"kind":"seasonal","area_km2":0.19,"date":"2026-10-09"},"geometry":{"type":"Polygon","coordinates":[[[104.0186,15.3256],[104.0186,15.3251],[104.0178,15.3248],[104.0181,15.3234],[104.0178,15.3229],[104.0172,15.3229],[104.0172,15.3218],[104.0181,15.3221],[104.0183,15.3213],[104.0197,15.3216],[104.0197,15.3213],[104.0203,15.321],[104.0206,15.3188],[104.022,15.3191],[104.022,15.3186],[104.0212,15.3186],[104.0212,15.3178],[104.0231,15.318],[104.0234,15.321],[104.0228,15.3216],[104.0211,15.3216],[104.0209,15.3221],[104.02,15.3221],[104.0192,15.3232],[104.0194,15.3251],[104.0186,15.3256]],[[104.0186,15.3232],[104.0189,15.3235],[104.0189,15.3232],[104.0186,15.3232]],[[104.02,15.3213],[104.0206,15.3216],[104.0206,15.3213],[104.02,15.3213]]]}},{"type":"Feature","properties":{"kind":"seasonal","area_km2":0.185,"date":"2026-10-09"},"geometry":{"type":"Polygon","coordinates":[[[104.7841,15.2539],[104.7805,15.2536],[104.7805,15.2528],[104.7816,15.2525],[104.7808,15.2487],[104.7836,15.2482],[104.7836,15.249],[104.7825,15.2496],[104.7827,15.2509],[104.7858,15.2515],[104.7858,15.2523],[104.785,15.2525],[104.7841,15.2539]]]}},{"type":"Feature","properties":{"kind":"seasonal","area_km2":0.184,"date":"2026-10-09"},"geometry":{"type":"Polygon","coordinates":[[[104.3504,15.7529],[104.3509,15.7521],[104.3504,15.7518],[104.3504,15.7488],[104.3484,15.7486],[104.3493,15.748],[104.351,15.7442],[104.3512,15.7448],[104.3524,15.7448],[104.3524,15.7434],[104.3529,15.7434],[104.3529,15.7442],[104.3535,15.7445],[104.3532,15.7429],[104.3521,15.7429],[104.3535,15.7426],[104.3538,15.744],[104.3543,15.7445],[104.3543,15.7461],[104.3529,15.7464],[104.3535,15.7453],[104.3515,15.7453],[104.3515,15.7464],[104.3526,15.7467],[104.3515,15.7472],[104.351,15.7486],[104.3509,15.7502],[104.3518,15.751],[104.3518,15.7521],[104.3512,15.7524],[104.3512,15.7529],[104.3504,15.7529]]]}},{"type":"Feature","properties":{"kind":"seasonal","area_km2":0.18,"date":"2026-10-09"},"geometry":{"type":"Polygon","coordinates":[[[104.4193,15.1562],[104.4187,15.1559],[104.4184,15.1545],[104.419,15.1545],[104.4193,15.154],[104.4212,15.1543],[104.4218,15.154],[104.4218,15.1534],[104.4226,15.1543],[104.4251,15.1535],[104.4268,15.1535],[104.4274,15.1537],[104.4274,15.1543],[104.4301,15.1543],[104.4299,15.1548],[104.4276,15.1548],[104.4257,15.1554],[104.4229,15.1551],[104.4193,15.1562]],[[104.4207,15.1551],[104.4209,15.1553],[104.4209,15.1551],[104.4207,15.1551]],[[104.4204,15.1545],[104.4207,15.1551],[104.4207,15.1545],[104.4204,15.1545]]]}},{"type":"Feature","properties":{"kind":"seasonal","area_km2":0.179,"date":"2026-10-09"},"geometry":{"type":"Polygon","coordinates":[[[104.0395,15.4073],[104.0392,15.4054],[104.0398,15.4046],[104.0409,15.4046],[104.0412,15.4041],[104.0431,15.4036],[104.0442,15.4036],[104.0448,15.4047],[104.0456,15.4047],[104.0426,15.4049],[104.0428,15.406],[104.0456,15.4063],[104.0448,15.4074],[104.0395,15.4073]]]}},{"type":"Feature","properties":{"kind":"seasonal","area_km2":0.171,"date":"2026-10-09"},"geometry":{"type":"Polygon","coordinates":[[[104.7962,15.2252],[104.7956,15.2241],[104.7951,15.2241],[104.7948,15.2249],[104.7934,15.2246],[104.7937,15.2214],[104.7948,15.2214],[104.7948,15.2219],[104.7953,15.2219],[104.7951,15.2203],[104.7967,15.2203],[104.7973,15.2219],[104.7976,15.2249],[104.7962,15.2252]],[[104.7965,15.2246],[104.797,15.2249],[104.797,15.2246],[104.7965,15.2246]]]}},{"type":"Feature","properties":{"kind":"seasonal","area_km2":0.167,"date":"2026-10-09"},"geometry":{"type":"Polygon","coordinates":[[[104.3453,15.7572],[104.3453,15.7561],[104.3428,15.7553],[104.3428,15.7545],[104.342,15.7537],[104.3423,15.7518],[104.3437,15.7521],[104.3434,15.7529],[104.3439,15.7532],[104.3439,15.7548],[104.3445,15.7548],[104.3453,15.7559],[104.3464,15.7561],[104.3484,15.7559],[104.3484,15.7553],[104.349,15.7553],[104.349,15.7545],[104.3495,15.7545],[104.3495,15.754],[104.3504,15.7534],[104.3504,15.7543],[104.3498,15.7545],[104.3498,15.7567],[104.3492,15.7572],[104.3453,15.7572]]]}},{"type":"Feature","properties":{"kind":"seasonal","area_km2":0.163,"date":"2026-10-09"},"geometry":{"type":"Polygon","coordinates":[[[104.9216,15.2339],[104.9205,15.2331],[104.9171,15.2326],[104.9177,15.2293],[104.9202,15.2296],[104.9205,15.2317],[104.9227,15.2328],[104.9227,15.2336],[104.9216,15.2339]]]}},{"type":"Feature","properties":{"kind":"seasonal","area_km2":0.163,"date":"2026-10-09"},"geometry":{"type":"Polygon","coordinates":[[[104.0093,15.0449],[104.0093,15.0443],[104.0101,15.0446],[104.0096,15.0435],[104.0096,15.0419],[104.0088,15.0419],[104.0088,15.0427],[104.0082,15.0427],[104.0082,15.0443],[104.0076,15.0441],[104.0076,15.0424],[104.0082,15.0424],[104.0085,15.0419],[104.0085,15.0414],[104.0076,15.0414],[104.0079,15.0384],[104.0104,15.0387],[104.0107,15.0449],[104.0093,15.0449]],[[104.0085,15.0403],[104.0088,15.0405],[104.0088,15.0403],[104.0085,15.0403]],[[104.0099,15.0395],[104.0102,15.04],[104.0102,15.0395],[104.0099,15.0395]]]}},{"type":"Feature","properties":{"kind":"seasonal","area_km2":0.158,"date":"2026-10-09"},"geometry":{"type":"Polygon","coordinates":[[[104.2226,15.6351],[104.2217,15.6342],[104.2206,15.634],[104.2203,15.6315],[104.2237,15.6313],[104.2248,15.6318],[104.2248,15.6337],[104.2242,15.6348],[104.2226,15.6351]]]}},{"type":"Feature","properties":{"kind":"seasonal","area_km2":0.154,"date":"2026-10-09"},"geometry":{"type":"Polygon","coordinates":[[[104.6363,15.9122],[104.6363,15.9114],[104.6369,15.9111],[104.6366,15.9103],[104.6357,15.9106],[104.6341,15.9103],[104.6352,15.9101],[104.6349,15.9087],[104.6355,15.9084],[104.6355,15.9073],[104.6372,15.9068],[104.638,15.9071],[104.6383,15.9084],[104.6388,15.9084],[104.6388,15.9092],[104.6383,15.9092],[104.6383,15.9101],[104.6388,15.9101],[104.6388,15.9106],[104.6377,15.9111],[104.6394,15.9111],[104.6394,15.9117],[104.6363,15.9122]],[[104.6366,15.9117],[104.6369,15.912],[104.6369,15.9117],[104.6366,15.9117]],[[104.6369,15.9111],[104.6371,15.9114],[104.6371,15.9111],[104.6369,15.9111]],[[104.6355,15.9101],[104.6371,15.9098],[104.6371,15.909],[104.636,15.9084],[104.6355,15.9101]]]}},{"type":"Feature","properties":{"kind":"seasonal","area_km2":0.152,"date":"2026-10-09"},"geometry":{"type":"Polygon","coordinates":[[[104.0044,15.3106],[104.0044,15.3098],[104.0039,15.3096],[104.0033,15.3079],[104.0036,15.3036],[104.0053,15.3033],[104.0053,15.309],[104.0058,15.3096],[104.0058,15.3104],[104.0044,15.3106]]]}},{"type":"Feature","properties":{"kind":"seasonal","area_km2":0.144,"date":"2026-10-09"},"geometry":{"type":"Polygon","coordinates":[[[104.5307,15.148],[104.5299,15.1469],[104.5299,15.1458],[104.5293,15.145],[104.5293,15.1437],[104.5301,15.1431],[104.5313,15.1431],[104.5324,15.1453],[104.5329,15.1456],[104.5329,15.1469],[104.5315,15.148],[104.5307,15.148]]]}},{"type":"Feature","properties":{"kind":"seasonal","area_km2":0.143,"date":"2026-10-09"},"geometry":{"type":"Polygon","coordinates":[[[104.0025,15.315],[104.0025,15.3142],[104.0033,15.3136],[104.0039,15.3117],[104.0044,15.3112],[104.0061,15.3112],[104.0061,15.312],[104.0067,15.312],[104.0072,15.3128],[104.0072,15.3134],[104.0061,15.3136],[104.0069,15.3139],[104.0069,15.3147],[104.0025,15.315]],[[104.0044,15.3134],[104.0055,15.3136],[104.0055,15.3134],[104.0044,15.3134]],[[104.0041,15.3117],[104.0044,15.3128],[104.0044,15.3117],[104.0041,15.3117]]]}},{"type":"Feature","properties":{"kind":"seasonal","area_km2":0.135,"date":"2026-10-09"},"geometry":{"type":"Polygon","coordinates":[[[104.3386,15.7564],[104.3378,15.7556],[104.3378,15.7548],[104.3383,15.7545],[104.3386,15.7534],[104.3395,15.7526],[104.34,15.7526],[104.34,15.7521],[104.3411,15.7521],[104.3417,15.7534],[104.3414,15.7556],[104.3403,15.7556],[104.34,15.7564],[104.3386,15.7564]]]}},{"type":"Feature","properties":{"kind":"seasonal","area_km2":0.135,"date":"2026-10-09"},"geometry":{"type":"Polygon","coordinates":[[[104.7657,15.2078],[104.7657,15.207],[104.7669,15.2061],[104.7669,15.2056],[104.7683,15.2042],[104.7688,15.2042],[104.7699,15.2026],[104.7708,15.2026],[104.7708,15.204],[104.7705,15.2048],[104.7697,15.2053],[104.7697,15.2064],[104.7683,15.2075],[104.7657,15.2078]]]}},{"type":"Feature","properties":{"kind":"seasonal","area_km2":0.133,"date":"2026-10-09"},"geometry":{"type":"Polygon","coordinates":[[[104.365,15.197],[104.3622,15.1967],[104.3619,15.1956],[104.3616,15.1961],[104.3599,15.1961],[104.3599,15.1948],[104.3613,15.1948],[104.3613,15.1937],[104.3636,15.1937],[104.365,15.1956],[104.365,15.197]]]}},{"type":"Feature","properties":{"kind":"seasonal","area_km2":0.132,"date":"2026-10-09"},"geometry":{"type":"Polygon","coordinates":[[[104.6064,15.2976],[104.6055,15.2965],[104.6064,15.2908],[104.6061,15.2889],[104.6047,15.287],[104.6016,15.2865],[104.5997,15.287],[104.6008,15.2859],[104.6039,15.2857],[104.6069,15.2881],[104.6067,15.2886],[104.6069,15.2911],[104.6061,15.2954],[104.6064,15.2976]],[[104.6064,15.2884],[104.6067,15.2886],[104.6067,15.2884],[104.6064,15.2884]]]}},{"type":"Feature","properties":{"kind":"seasonal","area_km2":0.132,"date":"2026-10-09"},"geometry":{"type":"Polygon","coordinates":[[[104.892,15.2534],[104.8909,15.2529],[104.8892,15.2529],[104.8892,15.2513],[104.8878,15.2502],[104.8895,15.2499],[104.8889,15.2499],[104.8889,15.2494],[104.8875,15.2499],[104.8875,15.2491],[104.8883,15.2491],[104.8889,15.2485],[104.8906,15.2486],[104.8909,15.2502],[104.8914,15.2504],[104.8914,15.2513],[104.892,15.2518],[104.892,15.2534]],[[104.8906,15.2521],[104.8909,15.2513],[104.8906,15.2513],[104.8906,15.2507],[104.8903,15.2507],[104.8903,15.2504],[104.89,15.2504],[104.89,15.2515],[104.8906,15.2521]],[[104.8897,15.2502],[104.89,15.2504],[104.89,15.2502],[104.8897,15.2502]]]}},{"type":"Feature","properties":{"kind":"seasonal","area_km2":0.131,"date":"2026-10-09"},"geometry":{"type":"Polygon","coordinates":[[[104.6271,15.8978],[104.6271,15.8973],[104.6276,15.897],[104.6271,15.8962],[104.6271,15.8949],[104.6299,15.8946],[104.6307,15.8938],[104.6307,15.8932],[104.6324,15.8921],[104.6316,15.8946],[104.6307,15.8949],[104.6307,15.8954],[104.6313,15.8954],[104.6313,15.8965],[104.6282,15.8965],[104.6282,15.8978],[104.6271,15.8978]],[[104.6288,15.8951],[104.6299,15.8954],[104.6299,15.8951],[104.6288,15.8951]]]}},{"type":"Feature","properties":{"kind":"seasonal","area_km2":0.131,"date":"2026-10-09"},"geometry":{"type":"Polygon","coordinates":[[[104.0664,15.3936],[104.0661,15.392],[104.0655,15.3915],[104.0647,15.3914],[104.0647,15.3909],[104.0641,15.3906],[104.0642,15.3887],[104.0653,15.3887],[104.0653,15.3898],[104.0661,15.3906],[104.0667,15.3906],[104.0667,15.3915],[104.0683,15.3906],[104.0692,15.3907],[104.0697,15.3912],[104.0697,15.392],[104.0692,15.3926],[104.0681,15.3925],[104.0672,15.3936],[104.0664,15.3936]]]}},{"type":"Feature","properties":{"kind":"seasonal","area_km2":0.131,"date":"2026-10-09"},"geometry":{"type":"Polygon","coordinates":[[[104.0337,15.4572],[104.0328,15.4564],[104.0328,15.4534],[104.0334,15.4526],[104.0351,15.4526],[104.0356,15.4542],[104.037,15.4553],[104.0373,15.4561],[104.0351,15.4561],[104.0334,15.4553],[104.0334,15.4561],[104.0342,15.4567],[104.0342,15.4572],[104.0337,15.4572]]]}},{"type":"Feature","properties":{"kind":"seasonal","area_km2":0.13,"date":"2026-10-09"},"geometry":{"type":"Polygon","coordinates":[[[104.4095,15.1569],[104.4089,15.1559],[104.4089,15.155],[104.4095,15.1548],[104.4095,15.1534],[104.4109,15.1531],[104.4109,15.1542],[104.4114,15.1542],[104.4114,15.1537],[104.412,15.1534],[104.412,15.1521],[104.4128,15.1521],[104.4131,15.1542],[104.412,15.1545],[104.4117,15.1564],[104.4112,15.1569],[104.4095,15.1569]]]}},{"type":"Feature","properties":{"kind":"seasonal","area_km2":0.129,"date":"2026-10-09"},"geometry":{"type":"Polygon","coordinates":[[[104.4941,15.142],[104.4922,15.1403],[104.4919,15.1387],[104.4927,15.1387],[104.493,15.1392],[104.4955,15.1395],[104.4975,15.1412],[104.4975,15.142],[104.4941,15.142]],[[104.4952,15.1406],[104.4955,15.1409],[104.4955,15.1406],[104.4952,15.1406]]]}},{"type":"Feature","properties":{"kind":"seasonal","area_km2":0.128,"date":"2026-10-09"},"geometry":{"type":"Polygon","coordinates":[[[104.122,15.7307],[104.122,15.7299],[104.1228,15.7299],[104.1225,15.7282],[104.1242,15.7272],[104.1251,15.7272],[104.1262,15.7285],[104.1281,15.7283],[104.1279,15.7299],[104.1259,15.7299],[104.1251,15.7288],[104.1234,15.7307],[104.1228,15.7307],[104.1228,15.7301],[104.122,15.7307]]]}},{"type":"Feature","properties":{"kind":"seasonal","area_km2":0.128,"date":"2026-10-09"},"geometry":{"type":"Polygon","coordinates":[[[104.6631,15.1431],[104.6619,15.1406],[104.6614,15.1404],[104.6617,15.139],[104.6628,15.139],[104.6645,15.1412],[104.6664,15.1412],[104.6664,15.1407],[104.6672,15.1407],[104.6672,15.1415],[104.6664,15.1415],[104.6661,15.142],[104.6647,15.1425],[104.6647,15.1431],[104.6631,15.1431]]]}},{"type":"Feature","properties":{"kind":"seasonal","area_km2":0.127,"date":"2026-10-09"},"geometry":{"type":"Polygon","coordinates":[[[104.01,15.0682],[104.0072,15.0677],[104.0073,15.0655],[104.0081,15.0647],[104.0098,15.0647],[104.01,15.0652],[104.0109,15.0652],[104.0109,15.0671],[104.01,15.0682]]]}},{"type":"Feature","properties":{"kind":"seasonal","area_km2":0.125,"date":"2026-10-09"},"geometry":{"type":"Polygon","coordinates":[[[104.3992,15.1493],[104.3989,15.1482],[104.3983,15.148],[104.3983,15.1474],[104.3978,15.1474],[104.3972,15.1461],[104.3972,15.145],[104.3983,15.1431],[104.3992,15.1431],[104.3992,15.1458],[104.3997,15.1463],[104.4,15.1477],[104.4006,15.148],[104.4006,15.1488],[104.4,15.1493],[104.3992,15.1493]]]}},{"type":"Feature","properties":{"kind":"seasonal","area_km2":0.122,"date":"2026-10-09"},"geometry":{"type":"Polygon","coordinates":[[[104.5851,15.2957],[104.5857,15.294],[104.5857,15.2921],[104.5868,15.2916],[104.5868,15.2908],[104.5882,15.2894],[104.5893,15.2889],[104.5924,15.2886],[104.5935,15.2886],[104.5932,15.2892],[104.5949,15.2894],[104.5896,15.2897],[104.5885,15.2902],[104.5868,15.2919],[104.5862,15.2954],[104.5851,15.2957]]]}},{"type":"Feature","properties":{"kind":"seasonal","area_km2":0.121,"date":"2026-10-09"},"geometry":{"type":"Polygon","coordinates":[[[104.0535,15.8242],[104.0543,15.8226],[104.0538,15.8221],[104.0527,15.8185],[104.0521,15.8185],[104.0518,15.818],[104.0516,15.8166],[104.0535,15.8169],[104.0544,15.8193],[104.0552,15.8199],[104.0549,15.8229],[104.0543,15.8234],[104.0543,15.8242],[104.0535,15.8242]]]}},{"type":"Feature","properties":{"kind":"seasonal","area_km2":0.121,"date":"2026-10-09"},"geometry":{"type":"Polygon","coordinates":[[[104.4403,15.6243],[104.4387,15.6243],[104.4389,15.6227],[104.4381,15.6222],[104.4381,15.6216],[104.4412,15.6211],[104.4409,15.6197],[104.442,15.6194],[104.442,15.62],[104.4429,15.6203],[104.4429,15.6208],[104.4418,15.6211],[104.4423,15.623],[104.4415,15.623],[104.4409,15.6224],[104.4403,15.623],[104.4403,15.6243]],[[104.4412,15.6222],[104.4415,15.6224],[104.4415,15.6222],[104.4412,15.6222]],[[104.4404,15.6213],[104.4406,15.6216],[104.4406,15.6213],[104.4404,15.6213]]]}},{"type":"Feature","properties":{"kind":"seasonal","area_km2":0.121,"date":"2026-10-09"},"geometry":{"type":"Polygon","coordinates":[[[104.0609,15.4278],[104.0606,15.4261],[104.0612,15.4251],[104.0595,15.4248],[104.0595,15.4232],[104.0618,15.4234],[104.0618,15.4229],[104.0626,15.4229],[104.0623,15.4234],[104.0634,15.4253],[104.0629,15.4253],[104.0623,15.4278],[104.0609,15.4278]],[[104.0623,15.4251],[104.0626,15.424],[104.0618,15.424],[104.0615,15.4248],[104.0623,15.4251]]]}},{"type":"Feature","properties":{"kind":"seasonal","area_km2":0.121,"date":"2026-10-09"},"geometry":{"type":"Polygon","coordinates":[[[104.3264,15.192],[104.3264,15.1903],[104.3259,15.1901],[104.3256,15.1852],[104.3273,15.1849],[104.3276,15.1917],[104.3264,15.192]],[[104.3267,15.1874],[104.327,15.1876],[104.327,15.1874],[104.3267,15.1874]]]}},{"type":"Feature","properties":{"kind":"seasonal","area_km2":0.12,"date":"2026-10-09"},"geometry":{"type":"Polygon","coordinates":[[[104.5749,15.2314],[104.5746,15.2305],[104.5738,15.2305],[104.5732,15.23],[104.5732,15.2292],[104.5738,15.2289],[104.5741,15.2273],[104.5755,15.2276],[104.5755,15.2259],[104.5763,15.2251],[104.5772,15.2251],[104.5772,15.2259],[104.5766,15.2262],[104.5766,15.2276],[104.5758,15.2278],[104.5758,15.2284],[104.5749,15.2289],[104.576,15.2297],[104.576,15.2314],[104.5749,15.2314]]]}},{"type":"Feature","properties":{"kind":"seasonal","area_km2":0.119,"date":"2026-10-09"},"geometry":{"type":"Polygon","coordinates":[[[104.6137,15.268],[104.6129,15.2651],[104.6129,15.2645],[104.6134,15.2645],[104.6137,15.264],[104.6159,15.2637],[104.6159,15.2632],[104.6182,15.2632],[104.6193,15.2637],[104.6201,15.2648],[104.6201,15.2662],[104.6196,15.2672],[104.619,15.2672],[104.619,15.2651],[104.6179,15.264],[104.6148,15.2642],[104.614,15.2653],[104.6137,15.268]]]}},{"type":"Feature","properties":{"kind":"seasonal","area_km2":0.118,"date":"2026-10-09"},"geometry":{"type":"Polygon","coordinates":[[[104.4781,15.5352],[104.477,15.533],[104.4747,15.5322],[104.4744,15.5303],[104.4772,15.5308],[104.4775,15.5319],[104.4789,15.5328],[104.4789,15.5336],[104.4798,15.5336],[104.4792,15.5338],[104.4795,15.5352],[104.4781,15.5352]],[[104.4786,15.5344],[104.4789,15.5346],[104.4789,15.5344],[104.4786,15.5344]],[[104.4781,15.5336],[104.4784,15.5327],[104.4775,15.5325],[104.4775,15.5333],[104.4781,15.5336]]]}},{"type":"Feature","properties":{"kind":"seasonal","area_km2":0.112,"date":"2026-10-09"},"geometry":{"type":"Polygon","coordinates":[[[104.4333,15.138],[104.4324,15.1375],[104.4324,15.1364],[104.433,15.1358],[104.4361,15.1356],[104.4361,15.1361],[104.4366,15.1361],[104.4366,15.135],[104.4377,15.135],[104.4377,15.1372],[104.4372,15.1378],[104.4333,15.138]],[[104.4333,15.1369],[104.4352,15.1369],[104.4361,15.1361],[104.4335,15.1361],[104.4333,15.1369]]]}},{"type":"Feature","properties":{"kind":"seasonal","area_km2":0.112,"date":"2026-10-09"},"geometry":{"type":"Polygon","coordinates":[[[104.0412,15.0274],[104.0384,15.0263],[104.0384,15.0255],[104.0412,15.0255],[104.042,15.0266],[104.0429,15.026],[104.0426,15.025],[104.044,15.025],[104.0448,15.0255],[104.0448,15.0263],[104.0443,15.0269],[104.0431,15.0274],[104.0412,15.0274]]]}},{"type":"Feature","properties":{"kind":"seasonal","area_km2":0.11,"date":"2026-10-09"},"geometry":{"type":"Polygon","coordinates":[[[104.2447,15.0743],[104.2447,15.0732],[104.2453,15.0726],[104.2453,15.0705],[104.2467,15.0705],[104.2481,15.0721],[104.2481,15.0735],[104.2475,15.0735],[104.2473,15.074],[104.2447,15.0743]]]}},{"type":"Feature","properties":{"kind":"seasonal","area_km2":0.107,"date":"2026-10-09"},"geometry":{"type":"Polygon","coordinates":[[[104.2641,15.6696],[104.2633,15.6688],[104.263,15.6677],[104.2616,15.6666],[104.2616,15.6661],[104.2583,15.665],[104.2605,15.6645],[104.2616,15.6653],[104.2616,15.6658],[104.263,15.6658],[104.2644,15.6672],[104.2647,15.6683],[104.2653,15.6683],[104.265,15.6696],[104.2641,15.6696]]]}},{"type":"Feature","properties":{"kind":"seasonal","area_km2":0.106,"date":"2026-10-09"},"geometry":{"type":"Polygon","coordinates":[[[104.7496,15.3892],[104.7479,15.3884],[104.7479,15.387],[104.7485,15.3865],[104.7499,15.3862],[104.7502,15.3873],[104.7524,15.3876],[104.7524,15.3884],[104.7516,15.3892],[104.7496,15.3892]]]}},{"type":"Feature","properties":{"kind":"seasonal","area_km2":0.105,"date":"2026-10-09"},"geometry":{"type":"Polygon","coordinates":[[[104.2487,15.672],[104.2485,15.6701],[104.2504,15.6696],[104.2513,15.6685],[104.2527,15.6685],[104.2535,15.6691],[104.2535,15.6699],[104.2515,15.6704],[104.2496,15.672],[104.2487,15.672]]]}},{"type":"Feature","properties":{"kind":"seasonal","area_km2":0.103,"date":"2026-10-09"},"geometry":{"type":"Polygon","coordinates":[[[104.9621,15.2602],[104.9618,15.2597],[104.9599,15.2592],[104.9587,15.2583],[104.9546,15.2583],[104.9546,15.2578],[104.9537,15.2573],[104.9537,15.2564],[104.9546,15.2564],[104.9548,15.257],[104.9568,15.2575],[104.9599,15.2575],[104.959,15.2583],[104.9601,15.2589],[104.9618,15.2586],[104.9615,15.2592],[104.9627,15.2597],[104.9627,15.2602],[104.9621,15.2602]]]}},{"type":"Feature","properties":{"kind":"seasonal","area_km2":0.102,"date":"2026-10-09"},"geometry":{"type":"Polygon","coordinates":[[[104.1651,15.6544],[104.1632,15.6525],[104.1632,15.6503],[104.1646,15.6481],[104.1665,15.6479],[104.1665,15.6487],[104.1657,15.6487],[104.1646,15.6503],[104.1646,15.6519],[104.1651,15.6525],[104.1646,15.6533],[104.1654,15.6538],[104.1651,15.6544]]]}},{"type":"Feature","properties":{"kind":"seasonal","area_km2":0.102,"date":"2026-10-09"},"geometry":{"type":"Polygon","coordinates":[[[104.8125,15.4256],[104.8125,15.4237],[104.8119,15.4232],[104.8119,15.4224],[104.8133,15.4224],[104.8144,15.4218],[104.8144,15.4213],[104.8153,15.4213],[104.8158,15.4229],[104.8136,15.4243],[104.8133,15.4256],[104.8125,15.4256]]]}},{"type":"Feature","properties":{"kind":"seasonal","area_km2":0.102,"date":"2026-10-09"},"geometry":{"type":"Polygon","coordinates":[[[104.4518,15.3057],[104.4518,15.3043],[104.4532,15.3032],[104.4532,15.3027],[104.4543,15.3019],[104.4549,15.303],[104.4549,15.3022],[104.4555,15.3019],[104.4557,15.3024],[104.4552,15.3054],[104.4529,15.3046],[104.4529,15.3057],[104.4518,15.3057]]]}}]}
