{"type":"FeatureCollection","properties":{"v":3,"id":"t104_18","name":"บึงกาฬ · นครพนม · สกลนคร","aoi":[104.0,18.0,104.2349,18.338],"date":"2026-10-09","dates":["2026-10-09","2026-10-08","2026-10-05"],"baseline_years":3,"has_seasonal":true,"totals":{"flood_high":0.0,"flood_low":0.1,"seasonal":2.9},"provinces":[{"name":"บึงกาฬ","zone":"th-ne","flood_high":0.0,"flood_low":0.1,"seasonal":2.9}],"scenes":{"2026-10-09":1,"2026-10-08":1,"2026-10-05":1},"baseline_dates":["2025-10-09","2024-10-06","2023-10-08"],"threshold_db":-15.0,"auto":true,"source":"Sentinel-1 RTC (Copernicus/ESA) via Microsoft Planetary Computer; JRC Global Surface Water; Copernicus DEM","method":"ChatGeo v3: Otsu threshold on VV dB; minus JRC permanent water and slope > 5 deg; unusual = water not present in most of the previous 3 years (same season)","added":"2026-10-11T01:54+07:00"},"features":[{"type":"Feature","properties":{"kind":"flood","area_km2":0.05,"conf":"low","date":"2026-10-08"},"geometry":{"type":"Polygon","coordinates":[[[104.0001,18.0466],[104.0001,18.0439],[104.0007,18.0439],[104.0018,18.0428],[104.0018,18.0423],[104.0024,18.0423],[104.0024,18.0445],[104.0007,18.0447],[104.0007,18.0461],[104.0001,18.0466]]]}},{"type":"Feature","properties":{"kind":"seasonal","area_km2":0.761,"date":"2026-10-05"},"geometry":{"type":"Polygon","coordinates":[[[104.0275,18.2713],[104.0272,18.2699],[104.0266,18.2694],[104.0275,18.2685],[104.0272,18.2675],[104.0278,18.2664],[104.0286,18.2664],[104.0289,18.265],[104.0301,18.2645],[104.0306,18.2626],[104.0324,18.261],[104.0329,18.2591],[104.0338,18.2585],[104.0338,18.258],[104.0346,18.2577],[104.0344,18.2572],[104.0349,18.2572],[104.0355,18.2558],[104.0364,18.2553],[104.0364,18.2545],[104.0378,18.2531],[104.0378,18.2526],[104.0386,18.2526],[104.0384,18.2518],[104.0392,18.2521],[104.0398,18.2513],[104.0404,18.2513],[104.0403,18.2542],[104.0409,18.2559],[104.0395,18.2586],[104.0392,18.2569],[104.0398,18.2569],[104.04,18.2553],[104.0386,18.2559],[104.0386,18.2569],[104.038,18.2569],[104.038,18.2575],[104.0372,18.258],[104.0366,18.2599],[104.036,18.2602],[104.0349,18.2626],[104.034,18.2629],[104.0326,18.2659],[104.0318,18.2664],[104.0317,18.2672],[104.0309,18.2675],[104.0303,18.2691],[104.0298,18.2691],[104.0289,18.2699],[104.0289,18.271],[104.0275,18.2713]],[[104.0343,18.261],[104.0349,18.2607],[104.0349,18.2602],[104.0343,18.2604],[104.0343,18.261]],[[104.0346,18.2594],[104.0358,18.2594],[104.0361,18.2569],[104.0352,18.2572],[104.0346,18.2594]],[[104.04,18.2545],[104.0403,18.2548],[104.0403,18.2545],[104.04,18.2545]]]}},{"type":"Feature","properties":{"kind":"seasonal","area_km2":0.626,"date":"2026-10-09"},"geometry":{"type":"Polygon","coordinates":[[[104.0639,18.2047],[104.0636,18.2034],[104.0642,18.2031],[104.0645,18.2018],[104.065,18.2015],[104.0653,18.1996],[104.0659,18.1996],[104.0665,18.1969],[104.067,18.1966],[104.0676,18.1953],[104.0676,18.1939],[104.0682,18.1936],[104.0682,18.1928],[104.0688,18.1926],[104.069,18.1915],[104.0696,18.1915],[104.0696,18.1901],[104.0705,18.1907],[104.0716,18.1888],[104.0713,18.188],[104.0719,18.1882],[104.0725,18.1869],[104.0736,18.1861],[104.0736,18.1855],[104.0748,18.1845],[104.0748,18.1836],[104.0753,18.1834],[104.0753,18.1826],[104.0759,18.1823],[104.0762,18.1812],[104.0768,18.1809],[104.0776,18.1793],[104.0776,18.1801],[104.0765,18.1823],[104.0765,18.1834],[104.0759,18.1834],[104.0753,18.1861],[104.0747,18.1861],[104.0745,18.1866],[104.0733,18.191],[104.0724,18.1912],[104.0713,18.1947],[104.071,18.1953],[104.0704,18.1953],[104.0699,18.1964],[104.0696,18.198],[104.069,18.198],[104.0684,18.1993],[104.0673,18.2001],[104.0661,18.2026],[104.0653,18.2026],[104.0653,18.2031],[104.0644,18.2034],[104.0644,18.2042],[104.0639,18.2047]]]}},{"type":"Feature","properties":{"kind":"seasonal","area_km2":0.597,"date":"2026-10-09"},"geometry":{"type":"Polygon","coordinates":[[[104.1008,18.1325],[104.1,18.1322],[104.1003,18.1301],[104.1008,18.1301],[104.1003,18.1295],[104.1008,18.1295],[104.1011,18.129],[104.1009,18.1252],[104.1026,18.122],[104.1037,18.1176],[104.1046,18.1176],[104.104,18.119],[104.104,18.1206],[104.1046,18.1206],[104.1074,18.1176],[104.1077,18.1163],[104.1086,18.1152],[104.1086,18.1141],[104.1092,18.1136],[104.1089,18.1166],[104.108,18.1176],[104.1077,18.1195],[104.1071,18.1201],[104.106,18.1239],[104.1054,18.1244],[104.1051,18.1266],[104.1043,18.1274],[104.1043,18.1282],[104.1037,18.1282],[104.1025,18.1314],[104.1017,18.1314],[104.1008,18.1325]]]}},{"type":"Feature","properties":{"kind":"seasonal","area_km2":0.294,"date":"2026-10-08"},"geometry":{"type":"Polygon","coordinates":[[[104.0007,18.0461],[104.0007,18.0447],[104.0024,18.0445],[104.0024,18.0423],[104.0029,18.042],[104.0021,18.0418],[104.0018,18.0423],[104.0001,18.0431],[104.0001,18.0404],[104.0018,18.0399],[104.0018,18.0404],[104.0024,18.0407],[104.003,18.0404],[104.003,18.0396],[104.0047,18.0393],[104.0052,18.0423],[104.0066,18.0437],[104.0066,18.0448],[104.0055,18.0456],[104.0026,18.045],[104.0018,18.0455],[104.0018,18.0461],[104.0007,18.0461]],[[104.0044,18.0434],[104.0046,18.0437],[104.0046,18.0434],[104.0044,18.0434]]]}},{"type":"Feature","properties":{"kind":"seasonal","area_km2":0.248,"date":"2026-10-05"},"geometry":{"type":"Polygon","coordinates":[[[104.0538,18.2337],[104.0541,18.2329],[104.0546,18.2329],[104.0549,18.2315],[104.0558,18.2313],[104.0566,18.2302],[104.0566,18.2294],[104.0572,18.2291],[104.0575,18.2278],[104.0581,18.2278],[104.0586,18.2261],[104.0595,18.2259],[104.0595,18.2251],[104.0604,18.2242],[104.0606,18.2232],[104.0615,18.2226],[104.0618,18.2215],[104.0629,18.221],[104.0635,18.2196],[104.0644,18.2191],[104.0644,18.218],[104.0655,18.2169],[104.0655,18.2178],[104.0649,18.218],[104.0655,18.2183],[104.0655,18.2191],[104.0632,18.2213],[104.0632,18.2224],[104.0626,18.2226],[104.0621,18.2243],[104.0601,18.2267],[104.0598,18.2278],[104.0558,18.2318],[104.0558,18.2324],[104.0552,18.2324],[104.0552,18.2329],[104.0543,18.2337],[104.0538,18.2337]]]}},{"type":"Feature","properties":{"kind":"seasonal","area_km2":0.148,"date":"2026-10-08"},"geometry":{"type":"Polygon","coordinates":[[[104.02,18.0291],[104.02,18.0286],[104.0186,18.0286],[104.0178,18.0277],[104.0178,18.0269],[104.0183,18.0267],[104.0189,18.025],[104.0195,18.0248],[104.0195,18.0253],[104.02,18.0256],[104.0209,18.0248],[104.0217,18.0248],[104.0217,18.0253],[104.02,18.0258],[104.0198,18.0264],[104.0195,18.0258],[104.0186,18.0261],[104.0192,18.0264],[104.0189,18.0272],[104.0195,18.0269],[104.0197,18.0277],[104.0209,18.0272],[104.0212,18.0264],[104.0226,18.0261],[104.0226,18.0253],[104.0229,18.0259],[104.0237,18.0256],[104.0237,18.0267],[104.022,18.0267],[104.0223,18.0272],[104.0229,18.0272],[104.0223,18.0278],[104.0226,18.0288],[104.02,18.0291]],[[104.0186,18.0275],[104.0189,18.0277],[104.0189,18.0275],[104.0186,18.0275]]]}},{"type":"Feature","properties":{"kind":"seasonal","area_km2":0.145,"date":"2026-10-08"},"geometry":{"type":"Polygon","coordinates":[[[104.0092,18.0426],[104.0092,18.0412],[104.0098,18.041],[104.0098,18.0404],[104.0103,18.0402],[104.0103,18.0391],[104.012,18.0372],[104.0118,18.0364],[104.0112,18.0364],[104.0112,18.0358],[104.0118,18.0353],[104.0129,18.0353],[104.0135,18.0358],[104.0149,18.0342],[104.016,18.0342],[104.0149,18.0348],[104.0146,18.0359],[104.0132,18.0361],[104.014,18.0369],[104.0132,18.0369],[104.0126,18.0383],[104.012,18.0386],[104.0115,18.0413],[104.0109,18.0413],[104.0106,18.0421],[104.0097,18.0421],[104.0097,18.0426],[104.0092,18.0426]]]}},{"type":"Feature","properties":{"kind":"seasonal","area_km2":0.106,"date":"2026-10-08"},"geometry":{"type":"Polygon","coordinates":[[[104.0249,18.0229],[104.0229,18.0229],[104.0229,18.0223],[104.024,18.0223],[104.0243,18.0213],[104.0249,18.0213],[104.0249,18.0205],[104.0252,18.021],[104.0257,18.021],[104.0257,18.0188],[104.0263,18.0186],[104.0263,18.018],[104.0255,18.0164],[104.0263,18.0164],[104.0269,18.0178],[104.0275,18.0169],[104.0283,18.0169],[104.0283,18.0186],[104.0269,18.0188],[104.0269,18.0194],[104.0263,18.0194],[104.026,18.0218],[104.0252,18.0221],[104.0249,18.0229]]]}}]}
