{"type":"FeatureCollection","properties":{"v":3,"id":"t104_16","name":"มุกดาหาร · อำนาจเจริญ · ยโสธร","aoi":[104.0,16.0,105.0,17.0],"date":"2026-10-09","dates":["2026-10-09"],"baseline_years":3,"has_seasonal":true,"totals":{"flood_high":0.0,"flood_low":0.4,"seasonal":23.4},"provinces":[{"name":"กาฬสินธุ์","zone":"th-ne","flood_high":0.0,"flood_low":0.1,"seasonal":1.1},{"name":"มุกดาหาร","zone":"th-ne","flood_high":0.0,"flood_low":0.1,"seasonal":7.7},{"name":"ร้อยเอ็ด","zone":"th-ne","flood_high":0.0,"flood_low":0.1,"seasonal":1.8},{"name":"สกลนคร","zone":"th-ne","flood_high":0.0,"flood_low":0.1,"seasonal":0.8},{"name":"นครพนม","zone":"th-ne","flood_high":0.0,"flood_low":0.0,"seasonal":7.0},{"name":"ยโสธร","zone":"th-ne","flood_high":0.0,"flood_low":0.0,"seasonal":5.1}],"scenes":{"2026-10-09":2},"baseline_dates":["2025-10-09","2024-10-09","2023-10-08"],"threshold_db":-15.0,"auto":true,"source":"Sentinel-1 RTC (Copernicus/ESA) via Microsoft Planetary Computer; JRC Global Surface Water; Copernicus DEM","method":"ChatGeo v3: Otsu threshold on VV dB; minus JRC permanent water and slope > 5 deg; unusual = water not present in most of the previous 3 years (same season)","added":"2026-10-11T01:54+07:00"},"features":[{"type":"Feature","properties":{"kind":"flood","area_km2":0.144,"conf":"low","date":"2026-10-09"},"geometry":{"type":"Polygon","coordinates":[[[104.0769,16.5156],[104.0766,16.5145],[104.0778,16.5139],[104.0848,16.514],[104.0845,16.515],[104.0828,16.5156],[104.0769,16.5156]]]}},{"type":"Feature","properties":{"kind":"flood","area_km2":0.079,"conf":"low","date":"2026-10-09"},"geometry":{"type":"Polygon","coordinates":[[[104.1848,16.9821],[104.1846,16.9805],[104.1857,16.9786],[104.1863,16.9786],[104.1871,16.9778],[104.1885,16.9778],[104.1885,16.9786],[104.1877,16.9794],[104.1865,16.9797],[104.1854,16.9821],[104.1848,16.9821]]]}},{"type":"Feature","properties":{"kind":"flood","area_km2":0.069,"conf":"low","date":"2026-10-09"},"geometry":{"type":"Polygon","coordinates":[[[104.2745,16.6812],[104.2745,16.6807],[104.2736,16.6804],[104.2733,16.679],[104.2717,16.6785],[104.2717,16.6779],[104.2722,16.6779],[104.2725,16.6771],[104.2733,16.6774],[104.2733,16.678],[104.2742,16.6788],[104.275,16.6788],[104.2759,16.6799],[104.2759,16.6804],[104.2747,16.6804],[104.2745,16.6812]],[[104.2742,16.6793],[104.2747,16.6796],[104.2747,16.6793],[104.2742,16.6793]],[[104.2739,16.6788],[104.2742,16.6793],[104.2742,16.6788],[104.2739,16.6788]]]}},{"type":"Feature","properties":{"kind":"flood","area_km2":0.052,"conf":"low","date":"2026-10-09"},"geometry":{"type":"Polygon","coordinates":[[[104.0078,16.0008],[104.0078,16.0003],[104.0073,16.0003],[104.0073,15.9989],[104.0081,15.9989],[104.0081,15.9984],[104.0095,15.9987],[104.0098,15.9997],[104.0089,16.0003],[104.0089,16.0008],[104.0078,16.0008]]]}},{"type":"Feature","properties":{"kind":"flood","area_km2":0.051,"conf":"low","date":"2026-10-09"},"geometry":{"type":"Polygon","coordinates":[[[104.1648,16.3364],[104.1643,16.3356],[104.1637,16.3356],[104.1637,16.3348],[104.1671,16.3351],[104.1671,16.3359],[104.1665,16.3364],[104.1648,16.3364]]]}},{"type":"Feature","properties":{"kind":"flood","area_km2":0.05,"conf":"low","date":"2026-10-09"},"geometry":{"type":"Polygon","coordinates":[[[104.2801,16.6875],[104.2795,16.6864],[104.2773,16.6858],[104.2773,16.6842],[104.2775,16.6847],[104.2781,16.6847],[104.2781,16.6853],[104.2798,16.6853],[104.2809,16.6864],[104.2809,16.6872],[104.2801,16.6875]],[[104.2803,16.6864],[104.2806,16.6869],[104.2806,16.6864],[104.2803,16.6864]],[[104.2798,16.6864],[104.2801,16.6867],[104.2801,16.6864],[104.2798,16.6864]]]}},{"type":"Feature","properties":{"kind":"seasonal","area_km2":1.427,"date":"2026-10-09"},"geometry":{"type":"Polygon","coordinates":[[[104.3264,16.2109],[104.3267,16.2095],[104.3262,16.2093],[104.3262,16.2065],[104.3239,16.2063],[104.3245,16.2038],[104.3234,16.2038],[104.3231,16.2052],[104.3209,16.2052],[104.3203,16.2057],[104.3192,16.2057],[104.32,16.2049],[104.32,16.203],[104.3183,16.2027],[104.3183,16.2019],[104.3189,16.2019],[104.3192,16.2014],[104.3203,16.2014],[104.3214,16.2003],[104.3214,16.1997],[104.3226,16.2],[104.3228,16.1989],[104.3237,16.1992],[104.3237,16.1984],[104.3242,16.1984],[104.3245,16.1976],[104.3254,16.1979],[104.3256,16.1973],[104.3262,16.1973],[104.3262,16.1968],[104.3254,16.1965],[104.3257,16.1957],[104.3265,16.1949],[104.3271,16.1949],[104.3282,16.1933],[104.329,16.193],[104.331,16.1933],[104.3313,16.1925],[104.3307,16.1925],[104.3307,16.1919],[104.3313,16.1908],[104.333,16.1903],[104.3335,16.1916],[104.3352,16.1925],[104.3349,16.1938],[104.3344,16.1938],[104.3341,16.1944],[104.3346,16.1944],[104.3346,16.1957],[104.3358,16.1963],[104.3358,16.1973],[104.3346,16.1976],[104.3346,16.199],[104.3341,16.199],[104.3327,16.2003],[104.3327,16.2011],[104.3307,16.2011],[104.3304,16.2017],[104.3296,16.2017],[104.3296,16.1998],[104.3301,16.1995],[104.3301,16.1987],[104.3287,16.1987],[104.3284,16.2011],[104.3268,16.2017],[104.3262,16.2049],[104.3265,16.2063],[104.3287,16.2063],[104.3287,16.2068],[104.3293,16.2071],[104.329,16.2076],[104.3298,16.2076],[104.3298,16.2093],[104.329,16.2093],[104.3278,16.2109],[104.3264,16.2109]],[[104.3267,16.2076],[104.327,16.2079],[104.327,16.2076],[104.3267,16.2076]],[[104.3279,16.2074],[104.3281,16.2076],[104.3281,16.2074],[104.3279,16.2074]],[[104.3279,16.2068],[104.3281,16.2071],[104.3281,16.2068],[104.3279,16.2068]],[[104.3253,16.2055],[104.3256,16.2057],[104.3256,16.2055],[104.3253,16.2055]],[[104.3223,16.2046],[104.3225,16.2049],[104.3225,16.2046],[104.3223,16.2046]],[[104.3209,16.2033],[104.3214,16.2038],[104.3214,16.2033],[104.3209,16.2033]],[[104.32,16.2027],[104.3206,16.203],[104.3206,16.2027],[104.32,16.2027]],[[104.3301,16.2003],[104.3304,16.2006],[104.3304,16.2003],[104.3301,16.2003]],[[104.3254,16.1995],[104.3256,16.1998],[104.3256,16.1995],[104.3254,16.1995]],[[104.3251,16.1992],[104.3254,16.1995],[104.3254,16.1992],[104.3251,16.1992]],[[104.3256,16.1992],[104.3262,16.1995],[104.3262,16.1992],[104.3256,16.1992]],[[104.3276,16.1987],[104.3279,16.199],[104.3279,16.1987],[104.3276,16.1987]],[[104.3282,16.1987],[104.3285,16.199],[104.3285,16.1987],[104.3282,16.1987]],[[104.3265,16.1984],[104.327,16.1987],[104.327,16.1984],[104.3265,16.1984]],[[104.3262,16.1981],[104.3265,16.1984],[104.3265,16.1981],[104.3262,16.1981]],[[104.3276,16.1981],[104.3279,16.1984],[104.3279,16.1981],[104.3276,16.1981]],[[104.3259,16.1979],[104.3262,16.1981],[104.3262,16.1979],[104.3259,16.1979]],[[104.3268,16.1976],[104.3273,16.1981],[104.3273,16.1976],[104.3268,16.1976]],[[104.3262,16.1973],[104.3265,16.1979],[104.3265,16.1973],[104.3262,16.1973]],[[104.331,16.1976],[104.3315,16.1973],[104.3313,16.1965],[104.3307,16.1965],[104.331,16.1976]],[[104.3273,16.1965],[104.3276,16.1968],[104.3276,16.1965],[104.3273,16.1965]],[[104.3282,16.1965],[104.3285,16.1968],[104.3285,16.1965],[104.3282,16.1965]],[[104.3329,16.1968],[104.3335,16.1968],[104.3341,16.1963],[104.3335,16.196],[104.333,16.1963],[104.3329,16.1968]],[[104.3341,16.1965],[104.3344,16.1968],[104.3344,16.1965],[104.3341,16.1965]],[[104.3279,16.1962],[104.3282,16.1965],[104.3282,16.1962],[104.3279,16.1962]],[[104.3318,16.1965],[104.3324,16.1965],[104.3324,16.1954],[104.3318,16.1957],[104.3318,16.1965]],[[104.3265,16.196],[104.3271,16.1962],[104.3271,16.196],[104.3265,16.196]],[[104.3313,16.196],[104.3315,16.1963],[104.3315,16.196],[104.3313,16.196]],[[104.3287,16.1935],[104.3299,16.1938],[104.3299,16.1933],[104.3287,16.1935]],[[104.3341,16.1935],[104.3344,16.1938],[104.3344,16.1935],[104.3341,16.1935]],[[104.3344,16.1933],[104.3346,16.1935],[104.3346,16.1933],[104.3344,16.1933]]]}},{"type":"Feature","properties":{"kind":"seasonal","area_km2":1.108,"date":"2026-10-09"},"geometry":{"type":"Polygon","coordinates":[[[104.2958,16.7022],[104.2955,16.7013],[104.2935,16.7013],[104.293,16.7008],[104.2918,16.7008],[104.291,16.7],[104.2913,16.6989],[104.2899,16.6992],[104.289,16.6983],[104.289,16.6956],[104.2896,16.6954],[104.2896,16.6943],[104.2888,16.694],[104.2885,16.6945],[104.2879,16.6945],[104.2885,16.6948],[104.2882,16.6954],[104.2871,16.6951],[104.2868,16.6959],[104.2862,16.6959],[104.2848,16.6948],[104.2848,16.6943],[104.2843,16.6943],[104.2834,16.6934],[104.2834,16.6926],[104.2843,16.6926],[104.2843,16.6932],[104.2851,16.6937],[104.2862,16.6935],[104.2865,16.6943],[104.2876,16.6943],[104.2882,16.6935],[104.289,16.6935],[104.2888,16.6918],[104.2899,16.6918],[104.2907,16.691],[104.2907,16.6929],[104.2924,16.6929],[104.2924,16.694],[104.293,16.6943],[104.293,16.6948],[104.2961,16.6946],[104.2961,16.6932],[104.2966,16.6932],[104.2966,16.6927],[104.2972,16.6924],[104.2969,16.6919],[104.2975,16.6916],[104.2975,16.6911],[104.2983,16.6911],[104.2981,16.6905],[104.2995,16.6894],[104.2995,16.6878],[104.3006,16.6875],[104.3009,16.6865],[104.3029,16.6865],[104.3028,16.6894],[104.3017,16.69],[104.3023,16.6913],[104.3003,16.6919],[104.2997,16.693],[104.2992,16.693],[104.2995,16.6938],[104.2986,16.6943],[104.2986,16.6951],[104.298,16.6951],[104.2986,16.697],[104.2983,16.6976],[104.2989,16.6976],[104.2986,16.6997],[104.2991,16.7],[104.2991,16.7008],[104.2975,16.7016],[104.2972,16.7022],[104.2958,16.7022]],[[104.2924,16.6997],[104.2927,16.7],[104.2927,16.6997],[104.2924,16.6997]],[[104.2918,16.6994],[104.2921,16.6997],[104.2921,16.6994],[104.2918,16.6994]],[[104.2952,16.6981],[104.2963,16.6986],[104.2966,16.6981],[104.2952,16.6981]],[[104.2972,16.6986],[104.2977,16.6986],[104.2977,16.6984],[104.2969,16.6981],[104.2972,16.6986]],[[104.2899,16.6981],[104.2902,16.6983],[104.2902,16.6981],[104.2899,16.6981]],[[104.2935,16.6984],[104.2938,16.6975],[104.2949,16.697],[104.2935,16.6973],[104.2935,16.6984]],[[104.2893,16.6978],[104.2899,16.6981],[104.2899,16.6978],[104.2893,16.6978]],[[104.2949,16.6978],[104.2952,16.6981],[104.2952,16.6978],[104.2949,16.6978]],[[104.291,16.6973],[104.2913,16.6975],[104.2913,16.6973],[104.291,16.6973]],[[104.2955,16.6973],[104.2958,16.6976],[104.2958,16.6973],[104.2955,16.6973]],[[104.2913,16.697],[104.2918,16.6973],[104.2918,16.697],[104.2913,16.697]],[[104.2921,16.6965],[104.2924,16.6967],[104.2924,16.6965],[104.2921,16.6965]],[[104.2961,16.6965],[104.2963,16.6967],[104.2963,16.6965],[104.2961,16.6965]],[[104.2918,16.6962],[104.2921,16.6965],[104.2921,16.6962],[104.2918,16.6962]],[[104.2966,16.6962],[104.2969,16.6965],[104.2969,16.6962],[104.2966,16.6962]],[[104.2916,16.6959],[104.2918,16.6962],[104.2918,16.6959],[104.2916,16.6959]],[[104.2958,16.6959],[104.2961,16.6962],[104.2961,16.6959],[104.2958,16.6959]],[[104.2955,16.6957],[104.2958,16.6959],[104.2958,16.6957],[104.2955,16.6957]],[[104.2961,16.6957],[104.2969,16.6957],[104.2975,16.6946],[104.2964,16.6943],[104.2966,16.6951],[104.2961,16.6957]],[[104.2916,16.6951],[104.2921,16.6954],[104.2921,16.6951],[104.2916,16.6951]],[[104.2921,16.6948],[104.2927,16.6954],[104.2927,16.6948],[104.2921,16.6948]],[[104.2876,16.6948],[104.2879,16.6951],[104.2879,16.6948],[104.2876,16.6948]],[[104.2955,16.6948],[104.2958,16.6951],[104.2958,16.6948],[104.2955,16.6948]],[[104.2859,16.6943],[104.2862,16.6945],[104.2862,16.6943],[104.2859,16.6943]],[[104.2921,16.6943],[104.2927,16.6946],[104.2927,16.6943],[104.2921,16.6943]],[[104.2848,16.6937],[104.2851,16.694],[104.2851,16.6937],[104.2848,16.6937]],[[104.2896,16.6935],[104.2902,16.6937],[104.2902,16.6935],[104.2896,16.6935]],[[104.2983,16.6924],[104.2989,16.6924],[104.2995,16.6916],[104.2989,16.6913],[104.2983,16.6924]],[[104.2983,16.6913],[104.2986,16.6916],[104.2986,16.6913],[104.2983,16.6913]],[[104.3003,16.6911],[104.3006,16.6913],[104.3006,16.6911],[104.3003,16.6911]],[[104.3,16.6908],[104.3006,16.6908],[104.3009,16.6902],[104.3003,16.6902],[104.3,16.6908]],[[104.3014,16.6894],[104.302,16.6897],[104.302,16.6894],[104.3014,16.6894]],[[104.3003,16.6892],[104.3006,16.6894],[104.3006,16.6892],[104.3003,16.6892]],[[104.3012,16.6892],[104.3014,16.6894],[104.3014,16.6892],[104.3012,16.6892]],[[104.3017,16.6875],[104.302,16.6878],[104.302,16.6875],[104.3017,16.6875]],[[104.3014,16.6873],[104.3017,16.6875],[104.3017,16.6873],[104.3014,16.6873]]]}},{"type":"Feature","properties":{"kind":"seasonal","area_km2":1.067,"date":"2026-10-09"},"geometry":{"type":"Polygon","coordinates":[[[104.2811,16.3951],[104.2811,16.3946],[104.2797,16.3946],[104.2792,16.393],[104.2767,16.393],[104.2758,16.3935],[104.2758,16.394],[104.275,16.394],[104.2753,16.3921],[104.2747,16.3913],[104.2736,16.3908],[104.2736,16.39],[104.2744,16.3891],[104.2744,16.3883],[104.2767,16.384],[104.2778,16.384],[104.2787,16.3851],[104.2806,16.3851],[104.2815,16.3835],[104.2823,16.3835],[104.2846,16.3824],[104.286,16.3808],[104.286,16.3802],[104.2865,16.3802],[104.2868,16.3813],[104.2874,16.3813],[104.2877,16.3808],[104.2891,16.3811],[104.2902,16.3805],[104.2902,16.38],[104.2919,16.3797],[104.2919,16.3811],[104.2927,16.3816],[104.2927,16.3822],[104.2936,16.3824],[104.2935,16.3835],[104.2907,16.3832],[104.2905,16.3843],[104.2899,16.3843],[104.2893,16.3851],[104.2874,16.3849],[104.2851,16.3854],[104.2843,16.387],[104.2831,16.3878],[104.2831,16.3886],[104.2815,16.3881],[104.2786,16.3883],[104.2781,16.3878],[104.2767,16.3878],[104.2767,16.39],[104.2786,16.3911],[104.2792,16.3919],[104.2803,16.3922],[104.2809,16.3935],[104.282,16.3941],[104.282,16.3951],[104.2811,16.3951]],[[104.2907,16.3819],[104.291,16.3824],[104.291,16.3819],[104.2907,16.3819]]]}},{"type":"Feature","properties":{"kind":"seasonal","area_km2":1.064,"date":"2026-10-09"},"geometry":{"type":"Polygon","coordinates":[[[104.6715,16.9621],[104.6715,16.961],[104.6724,16.9607],[104.6715,16.9591],[104.6718,16.9569],[104.6735,16.9567],[104.6735,16.9559],[104.6741,16.9556],[104.673,16.9553],[104.673,16.9564],[104.6721,16.9564],[104.6713,16.9537],[104.6707,16.9537],[104.671,16.9553],[104.6696,16.9553],[104.6693,16.9537],[104.6699,16.9523],[104.6696,16.9507],[104.669,16.9501],[104.6696,16.9469],[104.6699,16.9461],[104.6707,16.9455],[104.6724,16.9458],[104.673,16.9447],[104.6738,16.9442],[104.6741,16.9431],[104.6758,16.9426],[104.6761,16.9401],[104.6766,16.9401],[104.6766,16.9396],[104.6772,16.9393],[104.6781,16.9393],[104.6783,16.9445],[104.6775,16.9445],[104.6769,16.945],[104.6769,16.9464],[104.6749,16.9474],[104.6747,16.9488],[104.6735,16.9491],[104.6741,16.9515],[104.6747,16.9518],[104.6747,16.9531],[104.6755,16.9542],[104.6752,16.9564],[104.6761,16.9567],[104.6763,16.9597],[104.6758,16.9607],[104.6744,16.961],[104.6746,16.9588],[104.6738,16.9586],[104.6732,16.9596],[104.6735,16.9615],[104.6727,16.9621],[104.6715,16.9621]],[[104.6718,16.9542],[104.6721,16.9545],[104.6721,16.9542],[104.6718,16.9542]],[[104.6721,16.9512],[104.6724,16.9515],[104.6724,16.9512],[104.6721,16.9512]],[[104.6732,16.951],[104.6735,16.9515],[104.6735,16.951],[104.6732,16.951]],[[104.673,16.9507],[104.6732,16.951],[104.6732,16.9507],[104.673,16.9507]],[[104.6755,16.9431],[104.6758,16.9437],[104.6758,16.9431],[104.6755,16.9431]]]}},{"type":"Feature","properties":{"kind":"seasonal","area_km2":0.976,"date":"2026-10-09"},"geometry":{"type":"Polygon","coordinates":[[[104.3898,16.2477],[104.3895,16.2461],[104.3858,16.246],[104.385,16.245],[104.3836,16.2447],[104.3836,16.2439],[104.3842,16.2439],[104.3847,16.2428],[104.3861,16.2428],[104.3867,16.2433],[104.3903,16.2433],[104.3903,16.2425],[104.3895,16.242],[104.3892,16.2395],[104.3906,16.2395],[104.3912,16.239],[104.3912,16.2382],[104.3904,16.2379],[104.3895,16.2368],[104.389,16.2368],[104.3887,16.2357],[104.3876,16.2355],[104.3878,16.2336],[104.3935,16.2336],[104.3935,16.2344],[104.3923,16.2349],[104.3929,16.2358],[104.394,16.2358],[104.3946,16.2371],[104.3977,16.2371],[104.3991,16.2363],[104.3988,16.2344],[104.3999,16.2344],[104.4008,16.2328],[104.4033,16.2331],[104.4033,16.2339],[104.4027,16.2339],[104.4019,16.2347],[104.4019,16.2361],[104.4024,16.2363],[104.4038,16.2399],[104.403,16.2464],[104.4021,16.2464],[104.4018,16.2455],[104.4024,16.2453],[104.4024,16.2447],[104.4016,16.2447],[104.4024,16.2431],[104.403,16.2401],[104.4024,16.2399],[104.4024,16.2377],[104.4016,16.2366],[104.4016,16.2358],[104.4008,16.2355],[104.4007,16.2361],[104.3996,16.2363],[104.3999,16.2382],[104.4005,16.2385],[104.4002,16.2401],[104.401,16.2407],[104.3996,16.2434],[104.3993,16.2428],[104.3985,16.2428],[104.3979,16.2417],[104.3982,16.2385],[104.396,16.2382],[104.3957,16.2387],[104.3951,16.2387],[104.3946,16.2377],[104.3929,16.2368],[104.3918,16.2355],[104.3912,16.2377],[104.3918,16.2387],[104.3929,16.2393],[104.3932,16.2423],[104.3926,16.2425],[104.3915,16.2406],[104.3912,16.2425],[104.3931,16.2442],[104.3929,16.2452],[104.3923,16.2452],[104.3923,16.2447],[104.3898,16.2444],[104.3895,16.2439],[104.3861,16.2439],[104.3864,16.2452],[104.3884,16.2452],[104.3903,16.2461],[104.3906,16.2474],[104.3898,16.2477]],[[104.4027,16.2423],[104.403,16.2428],[104.403,16.2423],[104.4027,16.2423]],[[104.4033,16.2401],[104.4035,16.2404],[104.4035,16.2401],[104.4033,16.2401]]]}},{"type":"Feature","properties":{"kind":"seasonal","area_km2":0.869,"date":"2026-10-09"},"geometry":{"type":"Polygon","coordinates":[[[104.4157,16.9485],[104.4146,16.9482],[104.4146,16.9471],[104.414,16.9466],[104.4132,16.9466],[104.4121,16.945],[104.4109,16.9447],[104.411,16.9436],[104.4101,16.9431],[104.4101,16.9422],[104.4093,16.9414],[104.4093,16.9406],[104.4107,16.9406],[104.4107,16.9387],[104.4101,16.9382],[104.4104,16.9355],[104.4138,16.9357],[104.4141,16.9344],[104.4149,16.9344],[104.4155,16.9355],[104.4163,16.9358],[104.416,16.9393],[104.4169,16.9401],[104.418,16.9404],[104.4202,16.9434],[104.4217,16.9436],[104.4217,16.9425],[104.4231,16.9426],[104.4239,16.9436],[104.4239,16.945],[104.4231,16.9461],[104.4214,16.9455],[104.4214,16.9444],[104.4202,16.9444],[104.4194,16.9436],[104.4188,16.9436],[104.4191,16.9444],[104.4169,16.9444],[104.4169,16.9409],[104.4157,16.9404],[104.4155,16.939],[104.4152,16.9395],[104.4146,16.9395],[104.4146,16.9404],[104.4152,16.9404],[104.4152,16.9414],[104.4146,16.9414],[104.4146,16.942],[104.4155,16.942],[104.4152,16.9439],[104.4146,16.9439],[104.4152,16.9455],[104.4138,16.9455],[104.4129,16.9439],[104.4132,16.9428],[104.4124,16.9428],[104.4126,16.945],[104.4132,16.9452],[104.4132,16.9458],[104.4149,16.9463],[104.4149,16.9469],[104.416,16.9471],[104.416,16.9477],[104.4166,16.948],[104.4174,16.948],[104.4194,16.9469],[104.4205,16.9469],[104.4191,16.9474],[104.4188,16.948],[104.4157,16.9485]],[[104.4121,16.9425],[104.4124,16.9428],[104.4124,16.9425],[104.4121,16.9425]],[[104.4132,16.942],[104.4135,16.9428],[104.4135,16.942],[104.4132,16.942]],[[104.4118,16.9422],[104.4121,16.9425],[104.4121,16.9422],[104.4118,16.9422]],[[104.4129,16.9414],[104.4132,16.9417],[104.4132,16.9414],[104.4129,16.9414]],[[104.4155,16.9382],[104.4158,16.9385],[104.4158,16.9382],[104.4155,16.9382]]]}},{"type":"Feature","properties":{"kind":"seasonal","area_km2":0.845,"date":"2026-10-09"},"geometry":{"type":"Polygon","coordinates":[[[104.3768,16.2585],[104.3765,16.2571],[104.3774,16.2563],[104.3771,16.2552],[104.3794,16.2555],[104.3796,16.2542],[104.3802,16.2536],[104.3819,16.2536],[104.3822,16.2542],[104.383,16.2542],[104.3847,16.2534],[104.3847,16.2525],[104.3839,16.2525],[104.3839,16.2517],[104.3825,16.2506],[104.3794,16.2509],[104.3791,16.2501],[104.3777,16.2504],[104.3771,16.2512],[104.3754,16.2509],[104.3752,16.2504],[104.374,16.2503],[104.3738,16.2509],[104.3701,16.2506],[104.3681,16.2525],[104.367,16.2525],[104.367,16.2517],[104.3679,16.2514],[104.3687,16.2503],[104.3698,16.2503],[104.3701,16.2493],[104.3718,16.249],[104.3732,16.2479],[104.3732,16.246],[104.3757,16.2466],[104.3763,16.2476],[104.3774,16.2476],[104.3777,16.2482],[104.3785,16.2482],[104.3791,16.2477],[104.3788,16.2471],[104.3783,16.2471],[104.3783,16.2463],[104.3794,16.2463],[104.3799,16.2455],[104.3816,16.246],[104.3836,16.246],[104.3842,16.2463],[104.3847,16.2479],[104.3858,16.2479],[104.3858,16.249],[104.3867,16.2496],[104.3867,16.2509],[104.3872,16.2515],[104.3881,16.2504],[104.3898,16.2501],[104.3898,16.2496],[104.3903,16.2496],[104.3923,16.248],[104.392,16.2471],[104.3909,16.2469],[104.3934,16.2471],[104.3931,16.2488],[104.3926,16.2482],[104.3926,16.2488],[104.3906,16.2496],[104.3903,16.2504],[104.3889,16.2507],[104.3886,16.2515],[104.3878,16.2517],[104.3878,16.2523],[104.3869,16.2523],[104.3869,16.2517],[104.3864,16.2515],[104.3864,16.2498],[104.3858,16.2498],[104.3856,16.2488],[104.3839,16.2487],[104.3836,16.2471],[104.3802,16.2474],[104.3797,16.2468],[104.3794,16.2474],[104.3799,16.2474],[104.3802,16.2482],[104.3808,16.2482],[104.3811,16.2487],[104.3808,16.2493],[104.3794,16.249],[104.3797,16.2501],[104.3813,16.2493],[104.3816,16.2498],[104.3825,16.2496],[104.3827,16.2506],[104.3847,16.2504],[104.3847,16.2509],[104.3841,16.2509],[104.3847,16.2515],[104.3841,16.2517],[104.3855,16.2517],[104.3858,16.2534],[104.3822,16.2547],[104.3819,16.2542],[104.3802,16.2542],[104.3799,16.2558],[104.3788,16.2561],[104.3796,16.2566],[104.3808,16.2566],[104.3813,16.2558],[104.3827,16.2558],[104.383,16.2566],[104.3836,16.2566],[104.3836,16.2558],[104.3841,16.2558],[104.3836,16.2572],[104.3827,16.2572],[104.3824,16.2563],[104.3813,16.2563],[104.381,16.2574],[104.3785,16.2574],[104.3779,16.2585],[104.3768,16.2585]],[[104.3785,16.2563],[104.3788,16.2566],[104.3788,16.2563],[104.3785,16.2563]],[[104.3681,16.2511],[104.369,16.2514],[104.369,16.2511],[104.3681,16.2511]],[[104.369,16.2509],[104.3693,16.2511],[104.3693,16.2509],[104.369,16.2509]],[[104.3754,16.2501],[104.3763,16.2501],[104.3763,16.2498],[104.3754,16.2495],[104.3754,16.2501]],[[104.3777,16.2495],[104.3794,16.2498],[104.3794,16.2495],[104.3777,16.2495]],[[104.3743,16.249],[104.3746,16.2495],[104.3746,16.249],[104.3743,16.249]]]}},{"type":"Feature","properties":{"kind":"seasonal","area_km2":0.717,"date":"2026-10-09"},"geometry":{"type":"Polygon","coordinates":[[[104.5266,16.8845],[104.5258,16.8823],[104.5252,16.8818],[104.5244,16.8818],[104.5241,16.8802],[104.5258,16.8807],[104.5258,16.8813],[104.5266,16.8815],[104.5275,16.884],[104.5303,16.884],[104.5303,16.8834],[104.5308,16.8832],[104.5308,16.8826],[104.5297,16.8821],[104.53,16.8794],[104.528,16.8786],[104.528,16.878],[104.5286,16.878],[104.5286,16.8769],[104.5275,16.8764],[104.5269,16.8772],[104.5264,16.8772],[104.5261,16.8788],[104.5224,16.8788],[104.5227,16.8794],[104.5235,16.8794],[104.5235,16.8799],[104.5221,16.8799],[104.5221,16.8807],[104.5235,16.8804],[104.5238,16.8815],[104.523,16.8815],[104.5218,16.881],[104.5213,16.8802],[104.5204,16.8802],[104.5202,16.8785],[104.5187,16.8783],[104.5187,16.8774],[104.5196,16.8772],[104.5193,16.8761],[104.5202,16.8761],[104.5202,16.8753],[104.5193,16.8747],[104.5196,16.8734],[104.5216,16.8737],[104.5221,16.8745],[104.5241,16.8745],[104.5238,16.8775],[104.5247,16.8775],[104.5255,16.8747],[104.5266,16.8748],[104.5272,16.8742],[104.528,16.8742],[104.5286,16.8748],[104.5314,16.8745],[104.5314,16.8753],[104.5309,16.8756],[104.5309,16.8761],[104.5303,16.8761],[104.5297,16.878],[104.5309,16.8783],[104.5306,16.881],[104.5311,16.8815],[104.5325,16.8815],[104.5325,16.8826],[104.532,16.8826],[104.5314,16.8845],[104.5266,16.8845]],[[104.5227,16.8783],[104.5233,16.8772],[104.5218,16.8772],[104.5218,16.8777],[104.5227,16.8777],[104.5227,16.8783]],[[104.5216,16.8777],[104.5218,16.878],[104.5218,16.8777],[104.5216,16.8777]],[[104.523,16.8758],[104.5233,16.8766],[104.5235,16.8758],[104.523,16.8758]]]}},{"type":"Feature","properties":{"kind":"seasonal","area_km2":0.653,"date":"2026-10-09"},"geometry":{"type":"Polygon","coordinates":[[[104.5639,16.3525],[104.5639,16.352],[104.5616,16.3517],[104.5613,16.3509],[104.5644,16.3517],[104.5658,16.3512],[104.5661,16.3506],[104.5658,16.3501],[104.5664,16.3487],[104.5653,16.3466],[104.565,16.3447],[104.567,16.3455],[104.5673,16.3433],[104.5661,16.343],[104.5661,16.3411],[104.567,16.3406],[104.5664,16.3382],[104.567,16.3319],[104.5664,16.3319],[104.5667,16.33],[104.5659,16.3292],[104.5659,16.3278],[104.5665,16.3241],[104.5676,16.3241],[104.5679,16.3254],[104.5695,16.3254],[104.5695,16.3265],[104.569,16.3268],[104.569,16.3273],[104.5704,16.3281],[104.5709,16.3298],[104.5709,16.3317],[104.5723,16.3333],[104.5718,16.3333],[104.5721,16.3344],[104.5715,16.3344],[104.5715,16.333],[104.5704,16.3325],[104.5704,16.3317],[104.5687,16.3322],[104.569,16.3314],[104.5684,16.3314],[104.5681,16.3319],[104.5681,16.3325],[104.5693,16.3325],[104.569,16.3333],[104.5684,16.3333],[104.5684,16.3341],[104.5695,16.3352],[104.5684,16.3363],[104.5673,16.3363],[104.5678,16.3376],[104.5678,16.3409],[104.5667,16.3414],[104.5667,16.3425],[104.5681,16.343],[104.5681,16.3455],[104.5675,16.3463],[104.5658,16.3463],[104.5667,16.3482],[104.5664,16.3517],[104.5644,16.352],[104.5644,16.3525],[104.5639,16.3525]],[[104.569,16.3308],[104.5693,16.3314],[104.5693,16.3308],[104.569,16.3308]]]}},{"type":"Feature","properties":{"kind":"seasonal","area_km2":0.65,"date":"2026-10-09"},"geometry":{"type":"Polygon","coordinates":[[[104.7109,16.8344],[104.7103,16.8339],[104.7103,16.8331],[104.7095,16.8331],[104.7095,16.8322],[104.7106,16.8314],[104.7103,16.8303],[104.7092,16.8303],[104.7087,16.8309],[104.7086,16.8322],[104.7081,16.8325],[104.7075,16.8341],[104.7067,16.8341],[104.7061,16.8333],[104.7055,16.8333],[104.7056,16.8325],[104.7067,16.832],[104.7072,16.8309],[104.7072,16.8298],[104.7056,16.829],[104.7053,16.8284],[104.7033,16.829],[104.7033,16.8284],[104.7022,16.8279],[104.7019,16.8287],[104.7008,16.829],[104.7008,16.8298],[104.7002,16.8298],[104.6999,16.8306],[104.6985,16.8306],[104.6985,16.829],[104.6994,16.8284],[104.6994,16.8279],[104.6991,16.8273],[104.698,16.8271],[104.698,16.8263],[104.6999,16.826],[104.7002,16.8265],[104.7011,16.8265],[104.7013,16.826],[104.7039,16.8263],[104.7042,16.8257],[104.705,16.8257],[104.705,16.8263],[104.7061,16.8263],[104.7067,16.8274],[104.7081,16.8279],[104.7098,16.8279],[104.7103,16.8274],[104.7132,16.8274],[104.7146,16.8285],[104.7143,16.8306],[104.7148,16.8309],[104.7148,16.8325],[104.7143,16.8331],[104.7129,16.8328],[104.712,16.8344],[104.7109,16.8344]],[[104.7103,16.8328],[104.7109,16.8331],[104.7109,16.8328],[104.7103,16.8328]],[[104.7117,16.8322],[104.7126,16.8322],[104.7134,16.8314],[104.7134,16.8304],[104.712,16.8304],[104.7129,16.8309],[104.7115,16.8306],[104.7117,16.8301],[104.7129,16.8301],[104.7134,16.8295],[104.7129,16.8293],[104.7132,16.8282],[104.7129,16.8282],[104.7129,16.8285],[104.712,16.8285],[104.712,16.8287],[104.7109,16.8282],[104.7075,16.8287],[104.7075,16.8293],[104.7081,16.8293],[104.7084,16.8301],[104.7095,16.8295],[104.7112,16.8295],[104.7109,16.8309],[104.7117,16.8322]],[[104.7081,16.8301],[104.7084,16.8303],[104.7084,16.8301],[104.7081,16.8301]],[[104.7064,16.8279],[104.7067,16.8282],[104.7067,16.8279],[104.7064,16.8279]],[[104.7126,16.8279],[104.7129,16.8282],[104.7129,16.8279],[104.7126,16.8279]],[[104.7047,16.8276],[104.705,16.8279],[104.705,16.8276],[104.7047,16.8276]],[[104.7058,16.8276],[104.7061,16.8279],[104.7061,16.8276],[104.7058,16.8276]],[[104.7042,16.8274],[104.7047,16.8276],[104.7047,16.8274],[104.7042,16.8274]]]}},{"type":"Feature","properties":{"kind":"seasonal","area_km2":0.572,"date":"2026-10-09"},"geometry":{"type":"Polygon","coordinates":[[[104.7049,16.1659],[104.7049,16.1646],[104.706,16.1643],[104.7066,16.1629],[104.708,16.1627],[104.7085,16.1613],[104.7068,16.1616],[104.7057,16.1605],[104.7057,16.1613],[104.7054,16.1618],[104.7049,16.1618],[104.7049,16.1627],[104.7032,16.1627],[104.7026,16.1618],[104.7026,16.1599],[104.7007,16.1599],[104.7007,16.1607],[104.6998,16.1618],[104.6962,16.1616],[104.6962,16.1607],[104.6973,16.1602],[104.6984,16.1613],[104.6998,16.1613],[104.7001,16.1605],[104.6993,16.1594],[104.6981,16.1594],[104.6979,16.1599],[104.6976,16.1594],[104.6993,16.1591],[104.6998,16.1575],[104.7021,16.158],[104.7026,16.1567],[104.7012,16.1567],[104.699,16.1559],[104.6979,16.1569],[104.6953,16.1572],[104.6953,16.1567],[104.6948,16.1564],[104.6928,16.1564],[104.6928,16.1569],[104.6911,16.1569],[104.6911,16.1564],[104.6923,16.1561],[104.692,16.155],[104.6925,16.1545],[104.6934,16.1548],[104.6934,16.1526],[104.6939,16.1526],[104.694,16.1515],[104.6956,16.1515],[104.6959,16.1499],[104.6984,16.1507],[104.6998,16.1507],[104.7001,16.1502],[104.699,16.1499],[104.6998,16.1491],[104.6998,16.1496],[104.701,16.1504],[104.701,16.1513],[104.6984,16.1513],[104.6979,16.1507],[104.6962,16.1507],[104.6962,16.1513],[104.6968,16.1515],[104.6968,16.1529],[104.6956,16.1529],[104.6945,16.1518],[104.6945,16.1537],[104.6937,16.1542],[104.6934,16.1561],[104.6956,16.1561],[104.6976,16.1567],[104.6987,16.1551],[104.6998,16.1551],[104.7015,16.1561],[104.7035,16.1561],[104.7038,16.1575],[104.7032,16.1575],[104.7029,16.158],[104.7029,16.1613],[104.7038,16.1621],[104.7046,16.1621],[104.7052,16.1599],[104.7063,16.1597],[104.7063,16.1602],[104.7074,16.161],[104.7091,16.1605],[104.7091,16.1621],[104.7085,16.1624],[104.7085,16.1632],[104.7074,16.1632],[104.7068,16.1637],[104.7071,16.1646],[104.7088,16.1648],[104.7096,16.164],[104.7119,16.1635],[104.7116,16.1648],[104.711,16.1646],[104.7094,16.1654],[104.7068,16.1654],[104.7066,16.1659],[104.7049,16.1659]],[[104.7007,16.1589],[104.701,16.1594],[104.701,16.1589],[104.7007,16.1589]],[[104.6956,16.1523],[104.6962,16.1523],[104.6959,16.1515],[104.6956,16.1515],[104.6956,16.1523]],[[104.7001,16.1504],[104.7004,16.1507],[104.7004,16.1504],[104.7001,16.1504]]]}},{"type":"Feature","properties":{"kind":"seasonal","area_km2":0.473,"date":"2026-10-09"},"geometry":{"type":"Polygon","coordinates":[[[104.7169,16.1776],[104.7152,16.1754],[104.7133,16.1746],[104.7133,16.1741],[104.7127,16.1738],[104.7127,16.1719],[104.7122,16.1719],[104.7119,16.1727],[104.7099,16.1724],[104.7091,16.1716],[104.7091,16.17],[104.7082,16.1694],[104.7074,16.1694],[104.7071,16.1711],[104.7057,16.1711],[104.706,16.1705],[104.7071,16.1705],[104.706,16.1681],[104.7066,16.1681],[104.7074,16.1692],[104.7091,16.1694],[104.7096,16.17],[104.7099,16.1719],[104.7113,16.1719],[104.7113,16.1711],[104.7136,16.1716],[104.7136,16.1741],[104.7144,16.1749],[104.7152,16.1743],[104.7155,16.1751],[104.7164,16.1751],[104.7161,16.1741],[104.7144,16.1738],[104.7144,16.1727],[104.7152,16.1713],[104.7155,16.1719],[104.7172,16.1716],[104.7161,16.1716],[104.7161,16.1711],[104.7155,16.1711],[104.7155,16.1705],[104.7164,16.1705],[104.7164,16.1697],[104.7141,16.1697],[104.7138,16.1703],[104.7127,16.1703],[104.7124,16.1697],[104.7119,16.1697],[104.7119,16.1692],[104.7138,16.1689],[104.7138,16.1684],[104.7108,16.1686],[104.7102,16.1678],[104.7085,16.1675],[104.7085,16.167],[104.7091,16.167],[104.7091,16.1665],[104.7099,16.1656],[104.7105,16.1656],[104.7096,16.1665],[104.7105,16.1675],[104.7127,16.1681],[104.7133,16.1678],[104.7133,16.1673],[104.7141,16.1673],[104.7144,16.1686],[104.7153,16.1694],[104.7169,16.1689],[104.7169,16.167],[104.7189,16.167],[104.7192,16.1681],[104.7183,16.1681],[104.7175,16.1689],[104.7175,16.1727],[104.7181,16.173],[104.718,16.1749],[104.7178,16.1776],[104.7169,16.1776]]]}},{"type":"Feature","properties":{"kind":"seasonal","area_km2":0.465,"date":"2026-10-09"},"geometry":{"type":"Polygon","coordinates":[[[104.5565,16.3612],[104.5566,16.3596],[104.5571,16.3593],[104.5571,16.3577],[104.558,16.3566],[104.5582,16.3544],[104.558,16.3536],[104.5557,16.3525],[104.5557,16.352],[104.5552,16.352],[104.5543,16.3511],[104.5543,16.3506],[104.5515,16.3484],[104.5515,16.3479],[104.5521,16.3476],[104.5521,16.3457],[104.5512,16.3452],[104.5512,16.3444],[104.5507,16.3441],[104.5501,16.3425],[104.549,16.3416],[104.549,16.3411],[104.5484,16.3411],[104.5479,16.34],[104.5479,16.3392],[104.549,16.3392],[104.5496,16.3381],[104.5504,16.3381],[104.5507,16.3397],[104.5515,16.3408],[104.5521,16.3408],[104.5543,16.3425],[104.5543,16.3436],[104.5549,16.3438],[104.5549,16.346],[104.5555,16.3463],[104.5555,16.3479],[104.556,16.3484],[104.558,16.3487],[104.5588,16.3495],[104.5613,16.3503],[104.5613,16.3509],[104.5597,16.3506],[104.5591,16.3498],[104.558,16.3493],[104.5557,16.349],[104.5557,16.3484],[104.5549,16.3482],[104.5543,16.3444],[104.5524,16.3433],[104.5515,16.3414],[104.5504,16.3411],[104.5504,16.3427],[104.551,16.3427],[104.551,16.3435],[104.5524,16.3446],[104.5526,16.349],[104.5535,16.3492],[104.5554,16.3514],[104.5571,16.352],[104.5577,16.3531],[104.5583,16.3531],[104.5588,16.3539],[104.5594,16.3539],[104.5611,16.3552],[104.5608,16.3566],[104.558,16.3577],[104.5571,16.3612],[104.5565,16.3612]]]}},{"type":"Feature","properties":{"kind":"seasonal","area_km2":0.453,"date":"2026-10-09"},"geometry":{"type":"Polygon","coordinates":[[[104.7558,16.6964],[104.7553,16.6894],[104.7545,16.6869],[104.7545,16.6853],[104.7539,16.6848],[104.7539,16.6834],[104.7531,16.6826],[104.7533,16.6812],[104.7528,16.6807],[104.7522,16.6783],[104.7505,16.675],[104.7505,16.6737],[104.748,16.6669],[104.7477,16.6639],[104.7472,16.6636],[104.7472,16.6623],[104.7466,16.6614],[104.7466,16.6593],[104.7472,16.6593],[104.7477,16.662],[104.7483,16.6623],[104.7483,16.6636],[104.7491,16.6644],[104.75,16.6682],[104.7505,16.6682],[104.7517,16.6731],[104.7525,16.6745],[104.7531,16.678],[104.7542,16.6791],[104.7536,16.6796],[104.7536,16.681],[104.7542,16.681],[104.7547,16.6859],[104.7559,16.6905],[104.7558,16.6964]]]}},{"type":"Feature","properties":{"kind":"seasonal","area_km2":0.416,"date":"2026-10-09"},"geometry":{"type":"Polygon","coordinates":[[[104.7408,16.9741],[104.7408,16.9736],[104.74,16.9733],[104.74,16.9728],[104.7389,16.9728],[104.7391,16.9719],[104.7389,16.9706],[104.7383,16.97],[104.7383,16.9681],[104.7389,16.9676],[104.7383,16.9668],[104.7386,16.9649],[104.738,16.963],[104.738,16.9603],[104.7389,16.9611],[104.7392,16.9625],[104.74,16.9635],[104.7406,16.9633],[104.7409,16.9619],[104.7414,16.9616],[104.7414,16.9652],[104.742,16.9652],[104.742,16.9717],[104.7408,16.9741]]]}},{"type":"Feature","properties":{"kind":"seasonal","area_km2":0.412,"date":"2026-10-09"},"geometry":{"type":"Polygon","coordinates":[[[104.74,16.963],[104.7394,16.9611],[104.7386,16.9606],[104.7383,16.9435],[104.7389,16.944],[104.7392,16.9462],[104.7397,16.9467],[104.7411,16.9549],[104.7411,16.9606],[104.74,16.963]]]}},{"type":"Feature","properties":{"kind":"seasonal","area_km2":0.404,"date":"2026-10-09"},"geometry":{"type":"Polygon","coordinates":[[[104.5501,16.8282],[104.5498,16.8276],[104.5487,16.8273],[104.5482,16.8263],[104.5465,16.8263],[104.5453,16.8252],[104.5456,16.8238],[104.5476,16.8238],[104.5484,16.823],[104.5501,16.823],[104.5501,16.8238],[104.5496,16.8238],[104.5496,16.8249],[104.5524,16.8249],[104.5535,16.8244],[104.5535,16.8227],[104.553,16.8225],[104.5535,16.8225],[104.5535,16.8219],[104.5544,16.8219],[104.5546,16.8214],[104.5549,16.8219],[104.5555,16.8219],[104.5555,16.8211],[104.5563,16.8203],[104.5561,16.8195],[104.5566,16.8173],[104.5566,16.8238],[104.5552,16.8246],[104.5552,16.8255],[104.5532,16.8255],[104.5515,16.8282],[104.5501,16.8282]],[[104.5561,16.8211],[104.5563,16.8214],[104.5563,16.8211],[104.5561,16.8211]]]}},{"type":"Feature","properties":{"kind":"seasonal","area_km2":0.343,"date":"2026-10-09"},"geometry":{"type":"Polygon","coordinates":[[[104.1476,16.5408],[104.1471,16.5397],[104.1459,16.5392],[104.1457,16.5384],[104.1431,16.5386],[104.1423,16.5375],[104.1415,16.5375],[104.1418,16.5337],[104.1426,16.5337],[104.1423,16.5343],[104.1434,16.5345],[104.1429,16.5351],[104.1434,16.5359],[104.1443,16.5362],[104.1437,16.5378],[104.144,16.5383],[104.1448,16.5383],[104.1451,16.5378],[104.1457,16.5378],[104.1457,16.5373],[104.1476,16.5375],[104.1468,16.5367],[104.1465,16.5354],[104.1468,16.5348],[104.1479,16.5348],[104.1479,16.5335],[104.1491,16.534],[104.1491,16.5354],[104.1496,16.5354],[104.1499,16.5338],[104.1508,16.534],[104.151,16.5332],[104.151,16.5343],[104.1499,16.5346],[104.1502,16.5362],[104.1496,16.5365],[104.1499,16.5378],[104.1505,16.5378],[104.1502,16.5395],[104.1488,16.5395],[104.1485,16.5408],[104.1476,16.5408]],[[104.1432,16.5359],[104.1434,16.5362],[104.1434,16.5359],[104.1432,16.5359]]]}},{"type":"Feature","properties":{"kind":"seasonal","area_km2":0.321,"date":"2026-10-09"},"geometry":{"type":"Polygon","coordinates":[[[104.1053,16.8186],[104.1047,16.8169],[104.1039,16.8169],[104.1025,16.8156],[104.1016,16.8158],[104.1005,16.8148],[104.1033,16.8153],[104.1056,16.8137],[104.1053,16.8131],[104.1064,16.8123],[104.107,16.8113],[104.1067,16.8096],[104.1076,16.8064],[104.107,16.8056],[104.1073,16.805],[104.1085,16.805],[104.1079,16.8083],[104.1087,16.8118],[104.1081,16.8129],[104.107,16.8129],[104.1076,16.8134],[104.1064,16.8134],[104.1059,16.8137],[104.1056,16.8145],[104.1062,16.8156],[104.1064,16.8151],[104.107,16.8156],[104.107,16.8148],[104.1076,16.8145],[104.1087,16.8151],[104.1084,16.8175],[104.1075,16.8186],[104.1053,16.8186]],[[104.1067,16.8175],[104.107,16.817],[104.1064,16.8167],[104.1064,16.8172],[104.1067,16.8175]],[[104.1059,16.8172],[104.1064,16.8167],[104.1061,16.8161],[104.1056,16.8161],[104.1059,16.8172]],[[104.1076,16.8167],[104.1078,16.817],[104.1078,16.8167],[104.1076,16.8167]],[[104.107,16.8167],[104.1076,16.8167],[104.1078,16.8161],[104.107,16.8161],[104.107,16.8167]],[[104.1061,16.8159],[104.1064,16.8161],[104.1064,16.8159],[104.1061,16.8159]],[[104.1067,16.8159],[104.107,16.8161],[104.107,16.8159],[104.1067,16.8159]],[[104.107,16.8156],[104.1076,16.8159],[104.1076,16.8156],[104.107,16.8156]],[[104.1078,16.8156],[104.1081,16.8159],[104.1081,16.8156],[104.1078,16.8156]],[[104.105,16.815],[104.1053,16.8156],[104.1053,16.815],[104.105,16.815]],[[104.1062,16.8132],[104.1064,16.8134],[104.1064,16.8132],[104.1062,16.8132]],[[104.1064,16.8129],[104.1067,16.8132],[104.1067,16.8129],[104.1064,16.8129]]]}},{"type":"Feature","properties":{"kind":"seasonal","area_km2":0.32,"date":"2026-10-09"},"geometry":{"type":"Polygon","coordinates":[[[104.0431,16.0137],[104.0431,16.0113],[104.0425,16.011],[104.0423,16.0075],[104.0414,16.0067],[104.0414,16.0061],[104.0431,16.0061],[104.0431,16.0048],[104.044,16.0048],[104.0442,16.0056],[104.0451,16.0056],[104.0451,16.007],[104.0462,16.0075],[104.0459,16.0099],[104.0467,16.0099],[104.047,16.0121],[104.0459,16.0124],[104.0456,16.0113],[104.0451,16.011],[104.0448,16.0116],[104.0453,16.0121],[104.0453,16.0129],[104.0442,16.0132],[104.0442,16.0137],[104.0431,16.0137]],[[104.0434,16.0113],[104.0436,16.0116],[104.0436,16.0113],[104.0434,16.0113]],[[104.0431,16.011],[104.0434,16.0113],[104.0434,16.011],[104.0431,16.011]],[[104.0434,16.0094],[104.0439,16.0099],[104.0439,16.0094],[104.0434,16.0094]]]}},{"type":"Feature","properties":{"kind":"seasonal","area_km2":0.314,"date":"2026-10-09"},"geometry":{"type":"Polygon","coordinates":[[[104.254,16.4542],[104.254,16.4533],[104.2534,16.4528],[104.2523,16.4528],[104.2523,16.4514],[104.2514,16.4514],[104.2506,16.4506],[104.2498,16.4479],[104.2472,16.4476],[104.2475,16.4465],[104.2498,16.4466],[104.25,16.4476],[104.2509,16.4485],[104.2514,16.4479],[104.2523,16.4479],[104.2523,16.4487],[104.2531,16.4487],[104.2529,16.4476],[104.2537,16.4471],[104.2537,16.4466],[104.2545,16.4468],[104.2545,16.4485],[104.2557,16.4487],[104.2557,16.4496],[104.2551,16.4498],[104.2554,16.4512],[104.2548,16.4517],[104.2554,16.4517],[104.2554,16.4528],[104.2565,16.4528],[104.2565,16.4536],[104.2548,16.4536],[104.2545,16.4542],[104.254,16.4542]],[[104.2512,16.4498],[104.2517,16.4498],[104.252,16.449],[104.2512,16.449],[104.2512,16.4498]],[[104.2528,16.4493],[104.2531,16.4495],[104.2531,16.4493],[104.2528,16.4493]]]}},{"type":"Feature","properties":{"kind":"seasonal","area_km2":0.311,"date":"2026-10-09"},"geometry":{"type":"Polygon","coordinates":[[[104.1443,16.784],[104.1446,16.7827],[104.144,16.7821],[104.1398,16.7813],[104.1398,16.7805],[104.1395,16.7813],[104.1381,16.7816],[104.1384,16.7807],[104.1376,16.7802],[104.1373,16.7788],[104.1367,16.7783],[104.1359,16.7783],[104.1353,16.7775],[104.1328,16.7775],[104.1325,16.778],[104.1317,16.778],[104.1325,16.7769],[104.1322,16.7758],[104.1353,16.7759],[104.1367,16.7764],[104.137,16.7772],[104.1384,16.7783],[104.1384,16.7789],[104.1404,16.7799],[104.1449,16.78],[104.146,16.7811],[104.146,16.7819],[104.1457,16.7819],[104.1457,16.7829],[104.1451,16.7832],[104.1451,16.7838],[104.1443,16.784]],[[104.1449,16.7819],[104.1457,16.7819],[104.1457,16.7813],[104.1449,16.781],[104.1449,16.7819]],[[104.1443,16.781],[104.1446,16.7813],[104.1446,16.781],[104.1443,16.781]],[[104.1432,16.7805],[104.1435,16.781],[104.1435,16.7805],[104.1432,16.7805]],[[104.144,16.7805],[104.1443,16.781],[104.1443,16.7805],[104.144,16.7805]]]}},{"type":"Feature","properties":{"kind":"seasonal","area_km2":0.303,"date":"2026-10-09"},"geometry":{"type":"Polygon","coordinates":[[[104.7343,16.9928],[104.7343,16.9901],[104.7338,16.9896],[104.7338,16.9877],[104.7332,16.9874],[104.7324,16.9858],[104.7324,16.9836],[104.7329,16.9858],[104.7338,16.9858],[104.7343,16.9812],[104.7358,16.9771],[104.7358,16.9744],[104.736,16.9738],[104.7366,16.9738],[104.7366,16.9747],[104.736,16.9747],[104.736,16.9798],[104.7366,16.9798],[104.7366,16.982],[104.736,16.982],[104.7357,16.9882],[104.7352,16.9893],[104.7346,16.9893],[104.7343,16.9928]]]}},{"type":"Feature","properties":{"kind":"seasonal","area_km2":0.298,"date":"2026-10-09"},"geometry":{"type":"Polygon","coordinates":[[[104.618,16.655],[104.6175,16.6542],[104.6158,16.6545],[104.6155,16.6539],[104.6144,16.6539],[104.6144,16.6528],[104.6152,16.6526],[104.6152,16.6517],[104.6138,16.6512],[104.6144,16.6496],[104.6152,16.6496],[104.6152,16.6501],[104.6161,16.6509],[104.6189,16.6509],[104.6192,16.6504],[104.6206,16.6504],[104.6214,16.6512],[104.6214,16.6528],[104.62,16.6539],[104.62,16.6545],[104.6192,16.655],[104.618,16.655]]]}},{"type":"Feature","properties":{"kind":"seasonal","area_km2":0.292,"date":"2026-10-09"},"geometry":{"type":"Polygon","coordinates":[[[104.7383,16.5714],[104.7383,16.5695],[104.7389,16.5687],[104.7386,16.5681],[104.738,16.5684],[104.7377,16.5676],[104.7375,16.5521],[104.7383,16.5467],[104.7389,16.5462],[104.7389,16.5573],[104.7386,16.5562],[104.738,16.5573],[104.738,16.5597],[104.7386,16.5589],[104.7389,16.5603],[104.738,16.56],[104.738,16.5608],[104.7389,16.5608],[104.7391,16.5711],[104.7383,16.5714]]]}},{"type":"Feature","properties":{"kind":"seasonal","area_km2":0.253,"date":"2026-10-09"},"geometry":{"type":"Polygon","coordinates":[[[104.0433,16.7817],[104.0427,16.7787],[104.0413,16.7784],[104.0413,16.7754],[104.0416,16.7746],[104.0422,16.7746],[104.0416,16.7757],[104.0416,16.7782],[104.043,16.7779],[104.0436,16.7784],[104.0433,16.7795],[104.0438,16.7801],[104.0444,16.7792],[104.0438,16.7757],[104.0444,16.776],[104.0447,16.7749],[104.0436,16.7749],[104.0436,16.7744],[104.0439,16.7727],[104.0447,16.7725],[104.045,16.7744],[104.0461,16.7744],[104.0464,16.7763],[104.0475,16.7763],[104.0478,16.7757],[104.0489,16.776],[104.0489,16.7776],[104.0495,16.7779],[104.0495,16.7785],[104.05,16.7776],[104.0506,16.7787],[104.0506,16.7801],[104.0497,16.7801],[104.0489,16.7793],[104.0489,16.7782],[104.0478,16.7779],[104.0472,16.7771],[104.0461,16.7771],[104.0453,16.7765],[104.0447,16.7784],[104.0447,16.7809],[104.0441,16.7811],[104.0441,16.7817],[104.0433,16.7817]]]}},{"type":"Feature","properties":{"kind":"seasonal","area_km2":0.251,"date":"2026-10-09"},"geometry":{"type":"Polygon","coordinates":[[[104.3831,16.9319],[104.3823,16.931],[104.382,16.9294],[104.3811,16.9291],[104.3811,16.9283],[104.384,16.9286],[104.3842,16.9281],[104.3859,16.9278],[104.3887,16.9281],[104.3887,16.9297],[104.3876,16.9308],[104.3868,16.9308],[104.3853,16.9319],[104.3831,16.9319]]]}},{"type":"Feature","properties":{"kind":"seasonal","area_km2":0.247,"date":"2026-10-09"},"geometry":{"type":"Polygon","coordinates":[[[104.3089,16.9671],[104.3086,16.9666],[104.3058,16.9658],[104.3058,16.9636],[104.3033,16.9622],[104.3033,16.9617],[104.308,16.962],[104.3097,16.9617],[104.3103,16.9609],[104.3114,16.9606],[104.3123,16.962],[104.3134,16.962],[104.314,16.9612],[104.3134,16.9612],[104.3134,16.9604],[104.3128,16.9598],[104.3131,16.959],[104.314,16.9585],[104.314,16.9593],[104.3134,16.9598],[104.3151,16.9604],[104.3159,16.9615],[104.3151,16.9615],[104.3142,16.9623],[104.3142,16.9628],[104.3137,16.9628],[104.3131,16.9644],[104.3125,16.9644],[104.312,16.9636],[104.3114,16.9636],[104.3114,16.9631],[104.3109,16.9631],[104.3109,16.9617],[104.3095,16.9625],[104.3064,16.9623],[104.3066,16.9652],[104.3072,16.9658],[104.3086,16.9658],[104.3097,16.9663],[104.3097,16.9671],[104.3089,16.9671]],[[104.3117,16.9631],[104.3131,16.9634],[104.3137,16.9626],[104.3117,16.9625],[104.3117,16.9631]],[[104.3137,16.9623],[104.314,16.9626],[104.314,16.9623],[104.3137,16.9623]]]}},{"type":"Feature","properties":{"kind":"seasonal","area_km2":0.245,"date":"2026-10-09"},"geometry":{"type":"Polygon","coordinates":[[[104.4896,16.7296],[104.4879,16.7285],[104.4845,16.7285],[104.4842,16.7274],[104.4831,16.7266],[104.4814,16.7266],[104.4814,16.7249],[104.4823,16.725],[104.4845,16.722],[104.4859,16.722],[104.4859,16.7231],[104.4876,16.7244],[104.4876,16.725],[104.489,16.7261],[104.489,16.7266],[104.4904,16.7274],[104.4904,16.7293],[104.4896,16.7296]],[[104.4859,16.7279],[104.4865,16.7279],[104.487,16.7271],[104.4887,16.7269],[104.4879,16.7266],[104.4879,16.7258],[104.487,16.7258],[104.4868,16.7244],[104.4854,16.7228],[104.4851,16.7236],[104.4845,16.7236],[104.4845,16.7241],[104.4837,16.7244],[104.4834,16.7252],[104.4828,16.7252],[104.4828,16.7258],[104.4834,16.7258],[104.4834,16.7266],[104.4848,16.7266],[104.4848,16.7271],[104.4856,16.7271],[104.4859,16.7279]],[[104.4854,16.7274],[104.4856,16.7277],[104.4856,16.7274],[104.4854,16.7274]],[[104.487,16.7274],[104.4879,16.7277],[104.4879,16.7274],[104.487,16.7274]]]}},{"type":"Feature","properties":{"kind":"seasonal","area_km2":0.239,"date":"2026-10-09"},"geometry":{"type":"Polygon","coordinates":[[[104.6854,16.9404],[104.6789,16.9401],[104.6783,16.939],[104.6786,16.9385],[104.6795,16.9385],[104.6797,16.9377],[104.682,16.938],[104.6814,16.9355],[104.682,16.9347],[104.6826,16.9347],[104.6831,16.9358],[104.6848,16.9366],[104.6848,16.9374],[104.6826,16.9388],[104.6837,16.9391],[104.684,16.9385],[104.6851,16.9382],[104.6859,16.9382],[104.6859,16.9388],[104.6854,16.9393],[104.6854,16.9404]],[[104.6803,16.938],[104.6809,16.9382],[104.6809,16.938],[104.6803,16.938]],[[104.6831,16.9372],[104.6834,16.9374],[104.6834,16.9372],[104.6831,16.9372]],[[104.6828,16.9369],[104.6831,16.9372],[104.6831,16.9369],[104.6828,16.9369]],[[104.6826,16.9366],[104.6828,16.9369],[104.6828,16.9366],[104.6826,16.9366]],[[104.6823,16.9361],[104.6826,16.9366],[104.6826,16.9361],[104.6823,16.9361]]]}},{"type":"Feature","properties":{"kind":"seasonal","area_km2":0.234,"date":"2026-10-09"},"geometry":{"type":"Polygon","coordinates":[[[104.5479,16.807],[104.5454,16.8065],[104.5476,16.8056],[104.5476,16.804],[104.5432,16.7999],[104.5412,16.7994],[104.5395,16.7972],[104.5381,16.7972],[104.5372,16.7983],[104.5381,16.7961],[104.5403,16.7961],[104.5406,16.7972],[104.5418,16.7978],[104.542,16.7989],[104.5437,16.7991],[104.5451,16.8008],[104.5468,16.8013],[104.5471,16.8024],[104.5479,16.8027],[104.5493,16.8054],[104.5505,16.8054],[104.5505,16.8059],[104.5499,16.8062],[104.5485,16.8059],[104.5479,16.807]]]}},{"type":"Feature","properties":{"kind":"seasonal","area_km2":0.215,"date":"2026-10-09"},"geometry":{"type":"Polygon","coordinates":[[[104.1832,16.7001],[104.1829,16.6996],[104.1818,16.6996],[104.1821,16.6979],[104.1827,16.6982],[104.1827,16.6974],[104.1832,16.6974],[104.1832,16.6966],[104.1827,16.6971],[104.1821,16.6961],[104.1821,16.6947],[104.1799,16.6947],[104.1804,16.6925],[104.181,16.6925],[104.1824,16.6912],[104.1824,16.689],[104.183,16.689],[104.1824,16.6879],[104.1833,16.6879],[104.1833,16.6885],[104.1838,16.6885],[104.1838,16.6898],[104.183,16.6898],[104.1833,16.6904],[104.1827,16.6906],[104.1824,16.6925],[104.1813,16.6928],[104.1816,16.6939],[104.181,16.6939],[104.181,16.6944],[104.1821,16.6944],[104.1821,16.6939],[104.1838,16.6936],[104.1832,16.6939],[104.183,16.6952],[104.1844,16.695],[104.1847,16.6936],[104.1861,16.6931],[104.1849,16.6942],[104.1847,16.6952],[104.1835,16.6955],[104.1835,16.6961],[104.1841,16.6963],[104.1841,16.6974],[104.1846,16.6977],[104.1846,16.6988],[104.1843,16.7001],[104.1832,16.7001]],[[104.1832,16.698],[104.1838,16.698],[104.1838,16.6974],[104.1832,16.6974],[104.1832,16.698]],[[104.1827,16.6958],[104.183,16.6963],[104.183,16.6958],[104.1827,16.6958]],[[104.1827,16.6952],[104.183,16.6955],[104.183,16.6952],[104.1827,16.6952]]]}},{"type":"Feature","properties":{"kind":"seasonal","area_km2":0.215,"date":"2026-10-09"},"geometry":{"type":"Polygon","coordinates":[[[104.6948,16.1713],[104.6945,16.1708],[104.6934,16.1705],[104.6928,16.17],[104.6928,16.1691],[104.6908,16.1681],[104.6908,16.1675],[104.6897,16.1667],[104.69,16.1648],[104.6914,16.1645],[104.6906,16.1629],[104.69,16.1626],[104.6908,16.1626],[104.6925,16.164],[104.6925,16.1648],[104.6908,16.1653],[104.6908,16.1662],[104.6922,16.167],[104.6925,16.1683],[104.6934,16.1686],[104.6936,16.1702],[104.6942,16.1702],[104.6936,16.1662],[104.6956,16.1664],[104.6959,16.1673],[104.6979,16.1681],[104.6981,16.1675],[104.6976,16.167],[104.6976,16.1662],[104.6984,16.1667],[104.6987,16.1686],[104.6945,16.1672],[104.695,16.17],[104.6959,16.1705],[104.6959,16.1713],[104.6948,16.1713]]]}},{"type":"Feature","properties":{"kind":"seasonal","area_km2":0.214,"date":"2026-10-09"},"geometry":{"type":"Polygon","coordinates":[[[104.7409,16.938],[104.7409,16.9334],[104.7403,16.9315],[104.7403,16.9239],[104.7406,16.921],[104.7415,16.9202],[104.7418,16.9177],[104.7423,16.9177],[104.7418,16.9196],[104.742,16.9267],[104.7415,16.9283],[104.7409,16.938]],[[104.7409,16.9291],[104.7412,16.9305],[104.7412,16.9291],[104.7409,16.9291]]]}},{"type":"Feature","properties":{"kind":"seasonal","area_km2":0.211,"date":"2026-10-09"},"geometry":{"type":"Polygon","coordinates":[[[104.1502,16.5332],[104.1496,16.5324],[104.1496,16.5313],[104.1502,16.5305],[104.1516,16.5305],[104.1511,16.5283],[104.1471,16.5283],[104.1471,16.5275],[104.1457,16.527],[104.146,16.5259],[104.1469,16.5259],[104.1469,16.5253],[104.1435,16.5256],[104.1438,16.5251],[104.1483,16.5248],[104.148,16.5259],[104.1466,16.5262],[104.1466,16.527],[104.1471,16.527],[104.1482,16.5281],[104.1494,16.5281],[104.1494,16.5273],[104.1511,16.5273],[104.1516,16.5278],[104.1536,16.5275],[104.1542,16.5281],[104.1536,16.5303],[104.1524,16.5313],[104.1508,16.5313],[104.1502,16.5319],[104.1502,16.5327],[104.1508,16.5332],[104.1502,16.5332]]]}},{"type":"Feature","properties":{"kind":"seasonal","area_km2":0.205,"date":"2026-10-09"},"geometry":{"type":"Polygon","coordinates":[[[104.7595,16.7246],[104.7592,16.7208],[104.7606,16.713],[104.7609,16.7168],[104.7617,16.7165],[104.7623,16.7143],[104.7623,16.7176],[104.7617,16.7206],[104.7612,16.7206],[104.7609,16.7217],[104.7609,16.7236],[104.7603,16.7236],[104.76,16.7246],[104.7595,16.7246]]]}},{"type":"Feature","properties":{"kind":"seasonal","area_km2":0.203,"date":"2026-10-09"},"geometry":{"type":"Polygon","coordinates":[[[104.2175,16.9286],[104.2172,16.9272],[104.2186,16.9253],[104.2186,16.924],[104.2192,16.9237],[104.2192,16.9215],[104.2206,16.9218],[104.2212,16.921],[104.2223,16.9213],[104.2223,16.9226],[104.2211,16.9234],[104.2211,16.924],[104.2223,16.9245],[104.2223,16.9259],[104.2197,16.9272],[104.2186,16.9286],[104.2175,16.9286]],[[104.2197,16.9253],[104.2209,16.9253],[104.2209,16.9248],[104.2217,16.9251],[104.2217,16.9245],[104.2211,16.9245],[104.2209,16.9237],[104.22,16.9237],[104.2211,16.9226],[104.2211,16.9218],[104.2203,16.9224],[104.2203,16.9229],[104.2197,16.9229],[104.2194,16.9237],[104.2197,16.9253]],[[104.2209,16.9253],[104.2211,16.9256],[104.2211,16.9253],[104.2209,16.9253]]]}},{"type":"Feature","properties":{"kind":"seasonal","area_km2":0.198,"date":"2026-10-09"},"geometry":{"type":"Polygon","coordinates":[[[104.3354,16.9491],[104.3335,16.9488],[104.3335,16.948],[104.3318,16.9463],[104.3312,16.9463],[104.3306,16.9453],[104.3295,16.9444],[104.3298,16.9434],[104.3292,16.9425],[104.3307,16.9425],[104.3318,16.945],[104.3349,16.9453],[104.336,16.9461],[104.3368,16.9461],[104.336,16.9485],[104.3354,16.9491]],[[104.3343,16.9482],[104.3357,16.948],[104.3349,16.9477],[104.3352,16.9461],[104.3346,16.9461],[104.3343,16.9472],[104.3337,16.9472],[104.3346,16.9474],[104.3343,16.9482]],[[104.3332,16.9469],[104.3337,16.9469],[104.3335,16.9458],[104.3329,16.9461],[104.3332,16.9469]],[[104.334,16.9461],[104.3346,16.9461],[104.3346,16.9458],[104.334,16.9455],[104.334,16.9461]]]}},{"type":"Feature","properties":{"kind":"seasonal","area_km2":0.194,"date":"2026-10-09"},"geometry":{"type":"Polygon","coordinates":[[[104.422,16.7221],[104.4223,16.7215],[104.4218,16.7207],[104.4195,16.7199],[104.4204,16.7175],[104.4195,16.7153],[104.4195,16.7137],[104.4201,16.7134],[104.4201,16.7123],[104.4212,16.7123],[104.4207,16.715],[104.4212,16.7153],[104.4212,16.7167],[104.4223,16.7186],[104.4223,16.7196],[104.424,16.7213],[104.424,16.7221],[104.422,16.7221]]]}},{"type":"Feature","properties":{"kind":"seasonal","area_km2":0.192,"date":"2026-10-09"},"geometry":{"type":"Polygon","coordinates":[[[104.744,16.9557],[104.7437,16.9549],[104.7442,16.9546],[104.7437,16.9541],[104.744,16.953],[104.7434,16.9522],[104.7437,16.9505],[104.7431,16.9489],[104.7426,16.9489],[104.7426,16.9462],[104.7431,16.9462],[104.7431,16.9467],[104.7437,16.947],[104.7448,16.947],[104.7454,16.9489],[104.7454,16.9538],[104.7451,16.9551],[104.7445,16.9549],[104.7445,16.9554],[104.744,16.9557]]]}},{"type":"Feature","properties":{"kind":"seasonal","area_km2":0.185,"date":"2026-10-09"},"geometry":{"type":"Polygon","coordinates":[[[104.0152,16.4917],[104.0149,16.4901],[104.016,16.4892],[104.0158,16.4854],[104.0152,16.4852],[104.0152,16.4838],[104.0161,16.4838],[104.0161,16.4844],[104.018,16.486],[104.0183,16.4893],[104.0172,16.4895],[104.0174,16.4911],[104.0169,16.4917],[104.0152,16.4917]]]}},{"type":"Feature","properties":{"kind":"seasonal","area_km2":0.182,"date":"2026-10-09"},"geometry":{"type":"Polygon","coordinates":[[[104.3958,16.5658],[104.3952,16.5653],[104.393,16.5655],[104.3919,16.5636],[104.3919,16.5623],[104.3893,16.562],[104.3896,16.5593],[104.3924,16.559],[104.3927,16.5596],[104.3933,16.5596],[104.3936,16.5609],[104.3919,16.5604],[104.3916,16.5609],[104.3902,16.5612],[104.3902,16.5617],[104.3924,16.5615],[104.3936,16.5623],[104.3938,16.5644],[104.3983,16.5655],[104.3958,16.5658]],[[104.3927,16.5639],[104.393,16.5634],[104.3924,16.5628],[104.3924,16.5636],[104.3927,16.5639]],[[104.3902,16.5604],[104.391,16.5604],[104.3913,16.5593],[104.3905,16.5593],[104.3902,16.5604]]]}},{"type":"Feature","properties":{"kind":"seasonal","area_km2":0.18,"date":"2026-10-09"},"geometry":{"type":"Polygon","coordinates":[[[104.3168,16.2434],[104.3165,16.2412],[104.3151,16.2401],[104.3151,16.2393],[104.3143,16.2388],[104.3126,16.2388],[104.3126,16.238],[104.3137,16.2377],[104.314,16.2382],[104.314,16.2374],[104.3146,16.2374],[104.314,16.2355],[104.3151,16.2344],[104.316,16.2344],[104.316,16.2358],[104.3165,16.2366],[104.3165,16.2396],[104.3176,16.2407],[104.3176,16.2434],[104.3168,16.2434]],[[104.3146,16.2388],[104.3157,16.2388],[104.3154,16.2369],[104.3151,16.2377],[104.3146,16.2377],[104.3146,16.2382],[104.3151,16.2382],[104.3146,16.2388]]]}},{"type":"Feature","properties":{"kind":"seasonal","area_km2":0.179,"date":"2026-10-09"},"geometry":{"type":"Polygon","coordinates":[[[104.1554,16.7475],[104.1557,16.7464],[104.1552,16.7458],[104.1549,16.7442],[104.1535,16.7428],[104.1521,16.7428],[104.1515,16.7426],[104.1515,16.742],[104.1507,16.742],[104.1507,16.7412],[104.1518,16.7409],[104.1518,16.7401],[104.1535,16.7401],[104.1555,16.7418],[104.156,16.7429],[104.156,16.7437],[104.1555,16.7437],[104.1555,16.7442],[104.1563,16.7442],[104.1563,16.7448],[104.1555,16.745],[104.156,16.745],[104.1563,16.7467],[104.1574,16.7461],[104.1571,16.7448],[104.1566,16.7448],[104.1566,16.7442],[104.1577,16.7448],[104.1577,16.7464],[104.1568,16.7472],[104.1554,16.7475]],[[104.1541,16.7431],[104.1555,16.7431],[104.1555,16.7426],[104.1552,16.7423],[104.1538,16.7423],[104.1541,16.7431]],[[104.1535,16.742],[104.1538,16.7423],[104.1538,16.742],[104.1535,16.742]]]}},{"type":"Feature","properties":{"kind":"seasonal","area_km2":0.175,"date":"2026-10-09"},"geometry":{"type":"Polygon","coordinates":[[[104.4932,16.8354],[104.491,16.8351],[104.4913,16.8337],[104.4904,16.8334],[104.4904,16.8329],[104.4915,16.8318],[104.4938,16.8307],[104.4946,16.8299],[104.4947,16.8288],[104.4955,16.8288],[104.4958,16.8305],[104.4952,16.831],[104.4949,16.8324],[104.4938,16.8326],[104.4932,16.8337],[104.4932,16.8354]]]}},{"type":"Feature","properties":{"kind":"seasonal","area_km2":0.168,"date":"2026-10-09"},"geometry":{"type":"Polygon","coordinates":[[[104.3797,16.7559],[104.3778,16.7553],[104.3778,16.7537],[104.3772,16.7534],[104.3772,16.7507],[104.3778,16.7504],[104.3781,16.7491],[104.3797,16.7485],[104.38,16.751],[104.3792,16.7518],[104.3792,16.7529],[104.38,16.7534],[104.38,16.7545],[104.3797,16.7559]]]}},{"type":"Feature","properties":{"kind":"seasonal","area_km2":0.166,"date":"2026-10-09"},"geometry":{"type":"Polygon","coordinates":[[[104.7456,16.5386],[104.7459,16.5372],[104.7476,16.537],[104.7471,16.5345],[104.7473,16.5332],[104.749,16.5324],[104.749,16.5313],[104.7499,16.531],[104.7499,16.5294],[104.7507,16.5294],[104.751,16.5283],[104.7516,16.5283],[104.7518,16.5278],[104.7518,16.5288],[104.751,16.5299],[104.7501,16.5324],[104.7496,16.5326],[104.7476,16.5386],[104.7456,16.5386]],[[104.7465,16.5383],[104.747,16.5383],[104.7471,16.5378],[104.7465,16.5378],[104.7465,16.5383]],[[104.7471,16.5375],[104.7476,16.5378],[104.7476,16.5375],[104.7471,16.5375]]]}},{"type":"Feature","properties":{"kind":"seasonal","area_km2":0.16,"date":"2026-10-09"},"geometry":{"type":"Polygon","coordinates":[[[104.5454,16.8149],[104.5445,16.8135],[104.542,16.8135],[104.5428,16.8111],[104.5434,16.8111],[104.5443,16.8103],[104.5443,16.8089],[104.5434,16.8081],[104.5423,16.8078],[104.542,16.8064],[104.5451,16.8065],[104.5443,16.8075],[104.5451,16.8078],[104.5451,16.8092],[104.5459,16.8092],[104.5454,16.8094],[104.5457,16.8113],[104.5445,16.8108],[104.5451,16.8119],[104.5434,16.8113],[104.5431,16.8124],[104.544,16.8124],[104.5454,16.8135],[104.5454,16.8143],[104.5459,16.8146],[104.5454,16.8149]]]}},{"type":"Feature","properties":{"kind":"seasonal","area_km2":0.156,"date":"2026-10-09"},"geometry":{"type":"Polygon","coordinates":[[[104.4854,16.9321],[104.4845,16.9313],[104.484,16.9313],[104.4834,16.93],[104.4828,16.93],[104.4828,16.9292],[104.484,16.9292],[104.484,16.9275],[104.4845,16.9273],[104.4848,16.9262],[104.4859,16.9262],[104.4865,16.9278],[104.4871,16.9281],[104.4871,16.9294],[104.4876,16.9294],[104.4876,16.9308],[104.4873,16.93],[104.4868,16.93],[104.4868,16.9308],[104.4859,16.9308],[104.4854,16.9294],[104.4865,16.9297],[104.4865,16.9289],[104.4848,16.9289],[104.4854,16.9313],[104.4856,16.9319],[104.4862,16.9319],[104.4854,16.9321]],[[104.4845,16.9281],[104.4848,16.9283],[104.4848,16.9281],[104.4845,16.9281]],[[104.4842,16.9278],[104.4845,16.9281],[104.4845,16.9278],[104.4842,16.9278]]]}},{"type":"Feature","properties":{"kind":"seasonal","area_km2":0.153,"date":"2026-10-09"},"geometry":{"type":"Polygon","coordinates":[[[104.1864,16.6863],[104.1853,16.686],[104.1858,16.6852],[104.1853,16.6844],[104.1827,16.6844],[104.1824,16.6833],[104.1819,16.6838],[104.1805,16.6836],[104.1805,16.6828],[104.1813,16.6822],[104.1822,16.6795],[104.1839,16.6795],[104.1844,16.679],[104.1853,16.679],[104.1858,16.6798],[104.1867,16.6801],[104.187,16.6809],[104.1864,16.6809],[104.1864,16.6803],[104.1853,16.6795],[104.1844,16.6795],[104.1841,16.6811],[104.183,16.6811],[104.183,16.6803],[104.1822,16.6803],[104.1825,16.6814],[104.1816,16.6828],[104.1833,16.6828],[104.1844,16.6839],[104.1858,16.6839],[104.1864,16.6852],[104.1872,16.6852],[104.1875,16.6858],[104.1864,16.6863]],[[104.1813,16.683],[104.1816,16.6833],[104.1816,16.683],[104.1813,16.683]]]}},{"type":"Feature","properties":{"kind":"seasonal","area_km2":0.152,"date":"2026-10-09"},"geometry":{"type":"Polygon","coordinates":[[[104.3659,16.9378],[104.3659,16.9361],[104.367,16.9353],[104.3673,16.9345],[104.3662,16.9337],[104.3653,16.9321],[104.3668,16.9321],[104.369,16.934],[104.3698,16.934],[104.3701,16.9348],[104.3693,16.9359],[104.3673,16.937],[104.3673,16.9375],[104.3659,16.9378]],[[104.3682,16.9345],[104.3684,16.9348],[104.3684,16.9345],[104.3682,16.9345]]]}},{"type":"Feature","properties":{"kind":"seasonal","area_km2":0.15,"date":"2026-10-09"},"geometry":{"type":"Polygon","coordinates":[[[104.5353,16.8026],[104.5353,16.7986],[104.5341,16.7983],[104.5341,16.7975],[104.5347,16.7972],[104.5347,16.7953],[104.5325,16.7929],[104.5297,16.792],[104.5299,16.791],[104.5328,16.7915],[104.533,16.7921],[104.5316,16.7918],[104.5316,16.7923],[104.5339,16.7931],[104.5358,16.7959],[104.5353,16.7969],[104.5358,16.7986],[104.5355,16.8007],[104.5361,16.8007],[104.5364,16.7988],[104.537,16.7988],[104.537,16.7997],[104.5364,16.8005],[104.5364,16.8016],[104.5358,16.8018],[104.5358,16.8026],[104.5353,16.8026]]]}},{"type":"Feature","properties":{"kind":"seasonal","area_km2":0.15,"date":"2026-10-09"},"geometry":{"type":"Polygon","coordinates":[[[104.7476,16.7745],[104.7484,16.7697],[104.749,16.7691],[104.749,16.7683],[104.7501,16.7686],[104.7524,16.7621],[104.7524,16.7637],[104.7513,16.7683],[104.7504,16.7694],[104.7504,16.7705],[104.7498,16.7705],[104.7496,16.771],[104.7487,16.774],[104.7476,16.7745]]]}},{"type":"Feature","properties":{"kind":"seasonal","area_km2":0.15,"date":"2026-10-09"},"geometry":{"type":"Polygon","coordinates":[[[104.2694,16.1605],[104.2688,16.1597],[104.2674,16.1594],[104.2638,16.1602],[104.2635,16.1591],[104.2657,16.1573],[104.2685,16.1567],[104.2685,16.1581],[104.2697,16.1586],[104.2699,16.1605],[104.2694,16.1605]],[[104.2646,16.1591],[104.2649,16.1594],[104.2649,16.1591],[104.2646,16.1591]],[[104.2649,16.1589],[104.2652,16.1591],[104.2652,16.1589],[104.2649,16.1589]],[[104.2652,16.1589],[104.266,16.1589],[104.266,16.1581],[104.2652,16.1583],[104.2652,16.1589]],[[104.2671,16.1581],[104.2674,16.1589],[104.2674,16.1581],[104.2671,16.1581]]]}},{"type":"Feature","properties":{"kind":"seasonal","area_km2":0.149,"date":"2026-10-09"},"geometry":{"type":"Polygon","coordinates":[[[104.4852,16.7895],[104.4849,16.7884],[104.4855,16.7873],[104.4855,16.7846],[104.4866,16.7841],[104.4866,16.7816],[104.4877,16.7816],[104.4883,16.7838],[104.488,16.7857],[104.4869,16.7863],[104.4869,16.7881],[104.4863,16.7887],[104.4863,16.7895],[104.4852,16.7895]],[[104.4872,16.7841],[104.4877,16.7841],[104.4877,16.7833],[104.4872,16.7833],[104.4872,16.7841]]]}},{"type":"Feature","properties":{"kind":"seasonal","area_km2":0.148,"date":"2026-10-09"},"geometry":{"type":"Polygon","coordinates":[[[104.704,16.173],[104.7035,16.1713],[104.7043,16.1708],[104.7043,16.1702],[104.7035,16.1692],[104.7026,16.1689],[104.7023,16.1675],[104.7018,16.1673],[104.7018,16.1654],[104.7012,16.1651],[104.7009,16.1659],[104.6995,16.1659],[104.6984,16.1656],[104.6981,16.1651],[104.6976,16.1651],[104.6976,16.1645],[104.697,16.1645],[104.6976,16.1659],[104.697,16.1662],[104.6962,16.1648],[104.6962,16.164],[104.6979,16.164],[104.6998,16.1654],[104.7004,16.1654],[104.7009,16.1645],[104.7021,16.1645],[104.7026,16.1651],[104.7029,16.1686],[104.7049,16.1697],[104.7049,16.1713],[104.7054,16.1713],[104.7051,16.1727],[104.704,16.173]]]}},{"type":"Feature","properties":{"kind":"seasonal","area_km2":0.143,"date":"2026-10-09"},"geometry":{"type":"Polygon","coordinates":[[[104.1566,16.3461],[104.1555,16.3448],[104.155,16.3421],[104.1541,16.3412],[104.1499,16.341],[104.1499,16.3396],[104.1508,16.3396],[104.1513,16.3401],[104.155,16.3402],[104.1561,16.3418],[104.1563,16.3445],[104.1575,16.3453],[104.1575,16.3461],[104.1566,16.3461]]]}},{"type":"Feature","properties":{"kind":"seasonal","area_km2":0.141,"date":"2026-10-09"},"geometry":{"type":"Polygon","coordinates":[[[104.6651,16.9594],[104.662,16.9591],[104.662,16.958],[104.6611,16.9577],[104.6611,16.9561],[104.6594,16.9558],[104.6589,16.9553],[104.6589,16.9542],[104.66,16.9542],[104.66,16.9534],[104.6617,16.9537],[104.6617,16.9558],[104.6625,16.9564],[104.6622,16.9575],[104.6628,16.958],[104.6651,16.9583],[104.6651,16.9594]],[[104.66,16.9547],[104.6606,16.9547],[104.6606,16.9545],[104.66,16.9542],[104.66,16.9547]]]}},{"type":"Feature","properties":{"kind":"seasonal","area_km2":0.139,"date":"2026-10-09"},"geometry":{"type":"Polygon","coordinates":[[[104.5838,16.8781],[104.5835,16.876],[104.5844,16.876],[104.5844,16.8754],[104.5863,16.8754],[104.5869,16.8749],[104.5869,16.8735],[104.5903,16.8738],[104.5903,16.8746],[104.5892,16.8749],[104.5872,16.8776],[104.5858,16.8779],[104.5858,16.8773],[104.5866,16.8771],[104.5866,16.876],[104.5852,16.876],[104.5844,16.8762],[104.5844,16.877],[104.5849,16.877],[104.5844,16.8773],[104.5844,16.8779],[104.5852,16.8781],[104.5838,16.8781]]]}},{"type":"Feature","properties":{"kind":"seasonal","area_km2":0.138,"date":"2026-10-09"},"geometry":{"type":"Polygon","coordinates":[[[104.2201,16.9744],[104.2204,16.9736],[104.2195,16.9728],[104.2195,16.9714],[104.2209,16.9712],[104.2198,16.972],[104.2201,16.9728],[104.2212,16.9731],[104.2212,16.9717],[104.2218,16.9717],[104.2221,16.9728],[104.2221,16.9701],[104.2229,16.9698],[104.2224,16.969],[104.221,16.969],[104.2204,16.9709],[104.2195,16.9709],[104.2187,16.9725],[104.2181,16.9725],[104.2178,16.9731],[104.2176,16.9722],[104.221,16.9685],[104.2226,16.9685],[104.2238,16.9696],[104.2238,16.9704],[104.2226,16.9709],[104.2226,16.9731],[104.2218,16.9739],[104.2201,16.9744]]]}},{"type":"Feature","properties":{"kind":"seasonal","area_km2":0.131,"date":"2026-10-09"},"geometry":{"type":"Polygon","coordinates":[[[104.3495,16.9393],[104.3487,16.9372],[104.3473,16.9358],[104.3476,16.9336],[104.3484,16.9337],[104.3484,16.9342],[104.3498,16.9345],[104.3504,16.935],[104.3507,16.9366],[104.3521,16.938],[104.3515,16.9383],[104.3512,16.9375],[104.3501,16.9372],[104.3498,16.938],[104.3504,16.9394],[104.3495,16.9393]],[[104.349,16.9366],[104.3501,16.9369],[104.3501,16.9366],[104.349,16.9366]],[[104.3487,16.9355],[104.349,16.9358],[104.349,16.9356],[104.3487,16.9355]],[[104.3484,16.9353],[104.3487,16.9355],[104.3487,16.9353],[104.3484,16.9353]]]}},{"type":"Feature","properties":{"kind":"seasonal","area_km2":0.131,"date":"2026-10-09"},"geometry":{"type":"Polygon","coordinates":[[[104.6858,16.1591],[104.6855,16.1534],[104.6875,16.1504],[104.6872,16.1496],[104.6903,16.1488],[104.6909,16.1477],[104.692,16.1474],[104.692,16.1461],[104.6937,16.1461],[104.694,16.1475],[104.6948,16.1475],[104.6945,16.1485],[104.694,16.1485],[104.6934,16.1469],[104.6928,16.1466],[104.6928,16.1474],[104.6923,16.148],[104.6912,16.148],[104.6909,16.1496],[104.6892,16.1496],[104.6886,16.1502],[104.6878,16.1502],[104.6875,16.1521],[104.6867,16.1523],[104.6861,16.1534],[104.6858,16.1591]]]}},{"type":"Feature","properties":{"kind":"seasonal","area_km2":0.114,"date":"2026-10-09"},"geometry":{"type":"Polygon","coordinates":[[[104.4553,16.8168],[104.4553,16.8163],[104.457,16.8152],[104.457,16.8127],[104.4567,16.8114],[104.4561,16.8108],[104.4561,16.8098],[104.4567,16.8098],[104.4575,16.8079],[104.4584,16.8076],[104.4578,16.8092],[104.457,16.8098],[104.4575,16.8125],[104.4584,16.8122],[104.4584,16.8136],[104.4575,16.8138],[104.4578,16.8144],[104.4572,16.8146],[104.4572,16.8155],[104.4581,16.8147],[104.4581,16.8157],[104.4575,16.8157],[104.4572,16.8165],[104.4553,16.8168]]]}},{"type":"Feature","properties":{"kind":"seasonal","area_km2":0.11,"date":"2026-10-09"},"geometry":{"type":"Polygon","coordinates":[[[104.7516,16.8949],[104.7514,16.8939],[104.7528,16.8909],[104.7528,16.8898],[104.7539,16.8884],[104.7545,16.8865],[104.7553,16.886],[104.7548,16.8893],[104.7542,16.8895],[104.7542,16.8909],[104.7536,16.8912],[104.7536,16.892],[104.7531,16.8922],[104.7531,16.893],[104.7525,16.8933],[104.7525,16.8941],[104.7516,16.8949]]]}},{"type":"Feature","properties":{"kind":"seasonal","area_km2":0.11,"date":"2026-10-09"},"geometry":{"type":"Polygon","coordinates":[[[104.0031,16.0491],[104.002,16.0477],[104.0,16.0477],[104.0,16.0463],[104.0009,16.0458],[104.0031,16.0458],[104.0034,16.0453],[104.0045,16.0453],[104.0045,16.0461],[104.0037,16.0464],[104.0037,16.0472],[104.0042,16.0475],[104.0039,16.0485],[104.0042,16.0491],[104.0031,16.0491]],[[104.0034,16.0483],[104.0039,16.0485],[104.0039,16.0483],[104.0034,16.0483]],[[104.0031,16.0474],[104.0034,16.0466],[104.002,16.0466],[104.002,16.0469],[104.0031,16.0474]]]}},{"type":"Feature","properties":{"kind":"seasonal","area_km2":0.11,"date":"2026-10-09"},"geometry":{"type":"Polygon","coordinates":[[[104.0169,16.044],[104.0166,16.0426],[104.0155,16.0421],[104.0155,16.041],[104.0194,16.0407],[104.0194,16.0426],[104.0177,16.044],[104.0169,16.044]]]}},{"type":"Feature","properties":{"kind":"seasonal","area_km2":0.109,"date":"2026-10-09"},"geometry":{"type":"Polygon","coordinates":[[[104.6408,16.9759],[104.6408,16.9734],[104.6445,16.9737],[104.6442,16.9759],[104.6408,16.9759]],[[104.6436,16.9753],[104.6439,16.9756],[104.6439,16.9753],[104.6436,16.9753]]]}},{"type":"Feature","properties":{"kind":"seasonal","area_km2":0.106,"date":"2026-10-09"},"geometry":{"type":"Polygon","coordinates":[[[104.2212,16.9202],[104.2209,16.9164],[104.2203,16.9158],[104.2212,16.9156],[104.2212,16.9145],[104.222,16.9145],[104.2223,16.9156],[104.2215,16.9164],[104.2214,16.9175],[104.2231,16.9178],[104.2237,16.9172],[104.2245,16.9172],[104.2245,16.918],[104.2243,16.9188],[104.2231,16.9188],[104.222,16.9194],[104.2217,16.9202],[104.2212,16.9202]]]}},{"type":"Feature","properties":{"kind":"seasonal","area_km2":0.104,"date":"2026-10-09"},"geometry":{"type":"Polygon","coordinates":[[[104.2506,16.4476],[104.2506,16.4457],[104.2512,16.446],[104.2515,16.4444],[104.2501,16.4444],[104.2501,16.4428],[104.2492,16.4422],[104.2492,16.4414],[104.2498,16.4414],[104.2501,16.4425],[104.2509,16.4433],[104.2515,16.4433],[104.2523,16.4441],[104.2523,16.4447],[104.2531,16.4449],[104.2531,16.446],[104.2526,16.446],[104.2523,16.4466],[104.2529,16.4476],[104.252,16.4476],[104.2514,16.4471],[104.2506,16.4476]]]}},{"type":"Feature","properties":{"kind":"seasonal","area_km2":0.104,"date":"2026-10-09"},"geometry":{"type":"Polygon","coordinates":[[[104.2456,16.4446],[104.245,16.4438],[104.2442,16.4438],[104.2444,16.4408],[104.2439,16.4403],[104.2439,16.4389],[104.2428,16.4389],[104.2428,16.4384],[104.2422,16.4384],[104.2419,16.4365],[104.2428,16.4368],[104.2436,16.4384],[104.2447,16.4381],[104.2447,16.4433],[104.2461,16.443],[104.2464,16.4438],[104.2475,16.4433],[104.2484,16.4438],[104.2475,16.4438],[104.247,16.4446],[104.2456,16.4446]]]}},{"type":"Feature","properties":{"kind":"seasonal","area_km2":0.103,"date":"2026-10-09"},"geometry":{"type":"Polygon","coordinates":[[[104.6642,16.9868],[104.6633,16.9851],[104.665,16.9849],[104.6653,16.9843],[104.6639,16.9819],[104.6639,16.9813],[104.6647,16.9813],[104.6659,16.9835],[104.667,16.9843],[104.667,16.9851],[104.6653,16.9868],[104.6642,16.9868]]]}},{"type":"Feature","properties":{"kind":"seasonal","area_km2":0.103,"date":"2026-10-09"},"geometry":{"type":"Polygon","coordinates":[[[104.0988,16.6987],[104.0985,16.6979],[104.0974,16.6973],[104.0957,16.6976],[104.0949,16.6984],[104.0946,16.697],[104.0957,16.6962],[104.0957,16.6957],[104.0971,16.6957],[104.0988,16.6968],[104.0994,16.6965],[104.0999,16.6973],[104.0999,16.6984],[104.0988,16.6987]]]}},{"type":"Feature","properties":{"kind":"seasonal","area_km2":0.102,"date":"2026-10-09"},"geometry":{"type":"Polygon","coordinates":[[[104.6927,16.59],[104.6919,16.5892],[104.6924,16.5881],[104.695,16.5873],[104.6966,16.5873],[104.6966,16.5887],[104.6958,16.5895],[104.6941,16.5895],[104.6938,16.59],[104.6927,16.59]]]}},{"type":"Feature","properties":{"kind":"seasonal","area_km2":0.102,"date":"2026-10-09"},"geometry":{"type":"Polygon","coordinates":[[[104.3124,16.5411],[104.3124,16.5406],[104.3115,16.5403],[104.3115,16.5395],[104.3121,16.539],[104.3144,16.539],[104.3155,16.5382],[104.3169,16.5382],[104.3166,16.5395],[104.3152,16.5398],[104.3135,16.5411],[104.3124,16.5411]]]}},{"type":"Feature","properties":{"kind":"seasonal","area_km2":0.102,"date":"2026-10-09"},"geometry":{"type":"Polygon","coordinates":[[[104.6619,16.3484],[104.6619,16.3478],[104.6613,16.3478],[104.6613,16.3473],[104.6602,16.3467],[104.6602,16.3462],[104.6622,16.3462],[104.6622,16.3446],[104.6628,16.3446],[104.6636,16.3459],[104.665,16.3459],[104.665,16.3454],[104.6658,16.3454],[104.6658,16.3459],[104.665,16.3462],[104.6642,16.3473],[104.6619,16.3484]]]}},{"type":"Feature","properties":{"kind":"seasonal","area_km2":0.101,"date":"2026-10-09"},"geometry":{"type":"Polygon","coordinates":[[[104.284,16.9766],[104.2838,16.9755],[104.2846,16.9752],[104.2846,16.9747],[104.2852,16.9744],[104.2852,16.9733],[104.2843,16.973],[104.2841,16.9722],[104.2858,16.9719],[104.2866,16.9728],[104.2866,16.9757],[104.2855,16.9766],[104.284,16.9766]],[[104.286,16.9733],[104.2863,16.9736],[104.2863,16.9733],[104.286,16.9733]],[[104.2855,16.9728],[104.2857,16.973],[104.2857,16.9728],[104.2855,16.9728]]]}},{"type":"Feature","properties":{"kind":"seasonal","area_km2":0.101,"date":"2026-10-09"},"geometry":{"type":"Polygon","coordinates":[[[104.7839,16.2544],[104.7828,16.2533],[104.7828,16.252],[104.7822,16.2517],[104.7822,16.2493],[104.7836,16.2493],[104.7836,16.2509],[104.7842,16.2514],[104.7876,16.2525],[104.7873,16.2533],[104.7873,16.2528],[104.7862,16.2525],[104.7845,16.2531],[104.7845,16.2522],[104.7836,16.2522],[104.7836,16.2533],[104.7842,16.2539],[104.7839,16.2544]],[[104.7831,16.2522],[104.7836,16.2522],[104.7836,16.2517],[104.7831,16.2517],[104.7831,16.2522]]]}}]}
