{"type":"FeatureCollection","properties":{"v":3,"id":"t104_14","name":"ศรีสะเกษ · อุบลราชธานี · สุรินทร์","aoi":[104.0,14.2382,105.0,15.0],"date":"2026-10-09","dates":["2026-10-09"],"baseline_years":3,"has_seasonal":true,"totals":{"flood_high":0.0,"flood_low":1.8,"seasonal":17.6},"provinces":[{"name":"ศรีสะเกษ","zone":"th-ne","flood_high":0.0,"flood_low":1.7,"seasonal":16.0},{"name":"อุบลราชธานี","zone":"th-ne","flood_high":0.0,"flood_low":0.1,"seasonal":0.3},{"name":"สุรินทร์","zone":"th-ne","flood_high":0.0,"flood_low":0.0,"seasonal":1.3}],"scenes":{"2026-10-09":2},"baseline_dates":["2025-10-09","2024-10-06","2023-10-08"],"threshold_db":-15.0,"auto":true,"source":"Sentinel-1 RTC (Copernicus/ESA) via Microsoft Planetary Computer; JRC Global Surface Water; Copernicus DEM","method":"ChatGeo v3: Otsu threshold on VV dB; minus JRC permanent water and slope > 5 deg; unusual = water not present in most of the previous 3 years (same season)","added":"2026-10-11T01:54+07:00"},"features":[{"type":"Feature","properties":{"kind":"flood","area_km2":0.121,"conf":"low","date":"2026-10-09"},"geometry":{"type":"Polygon","coordinates":[[[104.5684,14.7024],[104.5679,14.7003],[104.5668,14.7003],[104.5662,14.6997],[104.5662,14.6989],[104.5668,14.6986],[104.5668,14.6995],[104.5676,14.6995],[104.5676,14.6989],[104.5687,14.6989],[104.569,14.6976],[104.5698,14.6976],[104.5693,14.6992],[104.571,14.6995],[104.5712,14.7006],[104.5704,14.7011],[104.5701,14.7022],[104.5698,14.7016],[104.5687,14.7016],[104.5684,14.7024]]]}},{"type":"Feature","properties":{"kind":"flood","area_km2":0.116,"conf":"low","date":"2026-10-09"},"geometry":{"type":"Polygon","coordinates":[[[104.6354,14.6315],[104.6352,14.6301],[104.6346,14.6299],[104.6352,14.6296],[104.6352,14.6282],[104.634,14.6282],[104.6343,14.6296],[104.6338,14.6296],[104.6329,14.6285],[104.6329,14.6277],[104.6377,14.6277],[104.6374,14.6304],[104.6363,14.6315],[104.6354,14.6315]]]}},{"type":"Feature","properties":{"kind":"flood","area_km2":0.109,"conf":"low","date":"2026-10-09"},"geometry":{"type":"Polygon","coordinates":[[[104.1279,14.7728],[104.1276,14.7696],[104.1282,14.7693],[104.1282,14.7679],[104.129,14.7679],[104.129,14.7685],[104.1301,14.7696],[104.1301,14.7709],[104.1293,14.7725],[104.1279,14.7728]]]}},{"type":"Feature","properties":{"kind":"flood","area_km2":0.102,"conf":"low","date":"2026-10-09"},"geometry":{"type":"Polygon","coordinates":[[[104.5913,14.6881],[104.591,14.6849],[104.5916,14.6849],[104.5913,14.684],[104.5922,14.684],[104.5922,14.6827],[104.5916,14.6827],[104.5916,14.6819],[104.5905,14.6816],[104.5902,14.6808],[104.5908,14.6808],[104.5908,14.6813],[104.5924,14.6813],[104.5924,14.6824],[104.5933,14.6832],[104.5924,14.6849],[104.5924,14.6881],[104.5913,14.6881]]]}},{"type":"Feature","properties":{"kind":"flood","area_km2":0.096,"conf":"low","date":"2026-10-09"},"geometry":{"type":"Polygon","coordinates":[[[104.4243,14.6069],[104.4243,14.6061],[104.4238,14.6061],[104.4235,14.605],[104.4218,14.6056],[104.4218,14.6045],[104.4207,14.6045],[104.4213,14.6042],[104.4213,14.6031],[104.4224,14.6023],[104.4227,14.5999],[104.4232,14.5999],[104.423,14.6018],[104.4238,14.6026],[104.4227,14.6029],[104.4227,14.6037],[104.4238,14.6039],[104.4241,14.6053],[104.4249,14.6053],[104.4243,14.6069]],[[104.4221,14.6048],[104.4227,14.6048],[104.4227,14.6045],[104.4221,14.6042],[104.4221,14.6048]]]}},{"type":"Feature","properties":{"kind":"flood","area_km2":0.092,"conf":"low","date":"2026-10-09"},"geometry":{"type":"Polygon","coordinates":[[[104.4232,14.5999],[104.4224,14.5996],[104.4224,14.5985],[104.423,14.598],[104.4227,14.5969],[104.4233,14.5969],[104.4233,14.5958],[104.4258,14.5958],[104.4258,14.5966],[104.4249,14.5969],[104.4241,14.5993],[104.4232,14.5999]]]}},{"type":"Feature","properties":{"kind":"flood","area_km2":0.086,"conf":"low","date":"2026-10-09"},"geometry":{"type":"Polygon","coordinates":[[[104.1047,14.9824],[104.1047,14.9802],[104.1053,14.9783],[104.1078,14.978],[104.1081,14.9786],[104.1086,14.9786],[104.1073,14.9788],[104.1072,14.9805],[104.105,14.9813],[104.1047,14.9824]]]}},{"type":"Feature","properties":{"kind":"flood","area_km2":0.086,"conf":"low","date":"2026-10-09"},"geometry":{"type":"Polygon","coordinates":[[[104.2092,14.8634],[104.2087,14.8629],[104.2087,14.8618],[104.2053,14.8607],[104.2053,14.8591],[104.2062,14.8591],[104.2062,14.8596],[104.2076,14.8607],[104.2098,14.8607],[104.2106,14.8613],[104.2095,14.8615],[104.2095,14.8629],[104.2109,14.8632],[104.2092,14.8634]]]}},{"type":"Feature","properties":{"kind":"flood","area_km2":0.078,"conf":"low","date":"2026-10-09"},"geometry":{"type":"Polygon","coordinates":[[[104.9736,14.6746],[104.9731,14.6741],[104.9731,14.673],[104.9739,14.6725],[104.9739,14.6719],[104.9756,14.6714],[104.9761,14.6719],[104.9761,14.6733],[104.9753,14.6736],[104.9745,14.6746],[104.9736,14.6746]]]}},{"type":"Feature","properties":{"kind":"flood","area_km2":0.076,"conf":"low","date":"2026-10-09"},"geometry":{"type":"Polygon","coordinates":[[[104.2077,14.7387],[104.2077,14.7381],[104.2069,14.7378],[104.2072,14.7362],[104.2058,14.7362],[104.2061,14.7348],[104.2066,14.7349],[104.2066,14.7357],[104.2086,14.7359],[104.208,14.7376],[104.2094,14.7376],[104.2102,14.7357],[104.2102,14.7376],[104.2097,14.7381],[104.2086,14.7381],[104.2086,14.7387],[104.2077,14.7387]]]}},{"type":"Feature","properties":{"kind":"flood","area_km2":0.073,"conf":"low","date":"2026-10-09"},"geometry":{"type":"Polygon","coordinates":[[[104.1399,14.5608],[104.139,14.5599],[104.1374,14.5605],[104.1374,14.5594],[104.1368,14.5589],[104.1382,14.5589],[104.1382,14.5572],[104.139,14.5578],[104.1393,14.5589],[104.1418,14.5591],[104.1399,14.5594],[104.1399,14.5608]],[[104.1396,14.5591],[104.1399,14.5594],[104.1399,14.5591],[104.1396,14.5591]]]}},{"type":"Feature","properties":{"kind":"flood","area_km2":0.071,"conf":"low","date":"2026-10-09"},"geometry":{"type":"Polygon","coordinates":[[[104.1024,14.9989],[104.1024,14.9978],[104.1019,14.9978],[104.1022,14.9965],[104.101,14.9962],[104.1008,14.9951],[104.103,14.9956],[104.1033,14.9975],[104.1041,14.9976],[104.1041,14.9986],[104.1024,14.9989]]]}},{"type":"Feature","properties":{"kind":"flood","area_km2":0.071,"conf":"low","date":"2026-10-09"},"geometry":{"type":"Polygon","coordinates":[[[104.2081,14.868],[104.2081,14.8672],[104.2089,14.8669],[104.2089,14.8664],[104.2098,14.8661],[104.2098,14.8667],[104.2109,14.8667],[104.2109,14.8656],[104.2123,14.8656],[104.212,14.8672],[104.21,14.868],[104.2081,14.868]]]}},{"type":"Feature","properties":{"kind":"flood","area_km2":0.068,"conf":"low","date":"2026-10-09"},"geometry":{"type":"Polygon","coordinates":[[[104.6028,14.511],[104.6014,14.5102],[104.5994,14.5102],[104.5994,14.5094],[104.6033,14.5091],[104.6036,14.511],[104.6028,14.511]]]}},{"type":"Feature","properties":{"kind":"flood","area_km2":0.067,"conf":"low","date":"2026-10-09"},"geometry":{"type":"Polygon","coordinates":[[[104.6044,14.6976],[104.6044,14.6965],[104.6038,14.6965],[104.6038,14.6957],[104.6063,14.696],[104.6063,14.6952],[104.608,14.6952],[104.608,14.696],[104.6066,14.696],[104.6063,14.6976],[104.6044,14.6976]]]}},{"type":"Feature","properties":{"kind":"flood","area_km2":0.063,"conf":"low","date":"2026-10-09"},"geometry":{"type":"Polygon","coordinates":[[[104.5895,14.5943],[104.5895,14.5932],[104.5907,14.5926],[104.5907,14.5915],[104.5923,14.5916],[104.5923,14.5935],[104.5918,14.5934],[104.5912,14.5943],[104.5895,14.5943]]]}},{"type":"Feature","properties":{"kind":"flood","area_km2":0.059,"conf":"low","date":"2026-10-09"},"geometry":{"type":"Polygon","coordinates":[[[104.1135,14.817],[104.1107,14.8164],[104.1107,14.8153],[104.1113,14.8148],[104.1132,14.8151],[104.1135,14.817]]]}},{"type":"Feature","properties":{"kind":"flood","area_km2":0.059,"conf":"low","date":"2026-10-09"},"geometry":{"type":"Polygon","coordinates":[[[104.5634,14.7092],[104.5615,14.7073],[104.5617,14.706],[104.5634,14.7062],[104.564,14.7076],[104.5634,14.7092]]]}},{"type":"Feature","properties":{"kind":"flood","area_km2":0.058,"conf":"low","date":"2026-10-09"},"geometry":{"type":"Polygon","coordinates":[[[104.073,14.9608],[104.073,14.9597],[104.0722,14.9597],[104.073,14.9595],[104.073,14.9581],[104.0716,14.9581],[104.0713,14.9589],[104.0708,14.9584],[104.0708,14.9573],[104.0716,14.9573],[104.0716,14.9578],[104.0741,14.9581],[104.0739,14.9592],[104.0744,14.9595],[104.0744,14.9603],[104.073,14.9608]]]}},{"type":"Feature","properties":{"kind":"flood","area_km2":0.058,"conf":"low","date":"2026-10-09"},"geometry":{"type":"Polygon","coordinates":[[[104.4285,14.614],[104.4282,14.6113],[104.4288,14.6099],[104.4299,14.6094],[104.4293,14.6135],[104.4285,14.614]]]}},{"type":"Feature","properties":{"kind":"flood","area_km2":0.055,"conf":"low","date":"2026-10-09"},"geometry":{"type":"Polygon","coordinates":[[[104.5629,14.7035],[104.5629,14.703],[104.5615,14.7024],[104.5615,14.7013],[104.5609,14.7008],[104.5623,14.7008],[104.5626,14.7003],[104.5643,14.7],[104.5643,14.7011],[104.5626,14.7016],[104.5626,14.7027],[104.5631,14.7027],[104.5629,14.7035]]]}},{"type":"Feature","properties":{"kind":"flood","area_km2":0.054,"conf":"low","date":"2026-10-09"},"geometry":{"type":"Polygon","coordinates":[[[104.3688,14.7278],[104.3683,14.7261],[104.3669,14.7261],[104.3672,14.725],[104.3697,14.7253],[104.37,14.7269],[104.3694,14.7269],[104.3694,14.7278],[104.3688,14.7278]]]}},{"type":"Feature","properties":{"kind":"flood","area_km2":0.051,"conf":"low","date":"2026-10-09"},"geometry":{"type":"Polygon","coordinates":[[[104.8093,14.6127],[104.8093,14.6116],[104.8101,14.6111],[104.8101,14.6105],[104.8118,14.6105],[104.8118,14.6119],[104.811,14.6127],[104.8093,14.6127]]]}},{"type":"Feature","properties":{"kind":"flood","area_km2":0.05,"conf":"low","date":"2026-10-09"},"geometry":{"type":"Polygon","coordinates":[[[104.4542,14.6808],[104.4545,14.6792],[104.4551,14.6792],[104.4559,14.6775],[104.4565,14.6783],[104.4562,14.6805],[104.4542,14.6808]]]}},{"type":"Feature","properties":{"kind":"seasonal","area_km2":2.825,"date":"2026-10-09"},"geometry":{"type":"Polygon","coordinates":[[[104.4574,14.5237],[104.4571,14.5232],[104.4552,14.5232],[104.4541,14.5221],[104.4541,14.521],[104.4549,14.521],[104.4557,14.5218],[104.4569,14.5218],[104.4563,14.5216],[104.4566,14.5183],[104.4546,14.5161],[104.4546,14.5156],[104.4541,14.5151],[104.4521,14.515],[104.4508,14.5137],[104.4508,14.5126],[104.4469,14.5115],[104.4452,14.5096],[104.4446,14.5077],[104.4458,14.5061],[104.4461,14.5026],[104.4444,14.5017],[104.4441,14.5009],[104.4472,14.5007],[104.4474,14.5012],[104.45,14.5012],[104.4494,14.5026],[104.4494,14.5045],[104.4485,14.505],[104.4483,14.5064],[104.4477,14.5066],[104.448,14.5083],[104.4488,14.5091],[104.4516,14.5091],[104.4527,14.5085],[104.4533,14.5094],[104.4538,14.5094],[104.4544,14.511],[104.4555,14.5121],[104.4555,14.5134],[104.4569,14.5137],[104.458,14.5156],[104.4585,14.5156],[104.4588,14.5167],[104.4597,14.517],[104.4608,14.5162],[104.4608,14.5107],[104.4619,14.5099],[104.4622,14.5091],[104.4639,14.5099],[104.4652,14.5094],[104.4669,14.5094],[104.468,14.5105],[104.4694,14.5105],[104.47,14.514],[104.4714,14.514],[104.4719,14.5148],[104.4727,14.5151],[104.4733,14.5173],[104.4727,14.5178],[104.4727,14.5189],[104.4722,14.5192],[104.4722,14.5202],[104.4716,14.5205],[104.4711,14.5221],[104.4702,14.523],[104.4672,14.5229],[104.4658,14.5213],[104.4652,14.5213],[104.4641,14.5219],[104.4608,14.5218],[104.4596,14.5227],[104.458,14.5224],[104.458,14.5229],[104.4585,14.5229],[104.4585,14.5237],[104.4574,14.5237]],[[104.463,14.5181],[104.4636,14.5181],[104.4636,14.5175],[104.463,14.5175],[104.463,14.5181]]]}},{"type":"Feature","properties":{"kind":"seasonal","area_km2":1.41,"date":"2026-10-09"},"geometry":{"type":"Polygon","coordinates":[[[104.3382,14.553],[104.3376,14.5522],[104.3362,14.5522],[104.3359,14.5516],[104.3354,14.5516],[104.3343,14.5505],[104.3343,14.55],[104.3323,14.5495],[104.3329,14.547],[104.3343,14.547],[104.3357,14.5478],[104.3379,14.5476],[104.3379,14.5446],[104.3393,14.5446],[104.3404,14.5427],[104.3432,14.5427],[104.3435,14.5419],[104.3443,14.5416],[104.3452,14.5403],[104.3471,14.5403],[104.3488,14.5389],[104.3488,14.5368],[104.3493,14.5359],[104.3491,14.5343],[104.348,14.5335],[104.346,14.5332],[104.3452,14.5327],[104.3452,14.5321],[104.348,14.5324],[104.3482,14.5305],[104.3488,14.5305],[104.3491,14.5327],[104.3502,14.5335],[104.351,14.5357],[104.351,14.5376],[104.3535,14.54],[104.3535,14.5422],[104.3518,14.5441],[104.3521,14.5403],[104.3516,14.5397],[104.3516,14.5387],[104.351,14.5384],[104.3502,14.5384],[104.3504,14.5403],[104.3499,14.5406],[104.3499,14.5411],[104.3491,14.5411],[104.3482,14.5427],[104.3485,14.5433],[104.3479,14.5435],[104.3479,14.5441],[104.3474,14.5441],[104.3474,14.5452],[104.3468,14.5457],[104.3437,14.5465],[104.3432,14.5473],[104.3407,14.5468],[104.3412,14.5462],[104.3404,14.5457],[104.3401,14.5497],[104.3393,14.5497],[104.3387,14.5503],[104.3396,14.5503],[104.3404,14.5511],[104.3421,14.5498],[104.346,14.5495],[104.3488,14.5481],[104.349,14.549],[104.3479,14.55],[104.3468,14.55],[104.3451,14.5511],[104.344,14.5511],[104.3435,14.5525],[104.3423,14.5525],[104.3418,14.553],[104.3382,14.553]],[[104.3398,14.5514],[104.3401,14.5516],[104.3401,14.5514],[104.3398,14.5514]],[[104.344,14.5446],[104.3446,14.5446],[104.3449,14.5438],[104.3443,14.5438],[104.344,14.5446]],[[104.3499,14.5376],[104.3502,14.5384],[104.3502,14.5376],[104.3499,14.5376]]]}},{"type":"Feature","properties":{"kind":"seasonal","area_km2":1.305,"date":"2026-10-09"},"geometry":{"type":"Polygon","coordinates":[[[104.0494,14.4248],[104.05,14.4234],[104.0497,14.421],[104.0505,14.4183],[104.0503,14.4172],[104.0511,14.4164],[104.0517,14.4164],[104.0519,14.4137],[104.0517,14.4131],[104.0478,14.4112],[104.0469,14.4112],[104.0453,14.4093],[104.0419,14.4088],[104.0422,14.4077],[104.0417,14.4071],[104.0417,14.4063],[104.0431,14.4069],[104.0433,14.4074],[104.0461,14.4069],[104.0461,14.4055],[104.0467,14.4053],[104.0464,14.4015],[104.0459,14.4004],[104.0445,14.3996],[104.0445,14.399],[104.0456,14.3985],[104.0456,14.3955],[104.0462,14.3955],[104.0465,14.395],[104.047,14.395],[104.0473,14.3958],[104.0487,14.3955],[104.0487,14.3971],[104.0478,14.3979],[104.0478,14.399],[104.0487,14.3993],[104.0487,14.4007],[104.0495,14.4007],[104.0495,14.3999],[104.0503,14.3999],[104.0503,14.4009],[104.0498,14.4009],[104.0498,14.4015],[104.0478,14.4034],[104.0475,14.4066],[104.0483,14.4074],[104.0486,14.4096],[104.0511,14.4099],[104.0525,14.4085],[104.0553,14.4086],[104.0559,14.4091],[104.0561,14.4118],[104.0544,14.4137],[104.0542,14.4148],[104.0547,14.4159],[104.0567,14.4162],[104.0586,14.4156],[104.0589,14.4137],[104.06,14.4132],[104.06,14.4121],[104.0609,14.4121],[104.0608,14.4132],[104.0617,14.4132],[104.0617,14.414],[104.0608,14.4143],[104.0608,14.4148],[104.06,14.4156],[104.06,14.4164],[104.0589,14.4172],[104.0589,14.4183],[104.058,14.4183],[104.0578,14.4191],[104.0558,14.4189],[104.055,14.4197],[104.055,14.4208],[104.0539,14.4208],[104.0536,14.4216],[104.0525,14.4224],[104.0513,14.4248],[104.0494,14.4248]],[[104.0508,14.4221],[104.0511,14.4224],[104.0511,14.4221],[104.0508,14.4221]],[[104.0511,14.4221],[104.0525,14.4218],[104.053,14.421],[104.053,14.4199],[104.0536,14.4199],[104.0539,14.4205],[104.0544,14.4189],[104.0564,14.4181],[104.0569,14.4172],[104.0561,14.417],[104.0561,14.4164],[104.0542,14.4164],[104.0536,14.4159],[104.0539,14.4153],[104.0533,14.4153],[104.0544,14.4126],[104.0542,14.4113],[104.0536,14.4115],[104.0533,14.4126],[104.0525,14.4126],[104.0522,14.4129],[104.0525,14.4142],[104.0531,14.4142],[104.053,14.4148],[104.0525,14.4148],[104.0528,14.4153],[104.0522,14.4153],[104.0525,14.4175],[104.0516,14.4175],[104.0516,14.4183],[104.0511,14.4183],[104.0511,14.4194],[104.0505,14.4194],[104.0511,14.4221]],[[104.0569,14.4164],[104.0572,14.417],[104.0572,14.4164],[104.0569,14.4164]],[[104.0517,14.4123],[104.0525,14.4126],[104.0525,14.4123],[104.0517,14.4123]],[[104.0464,14.3979],[104.047,14.3979],[104.047,14.3974],[104.0464,14.3974],[104.0464,14.3979]]]}},{"type":"Feature","properties":{"kind":"seasonal","area_km2":1.24,"date":"2026-10-09"},"geometry":{"type":"Polygon","coordinates":[[[104.1826,14.5172],[104.1821,14.5162],[104.1807,14.5151],[104.1801,14.5137],[104.1787,14.5126],[104.1788,14.5107],[104.1793,14.5105],[104.1799,14.5088],[104.179,14.5077],[104.1774,14.5075],[104.1765,14.5053],[104.1782,14.505],[104.1782,14.5045],[104.1796,14.5048],[104.1799,14.5031],[104.1805,14.5026],[104.1821,14.5026],[104.1827,14.5031],[104.1841,14.5031],[104.1857,14.504],[104.1874,14.504],[104.1885,14.5045],[104.1894,14.5056],[104.1913,14.5056],[104.1924,14.5045],[104.1935,14.5045],[104.1924,14.5034],[104.1924,14.5026],[104.1933,14.5037],[104.1941,14.504],[104.1944,14.5029],[104.1941,14.5021],[104.1935,14.5021],[104.1935,14.5013],[104.193,14.5013],[104.1927,14.5007],[104.1919,14.5021],[104.1922,14.4999],[104.1911,14.4977],[104.1913,14.4937],[104.1927,14.494],[104.193,14.4934],[104.1939,14.4934],[104.1939,14.4942],[104.1927,14.495],[104.193,14.4956],[104.1936,14.4956],[104.1941,14.4948],[104.1964,14.4937],[104.1966,14.4923],[104.1978,14.4923],[104.1978,14.4932],[104.2,14.4929],[104.2003,14.494],[104.1986,14.494],[104.198,14.4942],[104.1975,14.4956],[104.1961,14.4953],[104.1955,14.4959],[104.1958,14.4978],[104.1949,14.4983],[104.1949,14.4994],[104.1944,14.4999],[104.1949,14.5056],[104.1958,14.5064],[104.1966,14.5064],[104.1994,14.5078],[104.1994,14.5089],[104.1982,14.5097],[104.1977,14.5116],[104.1977,14.5092],[104.1985,14.5089],[104.1985,14.5081],[104.1974,14.5075],[104.1957,14.5078],[104.1958,14.5073],[104.1949,14.5073],[104.1944,14.5045],[104.1933,14.5048],[104.1932,14.5083],[104.1927,14.5089],[104.1921,14.5089],[104.1919,14.5083],[104.1921,14.507],[104.1896,14.507],[104.1896,14.5064],[104.188,14.5048],[104.1855,14.5051],[104.1855,14.5048],[104.1849,14.5048],[104.1849,14.5045],[104.1846,14.5045],[104.1846,14.5053],[104.1852,14.5053],[104.1855,14.5059],[104.1849,14.5059],[104.1849,14.5064],[104.1841,14.5064],[104.1846,14.5075],[104.1838,14.5086],[104.1832,14.5086],[104.1832,14.5091],[104.1827,14.5091],[104.1829,14.5102],[104.1821,14.5105],[104.1824,14.5094],[104.1815,14.5094],[104.1813,14.5102],[104.1807,14.5102],[104.1804,14.5107],[104.181,14.5118],[104.1807,14.5137],[104.1826,14.5151],[104.1826,14.5172]],[[104.1921,14.5062],[104.1924,14.507],[104.1924,14.5062],[104.1921,14.5062]],[[104.1832,14.5042],[104.1838,14.5045],[104.1838,14.5042],[104.1832,14.5042]],[[104.1843,14.5042],[104.1846,14.5045],[104.1846,14.5042],[104.1843,14.5042]],[[104.1933,14.5007],[104.1936,14.4999],[104.1941,14.4999],[104.1941,14.4994],[104.1927,14.4994],[104.1927,14.5002],[104.1933,14.5007]],[[104.1924,14.4991],[104.1927,14.4994],[104.1927,14.4991],[104.1924,14.4991]],[[104.1922,14.4978],[104.1924,14.4986],[104.1927,14.4978],[104.1922,14.4978]],[[104.193,14.4969],[104.1933,14.4972],[104.1933,14.4969],[104.193,14.4969]],[[104.1936,14.4961],[104.1941,14.4964],[104.1941,14.4961],[104.1936,14.4961]],[[104.1941,14.4959],[104.1944,14.4961],[104.1944,14.4959],[104.1941,14.4959]],[[104.1944,14.4956],[104.1947,14.4959],[104.1947,14.4956],[104.1944,14.4956]],[[104.1947,14.4953],[104.1955,14.4956],[104.1955,14.4953],[104.1947,14.4953]],[[104.1966,14.4948],[104.1969,14.4951],[104.1969,14.4948],[104.1966,14.4948]]]}},{"type":"Feature","properties":{"kind":"seasonal","area_km2":1.172,"date":"2026-10-09"},"geometry":{"type":"Polygon","coordinates":[[[104.5716,14.4936],[104.5711,14.4928],[104.5686,14.4928],[104.5683,14.492],[104.565,14.4911],[104.5655,14.4895],[104.5672,14.4898],[104.5689,14.489],[104.5691,14.4868],[104.568,14.486],[104.5677,14.4852],[104.5666,14.4849],[104.5669,14.4827],[104.5691,14.4825],[104.5691,14.4833],[104.5703,14.4846],[104.5722,14.4846],[104.5728,14.4838],[104.5736,14.4838],[104.5744,14.4857],[104.5758,14.4866],[104.5772,14.4863],[104.5775,14.4855],[104.58,14.4857],[104.5806,14.4844],[104.5811,14.4841],[104.5811,14.483],[104.5828,14.4822],[104.5839,14.4822],[104.5839,14.4847],[104.5864,14.4844],[104.5875,14.4849],[104.5878,14.4863],[104.5864,14.4877],[104.5836,14.4879],[104.5814,14.4898],[104.5811,14.4906],[104.5792,14.4906],[104.578,14.4912],[104.5772,14.4923],[104.5716,14.4936]],[[104.5688,14.4922],[104.5691,14.4925],[104.5691,14.4922],[104.5688,14.4922]],[[104.573,14.4914],[104.5747,14.4914],[104.575,14.4909],[104.5761,14.4912],[104.5766,14.4909],[104.5766,14.4904],[104.5786,14.4904],[104.5786,14.4895],[104.5794,14.4898],[104.5786,14.4885],[104.5794,14.4887],[104.5794,14.4879],[104.5805,14.4879],[104.5805,14.4885],[104.5811,14.4885],[104.5811,14.4874],[104.5783,14.4871],[104.5758,14.4879],[104.5736,14.4863],[104.5714,14.4863],[104.5714,14.4868],[104.5708,14.4871],[104.5714,14.4879],[104.5702,14.4884],[104.5711,14.4887],[104.5714,14.4903],[104.5708,14.4906],[104.5733,14.4906],[104.573,14.4914]],[[104.575,14.4912],[104.5753,14.4914],[104.5753,14.4912],[104.575,14.4912]],[[104.57,14.4895],[104.5708,14.4895],[104.5708,14.489],[104.57,14.489],[104.57,14.4895]],[[104.5797,14.4885],[104.58,14.4895],[104.58,14.4885],[104.5797,14.4885]],[[104.5833,14.4866],[104.5836,14.4868],[104.5836,14.4866],[104.5833,14.4866]],[[104.5828,14.4858],[104.5831,14.4866],[104.5831,14.4858],[104.5828,14.4858]]]}},{"type":"Feature","properties":{"kind":"seasonal","area_km2":0.88,"date":"2026-10-09"},"geometry":{"type":"Polygon","coordinates":[[[104.1408,14.5252],[104.1397,14.5247],[104.1397,14.5239],[104.1392,14.5236],[104.1392,14.5195],[104.14,14.519],[104.1406,14.5171],[104.1395,14.516],[104.1367,14.5152],[104.1359,14.5141],[104.1348,14.5135],[104.1353,14.5081],[104.1342,14.5073],[104.1342,14.5068],[104.1362,14.507],[104.1376,14.5095],[104.1412,14.5095],[104.1423,14.5106],[104.1451,14.5106],[104.1456,14.512],[104.1473,14.5122],[104.1476,14.5128],[104.1492,14.5136],[104.1492,14.5152],[104.1501,14.516],[104.1506,14.516],[104.1512,14.5152],[104.1517,14.5152],[104.1537,14.5136],[104.1551,14.5136],[104.1551,14.5142],[104.1562,14.5142],[104.1573,14.5155],[104.1579,14.5155],[104.1592,14.5177],[104.1598,14.5177],[104.1609,14.5188],[104.1617,14.5188],[104.1615,14.5204],[104.1551,14.5204],[104.1542,14.5199],[104.1559,14.5196],[104.157,14.5201],[104.1584,14.5193],[104.1581,14.5172],[104.1567,14.5166],[104.1559,14.5155],[104.1548,14.5155],[104.1545,14.515],[104.1534,14.5147],[104.1526,14.5155],[104.152,14.5155],[104.1517,14.5163],[104.1495,14.5169],[104.1489,14.5163],[104.1489,14.5155],[104.1484,14.5155],[104.1478,14.5133],[104.147,14.5133],[104.1467,14.5128],[104.1456,14.5128],[104.1442,14.5117],[104.1434,14.512],[104.1431,14.5114],[104.1415,14.5109],[104.1406,14.5109],[104.1406,14.5119],[104.1401,14.5119],[104.1395,14.5111],[104.1392,14.5117],[104.1384,14.5117],[104.1381,14.5125],[104.1367,14.5125],[104.1364,14.5111],[104.1362,14.5127],[104.1373,14.5127],[104.1384,14.5133],[104.1384,14.5138],[104.1387,14.5133],[104.1395,14.5133],[104.1395,14.5138],[104.14,14.5138],[104.1398,14.5144],[104.1403,14.5147],[104.1414,14.5168],[104.1414,14.5179],[104.1409,14.5182],[104.1403,14.5204],[104.1403,14.5228],[104.1408,14.5233],[104.1408,14.5252]]]}},{"type":"Feature","properties":{"kind":"seasonal","area_km2":0.844,"date":"2026-10-09"},"geometry":{"type":"Polygon","coordinates":[[[104.567,14.7315],[104.567,14.729],[104.5664,14.7288],[104.5664,14.7269],[104.5676,14.7263],[104.5676,14.7252],[104.5659,14.7244],[104.5659,14.7152],[104.5662,14.7144],[104.5681,14.7144],[104.5681,14.7149],[104.5676,14.7152],[104.5676,14.7163],[104.5681,14.7165],[104.5681,14.7193],[104.5687,14.7195],[104.5687,14.7206],[104.5709,14.7198],[104.572,14.7198],[104.5729,14.7204],[104.5731,14.7231],[104.5726,14.7239],[104.5745,14.7236],[104.5756,14.7244],[104.5754,14.7255],[104.5729,14.7252],[104.5729,14.7266],[104.5754,14.7271],[104.5756,14.7282],[104.5754,14.7288],[104.5748,14.7288],[104.5745,14.7274],[104.5717,14.7269],[104.5712,14.726],[104.5703,14.726],[104.5701,14.7269],[104.5692,14.7274],[104.5692,14.7298],[104.5678,14.7309],[104.5678,14.7315],[104.567,14.7315]],[[104.5684,14.7241],[104.569,14.7241],[104.569,14.7239],[104.5684,14.7236],[104.5684,14.7241]],[[104.5673,14.7231],[104.5676,14.7233],[104.5676,14.7231],[104.5673,14.7231]],[[104.5676,14.7217],[104.5678,14.722],[104.5678,14.7217],[104.5676,14.7217]]]}},{"type":"Feature","properties":{"kind":"seasonal","area_km2":0.834,"date":"2026-10-09"},"geometry":{"type":"Polygon","coordinates":[[[104.1985,14.5238],[104.1988,14.523],[104.2015,14.5227],[104.2024,14.5214],[104.2032,14.5214],[104.2038,14.5208],[104.2038,14.52],[104.2049,14.5198],[104.2049,14.519],[104.2055,14.519],[104.2049,14.5181],[104.2063,14.5181],[104.2063,14.5176],[104.2055,14.5179],[104.2055,14.5165],[104.2049,14.5162],[104.2052,14.5157],[104.2035,14.5149],[104.2035,14.5143],[104.2046,14.5138],[104.2041,14.5124],[104.2035,14.5124],[104.2021,14.5143],[104.2013,14.5181],[104.1996,14.5184],[104.1988,14.5192],[104.1949,14.5192],[104.1946,14.5186],[104.1935,14.5184],[104.1932,14.5173],[104.1915,14.5178],[104.1913,14.5165],[104.1929,14.5148],[104.1941,14.5146],[104.1935,14.5154],[104.194,14.5178],[104.1949,14.5186],[104.1982,14.5189],[104.1993,14.5178],[104.2002,14.5179],[104.2007,14.5173],[104.201,14.5135],[104.2019,14.5132],[104.2038,14.5114],[104.2041,14.5097],[104.2047,14.5092],[104.2077,14.5095],[104.2083,14.51],[104.2083,14.5114],[104.2088,14.5116],[104.2091,14.5127],[104.2099,14.513],[104.2102,14.5144],[104.211,14.5149],[104.2113,14.5165],[104.2099,14.5168],[104.2068,14.5198],[104.2046,14.5203],[104.2021,14.523],[104.1996,14.5233],[104.1985,14.5238]],[[104.2066,14.5168],[104.2069,14.5173],[104.2069,14.5168],[104.2066,14.5168]],[[104.2055,14.5116],[104.206,14.5116],[104.206,14.5111],[104.2055,14.5111],[104.2055,14.5116]]]}},{"type":"Feature","properties":{"kind":"seasonal","area_km2":0.791,"date":"2026-10-09"},"geometry":{"type":"Polygon","coordinates":[[[104.4756,14.4907],[104.4753,14.4896],[104.4742,14.4891],[104.4731,14.4869],[104.47,14.4855],[104.4689,14.4855],[104.4684,14.485],[104.4653,14.4844],[104.4653,14.4831],[104.467,14.4833],[104.4673,14.4828],[104.4684,14.4828],[104.4686,14.4834],[104.4695,14.4834],[104.4706,14.4842],[104.4742,14.4844],[104.4748,14.4839],[104.4742,14.4801],[104.4748,14.4793],[104.4756,14.4793],[104.4764,14.4823],[104.4776,14.4828],[104.4781,14.4839],[104.4817,14.4842],[104.4817,14.4853],[104.4803,14.4864],[104.4803,14.4874],[104.4792,14.4883],[104.4789,14.4904],[104.4756,14.4907]]]}},{"type":"Feature","properties":{"kind":"seasonal","area_km2":0.517,"date":"2026-10-09"},"geometry":{"type":"Polygon","coordinates":[[[104.564,14.7003],[104.5618,14.7],[104.5618,14.6992],[104.5612,14.6989],[104.5604,14.6992],[104.5604,14.6986],[104.5595,14.6986],[104.5598,14.6994],[104.559,14.6994],[104.559,14.7],[104.5579,14.7],[104.5576,14.6989],[104.5565,14.6978],[104.5559,14.6959],[104.5554,14.6956],[104.5554,14.6948],[104.5548,14.6943],[104.5548,14.6927],[104.5559,14.6929],[104.5565,14.6951],[104.557,14.6951],[104.5576,14.694],[104.5573,14.6929],[104.5584,14.6929],[104.5598,14.6946],[104.5629,14.6948],[104.5634,14.697],[104.5643,14.6978],[104.5659,14.6984],[104.5659,14.6995],[104.564,14.6995],[104.564,14.7003]],[[104.557,14.6965],[104.5576,14.6965],[104.5576,14.6962],[104.557,14.6959],[104.557,14.6965]]]}},{"type":"Feature","properties":{"kind":"seasonal","area_km2":0.482,"date":"2026-10-09"},"geometry":{"type":"Polygon","coordinates":[[[104.8367,14.4345],[104.837,14.4337],[104.8375,14.4337],[104.8384,14.4329],[104.8392,14.4329],[104.8392,14.4321],[104.8381,14.4313],[104.8384,14.4288],[104.8376,14.4288],[104.8376,14.4283],[104.8381,14.428],[104.8384,14.4261],[104.8378,14.4267],[104.8362,14.4269],[104.8356,14.428],[104.8359,14.4288],[104.8353,14.4288],[104.835,14.4277],[104.8356,14.4275],[104.8356,14.4264],[104.8337,14.4267],[104.8334,14.4286],[104.8331,14.4277],[104.8314,14.4269],[104.8314,14.4258],[104.832,14.4258],[104.832,14.4253],[104.8325,14.425],[104.8337,14.425],[104.8362,14.4264],[104.8376,14.4264],[104.8378,14.425],[104.8373,14.4248],[104.8373,14.4239],[104.8381,14.4231],[104.8378,14.4199],[104.8395,14.4196],[104.8403,14.4199],[104.8403,14.421],[104.8398,14.421],[104.8395,14.4215],[104.8398,14.4221],[104.8415,14.4221],[104.8426,14.4229],[104.8448,14.4229],[104.8451,14.424],[104.8445,14.425],[104.8431,14.425],[104.8431,14.4245],[104.842,14.4242],[104.8415,14.4248],[104.8414,14.4259],[104.8406,14.4259],[104.8406,14.4253],[104.8395,14.4256],[104.8403,14.4261],[104.8395,14.4261],[104.8387,14.4269],[104.8389,14.4302],[104.8384,14.4305],[104.8384,14.431],[104.8401,14.4318],[104.8401,14.4329],[104.8367,14.4345]],[[104.8384,14.4261],[104.8392,14.4261],[104.8392,14.4258],[104.8384,14.4256],[104.8384,14.4261]],[[104.8381,14.425],[104.8392,14.424],[104.8389,14.4231],[104.8381,14.4239],[104.8381,14.425]],[[104.8387,14.4204],[104.8392,14.4207],[104.8392,14.4204],[104.8387,14.4204]]]}},{"type":"Feature","properties":{"kind":"seasonal","area_km2":0.475,"date":"2026-10-09"},"geometry":{"type":"Polygon","coordinates":[[[104.2399,14.547],[104.2365,14.5465],[104.2365,14.5456],[104.2374,14.5448],[104.2371,14.5421],[104.236,14.5413],[104.2366,14.5386],[104.238,14.5386],[104.2382,14.5399],[104.2393,14.5408],[104.243,14.5402],[104.2438,14.5392],[104.2455,14.5394],[104.2458,14.5405],[104.2441,14.5421],[104.2435,14.5421],[104.2435,14.5427],[104.2416,14.5435],[104.2416,14.5443],[104.241,14.5454],[104.2402,14.5459],[104.2399,14.547]],[[104.2382,14.5454],[104.2385,14.5456],[104.2385,14.5454],[104.2382,14.5454]],[[104.2385,14.5451],[104.2391,14.5454],[104.2391,14.5451],[104.2385,14.5451]],[[104.2382,14.5437],[104.2385,14.544],[104.2385,14.5437],[104.2382,14.5437]],[[104.2405,14.5432],[104.2407,14.5435],[104.2407,14.5432],[104.2405,14.5432]],[[104.2385,14.5427],[104.2391,14.5429],[104.2391,14.5427],[104.2385,14.5427]],[[104.2393,14.5424],[104.2396,14.5429],[104.2396,14.5424],[104.2393,14.5424]],[[104.2399,14.5427],[104.2402,14.5429],[104.2402,14.5427],[104.2399,14.5427]],[[104.2407,14.5424],[104.241,14.5429],[104.241,14.5424],[104.2407,14.5424]]]}},{"type":"Feature","properties":{"kind":"seasonal","area_km2":0.412,"date":"2026-10-09"},"geometry":{"type":"Polygon","coordinates":[[[104.4176,14.6107],[104.4171,14.6091],[104.4182,14.6085],[104.4182,14.608],[104.4177,14.608],[104.4177,14.6066],[104.4157,14.6066],[104.4157,14.605],[104.4154,14.6045],[104.4149,14.6045],[104.4146,14.6031],[104.416,14.6031],[104.4166,14.6037],[104.4165,14.6045],[104.4168,14.6039],[104.4177,14.6039],[104.4179,14.6047],[104.4182,14.6042],[104.4193,14.6042],[104.4199,14.6047],[104.4218,14.6045],[104.4218,14.6056],[104.4235,14.605],[104.4238,14.6061],[104.4243,14.6061],[104.4246,14.6088],[104.4216,14.6086],[104.4216,14.6096],[104.421,14.6096],[104.4213,14.6088],[104.4202,14.608],[104.4188,14.6083],[104.4188,14.6088],[104.4179,14.6091],[104.4193,14.6094],[104.4199,14.6099],[104.419,14.6099],[104.4188,14.6107],[104.4176,14.6107]],[[104.4229,14.6075],[104.4235,14.6075],[104.4235,14.6061],[104.423,14.6061],[104.4229,14.6075]],[[104.4204,14.6072],[104.421,14.6072],[104.421,14.6064],[104.4204,14.6064],[104.4204,14.6072]],[[104.4221,14.6064],[104.4227,14.6064],[104.4227,14.6058],[104.4221,14.6058],[104.4221,14.6064]]]}},{"type":"Feature","properties":{"kind":"seasonal","area_km2":0.346,"date":"2026-10-09"},"geometry":{"type":"Polygon","coordinates":[[[104.8407,14.6692],[104.8402,14.6681],[104.839,14.6681],[104.839,14.6673],[104.8346,14.6651],[104.8346,14.6626],[104.8354,14.6621],[104.8354,14.6613],[104.836,14.6607],[104.8374,14.6607],[104.8374,14.6613],[104.8382,14.6621],[104.8379,14.664],[104.8388,14.6648],[104.841,14.6648],[104.841,14.6656],[104.8418,14.6664],[104.8429,14.6664],[104.8416,14.6692],[104.8407,14.6692]]]}},{"type":"Feature","properties":{"kind":"seasonal","area_km2":0.325,"date":"2026-10-09"},"geometry":{"type":"Polygon","coordinates":[[[104.5801,14.7155],[104.5801,14.7147],[104.5796,14.7141],[104.5757,14.7136],[104.5757,14.7117],[104.5748,14.7103],[104.5748,14.7095],[104.5737,14.709],[104.5729,14.7092],[104.5726,14.7076],[104.5704,14.7076],[104.5707,14.7046],[104.5712,14.7046],[104.5715,14.706],[104.5732,14.7071],[104.5732,14.7082],[104.5737,14.7087],[104.5776,14.709],[104.5776,14.7098],[104.5768,14.7098],[104.5768,14.7106],[104.5762,14.7109],[104.5768,14.713],[104.5787,14.7128],[104.5798,14.7136],[104.5812,14.7139],[104.5815,14.7111],[104.5824,14.7112],[104.5824,14.7117],[104.584,14.7125],[104.5835,14.7141],[104.5826,14.7144],[104.5823,14.7152],[104.5801,14.7155]]]}},{"type":"Feature","properties":{"kind":"seasonal","area_km2":0.31,"date":"2026-10-09"},"geometry":{"type":"Polygon","coordinates":[[[104.4439,14.6791],[104.4434,14.6786],[104.442,14.6783],[104.4414,14.6772],[104.4423,14.6748],[104.4439,14.6745],[104.4445,14.6759],[104.4462,14.6759],[104.4467,14.6751],[104.4467,14.6729],[104.4479,14.6726],[104.4478,14.6751],[104.4484,14.6756],[104.4481,14.6762],[104.4487,14.6762],[104.4487,14.6781],[104.4453,14.6791],[104.4439,14.6791]]]}},{"type":"Feature","properties":{"kind":"seasonal","area_km2":0.242,"date":"2026-10-09"},"geometry":{"type":"Polygon","coordinates":[[[104.208,14.7376],[104.2086,14.7359],[104.2066,14.7357],[104.2072,14.7335],[104.2094,14.7338],[104.21,14.733],[104.2105,14.733],[104.2105,14.7319],[104.2117,14.7319],[104.2114,14.7311],[104.2105,14.7308],[104.2105,14.7303],[104.2111,14.7303],[104.2111,14.7297],[104.2119,14.7292],[104.2125,14.7275],[104.2139,14.7276],[104.2142,14.7292],[104.2122,14.7311],[104.2119,14.7324],[104.2108,14.733],[104.21,14.7368],[104.2094,14.737],[104.2094,14.7376],[104.208,14.7376]]]}},{"type":"Feature","properties":{"kind":"seasonal","area_km2":0.227,"date":"2026-10-09"},"geometry":{"type":"Polygon","coordinates":[[[104.5929,14.7318],[104.5929,14.7299],[104.5935,14.7296],[104.5935,14.7291],[104.594,14.7285],[104.5954,14.7285],[104.5949,14.7261],[104.5915,14.7228],[104.5899,14.7223],[104.5899,14.7207],[104.5907,14.7207],[104.5904,14.7188],[104.5915,14.7185],[104.5921,14.7177],[104.5918,14.7163],[104.5929,14.7163],[104.5941,14.7152],[104.5929,14.7142],[104.5929,14.7131],[104.5935,14.7128],[104.5932,14.7136],[104.5938,14.7144],[104.5943,14.7144],[104.5943,14.7169],[104.5935,14.7166],[104.5929,14.7182],[104.5913,14.7193],[104.5913,14.7223],[104.5918,14.7223],[104.5924,14.7234],[104.5932,14.7236],[104.5932,14.7242],[104.5949,14.725],[104.5954,14.7277],[104.5965,14.7288],[104.5965,14.7299],[104.5951,14.7299],[104.5949,14.7293],[104.594,14.7296],[104.5929,14.7318]]]}},{"type":"Feature","properties":{"kind":"seasonal","area_km2":0.209,"date":"2026-10-09"},"geometry":{"type":"Polygon","coordinates":[[[104.8259,14.4416],[104.8259,14.4394],[104.8253,14.4391],[104.8253,14.438],[104.8247,14.4378],[104.8247,14.4361],[104.8256,14.4353],[104.8256,14.434],[104.8267,14.4337],[104.8281,14.4348],[104.8292,14.4348],[104.8298,14.434],[104.8309,14.4343],[104.8323,14.4337],[104.832,14.4345],[104.8306,14.4348],[104.83,14.4353],[104.8278,14.4359],[104.8272,14.4353],[104.8272,14.4359],[104.8267,14.4361],[104.827,14.437],[104.8261,14.437],[104.8261,14.438],[104.8267,14.4383],[104.8264,14.4391],[104.8272,14.4399],[104.8272,14.4405],[104.8284,14.4405],[104.8286,14.4413],[104.8259,14.4416]]]}},{"type":"Feature","properties":{"kind":"seasonal","area_km2":0.196,"date":"2026-10-09"},"geometry":{"type":"Polygon","coordinates":[[[104.1831,14.5295],[104.1829,14.5278],[104.1843,14.5262],[104.184,14.5246],[104.1848,14.5221],[104.1846,14.5205],[104.1832,14.5181],[104.1832,14.5175],[104.1837,14.5175],[104.184,14.5186],[104.1848,14.5194],[104.1851,14.5211],[104.1851,14.527],[104.1865,14.5262],[104.1882,14.5262],[104.1904,14.5268],[104.1912,14.5281],[104.1896,14.5281],[104.1896,14.5276],[104.1879,14.5268],[104.1857,14.527],[104.1851,14.5289],[104.1843,14.5295],[104.1831,14.5295]]]}},{"type":"Feature","properties":{"kind":"seasonal","area_km2":0.171,"date":"2026-10-09"},"geometry":{"type":"Polygon","coordinates":[[[104.8622,14.6722],[104.8622,14.6697],[104.8599,14.6697],[104.8599,14.6686],[104.8611,14.6684],[104.8633,14.6667],[104.8644,14.6667],[104.8641,14.6713],[104.8633,14.6722],[104.8622,14.6722]],[[104.8636,14.6694],[104.8641,14.6697],[104.8641,14.6694],[104.8636,14.6694]]]}},{"type":"Feature","properties":{"kind":"seasonal","area_km2":0.167,"date":"2026-10-09"},"geometry":{"type":"Polygon","coordinates":[[[104.0559,14.7286],[104.0523,14.728],[104.0526,14.7259],[104.054,14.7251],[104.057,14.7251],[104.0573,14.7267],[104.0567,14.727],[104.0559,14.7286]]]}},{"type":"Feature","properties":{"kind":"seasonal","area_km2":0.152,"date":"2026-10-09"},"geometry":{"type":"Polygon","coordinates":[[[104.5905,14.6884],[104.5905,14.6873],[104.5899,14.6873],[104.5899,14.6878],[104.5888,14.6873],[104.5888,14.6865],[104.5899,14.6862],[104.5894,14.6862],[104.5891,14.6849],[104.588,14.6849],[104.588,14.684],[104.5899,14.6838],[104.5899,14.6819],[104.5913,14.6816],[104.5916,14.6832],[104.5922,14.6827],[104.5922,14.684],[104.5905,14.6838],[104.5905,14.6843],[104.591,14.6846],[104.5913,14.687],[104.5913,14.6884],[104.5905,14.6884]]]}},{"type":"Feature","properties":{"kind":"seasonal","area_km2":0.15,"date":"2026-10-09"},"geometry":{"type":"Polygon","coordinates":[[[104.5781,14.732],[104.577,14.7301],[104.5754,14.7296],[104.5754,14.7288],[104.5767,14.729],[104.5779,14.7282],[104.5798,14.7288],[104.5798,14.7296],[104.5809,14.7301],[104.5812,14.7315],[104.5801,14.7315],[104.5801,14.732],[104.5781,14.732]],[[104.5781,14.7304],[104.5787,14.7304],[104.5787,14.7301],[104.5781,14.7299],[104.5781,14.7304]]]}},{"type":"Feature","properties":{"kind":"seasonal","area_km2":0.148,"date":"2026-10-09"},"geometry":{"type":"Polygon","coordinates":[[[104.8154,14.6138],[104.8135,14.6119],[104.8151,14.6116],[104.8151,14.6106],[104.8154,14.6108],[104.8165,14.6103],[104.8185,14.6106],[104.8188,14.6135],[104.8176,14.6135],[104.8171,14.613],[104.8165,14.6133],[104.8165,14.6138],[104.8154,14.6138]],[[104.8162,14.6114],[104.8165,14.6116],[104.8165,14.6114],[104.8162,14.6114]],[[104.8165,14.6106],[104.8171,14.6108],[104.8171,14.6106],[104.8165,14.6106]]]}},{"type":"Feature","properties":{"kind":"seasonal","area_km2":0.143,"date":"2026-10-09"},"geometry":{"type":"Polygon","coordinates":[[[104.1512,14.5871],[104.1515,14.5858],[104.1501,14.5844],[104.1501,14.5833],[104.1506,14.5833],[104.1518,14.582],[104.1506,14.5817],[104.1504,14.5806],[104.1507,14.5801],[104.1526,14.5798],[104.1523,14.5817],[104.1529,14.582],[104.1529,14.5828],[104.1518,14.5836],[104.1518,14.5841],[104.1529,14.5849],[104.1529,14.5866],[104.1512,14.5871]]]}},{"type":"Feature","properties":{"kind":"seasonal","area_km2":0.141,"date":"2026-10-09"},"geometry":{"type":"Polygon","coordinates":[[[104.9483,14.6481],[104.9463,14.6478],[104.9452,14.6462],[104.9452,14.6426],[104.9469,14.6429],[104.9474,14.6434],[104.9477,14.6451],[104.9483,14.6453],[104.9483,14.6481]],[[104.9469,14.6462],[104.9477,14.6464],[104.9477,14.6462],[104.9469,14.6462]]]}},{"type":"Feature","properties":{"kind":"seasonal","area_km2":0.14,"date":"2026-10-09"},"geometry":{"type":"Polygon","coordinates":[[[104.2556,14.5989],[104.2564,14.5945],[104.2575,14.5937],[104.2575,14.5932],[104.2587,14.5932],[104.2587,14.5962],[104.2584,14.5972],[104.2575,14.5978],[104.2575,14.5989],[104.2556,14.5989]]]}},{"type":"Feature","properties":{"kind":"seasonal","area_km2":0.139,"date":"2026-10-09"},"geometry":{"type":"Polygon","coordinates":[[[104.1328,14.5038],[104.1334,14.5019],[104.134,14.5019],[104.1334,14.4989],[104.1351,14.4989],[104.1354,14.4994],[104.1354,14.4989],[104.1362,14.4989],[104.1365,14.4981],[104.1373,14.4981],[104.1376,14.4995],[104.137,14.4997],[104.137,14.5003],[104.1354,14.5011],[104.1354,14.5022],[104.1345,14.5024],[104.1337,14.5032],[104.1337,14.5038],[104.1328,14.5038]]]}},{"type":"Feature","properties":{"kind":"seasonal","area_km2":0.132,"date":"2026-10-09"},"geometry":{"type":"Polygon","coordinates":[[[104.5804,14.7193],[104.5798,14.7174],[104.5779,14.7179],[104.5782,14.7166],[104.5779,14.716],[104.5773,14.716],[104.5773,14.7141],[104.5784,14.7144],[104.5784,14.7155],[104.5796,14.7155],[104.5823,14.7166],[104.5823,14.7177],[104.5812,14.7179],[104.5809,14.7193],[104.5804,14.7193]]]}},{"type":"Feature","properties":{"kind":"seasonal","area_km2":0.13,"date":"2026-10-09"},"geometry":{"type":"Polygon","coordinates":[[[104.0648,14.605],[104.0642,14.6025],[104.0634,14.6014],[104.0634,14.5998],[104.0654,14.5995],[104.0653,14.6003],[104.0665,14.6012],[104.0665,14.6025],[104.0659,14.6039],[104.0662,14.6047],[104.0648,14.605]]]}},{"type":"Feature","properties":{"kind":"seasonal","area_km2":0.128,"date":"2026-10-09"},"geometry":{"type":"Polygon","coordinates":[[[104.6783,14.6421],[104.6783,14.6411],[104.6772,14.64],[104.6769,14.6381],[104.6778,14.6362],[104.6792,14.6362],[104.68,14.6386],[104.6786,14.6389],[104.6783,14.6383],[104.6778,14.6383],[104.6778,14.6389],[104.6789,14.6394],[104.6792,14.6405],[104.6797,14.6405],[104.6797,14.6416],[104.6794,14.6421],[104.6783,14.6421]]]}},{"type":"Feature","properties":{"kind":"seasonal","area_km2":0.121,"date":"2026-10-09"},"geometry":{"type":"Polygon","coordinates":[[[104.6838,14.5054],[104.6827,14.5046],[104.683,14.5027],[104.6844,14.5027],[104.6849,14.5019],[104.686,14.5019],[104.686,14.5035],[104.6869,14.5035],[104.6869,14.5052],[104.6858,14.5054],[104.6855,14.5044],[104.6855,14.5054],[104.6838,14.5054]],[[104.683,14.5038],[104.6833,14.5041],[104.6833,14.5038],[104.683,14.5038]],[[104.6846,14.5038],[104.6855,14.5038],[104.6852,14.5027],[104.6846,14.5027],[104.6846,14.5038]]]}},{"type":"Feature","properties":{"kind":"seasonal","area_km2":0.116,"date":"2026-10-09"},"geometry":{"type":"Polygon","coordinates":[[[103.9973,14.9906],[103.997,14.9892],[103.9981,14.9895],[103.9981,14.9882],[103.9973,14.9873],[103.9973,14.9857],[103.9981,14.9854],[103.9984,14.9846],[103.9995,14.9846],[103.9995,14.9882],[103.9984,14.9884],[103.9984,14.989],[103.9995,14.9887],[103.9995,14.9901],[103.9981,14.9901],[103.9973,14.9906]]]}},{"type":"Feature","properties":{"kind":"seasonal","area_km2":0.116,"date":"2026-10-09"},"geometry":{"type":"Polygon","coordinates":[[[104.9377,14.6497],[104.9377,14.6472],[104.9382,14.6467],[104.9396,14.6467],[104.941,14.6478],[104.9421,14.648],[104.9421,14.6489],[104.9416,14.6494],[104.9377,14.6497]],[[104.9391,14.6483],[104.9396,14.6486],[104.9396,14.6483],[104.9391,14.6483]],[[104.9391,14.6478],[104.9394,14.648],[104.9394,14.6478],[104.9391,14.6478]]]}},{"type":"Feature","properties":{"kind":"seasonal","area_km2":0.113,"date":"2026-10-09"},"geometry":{"type":"Polygon","coordinates":[[[104.6049,14.904],[104.6049,14.9021],[104.6104,14.9021],[104.6102,14.9035],[104.6063,14.9035],[104.606,14.904],[104.6049,14.904]]]}},{"type":"Feature","properties":{"kind":"seasonal","area_km2":0.111,"date":"2026-10-09"},"geometry":{"type":"Polygon","coordinates":[[[104.278,14.5496],[104.2766,14.5479],[104.2766,14.5468],[104.2772,14.5466],[104.2786,14.5466],[104.2786,14.5479],[104.2794,14.5485],[104.2811,14.5485],[104.2814,14.5479],[104.2825,14.548],[104.2819,14.5496],[104.278,14.5496]]]}},{"type":"Feature","properties":{"kind":"seasonal","area_km2":0.109,"date":"2026-10-09"},"geometry":{"type":"Polygon","coordinates":[[[104.5933,14.6835],[104.5924,14.6824],[104.5924,14.6813],[104.5908,14.6813],[104.5908,14.6808],[104.5902,14.6808],[104.5902,14.6797],[104.5927,14.68],[104.593,14.6811],[104.5947,14.6808],[104.5952,14.6827],[104.5947,14.6827],[104.5941,14.6835],[104.5933,14.6835]]]}},{"type":"Feature","properties":{"kind":"seasonal","area_km2":0.105,"date":"2026-10-09"},"geometry":{"type":"Polygon","coordinates":[[[104.3655,14.7248],[104.3641,14.7242],[104.3644,14.7212],[104.3661,14.7212],[104.3669,14.7218],[104.3672,14.724],[104.3669,14.7245],[104.3655,14.7248]]]}}]}
