{"type":"FeatureCollection","properties":{"v":3,"id":"t105_14","name":"อุบลราชธานี","aoi":[105.0,14.194,105.613,15.0],"date":"2026-10-09","dates":["2026-10-09"],"baseline_years":3,"has_seasonal":true,"totals":{"flood_high":0.0,"flood_low":0.2,"seasonal":23.6},"provinces":[{"name":"อุบลราชธานี","zone":"th-ne","flood_high":0.0,"flood_low":0.2,"seasonal":23.6}],"scenes":{"2026-10-09":2},"baseline_dates":["2025-10-09","2024-10-09","2023-10-08"],"threshold_db":-15.0,"auto":true,"source":"Sentinel-1 RTC (Copernicus/ESA) via Microsoft Planetary Computer; JRC Global Surface Water; Copernicus DEM","method":"ChatGeo v3: Otsu threshold on VV dB; minus JRC permanent water and slope > 5 deg; unusual = water not present in most of the previous 3 years (same season)","added":"2026-10-11T01:54+07:00"},"features":[{"type":"Feature","properties":{"kind":"flood","area_km2":0.072,"conf":"low","date":"2026-10-09"},"geometry":{"type":"Polygon","coordinates":[[[105.0636,14.4886],[105.0636,14.4861],[105.0666,14.4858],[105.0666,14.4872],[105.0655,14.4872],[105.0655,14.4883],[105.0636,14.4886]]]}},{"type":"Feature","properties":{"kind":"flood","area_km2":0.059,"conf":"low","date":"2026-10-09"},"geometry":{"type":"Polygon","coordinates":[[[105.1994,14.4231],[105.1985,14.4223],[105.1988,14.4196],[105.1994,14.4196],[105.1994,14.4207],[105.2002,14.4215],[105.2013,14.4215],[105.2019,14.4204],[105.2019,14.4215],[105.2005,14.422],[105.2002,14.4231],[105.1994,14.4231]]]}},{"type":"Feature","properties":{"kind":"flood","area_km2":0.053,"conf":"low","date":"2026-10-09"},"geometry":{"type":"Polygon","coordinates":[[[105.2518,14.5362],[105.2518,14.5356],[105.2513,14.5356],[105.2515,14.5345],[105.2546,14.5348],[105.2546,14.5356],[105.2518,14.5362]]]}},{"type":"Feature","properties":{"kind":"seasonal","area_km2":8.363,"date":"2026-10-09"},"geometry":{"type":"Polygon","coordinates":[[[105.3625,14.9684],[105.3625,14.9667],[105.3614,14.9665],[105.3611,14.9649],[105.3625,14.9643],[105.3628,14.9621],[105.3603,14.9621],[105.3597,14.9611],[105.3592,14.9611],[105.3594,14.9589],[105.358,14.9589],[105.3578,14.9583],[105.3566,14.9581],[105.3561,14.9638],[105.3547,14.9638],[105.3541,14.963],[105.3541,14.9613],[105.3547,14.9608],[105.3541,14.9592],[105.3511,14.9589],[105.3505,14.9592],[105.3505,14.9597],[105.3497,14.9597],[105.3497,14.9592],[105.3491,14.9592],[105.3486,14.9581],[105.3491,14.9565],[105.3505,14.9562],[105.3505,14.9556],[105.3525,14.9554],[105.3525,14.9548],[105.3508,14.9543],[105.3494,14.9524],[105.3494,14.9513],[105.3488,14.9513],[105.3483,14.9505],[105.3471,14.95],[105.3463,14.9462],[105.3455,14.9462],[105.3455,14.9467],[105.3438,14.9478],[105.3438,14.9486],[105.3421,14.9502],[105.3419,14.9521],[105.3427,14.9535],[105.3427,14.9557],[105.3421,14.9557],[105.3402,14.9538],[105.3396,14.9538],[105.3396,14.9502],[105.3388,14.9497],[105.3385,14.9481],[105.3379,14.9481],[105.3379,14.9489],[105.3374,14.9489],[105.3374,14.9494],[105.3349,14.9494],[105.3346,14.9486],[105.334,14.9486],[105.334,14.9462],[105.3346,14.9462],[105.3349,14.9448],[105.336,14.9443],[105.3363,14.9424],[105.334,14.9427],[105.3329,14.9437],[105.3326,14.9456],[105.3321,14.9456],[105.3312,14.9465],[105.3301,14.9465],[105.3301,14.9451],[105.3293,14.9443],[105.329,14.9424],[105.3282,14.9424],[105.3276,14.9413],[105.3276,14.9397],[105.3262,14.9391],[105.3262,14.9383],[105.3248,14.9386],[105.3248,14.9397],[105.3254,14.9405],[105.3254,14.9432],[105.3234,14.9432],[105.3223,14.9427],[105.322,14.941],[105.3206,14.941],[105.3204,14.9405],[105.3184,14.9402],[105.3176,14.9394],[105.3159,14.9392],[105.3153,14.9411],[105.3151,14.9402],[105.3139,14.94],[105.3137,14.9413],[105.3153,14.9419],[105.3156,14.9427],[105.3167,14.9438],[105.3173,14.9438],[105.3173,14.9448],[105.3165,14.9451],[105.3176,14.9451],[105.3181,14.9443],[105.3198,14.944],[105.3204,14.9457],[105.3209,14.9457],[105.3212,14.9476],[105.322,14.9476],[105.3229,14.9484],[105.3234,14.9503],[105.3246,14.9511],[105.3243,14.9516],[105.3226,14.9522],[105.3226,14.9527],[105.3193,14.9527],[105.3184,14.9535],[105.3179,14.9535],[105.3173,14.9546],[105.3162,14.9546],[105.3156,14.9549],[105.3156,14.9554],[105.3142,14.9552],[105.314,14.9565],[105.3162,14.9573],[105.3165,14.9587],[105.3148,14.9606],[105.3145,14.9603],[105.3131,14.9606],[105.3162,14.9614],[105.3142,14.9617],[105.314,14.9622],[105.3103,14.9622],[105.3101,14.9617],[105.3084,14.9614],[105.3081,14.9606],[105.3075,14.9606],[105.3073,14.9611],[105.3059,14.9611],[105.3056,14.9592],[105.3064,14.9592],[105.3067,14.9584],[105.3087,14.9581],[105.3092,14.959],[105.3103,14.959],[105.3106,14.9584],[105.3106,14.9576],[105.3095,14.9562],[105.3095,14.953],[105.3112,14.9527],[105.3123,14.953],[105.3128,14.9538],[105.3137,14.9538],[105.3142,14.9533],[105.3159,14.9533],[105.3176,14.9522],[105.3193,14.9522],[105.3198,14.9514],[105.3223,14.9511],[105.3223,14.9497],[105.3218,14.9489],[105.3192,14.9489],[105.3192,14.9476],[105.3187,14.9465],[105.3159,14.9465],[105.3156,14.9459],[105.3148,14.9459],[105.3148,14.9448],[105.3156,14.9438],[105.3151,14.9427],[105.3145,14.9427],[105.3142,14.9421],[105.3111,14.9424],[105.3111,14.9416],[105.3117,14.9413],[105.3123,14.94],[105.3117,14.9397],[105.3114,14.9386],[105.3103,14.9383],[105.31,14.9373],[105.3078,14.937],[105.3078,14.9351],[105.3095,14.9337],[105.31,14.9302],[105.3114,14.9302],[105.3117,14.9307],[105.3131,14.9305],[105.3134,14.9321],[105.3156,14.9332],[105.3156,14.9348],[105.315,14.9354],[105.3153,14.9375],[105.3159,14.9375],[105.3167,14.9383],[105.3184,14.9383],[105.3201,14.9397],[105.3223,14.94],[105.3237,14.9381],[105.3243,14.9359],[105.3251,14.9351],[105.3262,14.9351],[105.3268,14.9364],[105.3284,14.9375],[105.329,14.9405],[105.3304,14.9413],[105.3304,14.9421],[105.3296,14.9427],[105.3296,14.9435],[105.3307,14.9443],[105.3315,14.9443],[105.3326,14.9432],[105.3326,14.9427],[105.3349,14.941],[105.3349,14.9389],[105.3357,14.9389],[105.3363,14.9397],[105.3376,14.9402],[105.3376,14.941],[105.3382,14.941],[105.3382,14.9421],[105.3374,14.9432],[105.3377,14.9451],[105.3363,14.9456],[105.3351,14.9467],[105.3351,14.9475],[105.3391,14.947],[105.3402,14.9492],[105.3416,14.9491],[105.343,14.9478],[105.343,14.9456],[105.3438,14.9445],[105.3477,14.9448],[105.3483,14.9456],[105.3491,14.9459],[105.3491,14.947],[105.348,14.947],[105.348,14.9475],[105.3485,14.9486],[105.3502,14.9494],[105.3502,14.9505],[105.3511,14.9513],[105.3513,14.9527],[105.3527,14.9529],[105.3533,14.9535],[105.3544,14.9535],[105.3544,14.9559],[105.3533,14.9562],[105.353,14.9567],[105.3522,14.9567],[105.3516,14.9573],[105.3516,14.9581],[105.355,14.9584],[105.3553,14.9575],[105.3564,14.9567],[105.3564,14.9562],[105.3572,14.9562],[105.358,14.9573],[105.36,14.9578],[105.3614,14.9592],[105.3622,14.9592],[105.3631,14.9581],[105.3631,14.9573],[105.3636,14.9567],[105.3645,14.9567],[105.3647,14.9575],[105.3659,14.9581],[105.367,14.9602],[105.3686,14.9605],[105.3695,14.9594],[105.3692,14.9572],[105.3714,14.9559],[105.3731,14.9562],[105.3731,14.9556],[105.3714,14.9548],[105.3709,14.9526],[105.3692,14.9524],[105.3686,14.9529],[105.3678,14.9529],[105.3675,14.9534],[105.3667,14.9535],[105.3661,14.9516],[105.3656,14.9516],[105.3656,14.951],[105.3644,14.9505],[105.3639,14.9497],[105.3597,14.9505],[105.358,14.948],[105.3564,14.9489],[105.3561,14.9497],[105.3536,14.9491],[105.3524,14.9478],[105.3527,14.9432],[105.3522,14.9426],[105.3522,14.9418],[105.348,14.941],[105.3474,14.9391],[105.3452,14.938],[105.3452,14.9356],[105.3471,14.9353],[105.3477,14.9361],[105.3505,14.9361],[105.3519,14.935],[105.3524,14.9337],[105.3535,14.9334],[105.3552,14.9334],[105.3572,14.9366],[105.3591,14.9366],[105.3602,14.9356],[105.3614,14.9353],[105.3616,14.9334],[105.3611,14.9331],[105.3611,14.9326],[105.36,14.932],[105.3602,14.9299],[105.3597,14.9293],[105.3597,14.9285],[105.3588,14.9282],[105.3555,14.9291],[105.3549,14.9282],[105.3541,14.928],[105.3541,14.9263],[105.353,14.9245],[105.3507,14.9242],[105.3505,14.9226],[105.3521,14.9215],[105.3535,14.9212],[105.3541,14.9204],[105.3555,14.9204],[105.3557,14.9209],[105.3566,14.9209],[105.3569,14.9201],[105.358,14.9193],[105.3574,14.9166],[105.3585,14.9166],[105.3594,14.9174],[105.361,14.9174],[105.3633,14.9196],[105.365,14.919],[105.3655,14.9182],[105.3652,14.9174],[105.3636,14.916],[105.3624,14.9158],[105.3624,14.9147],[105.3605,14.9128],[105.3605,14.912],[105.363,14.9122],[105.3635,14.9128],[105.3635,14.9141],[105.3644,14.9144],[105.3661,14.913],[105.368,14.9128],[105.3686,14.9117],[105.37,14.9111],[105.3708,14.9103],[105.3708,14.9095],[105.3727,14.9087],[105.3727,14.9081],[105.3755,14.9087],[105.375,14.906],[105.3733,14.9052],[105.3727,14.9052],[105.3719,14.906],[105.3711,14.906],[105.3702,14.9052],[105.3702,14.9033],[105.3697,14.9019],[105.3685,14.9008],[105.3683,14.8987],[105.3674,14.8984],[105.3674,14.8968],[105.3691,14.8957],[105.3708,14.8957],[105.3713,14.8962],[105.3736,14.8959],[105.3741,14.897],[105.3755,14.897],[105.3763,14.8962],[105.3766,14.8946],[105.3772,14.8946],[105.378,14.8932],[105.3805,14.8932],[105.3808,14.894],[105.3803,14.8943],[105.3803,14.8951],[105.3797,14.8948],[105.3797,14.8943],[105.3783,14.8946],[105.3772,14.8954],[105.3772,14.8965],[105.3761,14.897],[105.3761,14.8978],[105.375,14.8984],[105.373,14.8984],[105.373,14.8976],[105.3716,14.8978],[105.3711,14.8976],[105.3711,14.897],[105.3694,14.897],[105.3691,14.8981],[105.3697,14.8981],[105.3699,14.8995],[105.3711,14.8997],[105.3713,14.9008],[105.3727,14.9014],[105.3725,14.9027],[105.3719,14.9027],[105.3716,14.9046],[105.3744,14.9046],[105.3747,14.9035],[105.378,14.9038],[105.3783,14.9052],[105.3764,14.9057],[105.3764,14.9081],[105.3769,14.9081],[105.3775,14.9092],[105.3797,14.9087],[105.3808,14.9081],[105.3808,14.9073],[105.3814,14.9073],[105.3814,14.9098],[105.3831,14.9106],[105.3836,14.9136],[105.3842,14.9141],[105.3861,14.9144],[105.3867,14.9154],[105.3878,14.9157],[105.3878,14.9165],[105.3884,14.9168],[105.3887,14.9179],[105.3884,14.9198],[105.3873,14.9195],[105.3845,14.9206],[105.385,14.9222],[105.3842,14.9233],[105.3809,14.9233],[105.38,14.9239],[105.3786,14.9239],[105.3789,14.9228],[105.3795,14.9228],[105.3803,14.9217],[105.382,14.9214],[105.382,14.9209],[105.3831,14.9209],[105.3834,14.9192],[105.3814,14.9187],[105.3811,14.9176],[105.3797,14.9165],[105.3803,14.9133],[105.3789,14.913],[105.378,14.9114],[105.3755,14.9114],[105.3755,14.9109],[105.3744,14.91],[105.3727,14.9098],[105.3725,14.9103],[105.3719,14.9103],[105.3719,14.9111],[105.3725,14.9111],[105.3719,14.9114],[105.3719,14.9122],[105.3711,14.9128],[105.3697,14.9125],[105.3691,14.9133],[105.3691,14.9144],[105.368,14.9147],[105.3672,14.9138],[105.3669,14.9144],[105.3658,14.9139],[105.3658,14.9144],[105.3666,14.9147],[105.3666,14.9155],[105.3675,14.9157],[105.368,14.9171],[105.3725,14.9174],[105.3725,14.919],[105.3711,14.919],[105.3705,14.9185],[105.368,14.9185],[105.3677,14.9176],[105.3669,14.9174],[105.3666,14.919],[105.3655,14.9201],[105.365,14.9201],[105.365,14.9206],[105.3655,14.9206],[105.3655,14.9214],[105.3641,14.922],[105.3641,14.9225],[105.3633,14.9225],[105.3627,14.9206],[105.3608,14.9204],[105.3605,14.9187],[105.3588,14.9185],[105.3588,14.9201],[105.3583,14.9201],[105.3574,14.9209],[105.3569,14.9228],[105.3558,14.9228],[105.3546,14.922],[105.3541,14.9223],[105.3544,14.9234],[105.3538,14.9239],[105.3546,14.9242],[105.3544,14.925],[105.3552,14.9253],[105.3552,14.9258],[105.3558,14.9261],[105.356,14.9277],[105.3599,14.9272],[105.3608,14.9277],[105.3608,14.9285],[105.3613,14.9285],[105.3616,14.9299],[105.3622,14.9299],[105.3622,14.9315],[105.3616,14.9315],[105.3616,14.9323],[105.3625,14.9323],[105.3636,14.9331],[105.3622,14.9364],[105.3616,14.9364],[105.3614,14.9369],[105.3594,14.9369],[105.3591,14.9375],[105.3566,14.9377],[105.3563,14.9367],[105.3547,14.9369],[105.3541,14.9361],[105.3533,14.9361],[105.3505,14.9372],[105.3502,14.9377],[105.3482,14.938],[105.3494,14.9386],[105.3499,14.9396],[105.3496,14.9402],[105.351,14.9399],[105.353,14.9405],[105.3544,14.9418],[105.3541,14.9459],[105.3552,14.9464],[105.3552,14.9475],[105.3564,14.9475],[105.3566,14.9467],[105.3591,14.9459],[105.3591,14.9453],[105.36,14.9453],[105.36,14.9459],[105.3608,14.9461],[105.3605,14.9486],[105.3636,14.9483],[105.3642,14.9475],[105.3658,14.9475],[105.3656,14.9494],[105.367,14.9507],[105.367,14.9526],[105.3675,14.9521],[105.3689,14.9521],[105.37,14.9507],[105.3706,14.9507],[105.3717,14.9529],[105.3717,14.9543],[105.3728,14.954],[105.3728,14.9545],[105.3742,14.9551],[105.3745,14.9545],[105.3759,14.9542],[105.3759,14.9537],[105.3773,14.9534],[105.3778,14.9529],[105.3801,14.9529],[105.3801,14.954],[105.3795,14.9545],[105.3765,14.9559],[105.3767,14.9567],[105.3762,14.9586],[105.3767,14.9591],[105.3767,14.9621],[105.3759,14.9632],[105.3751,14.9632],[105.3762,14.9616],[105.3762,14.9597],[105.3751,14.9567],[105.3737,14.9567],[105.3731,14.9575],[105.372,14.9578],[105.3709,14.9589],[105.3709,14.9632],[105.372,14.9651],[105.3731,14.9651],[105.3734,14.9646],[105.374,14.9646],[105.3734,14.9656],[105.372,14.9659],[105.3709,14.9654],[105.37,14.9608],[105.3695,14.9608],[105.3692,14.9613],[105.3664,14.9616],[105.3656,14.9602],[105.3645,14.9602],[105.365,14.9613],[105.3656,14.9613],[105.3656,14.9619],[105.3681,14.9624],[105.3684,14.9643],[105.3689,14.9643],[105.3692,14.9651],[105.3684,14.9654],[105.3681,14.9665],[105.367,14.9665],[105.367,14.9659],[105.3659,14.9657],[105.3659,14.9665],[105.3645,14.9667],[105.3634,14.9684],[105.3625,14.9684]],[[105.3634,14.9665],[105.3648,14.9662],[105.3653,14.9654],[105.3673,14.9654],[105.3678,14.9648],[105.3675,14.9635],[105.3664,14.9627],[105.3645,14.9629],[105.3636,14.9646],[105.3622,14.9654],[105.3634,14.9665]],[[105.3111,14.9313],[105.3117,14.9316],[105.3117,14.9313],[105.3111,14.9313]],[[105.3845,14.9192],[105.3867,14.9184],[105.387,14.9171],[105.3853,14.9163],[105.385,14.9149],[105.3845,14.9149],[105.3834,14.9138],[105.3825,14.9119],[105.3825,14.9108],[105.3811,14.9103],[105.3808,14.9092],[105.3797,14.9092],[105.3786,14.9111],[105.3808,14.9127],[105.3806,14.9163],[105.3825,14.9182],[105.3836,14.9182],[105.3845,14.9192]],[[105.3769,14.9106],[105.3778,14.9106],[105.3778,14.91],[105.3769,14.91],[105.3769,14.9106]],[[105.3758,14.9092],[105.3761,14.9095],[105.3761,14.9092],[105.3758,14.9092]]]}},{"type":"Feature","properties":{"kind":"seasonal","area_km2":2.685,"date":"2026-10-09"},"geometry":{"type":"Polygon","coordinates":[[[105.3243,14.9994],[105.3241,14.9988],[105.323,14.9988],[105.3232,14.9977],[105.3221,14.9972],[105.3221,14.9961],[105.3235,14.9958],[105.3269,14.9975],[105.3274,14.9969],[105.3269,14.9947],[105.328,14.9947],[105.3285,14.9955],[105.3291,14.9955],[105.3302,14.9953],[105.3305,14.9947],[105.3327,14.9945],[105.333,14.9928],[105.331,14.9915],[105.3313,14.9904],[105.3352,14.9904],[105.3355,14.9909],[105.3366,14.9909],[105.3375,14.9917],[105.3394,14.9915],[105.3391,14.9896],[105.3388,14.989],[105.3383,14.989],[105.3383,14.9885],[105.3369,14.9879],[105.3369,14.9866],[105.338,14.9858],[105.3388,14.9858],[105.3399,14.9839],[105.3411,14.9839],[105.3413,14.9847],[105.3439,14.9855],[105.3441,14.9863],[105.3447,14.9863],[105.3455,14.9874],[105.3461,14.9874],[105.3469,14.9882],[105.3483,14.9879],[105.3489,14.9874],[105.3489,14.983],[105.348,14.9822],[105.3458,14.9822],[105.3458,14.9817],[105.345,14.9809],[105.345,14.9793],[105.3438,14.9784],[105.3411,14.9787],[105.3408,14.9803],[105.3399,14.9803],[105.3391,14.9793],[105.3358,14.9801],[105.3335,14.9817],[105.3335,14.9828],[105.3321,14.9842],[105.3305,14.9847],[105.3302,14.9852],[105.3293,14.9852],[105.3293,14.9842],[105.3288,14.9842],[105.3288,14.9836],[105.3282,14.9833],[105.3263,14.9833],[105.3246,14.9842],[105.3249,14.9825],[105.3235,14.9825],[105.3229,14.982],[105.3229,14.9812],[105.3266,14.9814],[105.3268,14.9809],[105.3291,14.9801],[105.3293,14.9776],[105.3305,14.9774],[105.3313,14.9766],[105.331,14.9749],[105.3338,14.9749],[105.3344,14.9744],[105.3344,14.9728],[105.3377,14.9703],[105.3377,14.9698],[105.3369,14.969],[105.3349,14.9679],[105.3338,14.9679],[105.333,14.9687],[105.3318,14.9687],[105.331,14.9695],[105.3299,14.9695],[105.3299,14.9682],[105.3304,14.9676],[105.3296,14.9671],[105.3276,14.9671],[105.3257,14.969],[105.3249,14.9706],[105.3237,14.9706],[105.3237,14.9698],[105.3243,14.9695],[105.3251,14.9673],[105.3251,14.9663],[105.3246,14.9654],[105.3218,14.9655],[105.3193,14.9663],[105.3159,14.9663],[105.3159,14.9655],[105.3176,14.9638],[105.3195,14.963],[105.3198,14.9625],[105.3207,14.9625],[105.3198,14.9617],[105.3168,14.9611],[105.3207,14.9611],[105.3212,14.9606],[105.3226,14.9603],[105.3226,14.9598],[105.3232,14.9598],[105.3232,14.9592],[105.3237,14.9589],[105.3265,14.9584],[105.3265,14.9598],[105.3243,14.9608],[105.3243,14.9617],[105.3237,14.9617],[105.3235,14.963],[105.3218,14.9633],[105.3207,14.9641],[105.3215,14.9652],[105.3271,14.9646],[105.3271,14.9652],[105.3265,14.9652],[105.3257,14.9665],[105.3265,14.9668],[105.3271,14.9665],[105.3271,14.966],[105.329,14.9657],[105.3299,14.9649],[105.3321,14.9649],[105.3327,14.9668],[105.3318,14.9679],[105.3332,14.9676],[105.3341,14.9668],[105.3341,14.966],[105.3346,14.966],[105.3346,14.9665],[105.3357,14.9665],[105.3366,14.9676],[105.3371,14.9676],[105.3371,14.9681],[105.3391,14.9681],[105.3399,14.969],[105.3399,14.9706],[105.3394,14.9711],[105.3371,14.9711],[105.3371,14.9717],[105.3355,14.9725],[105.3355,14.9736],[105.336,14.9744],[105.3355,14.9755],[105.3321,14.976],[105.3318,14.9782],[105.3305,14.9787],[105.3319,14.9798],[105.3319,14.9804],[105.3302,14.9806],[105.3299,14.9812],[105.3293,14.9809],[105.3285,14.9812],[105.3291,14.9817],[105.3313,14.9814],[105.3316,14.9828],[105.3321,14.9823],[105.3321,14.9806],[105.333,14.9795],[105.3363,14.9793],[105.3374,14.9782],[105.338,14.9782],[105.338,14.9776],[105.3394,14.9776],[105.3399,14.9782],[105.3399,14.9776],[105.3405,14.9776],[105.3408,14.9771],[105.3433,14.9776],[105.3436,14.9771],[105.3441,14.9771],[105.3441,14.9765],[105.345,14.9765],[105.345,14.9771],[105.3466,14.9774],[105.3466,14.9787],[105.3461,14.979],[105.3461,14.9811],[105.3511,14.9811],[105.3511,14.9847],[105.3517,14.9847],[105.3519,14.9852],[105.3522,14.9844],[105.3545,14.9844],[105.3547,14.9849],[105.3559,14.9852],[105.3561,14.9874],[105.3547,14.989],[105.3511,14.9885],[105.3472,14.989],[105.3455,14.9877],[105.3439,14.9874],[105.3433,14.9858],[105.3416,14.986],[105.3416,14.9855],[105.3408,14.9855],[105.3402,14.9847],[105.3391,14.9866],[105.3374,14.9869],[105.3388,14.9874],[105.3391,14.9885],[105.3402,14.989],[105.3405,14.9917],[105.34,14.9928],[105.3383,14.9931],[105.3375,14.9928],[105.3369,14.9917],[105.3358,14.9917],[105.3347,14.9909],[105.3341,14.9909],[105.3338,14.9915],[105.3321,14.9909],[105.3319,14.9915],[105.3338,14.9931],[105.3341,14.9942],[105.3333,14.995],[105.3319,14.9953],[105.3313,14.9966],[105.3294,14.9966],[105.3294,14.9961],[105.3282,14.9958],[105.3288,14.9964],[105.3288,14.998],[105.326,14.998],[105.3246,14.9977],[105.3243,14.9972],[105.3243,14.9977],[105.3238,14.9977],[105.3246,14.9985],[105.3243,14.9994]],[[105.3279,14.9814],[105.3282,14.9817],[105.3282,14.9814],[105.3279,14.9814]],[[105.3282,14.9812],[105.3285,14.9814],[105.3285,14.9812],[105.3282,14.9812]],[[105.3204,14.9644],[105.3207,14.9646],[105.3207,14.9644],[105.3204,14.9644]],[[105.3218,14.9617],[105.3221,14.9622],[105.3221,14.9617],[105.3218,14.9617]]]}},{"type":"Feature","properties":{"kind":"seasonal","area_km2":1.548,"date":"2026-10-09"},"geometry":{"type":"Polygon","coordinates":[[[105.4431,14.6482],[105.4431,14.6476],[105.4411,14.6457],[105.4392,14.6449],[105.4386,14.6436],[105.4366,14.6428],[105.4366,14.642],[105.4378,14.6409],[105.4372,14.6392],[105.438,14.6387],[105.438,14.6368],[105.4369,14.636],[105.4366,14.6344],[105.438,14.6341],[105.4386,14.6333],[105.44,14.6333],[105.4408,14.6322],[105.4425,14.6324],[105.4428,14.6316],[105.4436,14.6308],[105.4444,14.6308],[105.4447,14.6303],[105.4447,14.6295],[105.4458,14.6276],[105.4455,14.6257],[105.4466,14.6254],[105.4472,14.6273],[105.4478,14.6276],[105.4478,14.627],[105.4489,14.6259],[105.4494,14.6238],[105.4503,14.6235],[105.4503,14.6251],[105.4497,14.6257],[105.4497,14.6262],[105.4503,14.6265],[105.4503,14.6275],[105.4497,14.6286],[105.4472,14.6289],[105.4464,14.6295],[105.4464,14.63],[105.4472,14.6314],[105.4489,14.6313],[105.4497,14.6322],[105.4522,14.6327],[105.4522,14.6338],[105.4508,14.6338],[105.4506,14.6332],[105.448,14.6332],[105.4478,14.6338],[105.4453,14.6335],[105.4433,14.6352],[105.4433,14.6379],[105.4417,14.6387],[105.4417,14.6409],[105.4431,14.6419],[105.445,14.6419],[105.445,14.6414],[105.4458,14.6414],[105.4464,14.6425],[105.4478,14.6425],[105.4478,14.6433],[105.4472,14.6436],[105.4472,14.6449],[105.4481,14.6457],[105.4481,14.6468],[105.4458,14.6465],[105.4442,14.6482],[105.4431,14.6482]]]}},{"type":"Feature","properties":{"kind":"seasonal","area_km2":1.485,"date":"2026-10-09"},"geometry":{"type":"Polygon","coordinates":[[[105.4334,14.6854],[105.4295,14.6802],[105.4289,14.6802],[105.4272,14.6786],[105.425,14.6775],[105.4247,14.6761],[105.4247,14.6751],[105.4253,14.6742],[105.4267,14.6742],[105.4272,14.6732],[105.4289,14.6723],[105.4289,14.6702],[105.43,14.6696],[105.432,14.6675],[105.4328,14.6672],[105.4339,14.6672],[105.4339,14.668],[105.4331,14.668],[105.4334,14.6691],[105.4339,14.6691],[105.4342,14.6685],[105.4356,14.6688],[105.4356,14.6707],[105.4361,14.671],[105.4361,14.6718],[105.4378,14.6737],[105.4378,14.6745],[105.4364,14.6756],[105.4364,14.6767],[105.4373,14.6772],[105.4376,14.6786],[105.4403,14.6794],[105.4406,14.6769],[105.4414,14.6769],[105.442,14.6777],[105.4428,14.6777],[105.4431,14.6796],[105.4465,14.6799],[105.447,14.681],[105.449,14.6807],[105.449,14.6815],[105.4481,14.6815],[105.4476,14.6821],[105.4465,14.6821],[105.4462,14.6815],[105.4445,14.6818],[105.4442,14.6832],[105.4423,14.6832],[105.4415,14.684],[105.4392,14.6843],[105.4384,14.6853],[105.4362,14.6853],[105.4351,14.6845],[105.4345,14.6845],[105.4342,14.6854],[105.4334,14.6854]],[[105.4342,14.684],[105.4348,14.6843],[105.4348,14.684],[105.4342,14.684]],[[105.4356,14.684],[105.4359,14.6832],[105.4364,14.6832],[105.4364,14.6826],[105.4367,14.6832],[105.437,14.6826],[105.4381,14.6832],[105.4381,14.6826],[105.4395,14.6824],[105.4398,14.6813],[105.4392,14.681],[105.4392,14.6815],[105.4384,14.6815],[105.4387,14.681],[105.437,14.6807],[105.4373,14.6794],[105.4362,14.678],[105.4359,14.6761],[105.435,14.6761],[105.4356,14.6756],[105.4353,14.675],[105.4339,14.6748],[105.4331,14.6759],[105.4323,14.6761],[105.4322,14.6745],[105.4325,14.675],[105.4334,14.675],[105.4336,14.6742],[105.4359,14.6745],[105.4359,14.6731],[105.4353,14.6731],[105.4348,14.6723],[105.4348,14.6729],[105.4334,14.6729],[105.4331,14.6737],[105.4328,14.6731],[105.4322,14.6732],[105.432,14.6723],[105.432,14.6729],[105.4309,14.6732],[105.4309,14.6737],[105.4306,14.6732],[105.4297,14.6737],[105.4306,14.6745],[105.4295,14.6745],[105.4295,14.6761],[105.43,14.6764],[105.4295,14.677],[105.4297,14.6778],[105.4292,14.6778],[105.4292,14.6786],[105.4295,14.6786],[105.4298,14.6791],[105.4314,14.6791],[105.4317,14.6802],[105.4311,14.6805],[105.4317,14.6805],[105.4314,14.681],[105.432,14.681],[105.4323,14.6818],[105.4334,14.6816],[105.4337,14.6837],[105.4351,14.6835],[105.4356,14.684]],[[105.4398,14.6815],[105.4401,14.6818],[105.4401,14.6815],[105.4398,14.6815]],[[105.4317,14.6813],[105.432,14.6816],[105.432,14.6813],[105.4317,14.6813]],[[105.4398,14.6807],[105.4401,14.681],[105.4401,14.6807],[105.4398,14.6807]],[[105.4292,14.6789],[105.4295,14.6791],[105.4295,14.6789],[105.4292,14.6789]],[[105.4272,14.6772],[105.4281,14.6775],[105.4281,14.6772],[105.4272,14.6772]],[[105.4281,14.677],[105.4284,14.6772],[105.4284,14.677],[105.4281,14.677]],[[105.4292,14.6764],[105.4295,14.6767],[105.4295,14.6764],[105.4292,14.6764]],[[105.4289,14.6759],[105.4292,14.6764],[105.4292,14.6759],[105.4289,14.6759]],[[105.4281,14.6751],[105.4284,14.6756],[105.4283,14.6751],[105.4281,14.6751]],[[105.4289,14.6751],[105.4292,14.6753],[105.4292,14.6751],[105.4289,14.6751]],[[105.4314,14.6718],[105.4317,14.6721],[105.4317,14.6718],[105.4314,14.6718]],[[105.4322,14.6707],[105.4325,14.671],[105.4325,14.6707],[105.4322,14.6707]]]}},{"type":"Feature","properties":{"kind":"seasonal","area_km2":1.197,"date":"2026-10-09"},"geometry":{"type":"Polygon","coordinates":[[[105.369,14.8566],[105.369,14.8561],[105.3679,14.8561],[105.3676,14.8555],[105.3671,14.8555],[105.3662,14.8531],[105.3651,14.8523],[105.3651,14.8509],[105.3657,14.8504],[105.3693,14.8506],[105.3701,14.8498],[105.3701,14.8493],[105.3696,14.8487],[105.3673,14.8485],[105.3662,14.8474],[105.3662,14.8466],[105.3646,14.8469],[105.3645,14.8452],[105.3668,14.8455],[105.3668,14.845],[105.3687,14.845],[105.3687,14.8441],[105.3679,14.8436],[105.3673,14.8417],[105.3673,14.8406],[105.3684,14.8401],[105.367,14.8393],[105.3648,14.8393],[105.3643,14.8403],[105.3668,14.8409],[105.3665,14.842],[105.3648,14.8422],[105.3648,14.8417],[105.3637,14.8417],[105.3634,14.8422],[105.3618,14.8423],[105.3615,14.8417],[105.3618,14.8393],[105.3626,14.8387],[105.3629,14.8374],[105.364,14.8368],[105.3637,14.8349],[105.3648,14.8352],[105.3656,14.8341],[105.3679,14.8341],[105.3676,14.8368],[105.369,14.8382],[105.369,14.8395],[105.3698,14.8406],[105.3698,14.8412],[105.3693,14.8412],[105.3693,14.8422],[105.3684,14.8422],[105.3684,14.8428],[105.3698,14.8439],[105.3698,14.846],[105.3679,14.846],[105.3676,14.8466],[105.3685,14.8466],[105.3682,14.8471],[105.3701,14.8474],[105.3701,14.8479],[105.3707,14.8479],[105.371,14.8485],[105.3735,14.8485],[105.3743,14.8506],[105.3749,14.8506],[105.3749,14.8515],[105.3738,14.8517],[105.3732,14.8534],[105.3715,14.8534],[105.3713,14.8528],[105.3701,14.8528],[105.369,14.8536],[105.3693,14.8544],[105.3699,14.8544],[105.3699,14.855],[105.3724,14.855],[105.3721,14.8561],[105.3707,14.8566],[105.369,14.8566]],[[105.3665,14.8379],[105.3668,14.8382],[105.3668,14.8379],[105.3665,14.8379]]]}},{"type":"Feature","properties":{"kind":"seasonal","area_km2":1.055,"date":"2026-10-09"},"geometry":{"type":"Polygon","coordinates":[[[105.4873,14.8499],[105.4872,14.8491],[105.4878,14.8491],[105.4878,14.8485],[105.4867,14.848],[105.4797,14.8483],[105.4778,14.8442],[105.4778,14.8429],[105.48,14.8415],[105.4817,14.8415],[105.4836,14.8407],[105.4839,14.8401],[105.485,14.8399],[105.4858,14.839],[105.4858,14.8382],[105.4867,14.8382],[105.4875,14.8371],[105.49,14.8366],[105.4908,14.8358],[105.492,14.8358],[105.492,14.8369],[105.4906,14.8371],[105.4903,14.8379],[105.4889,14.8388],[105.4889,14.8396],[105.4878,14.8407],[105.4867,14.8409],[105.4847,14.8428],[105.4847,14.8434],[105.4842,14.8434],[105.4833,14.8442],[105.4833,14.8453],[105.4842,14.8458],[105.485,14.8453],[105.4861,14.8453],[105.4864,14.8458],[105.4898,14.8461],[105.49,14.8455],[105.492,14.8455],[105.4925,14.845],[105.495,14.8447],[105.495,14.8461],[105.4945,14.8463],[105.4948,14.8477],[105.4917,14.848],[105.4906,14.8488],[105.4903,14.8496],[105.4892,14.8496],[105.4886,14.8491],[105.4884,14.8499],[105.4873,14.8499]]]}},{"type":"Feature","properties":{"kind":"seasonal","area_km2":1.01,"date":"2026-10-09"},"geometry":{"type":"Polygon","coordinates":[[[105.3646,14.8881],[105.3621,14.8881],[105.361,14.8862],[105.3568,14.8859],[105.3546,14.8865],[105.3546,14.887],[105.3537,14.887],[105.3529,14.8862],[105.351,14.8865],[105.351,14.8857],[105.3515,14.8857],[105.3521,14.8835],[105.3543,14.8835],[105.3557,14.8808],[105.3546,14.8802],[105.3543,14.8786],[105.3532,14.8781],[105.3532,14.8773],[105.3526,14.877],[105.352,14.8754],[105.3504,14.8737],[105.349,14.8732],[105.349,14.8721],[105.3484,14.8718],[105.3487,14.8708],[105.3495,14.8708],[105.3495,14.8718],[105.3501,14.8718],[105.3504,14.8724],[105.3512,14.8724],[105.3512,14.8718],[105.3529,14.8718],[105.3532,14.8713],[105.354,14.8713],[105.354,14.8735],[105.3548,14.8743],[105.3557,14.8743],[105.3565,14.8751],[105.3565,14.8756],[105.3585,14.8756],[105.3585,14.8767],[105.3576,14.8772],[105.3579,14.8783],[105.3571,14.8783],[105.3579,14.8789],[105.3579,14.8813],[105.3571,14.8824],[105.3571,14.8835],[105.359,14.8838],[105.3588,14.8843],[105.361,14.8851],[105.3618,14.8851],[105.3618,14.8846],[105.3624,14.8846],[105.3627,14.884],[105.3646,14.8837],[105.3646,14.8881]]]}},{"type":"Feature","properties":{"kind":"seasonal","area_km2":0.763,"date":"2026-10-09"},"geometry":{"type":"Polygon","coordinates":[[[105.4021,14.6255],[105.4018,14.6249],[105.4001,14.6244],[105.4001,14.6238],[105.3982,14.6233],[105.3976,14.6225],[105.3965,14.6225],[105.3957,14.6236],[105.3915,14.6236],[105.3909,14.623],[105.389,14.623],[105.3887,14.6225],[105.387,14.6228],[105.3865,14.6225],[105.3865,14.6206],[105.3853,14.6193],[105.3851,14.6176],[105.3862,14.6176],[105.3865,14.6184],[105.3876,14.6184],[105.3895,14.6203],[105.3912,14.6198],[105.3926,14.6198],[105.3926,14.6203],[105.3943,14.6201],[105.3948,14.6195],[105.3948,14.6182],[105.3962,14.6182],[105.3968,14.6187],[105.3968,14.6201],[105.3973,14.6203],[105.3982,14.6187],[105.3993,14.6187],[105.3993,14.6195],[105.4007,14.6198],[105.4007,14.6206],[105.4018,14.6217],[105.4029,14.6244],[105.4035,14.6244],[105.4035,14.6255],[105.4021,14.6255]]]}},{"type":"Feature","properties":{"kind":"seasonal","area_km2":0.703,"date":"2026-10-09"},"geometry":{"type":"Polygon","coordinates":[[[105.132,14.4123],[105.1306,14.4109],[105.1306,14.4099],[105.1292,14.4082],[105.1292,14.4058],[105.1287,14.4053],[105.1278,14.4053],[105.1278,14.4042],[105.1289,14.4039],[105.1292,14.4034],[105.1306,14.4036],[105.1314,14.4055],[105.1323,14.4053],[105.1323,14.4058],[105.1331,14.4058],[105.134,14.4066],[105.134,14.4071],[105.1353,14.4077],[105.1345,14.4082],[105.1334,14.4082],[105.1334,14.4074],[105.1326,14.4074],[105.1326,14.4069],[105.1323,14.4069],[105.132,14.4072],[105.132,14.4088],[105.1312,14.4096],[105.1317,14.4096],[105.132,14.4104],[105.1326,14.4101],[105.1326,14.4107],[105.1331,14.4109],[105.1376,14.412],[105.1493,14.412],[105.1498,14.4118],[105.1507,14.4101],[105.1507,14.4088],[105.1512,14.4088],[105.1512,14.408],[105.1507,14.4077],[105.1512,14.4077],[105.1512,14.4069],[105.1523,14.4069],[105.1523,14.4063],[105.1512,14.4063],[105.1512,14.4055],[105.1523,14.405],[105.1523,14.4042],[105.1529,14.4042],[105.1529,14.4036],[105.1518,14.4044],[105.1504,14.4042],[105.1509,14.4042],[105.1526,14.4025],[105.1548,14.4014],[105.1557,14.4014],[105.1559,14.402],[105.1593,14.4017],[105.1593,14.4025],[105.1576,14.4028],[105.1568,14.4042],[105.1551,14.4047],[105.154,14.4058],[105.154,14.4063],[105.1523,14.4082],[105.152,14.4101],[105.1512,14.4101],[105.1512,14.4109],[105.1504,14.4123],[105.132,14.4123]],[[105.132,14.4063],[105.1323,14.4069],[105.1323,14.4063],[105.132,14.4063]],[[105.1312,14.4055],[105.1314,14.4058],[105.1314,14.4055],[105.1312,14.4055]],[[105.1534,14.4036],[105.1548,14.4033],[105.1548,14.4028],[105.1534,14.4028],[105.1534,14.4036]]]}},{"type":"Feature","properties":{"kind":"seasonal","area_km2":0.674,"date":"2026-10-09"},"geometry":{"type":"Polygon","coordinates":[[[105.0441,14.4568],[105.0441,14.456],[105.0455,14.4549],[105.0455,14.4538],[105.0463,14.4533],[105.046,14.4509],[105.0452,14.4509],[105.0449,14.4503],[105.0427,14.4506],[105.0427,14.45],[105.0416,14.45],[105.0413,14.4495],[105.0396,14.4495],[105.0396,14.4503],[105.0385,14.4506],[105.0385,14.45],[105.0379,14.45],[105.0377,14.4479],[105.0388,14.4476],[105.0391,14.4457],[105.0402,14.4457],[105.0405,14.4449],[105.0413,14.4449],[105.0413,14.4468],[105.0424,14.4476],[105.0427,14.4487],[105.0446,14.4487],[105.0449,14.4481],[105.0457,14.4481],[105.0466,14.4484],[105.0469,14.4492],[105.0477,14.4492],[105.0477,14.4487],[105.0485,14.4487],[105.0482,14.4473],[105.0488,14.4471],[105.0488,14.4446],[105.0482,14.4441],[105.0482,14.4433],[105.0491,14.4433],[105.0499,14.4441],[105.0499,14.4457],[105.0513,14.4457],[105.0513,14.4462],[105.0521,14.4465],[105.0519,14.453],[105.0505,14.4536],[105.0488,14.4536],[105.048,14.4544],[105.0477,14.4566],[105.0441,14.4568]],[[105.0469,14.4538],[105.0471,14.4544],[105.0471,14.4538],[105.0469,14.4538]],[[105.0471,14.4536],[105.0482,14.4536],[105.0494,14.453],[105.0494,14.4525],[105.0471,14.4525],[105.0471,14.4536]],[[105.0496,14.4528],[105.0513,14.4525],[105.0513,14.4522],[105.0499,14.4522],[105.0496,14.4528]],[[105.0471,14.4522],[105.0477,14.4522],[105.0477,14.4517],[105.0471,14.4517],[105.0471,14.4522]],[[105.048,14.4514],[105.0482,14.4519],[105.0482,14.4514],[105.048,14.4514]],[[105.0499,14.4519],[105.0516,14.4519],[105.0513,14.4495],[105.0519,14.4492],[105.0513,14.449],[105.0516,14.4481],[105.051,14.4481],[105.051,14.4476],[105.0505,14.4476],[105.0502,14.4468],[105.0496,14.4471],[105.0494,14.449],[105.0471,14.45],[105.0471,14.4506],[105.0477,14.4506],[105.0482,14.4514],[105.0499,14.4514],[105.0499,14.4519]],[[105.0466,14.4503],[105.0469,14.4498],[105.0463,14.4495],[105.0452,14.4498],[105.0466,14.4503]],[[105.0444,14.4498],[105.0449,14.4492],[105.0435,14.4492],[105.0435,14.4495],[105.0444,14.4498]],[[105.0449,14.4495],[105.0452,14.4498],[105.0452,14.4495],[105.0449,14.4495]],[[105.043,14.4492],[105.0432,14.4495],[105.0432,14.4492],[105.043,14.4492]],[[105.0432,14.449],[105.0435,14.4492],[105.0435,14.449],[105.0432,14.449]],[[105.0407,14.449],[105.0416,14.4487],[105.0416,14.4479],[105.0413,14.4479],[105.0413,14.4484],[105.041,14.4484],[105.0407,14.449]],[[105.0396,14.4479],[105.0399,14.4484],[105.0399,14.4479],[105.0396,14.4479]],[[105.0407,14.4479],[105.041,14.4484],[105.041,14.4479],[105.0407,14.4479]],[[105.0399,14.4473],[105.0402,14.4476],[105.0402,14.4473],[105.0399,14.4473]]]}},{"type":"Feature","properties":{"kind":"seasonal","area_km2":0.627,"date":"2026-10-09"},"geometry":{"type":"Polygon","coordinates":[[[105.4859,14.7647],[105.4859,14.7628],[105.4851,14.7623],[105.4854,14.7617],[105.4845,14.7609],[105.4829,14.7604],[105.482,14.7593],[105.4815,14.7593],[105.4806,14.7585],[105.4781,14.7582],[105.4781,14.7544],[105.4787,14.7542],[105.4787,14.7531],[105.4795,14.7514],[105.484,14.7504],[105.484,14.752],[105.4826,14.7523],[105.4815,14.7533],[105.4812,14.7552],[105.484,14.7577],[105.4843,14.7585],[105.4854,14.7585],[105.4862,14.7596],[105.4873,14.7593],[105.4884,14.7609],[105.4901,14.7609],[105.4901,14.7623],[105.4879,14.7623],[105.4873,14.7628],[105.4873,14.7644],[105.4859,14.7647]]]}},{"type":"Feature","properties":{"kind":"seasonal","area_km2":0.481,"date":"2026-10-09"},"geometry":{"type":"Polygon","coordinates":[[[105.1395,14.408],[105.139,14.4077],[105.139,14.4071],[105.1376,14.4071],[105.1379,14.4077],[105.137,14.4077],[105.1365,14.4071],[105.1359,14.4077],[105.1353,14.4074],[105.1365,14.4063],[105.1373,14.4069],[105.1395,14.4069],[105.1392,14.4033],[105.1401,14.4033],[105.1409,14.4044],[105.1417,14.4044],[105.1454,14.4017],[105.1451,14.4001],[105.1426,14.3979],[105.1426,14.3971],[105.1431,14.3966],[105.1445,14.3974],[105.1454,14.3958],[105.1467,14.396],[105.147,14.3966],[105.1481,14.3966],[105.1484,14.3998],[105.1506,14.3995],[105.1506,14.4014],[105.1498,14.4017],[105.1498,14.4036],[105.1504,14.4042],[105.1493,14.405],[105.1484,14.4047],[105.1493,14.4023],[105.1479,14.402],[105.1479,14.4004],[105.1473,14.4001],[105.147,14.399],[105.1473,14.3982],[105.1456,14.3974],[105.1456,14.3979],[105.1462,14.3982],[105.1456,14.4001],[105.1465,14.4004],[105.1465,14.4023],[105.1456,14.4028],[105.1456,14.4033],[105.1434,14.4039],[105.142,14.4061],[105.1415,14.4061],[105.1412,14.4052],[105.1406,14.4052],[105.1409,14.408],[105.1406,14.4071],[105.1398,14.4071],[105.1395,14.408]],[[105.1495,14.4039],[105.1498,14.4042],[105.1498,14.4039],[105.1495,14.4039]],[[105.1451,14.399],[105.1454,14.3993],[105.1454,14.399],[105.1451,14.399]],[[105.1448,14.3985],[105.1451,14.399],[105.1451,14.3985],[105.1448,14.3985]],[[105.1445,14.3982],[105.1448,14.3985],[105.1448,14.3982],[105.1445,14.3982]]]}},{"type":"Feature","properties":{"kind":"seasonal","area_km2":0.449,"date":"2026-10-09"},"geometry":{"type":"Polygon","coordinates":[[[105.3899,14.9998],[105.3896,14.9984],[105.3885,14.9987],[105.3885,14.9993],[105.3874,14.9984],[105.3863,14.996],[105.3866,14.9949],[105.3852,14.9946],[105.3846,14.996],[105.381,14.9955],[105.3807,14.9963],[105.3785,14.9968],[105.3768,14.9957],[105.3743,14.9958],[105.374,14.9944],[105.3751,14.9933],[105.3782,14.9938],[105.3785,14.9911],[105.3801,14.9909],[105.381,14.9881],[105.3824,14.9881],[105.3824,14.989],[105.3813,14.9898],[105.381,14.9911],[105.3799,14.9914],[105.3799,14.9925],[105.3804,14.993],[105.3804,14.9941],[105.3799,14.9944],[105.3799,14.9949],[105.3835,14.9952],[105.3849,14.9941],[105.3882,14.9936],[105.3882,14.9944],[105.3868,14.9946],[105.3868,14.9952],[105.3874,14.9952],[105.3874,14.9968],[105.3882,14.9976],[105.3908,14.9976],[105.3908,14.999],[105.3902,14.999],[105.3908,14.9992],[105.3908,14.9998],[105.3899,14.9998]]]}},{"type":"Feature","properties":{"kind":"seasonal","area_km2":0.446,"date":"2026-10-09"},"geometry":{"type":"Polygon","coordinates":[[[105.3604,14.8805],[105.3604,14.8797],[105.3624,14.8794],[105.3643,14.8772],[105.364,14.8748],[105.3652,14.874],[105.3652,14.8732],[105.3638,14.8718],[105.364,14.8707],[105.3635,14.8702],[105.3635,14.8688],[105.3629,14.8686],[105.3626,14.865],[105.3635,14.8642],[105.3635,14.8623],[105.3654,14.862],[105.366,14.8658],[105.3665,14.8658],[105.3665,14.8664],[105.3674,14.8667],[105.3674,14.8683],[105.3665,14.8683],[105.3668,14.8675],[105.366,14.8667],[105.3646,14.8667],[105.3646,14.8699],[105.3649,14.8713],[105.3657,14.8721],[105.3663,14.8721],[105.3671,14.8737],[105.3668,14.8745],[105.3657,14.8751],[105.3652,14.8764],[105.3652,14.877],[105.3657,14.8772],[105.3657,14.8786],[105.3627,14.8797],[105.3624,14.8805],[105.3604,14.8805]]]}},{"type":"Feature","properties":{"kind":"seasonal","area_km2":0.414,"date":"2026-10-09"},"geometry":{"type":"Polygon","coordinates":[[[105.4071,14.9176],[105.4076,14.9154],[105.4082,14.9154],[105.4093,14.9143],[105.4093,14.913],[105.4085,14.9127],[105.4085,14.9119],[105.4076,14.9116],[105.4076,14.9103],[105.4071,14.9103],[105.4071,14.9108],[105.4054,14.9108],[105.4048,14.9103],[105.4048,14.9086],[105.4045,14.9086],[105.4045,14.9081],[105.4043,14.9081],[105.404,14.9089],[105.4023,14.9089],[105.4032,14.9108],[105.4032,14.9119],[105.4015,14.9122],[105.404,14.9141],[105.4018,14.9138],[105.4009,14.913],[105.4009,14.9119],[105.402,14.9114],[105.402,14.9105],[105.4015,14.9103],[105.4015,14.9086],[105.4031,14.9073],[105.4031,14.9065],[105.4043,14.9054],[105.4051,14.9054],[105.4051,14.907],[105.4057,14.9084],[105.4068,14.9092],[105.4076,14.9092],[105.4096,14.9122],[105.411,14.9127],[105.4121,14.9113],[105.4129,14.9113],[105.4124,14.914],[105.4107,14.9143],[105.4099,14.9159],[105.4093,14.9159],[105.4076,14.9176],[105.4071,14.9176]],[[105.404,14.9073],[105.4043,14.9081],[105.4043,14.9073],[105.404,14.9073]]]}},{"type":"Feature","properties":{"kind":"seasonal","area_km2":0.297,"date":"2026-10-09"},"geometry":{"type":"Polygon","coordinates":[[[105.3805,14.8834],[105.3791,14.8835],[105.3788,14.8826],[105.3763,14.8829],[105.376,14.8824],[105.3747,14.8824],[105.3744,14.881],[105.3735,14.8802],[105.373,14.8802],[105.3727,14.8794],[105.3713,14.8791],[105.371,14.8786],[105.3702,14.8791],[105.3699,14.8802],[105.3696,14.8797],[105.368,14.8794],[105.3677,14.8786],[105.3682,14.878],[105.3685,14.8764],[105.3705,14.8742],[105.3713,14.8742],[105.3713,14.8764],[105.3719,14.8775],[105.373,14.878],[105.3733,14.8797],[105.3738,14.8797],[105.3741,14.8802],[105.3755,14.8802],[105.3777,14.8818],[105.3786,14.8818],[105.3805,14.8834]],[[105.3758,14.8821],[105.3763,14.8821],[105.3763,14.8818],[105.3755,14.8816],[105.3758,14.8821]],[[105.3707,14.877],[105.371,14.8772],[105.371,14.877],[105.3707,14.877]]]}},{"type":"Feature","properties":{"kind":"seasonal","area_km2":0.204,"date":"2026-10-09"},"geometry":{"type":"Polygon","coordinates":[[[105.4146,14.9159],[105.4146,14.9154],[105.4135,14.9154],[105.4143,14.9149],[105.4135,14.9124],[105.414,14.9124],[105.414,14.9119],[105.4149,14.9119],[105.4143,14.9113],[105.4143,14.9105],[105.4132,14.9097],[105.4137,14.9062],[105.4146,14.9062],[105.4149,14.9067],[105.4174,14.9064],[105.4174,14.9075],[105.4168,14.9075],[105.4165,14.9083],[105.4149,14.9086],[105.4154,14.91],[105.4163,14.9105],[105.4163,14.9116],[105.4146,14.913],[105.4146,14.914],[105.4154,14.9149],[105.4154,14.9154],[105.4149,14.9154],[105.4146,14.9159]]]}},{"type":"Feature","properties":{"kind":"seasonal","area_km2":0.183,"date":"2026-10-09"},"geometry":{"type":"Polygon","coordinates":[[[105.3772,14.8927],[105.3763,14.8919],[105.3747,14.8919],[105.373,14.8902],[105.3722,14.8902],[105.3722,14.8886],[105.3747,14.8883],[105.3755,14.8878],[105.3755,14.887],[105.3763,14.887],[105.3763,14.8889],[105.3755,14.8889],[105.3755,14.8894],[105.3744,14.89],[105.3749,14.89],[105.3749,14.8905],[105.3769,14.8905],[105.3786,14.891],[105.3786,14.8927],[105.3772,14.8927]]]}},{"type":"Feature","properties":{"kind":"seasonal","area_km2":0.167,"date":"2026-10-09"},"geometry":{"type":"Polygon","coordinates":[[[105.3768,14.8463],[105.3774,14.846],[105.3768,14.8455],[105.3768,14.8447],[105.3751,14.8441],[105.3749,14.8433],[105.3743,14.8436],[105.3743,14.8441],[105.3721,14.8439],[105.3715,14.8433],[105.3721,14.842],[105.371,14.8428],[105.3707,14.8422],[105.3698,14.8422],[105.3698,14.8414],[105.3715,14.8417],[105.3718,14.8409],[105.3726,14.8409],[105.3729,14.8414],[105.3757,14.8417],[105.3763,14.8439],[105.3771,14.8444],[105.3771,14.8449],[105.3782,14.8452],[105.3782,14.846],[105.3768,14.8463]]]}},{"type":"Feature","properties":{"kind":"seasonal","area_km2":0.151,"date":"2026-10-09"},"geometry":{"type":"Polygon","coordinates":[[[105.3656,14.9876],[105.364,14.9874],[105.364,14.9868],[105.3614,14.9863],[105.3606,14.9847],[105.3595,14.9841],[105.3589,14.9814],[105.3592,14.9806],[105.3631,14.9809],[105.3614,14.9811],[105.3606,14.9819],[105.3603,14.9833],[105.3609,14.9836],[105.3609,14.9844],[105.3623,14.986],[105.3634,14.986],[105.3637,14.9841],[105.3642,14.9844],[105.3645,14.986],[105.3651,14.9863],[105.3651,14.9868],[105.3656,14.9868],[105.3656,14.9876]]]}},{"type":"Feature","properties":{"kind":"seasonal","area_km2":0.148,"date":"2026-10-09"},"geometry":{"type":"Polygon","coordinates":[[[105.3878,14.8978],[105.3878,14.8956],[105.385,14.8954],[105.3853,14.8946],[105.3847,14.8932],[105.3828,14.8935],[105.3842,14.8921],[105.3841,14.8913],[105.3855,14.8916],[105.3855,14.8927],[105.3869,14.8932],[105.3872,14.8946],[105.3883,14.8943],[105.3892,14.8951],[105.3886,14.8978],[105.3878,14.8978]]]}},{"type":"Feature","properties":{"kind":"seasonal","area_km2":0.148,"date":"2026-10-09"},"geometry":{"type":"Polygon","coordinates":[[[105.3868,14.8118],[105.3865,14.8107],[105.3871,14.8105],[105.3865,14.8099],[105.3857,14.8099],[105.3857,14.8094],[105.3865,14.8089],[105.3865,14.808],[105.3879,14.8069],[105.3901,14.8069],[105.3904,14.8064],[105.3915,14.8061],[105.3912,14.8072],[105.3907,14.8072],[105.3899,14.8083],[105.3893,14.8083],[105.3885,14.8091],[105.3885,14.8118],[105.3868,14.8118]],[[105.3868,14.8113],[105.3871,14.8116],[105.3871,14.8113],[105.3868,14.8113]],[[105.3871,14.8094],[105.3874,14.8097],[105.3874,14.8094],[105.3871,14.8094]],[[105.3876,14.8094],[105.3882,14.8094],[105.3885,14.8086],[105.3882,14.8086],[105.3876,14.8094]],[[105.3885,14.808],[105.3887,14.8083],[105.3887,14.808],[105.3885,14.808]]]}},{"type":"Feature","properties":{"kind":"seasonal","area_km2":0.134,"date":"2026-10-09"},"geometry":{"type":"Polygon","coordinates":[[[105.4033,14.9979],[105.4033,14.9965],[105.4025,14.9957],[105.4014,14.9954],[105.4014,14.9946],[105.4025,14.9938],[105.4027,14.9927],[105.4036,14.9927],[105.4053,14.9938],[105.4069,14.9938],[105.4072,14.9933],[105.408,14.9933],[105.4081,14.9943],[105.4069,14.9943],[105.4064,14.9949],[105.4028,14.9949],[105.4033,14.9957],[105.4039,14.9957],[105.4039,14.9979],[105.4033,14.9979]]]}},{"type":"Feature","properties":{"kind":"seasonal","area_km2":0.13,"date":"2026-10-09"},"geometry":{"type":"Polygon","coordinates":[[[105.3765,14.9784],[105.3759,14.9776],[105.374,14.9776],[105.3737,14.9781],[105.3729,14.9781],[105.3729,14.9765],[105.3717,14.9765],[105.3712,14.976],[105.3734,14.9762],[105.3745,14.9741],[105.3745,14.9751],[105.3762,14.9754],[105.3762,14.9759],[105.377,14.9765],[105.377,14.9773],[105.3779,14.9778],[105.3779,14.9784],[105.3765,14.9784]]]}},{"type":"Feature","properties":{"kind":"seasonal","area_km2":0.13,"date":"2026-10-09"},"geometry":{"type":"Polygon","coordinates":[[[105.3849,14.977],[105.3835,14.977],[105.3835,14.9759],[105.3821,14.9757],[105.3809,14.9743],[105.3809,14.9735],[105.3818,14.9727],[105.3823,14.9708],[105.3832,14.9708],[105.3837,14.9702],[105.3846,14.9705],[105.3846,14.9713],[105.3832,14.9716],[105.3826,14.9746],[105.3849,14.9754],[105.3849,14.977]]]}}]}
