{"type":"FeatureCollection","properties":{"v":3,"id":"t105_16","name":"อำนาจเจริญ · อุบลราชธานี","aoi":[105.0,16.0,105.442,16.3077],"date":"2026-10-09","dates":["2026-10-09"],"baseline_years":3,"has_seasonal":true,"totals":{"flood_high":0.0,"flood_low":0.0,"seasonal":0.3},"provinces":[{"name":"อุบลราชธานี","zone":"th-ne","flood_high":0.0,"flood_low":0.0,"seasonal":0.3}],"scenes":{"2026-10-09":1},"baseline_dates":["2025-10-09","2024-10-09","2023-10-08"],"threshold_db":-15.0,"auto":true,"source":"Sentinel-1 RTC (Copernicus/ESA) via Microsoft Planetary Computer; JRC Global Surface Water; Copernicus DEM","method":"ChatGeo v3: Otsu threshold on VV dB; minus JRC permanent water and slope > 5 deg; unusual = water not present in most of the previous 3 years (same season)","added":"2026-10-11T01:54+07:00"},"features":[{"type":"Feature","properties":{"kind":"seasonal","area_km2":0.173,"date":"2026-10-09"},"geometry":{"type":"Polygon","coordinates":[[[105.315,16.0316],[105.3131,16.0314],[105.3128,16.0306],[105.3117,16.0311],[105.3114,16.03],[105.3243,16.03],[105.3243,16.0305],[105.3215,16.0305],[105.3215,16.0311],[105.315,16.0316]]]}},{"type":"Feature","properties":{"kind":"seasonal","area_km2":0.11,"date":"2026-10-09"},"geometry":{"type":"Polygon","coordinates":[[[105.1227,16.0855],[105.1227,16.085],[105.121,16.0853],[105.1213,16.0842],[105.123,16.0834],[105.1244,16.0836],[105.1252,16.0828],[105.1252,16.0823],[105.1269,16.0823],[105.1272,16.0817],[105.1277,16.0817],[105.1274,16.0828],[105.1269,16.0828],[105.1269,16.0834],[105.1252,16.0842],[105.1246,16.0853],[105.1227,16.0855]],[[105.123,16.0847],[105.1238,16.0847],[105.1238,16.0842],[105.1232,16.0842],[105.123,16.0847]]]}}]}
