{"type":"FeatureCollection","properties":{"v":3,"id":"t105_15","name":"อุบลราชธานี · อำนาจเจริญ","aoi":[105.0,15.0,105.671,16.0],"date":"2026-10-09","dates":["2026-10-09"],"baseline_years":3,"has_seasonal":true,"totals":{"flood_high":0.0,"flood_low":0.0,"seasonal":18.8},"provinces":[{"name":"อุบลราชธานี","zone":"th-ne","flood_high":0.0,"flood_low":0.0,"seasonal":18.8}],"scenes":{"2026-10-09":2},"baseline_dates":["2025-10-09","2024-10-09","2023-10-08"],"threshold_db":-15.0,"auto":true,"source":"Sentinel-1 RTC (Copernicus/ESA) via Microsoft Planetary Computer; JRC Global Surface Water; Copernicus DEM","method":"ChatGeo v3: Otsu threshold on VV dB; minus JRC permanent water and slope > 5 deg; unusual = water not present in most of the previous 3 years (same season)","added":"2026-10-11T01:54+07:00"},"features":[{"type":"Feature","properties":{"kind":"seasonal","area_km2":3.997,"date":"2026-10-09"},"geometry":{"type":"Polygon","coordinates":[[[105.357,15.1501],[105.3567,15.1493],[105.3558,15.1493],[105.3561,15.1479],[105.3572,15.1471],[105.357,15.1458],[105.3564,15.1458],[105.3564,15.1452],[105.3558,15.145],[105.3547,15.145],[105.3547,15.1436],[105.3542,15.1436],[105.3539,15.1431],[105.3522,15.1433],[105.3522,15.1417],[105.3528,15.1417],[105.3528,15.1401],[105.3539,15.1395],[105.3556,15.1376],[105.3589,15.1368],[105.3589,15.1349],[105.3608,15.1311],[105.3603,15.1292],[105.3592,15.1284],[105.3592,15.1271],[105.36,15.1257],[105.36,15.1233],[105.3594,15.1233],[105.3597,15.1227],[105.3592,15.1222],[105.3592,15.1214],[105.3586,15.1214],[105.3583,15.12],[105.3575,15.1192],[105.3564,15.1195],[105.3561,15.1205],[105.3547,15.1205],[105.3538,15.12],[105.3538,15.1184],[105.3544,15.1181],[105.3544,15.1173],[105.3541,15.1162],[105.3533,15.1157],[105.3533,15.1146],[105.3541,15.1146],[105.3552,15.1154],[105.3575,15.1154],[105.3583,15.114],[105.3583,15.1127],[105.3597,15.1124],[105.3605,15.1135],[105.3605,15.1146],[105.3622,15.1151],[105.365,15.1135],[105.365,15.1129],[105.3656,15.1127],[105.3656,15.1113],[105.365,15.1108],[105.365,15.1094],[105.3639,15.1086],[105.3636,15.1075],[105.3628,15.1067],[105.3611,15.1064],[105.3608,15.1059],[105.36,15.1059],[105.3591,15.107],[105.358,15.1073],[105.3566,15.1073],[105.3555,15.1062],[105.3527,15.1064],[105.3527,15.1054],[105.3544,15.1045],[105.3547,15.1032],[105.358,15.1024],[105.358,15.101],[105.3586,15.1005],[105.3588,15.0988],[105.3574,15.0972],[105.3563,15.0967],[105.3546,15.0967],[105.3544,15.0972],[105.3532,15.0972],[105.3521,15.0983],[105.3516,15.0983],[105.3516,15.0964],[105.3527,15.0956],[105.3527,15.0942],[105.3518,15.0932],[105.3505,15.0932],[105.3488,15.094],[105.3488,15.0929],[105.3496,15.0926],[105.3499,15.091],[105.3471,15.0886],[105.3463,15.0886],[105.3463,15.0875],[105.3477,15.0877],[105.3485,15.0869],[105.3496,15.0869],[105.3513,15.0853],[105.3516,15.0837],[105.3543,15.0809],[105.3569,15.0807],[105.3571,15.0818],[105.358,15.082],[105.3594,15.0815],[105.3641,15.0812],[105.3644,15.0804],[105.3638,15.0796],[105.3605,15.0796],[105.3596,15.0785],[105.3574,15.0788],[105.3568,15.0782],[105.3557,15.0782],[105.3554,15.0772],[105.3549,15.0769],[105.3549,15.0758],[105.3541,15.075],[105.3541,15.0758],[105.3527,15.0763],[105.3527,15.0769],[105.3518,15.0774],[105.3518,15.0791],[105.3504,15.0796],[105.3499,15.0804],[105.349,15.0804],[105.3479,15.0815],[105.346,15.0818],[105.346,15.0807],[105.3468,15.0801],[105.3471,15.0793],[105.3462,15.0791],[105.3457,15.078],[105.3446,15.078],[105.3434,15.0772],[105.3426,15.0772],[105.3426,15.0761],[105.3437,15.0747],[105.3429,15.0736],[105.3426,15.0717],[105.3434,15.0704],[105.3446,15.0707],[105.3459,15.0701],[105.3459,15.0685],[105.3465,15.0677],[105.3501,15.0674],[105.349,15.0685],[105.3476,15.0688],[105.3476,15.0707],[105.3471,15.0712],[105.3471,15.0723],[105.3451,15.0726],[105.346,15.0742],[105.3462,15.0766],[105.3482,15.0774],[105.3485,15.078],[105.349,15.0777],[105.3499,15.0782],[105.351,15.0747],[105.3518,15.0744],[105.3529,15.0731],[105.3524,15.0706],[105.3549,15.0704],[105.3549,15.0698],[105.3568,15.0698],[105.3571,15.0739],[105.3577,15.0739],[105.3577,15.0744],[105.3571,15.0747],[105.3571,15.0771],[105.3582,15.0761],[105.3582,15.0747],[105.3588,15.0747],[105.3588,15.0742],[105.3596,15.0739],[105.3599,15.0731],[105.3619,15.0728],[105.3627,15.0733],[105.3627,15.0739],[105.3633,15.0739],[105.3633,15.0747],[105.3627,15.0752],[105.3627,15.0761],[105.3616,15.0766],[105.3616,15.0771],[105.361,15.0771],[105.3608,15.078],[105.3602,15.078],[105.3608,15.079],[105.3638,15.0785],[105.3649,15.079],[105.3649,15.0796],[105.3655,15.0796],[105.3655,15.0807],[105.3669,15.082],[105.3675,15.0812],[105.3686,15.0807],[105.3677,15.0798],[105.3677,15.0788],[105.3683,15.0782],[105.3708,15.0785],[105.3689,15.0793],[105.3694,15.0809],[105.3672,15.0826],[105.3675,15.0831],[105.368,15.0831],[105.3691,15.0842],[105.3722,15.0842],[105.3736,15.0834],[105.3747,15.0815],[105.3753,15.082],[105.3761,15.082],[105.3761,15.0825],[105.3775,15.0828],[105.3775,15.0839],[105.3786,15.085],[105.3786,15.0855],[105.3775,15.0855],[105.375,15.0834],[105.3742,15.0834],[105.3739,15.0844],[105.3733,15.0847],[105.3683,15.085],[105.3672,15.0836],[105.3661,15.0831],[105.3638,15.0834],[105.3624,15.0826],[105.3619,15.0834],[105.3569,15.0834],[105.3566,15.0826],[105.3557,15.0826],[105.3552,15.0834],[105.3541,15.0834],[105.3541,15.0839],[105.3535,15.0839],[105.353,15.0847],[105.3535,15.0866],[105.3541,15.0866],[105.3541,15.0875],[105.3546,15.0877],[105.3546,15.0885],[105.3513,15.088],[105.351,15.0885],[105.3504,15.0885],[105.3504,15.0891],[105.3499,15.0891],[105.3499,15.0896],[105.3513,15.0899],[105.3505,15.0923],[105.3521,15.0923],[105.3538,15.0932],[105.3541,15.0959],[105.353,15.0964],[105.3544,15.0964],[105.3558,15.0956],[105.3569,15.0956],[105.3572,15.0961],[105.3591,15.0961],[105.36,15.0978],[105.36,15.0994],[105.3591,15.1002],[105.3588,15.1024],[105.3583,15.1024],[105.358,15.1032],[105.3566,15.1032],[105.3558,15.1048],[105.3572,15.1048],[105.3577,15.1059],[105.3591,15.1059],[105.3591,15.1054],[105.3614,15.1051],[105.3639,15.1053],[105.3639,15.1059],[105.3644,15.1062],[105.3661,15.1062],[105.3672,15.1056],[105.3678,15.1034],[105.3695,15.104],[105.3695,15.1059],[105.3681,15.1062],[105.3675,15.1072],[105.3672,15.1094],[105.3667,15.1102],[105.3675,15.1135],[105.3661,15.1146],[105.3661,15.1154],[105.3633,15.1154],[105.3628,15.1162],[105.3611,15.1162],[105.3591,15.1146],[105.3591,15.1154],[105.3583,15.1154],[105.3572,15.1167],[105.3561,15.1167],[105.3566,15.1178],[105.358,15.1181],[105.358,15.1186],[105.3589,15.1186],[105.3594,15.1214],[105.36,15.1214],[105.3608,15.1246],[105.3614,15.1249],[105.3614,15.127],[105.3608,15.1273],[105.3606,15.1284],[105.3614,15.1295],[105.3625,15.1298],[105.3625,15.1311],[105.3622,15.1317],[105.3617,15.1317],[105.3617,15.1325],[105.3611,15.1327],[105.3614,15.1341],[105.3611,15.1352],[105.3603,15.136],[105.3603,15.1379],[105.3595,15.1387],[105.3564,15.1379],[105.3561,15.1384],[105.3556,15.1384],[105.3553,15.1406],[105.3544,15.1409],[105.3544,15.1414],[105.3553,15.1414],[105.3556,15.142],[105.3567,15.1422],[105.3567,15.1428],[105.3572,15.1428],[105.3564,15.1441],[105.357,15.1441],[105.3572,15.145],[105.3581,15.1455],[105.3581,15.1463],[105.3589,15.1466],[105.3589,15.1474],[105.3575,15.1477],[105.3578,15.1493],[105.3584,15.1496],[105.357,15.1501]],[[105.3597,15.1265],[105.36,15.1268],[105.36,15.1265],[105.3597,15.1265]],[[105.3596,15.0769],[105.3608,15.0769],[105.3608,15.0763],[105.3616,15.0755],[105.3616,15.0744],[105.361,15.0739],[105.3605,15.0739],[105.3596,15.0747],[105.3596,15.0769]],[[105.3552,15.072],[105.3557,15.072],[105.356,15.0715],[105.3552,15.0715],[105.3552,15.072]]]}},{"type":"Feature","properties":{"kind":"seasonal","area_km2":1.412,"date":"2026-10-09"},"geometry":{"type":"Polygon","coordinates":[[[105.3353,15.03],[105.3347,15.0284],[105.3336,15.0284],[105.3336,15.0278],[105.335,15.027],[105.335,15.0254],[105.3336,15.024],[105.3336,15.0224],[105.335,15.0227],[105.335,15.0232],[105.3355,15.0232],[105.3361,15.024],[105.3372,15.024],[105.3378,15.0232],[105.3381,15.0199],[105.3372,15.0194],[105.3372,15.0189],[105.3367,15.0189],[105.3367,15.0172],[105.3386,15.0167],[105.3389,15.0145],[105.3397,15.014],[105.3386,15.0132],[105.3378,15.0132],[105.3378,15.0121],[105.338,15.0105],[105.3386,15.0102],[105.3386,15.0088],[105.34,15.0083],[105.3408,15.0069],[105.3408,15.0045],[105.3391,15.0045],[105.3372,15.0053],[105.3352,15.0072],[105.3352,15.008],[105.3347,15.0083],[105.3347,15.0094],[105.3339,15.011],[105.3333,15.0115],[105.3325,15.0115],[105.3325,15.0099],[105.3313,15.0094],[105.3313,15.0086],[105.3302,15.0072],[105.3269,15.0078],[105.3255,15.0088],[105.3246,15.0088],[105.3238,15.0078],[105.3221,15.0078],[105.3216,15.0072],[105.3216,15.0067],[105.3221,15.0067],[105.3221,15.0059],[105.3227,15.0059],[105.3235,15.0051],[105.3246,15.005],[105.3266,15.0031],[105.3257,15.0015],[105.323,15.001],[105.323,15.0002],[105.3255,15.0004],[105.3257,14.9999],[105.326,15.001],[105.3285,15.0018],[105.3283,15.005],[105.3277,15.0053],[105.328,15.0067],[105.3294,15.0064],[105.3294,15.0059],[105.3299,15.0056],[105.3313,15.0056],[105.3316,15.0064],[105.3322,15.0064],[105.3325,15.0069],[105.3325,15.008],[105.3341,15.008],[105.3344,15.0067],[105.3355,15.0061],[105.3352,15.0056],[105.3366,15.0045],[105.3369,15.0031],[105.3389,15.0029],[105.3394,15.0034],[105.3405,15.0034],[105.3433,15.0012],[105.3436,15.0001],[105.3464,14.9996],[105.3464,15.002],[105.3456,15.0026],[105.3456,15.0039],[105.3444,15.0039],[105.3444,15.0045],[105.3433,15.0048],[105.3419,15.0061],[105.3414,15.0061],[105.3414,15.0072],[105.3419,15.0072],[105.3419,15.008],[105.3405,15.0083],[105.3392,15.0094],[105.3392,15.0126],[105.3422,15.0121],[105.3431,15.0129],[105.3431,15.014],[105.3411,15.0142],[105.3406,15.0145],[105.3406,15.0151],[105.3397,15.0151],[105.3397,15.0156],[105.3408,15.0161],[105.3408,15.017],[105.3403,15.0175],[105.3375,15.0178],[105.3375,15.0186],[105.3381,15.0186],[105.3389,15.0197],[105.3386,15.0243],[105.3383,15.0248],[105.3369,15.0248],[105.3369,15.0254],[105.3364,15.0256],[105.3358,15.0243],[105.3355,15.0243],[105.3355,15.024],[105.3353,15.024],[105.3353,15.0248],[105.3361,15.0259],[105.3361,15.027],[105.3369,15.0278],[105.337,15.0292],[105.3361,15.0294],[105.3361,15.03],[105.3353,15.03]],[[105.335,15.0237],[105.3353,15.024],[105.3353,15.0237],[105.335,15.0237]],[[105.3325,15.0086],[105.3327,15.0088],[105.3327,15.0086],[105.3325,15.0086]]]}},{"type":"Feature","properties":{"kind":"seasonal","area_km2":0.988,"date":"2026-10-09"},"geometry":{"type":"Polygon","coordinates":[[[105.3443,15.0598],[105.3443,15.059],[105.3451,15.0582],[105.3448,15.0568],[105.3437,15.056],[105.3437,15.0549],[105.3426,15.053],[105.3409,15.0533],[105.3401,15.0525],[105.3406,15.05],[105.3395,15.0492],[105.3392,15.0484],[105.3384,15.0482],[105.3384,15.0471],[105.3389,15.0465],[105.3406,15.0468],[105.342,15.0479],[105.3437,15.0481],[105.3454,15.0506],[105.3465,15.0503],[105.3465,15.0509],[105.3476,15.0511],[105.3487,15.0525],[105.3493,15.056],[105.3504,15.0568],[105.3523,15.0568],[105.3535,15.0584],[105.3543,15.0582],[105.3565,15.056],[105.3565,15.0544],[105.3574,15.0533],[105.3551,15.053],[105.3543,15.0522],[105.3543,15.0517],[105.3529,15.0508],[105.3532,15.0489],[105.3532,15.05],[105.3551,15.0519],[105.3562,15.0519],[105.3562,15.0514],[105.3615,15.0516],[105.3615,15.0511],[105.3624,15.0511],[105.3629,15.0506],[105.3641,15.0506],[105.3646,15.0508],[105.3646,15.0516],[105.3655,15.0516],[105.3655,15.0525],[105.3649,15.0525],[105.3643,15.0538],[105.361,15.0538],[105.3599,15.0546],[105.3576,15.0546],[105.3574,15.0568],[105.3565,15.0568],[105.356,15.0579],[105.3549,15.0582],[105.3543,15.0593],[105.3537,15.0593],[105.3537,15.0598],[105.3526,15.0598],[105.3526,15.0593],[105.3521,15.059],[105.3521,15.0576],[105.3496,15.0576],[105.349,15.056],[105.3482,15.0557],[105.3482,15.0533],[105.347,15.0533],[105.3462,15.0519],[105.3456,15.0519],[105.3451,15.0511],[105.3445,15.0511],[105.3445,15.0517],[105.3437,15.0522],[105.3442,15.0522],[105.3442,15.0533],[105.3451,15.0538],[105.3445,15.0538],[105.3442,15.0544],[105.3451,15.0544],[105.3456,15.0566],[105.347,15.0571],[105.347,15.0579],[105.3454,15.0585],[105.3454,15.059],[105.3459,15.059],[105.3459,15.0598],[105.3443,15.0598]],[[105.3582,15.0533],[105.3599,15.0533],[105.3599,15.0527],[105.359,15.0522],[105.3582,15.0525],[105.3582,15.0533]],[[105.3621,15.0514],[105.3627,15.0516],[105.3627,15.0514],[105.3621,15.0514]],[[105.3442,15.0509],[105.3445,15.0511],[105.3445,15.0509],[105.3442,15.0509]],[[105.3426,15.0498],[105.3428,15.05],[105.3428,15.0498],[105.3426,15.0498]]]}},{"type":"Feature","properties":{"kind":"seasonal","area_km2":0.893,"date":"2026-10-09"},"geometry":{"type":"Polygon","coordinates":[[[105.3716,15.2003],[105.3716,15.1984],[105.3721,15.1975],[105.3713,15.1965],[105.3713,15.1957],[105.3702,15.1948],[105.3702,15.1938],[105.3691,15.1935],[105.3688,15.1921],[105.3682,15.1921],[105.3676,15.1886],[105.3685,15.1878],[105.3676,15.1859],[105.3693,15.1867],[105.3693,15.1886],[105.369,15.1891],[105.3685,15.1889],[105.3685,15.1902],[105.3716,15.1908],[105.3735,15.1894],[105.3746,15.1894],[105.3746,15.19],[105.3755,15.1905],[105.3755,15.1916],[105.3749,15.1918],[105.3749,15.1924],[105.3738,15.1929],[105.3732,15.194],[105.3716,15.1943],[105.3716,15.1948],[105.3721,15.1948],[105.3721,15.1954],[105.373,15.1962],[105.373,15.1975],[105.3746,15.197],[105.3749,15.1959],[105.3744,15.1956],[105.3763,15.1954],[105.3769,15.1943],[105.3783,15.1956],[105.3805,15.1962],[105.3799,15.1954],[105.3808,15.1951],[105.3811,15.1943],[105.3816,15.1943],[105.3822,15.1935],[105.3855,15.1935],[105.3855,15.1926],[105.385,15.1926],[105.3844,15.1918],[105.3844,15.1907],[105.3852,15.1902],[105.3864,15.1905],[105.3869,15.1888],[105.3864,15.188],[105.3855,15.1878],[105.3855,15.1869],[105.3847,15.1861],[105.3847,15.1856],[105.3858,15.1845],[105.3866,15.1845],[105.3869,15.1831],[105.3903,15.1831],[105.3897,15.1818],[105.3897,15.1796],[105.3911,15.1799],[105.3914,15.181],[105.3919,15.181],[105.3919,15.1815],[105.3928,15.1821],[105.3911,15.1818],[105.3908,15.1842],[105.3877,15.1837],[105.3875,15.1842],[105.3869,15.1842],[105.3869,15.1848],[105.3858,15.1853],[105.3855,15.1861],[105.3866,15.1878],[105.3875,15.1878],[105.3878,15.1891],[105.3878,15.1899],[105.3869,15.1916],[105.3864,15.1918],[105.3864,15.1929],[105.3872,15.1935],[105.3872,15.1954],[105.3864,15.1954],[105.3855,15.1945],[105.3827,15.1943],[105.3813,15.1956],[105.3813,15.1978],[105.3805,15.1978],[105.3802,15.1967],[105.3783,15.1965],[105.378,15.1959],[105.3766,15.1959],[105.3758,15.1967],[105.3758,15.1981],[105.3744,15.1978],[105.3744,15.1986],[105.3735,15.1986],[105.3735,15.1992],[105.3741,15.1992],[105.3738,15.2],[105.3724,15.1997],[105.3724,15.2003],[105.3716,15.2003]],[[105.3702,15.1932],[105.371,15.1932],[105.371,15.1927],[105.3704,15.1927],[105.3702,15.1932]],[[105.3696,15.1916],[105.3699,15.1919],[105.3699,15.1916],[105.3696,15.1916]]]}},{"type":"Feature","properties":{"kind":"seasonal","area_km2":0.806,"date":"2026-10-09"},"geometry":{"type":"Polygon","coordinates":[[[105.4328,15.7553],[105.4342,15.7537],[105.4347,15.7537],[105.4347,15.7532],[105.4359,15.7526],[105.4384,15.7529],[105.4384,15.7521],[105.4375,15.7518],[105.4381,15.7513],[105.4389,15.7513],[105.4392,15.7507],[105.4401,15.7507],[105.4403,15.7502],[105.4412,15.7502],[105.4415,15.751],[105.4437,15.7504],[105.4437,15.7496],[105.4431,15.7496],[105.4434,15.7485],[105.4454,15.7485],[105.4468,15.7474],[105.4479,15.7472],[105.4498,15.7477],[105.4498,15.7488],[105.4507,15.7488],[105.4507,15.7482],[105.4515,15.748],[105.4526,15.7485],[105.4529,15.7477],[105.4504,15.748],[105.4504,15.7472],[105.4498,15.7472],[105.4498,15.7466],[105.4512,15.7461],[105.4546,15.7458],[105.4552,15.7453],[105.4566,15.7455],[105.4594,15.7442],[105.4636,15.7439],[105.4641,15.7444],[105.4636,15.745],[105.4596,15.7452],[105.4591,15.7463],[105.4577,15.7466],[105.4577,15.7474],[105.4571,15.7474],[105.4571,15.748],[105.456,15.748],[105.454,15.7491],[105.4526,15.7491],[105.4524,15.7496],[105.451,15.7499],[105.4476,15.7502],[105.4471,15.7504],[105.4471,15.751],[105.4459,15.751],[105.4451,15.7518],[105.4434,15.7521],[105.4426,15.7529],[105.4409,15.7529],[105.4406,15.7534],[105.4361,15.754],[105.4361,15.7548],[105.435,15.7553],[105.4328,15.7553]],[[105.4409,15.7515],[105.4412,15.7518],[105.4412,15.7515],[105.4409,15.7515]],[[105.4403,15.751],[105.4406,15.7513],[105.4406,15.751],[105.4403,15.751]],[[105.4473,15.7488],[105.4479,15.7491],[105.4479,15.7488],[105.4473,15.7488]]]}},{"type":"Feature","properties":{"kind":"seasonal","area_km2":0.805,"date":"2026-10-09"},"geometry":{"type":"Polygon","coordinates":[[[105.3537,15.0487],[105.3534,15.0473],[105.3515,15.0473],[105.3507,15.0468],[105.3501,15.0457],[105.3465,15.0457],[105.3465,15.0435],[105.347,15.0433],[105.3467,15.0411],[105.3459,15.0411],[105.3451,15.04],[105.3426,15.0406],[105.3409,15.0397],[105.3406,15.0389],[105.3389,15.0384],[105.3386,15.0378],[105.3386,15.0351],[105.3403,15.0351],[105.3414,15.0357],[105.3448,15.0354],[105.3459,15.034],[105.3456,15.0321],[105.3448,15.0321],[105.3442,15.0327],[105.3417,15.0327],[105.3414,15.0289],[105.3406,15.0286],[105.3395,15.0294],[105.3381,15.0319],[105.3367,15.0322],[105.3367,15.0327],[105.335,15.033],[105.335,15.0324],[105.3342,15.0316],[105.3328,15.0313],[105.3325,15.0303],[105.3319,15.0303],[105.3314,15.0294],[105.3305,15.0295],[105.3305,15.0286],[105.3333,15.0278],[105.3333,15.0286],[105.3325,15.0292],[105.3336,15.0294],[105.3336,15.03],[105.3353,15.03],[105.3356,15.0305],[105.335,15.0311],[105.3358,15.0319],[105.3364,15.0319],[105.3361,15.0311],[105.3381,15.0303],[105.3383,15.0286],[105.3392,15.0275],[105.3423,15.0275],[105.3423,15.0319],[105.3437,15.0321],[105.3442,15.0319],[105.3442,15.0313],[105.3467,15.0311],[105.347,15.0332],[105.3464,15.0343],[105.3451,15.0357],[105.3409,15.037],[105.3409,15.0381],[105.342,15.0384],[105.342,15.0389],[105.3428,15.0389],[105.3428,15.0384],[105.3434,15.0384],[105.3434,15.0389],[105.3439,15.0392],[105.3453,15.0389],[105.3487,15.0395],[105.3487,15.0408],[105.3481,15.0416],[105.3476,15.0416],[105.3476,15.0435],[105.3467,15.0449],[105.3504,15.0449],[105.3509,15.0452],[105.3509,15.046],[105.3518,15.0468],[105.3534,15.0462],[105.3537,15.0454],[105.3548,15.0454],[105.3551,15.0473],[105.3537,15.0487]]]}},{"type":"Feature","properties":{"kind":"seasonal","area_km2":0.779,"date":"2026-10-09"},"geometry":{"type":"Polygon","coordinates":[[[105.0611,15.6519],[105.0606,15.6503],[105.0594,15.6497],[105.0583,15.6481],[105.0569,15.6478],[105.0564,15.6467],[105.0541,15.6462],[105.0538,15.6456],[105.0524,15.6459],[105.0527,15.6475],[105.0519,15.6484],[105.0496,15.6478],[105.0491,15.6486],[105.0474,15.6486],[105.0474,15.6475],[105.0463,15.6454],[105.0443,15.6456],[105.0432,15.6473],[105.0404,15.647],[105.0398,15.6459],[105.0398,15.6443],[105.0404,15.6432],[105.0393,15.6432],[105.0393,15.6427],[105.0376,15.6424],[105.0379,15.64],[105.037,15.6394],[105.0365,15.6383],[105.0365,15.6372],[105.0379,15.6364],[105.0379,15.6356],[105.0362,15.6356],[105.0348,15.6351],[105.034,15.6324],[105.0345,15.6321],[105.0345,15.6334],[105.0356,15.6345],[105.0356,15.6351],[105.0382,15.6351],[105.0382,15.6356],[105.0387,15.6359],[105.0384,15.6375],[105.0376,15.6386],[105.0382,15.6391],[105.0393,15.6391],[105.0393,15.641],[105.0384,15.6413],[105.0387,15.6419],[105.0401,15.6419],[105.0421,15.6427],[105.0412,15.6454],[105.0426,15.6456],[105.0438,15.6448],[105.0463,15.6448],[105.048,15.6459],[105.0482,15.6478],[105.0488,15.6478],[105.0491,15.6467],[105.0496,15.6465],[105.0505,15.6467],[105.0505,15.6473],[105.0516,15.6473],[105.0519,15.6465],[105.0513,15.6456],[105.0522,15.6446],[105.0533,15.6446],[105.0544,15.6451],[105.0558,15.6451],[105.0569,15.6459],[105.0575,15.6473],[105.0583,15.6473],[105.0589,15.6481],[105.0597,15.6481],[105.0597,15.6475],[105.0603,15.6478],[105.0603,15.6484],[105.0614,15.6486],[105.062,15.6481],[105.0625,15.6486],[105.0634,15.6486],[105.0628,15.6481],[105.0639,15.6478],[105.0653,15.6481],[105.0659,15.6486],[105.0662,15.6481],[105.0676,15.6481],[105.0676,15.65],[105.067,15.6511],[105.0639,15.6511],[105.0642,15.65],[105.0631,15.6503],[105.0628,15.6497],[105.0622,15.65],[105.0622,15.6516],[105.0611,15.6519]],[[105.0653,15.6489],[105.0659,15.6492],[105.0659,15.6489],[105.0653,15.6489]]]}},{"type":"Feature","properties":{"kind":"seasonal","area_km2":0.539,"date":"2026-10-09"},"geometry":{"type":"Polygon","coordinates":[[[105.4073,15.0396],[105.4056,15.0394],[105.4056,15.0372],[105.4062,15.0361],[105.4051,15.0348],[105.4051,15.0337],[105.4062,15.0323],[105.407,15.0323],[105.407,15.0318],[105.4081,15.0318],[105.4087,15.0342],[105.4092,15.0339],[105.4092,15.0331],[105.4131,15.0334],[105.4134,15.0339],[105.414,15.0339],[105.4143,15.0334],[105.4154,15.0334],[105.4145,15.0328],[105.4131,15.0328],[105.4129,15.0323],[105.4123,15.0323],[105.4123,15.0315],[105.4101,15.0309],[105.4087,15.0288],[105.409,15.0272],[105.4056,15.0269],[105.4059,15.0255],[105.4064,15.0253],[105.4064,15.0247],[105.407,15.025],[105.407,15.0244],[105.4081,15.0236],[105.4081,15.0228],[105.4075,15.0236],[105.4048,15.0234],[105.4042,15.0223],[105.4034,15.022],[105.4034,15.0201],[105.4056,15.019],[105.4059,15.0177],[105.4064,15.0171],[105.4073,15.0171],[105.4073,15.0179],[105.4045,15.0207],[105.4045,15.0217],[105.4059,15.0228],[105.4067,15.0228],[105.4081,15.0217],[105.4092,15.0217],[105.4092,15.0234],[105.4087,15.0244],[105.4078,15.025],[105.4078,15.0258],[105.4081,15.0263],[105.4103,15.0272],[105.4101,15.0296],[105.4106,15.0299],[105.4106,15.0304],[105.4112,15.0304],[105.412,15.0312],[105.4126,15.0309],[105.4129,15.032],[105.4151,15.032],[105.4159,15.0328],[105.4176,15.0323],[105.4176,15.0331],[105.4171,15.0336],[105.4154,15.0337],[105.4145,15.0345],[105.4145,15.035],[105.4104,15.0337],[105.4087,15.0353],[105.4084,15.0345],[105.4078,15.0345],[105.4078,15.0337],[105.4067,15.0331],[105.4056,15.0345],[105.4067,15.0356],[105.4065,15.0388],[105.4073,15.0396]]]}},{"type":"Feature","properties":{"kind":"seasonal","area_km2":0.458,"date":"2026-10-09"},"geometry":{"type":"Polygon","coordinates":[[[105.3578,15.1615],[105.3559,15.1612],[105.3559,15.1607],[105.3575,15.1599],[105.3573,15.1577],[105.3592,15.1574],[105.3598,15.1563],[105.3628,15.1561],[105.3631,15.1542],[105.3626,15.1528],[105.362,15.1528],[105.362,15.1512],[105.3642,15.1501],[105.3634,15.1485],[105.362,15.149],[105.3609,15.1504],[105.3589,15.1504],[105.3584,15.1498],[105.36,15.1498],[105.3614,15.1474],[105.3645,15.1471],[105.3645,15.1485],[105.3651,15.1493],[105.3656,15.1493],[105.3656,15.1506],[105.3648,15.1506],[105.3628,15.1517],[105.3631,15.1534],[105.3642,15.1544],[105.3642,15.1558],[105.3662,15.1561],[105.367,15.155],[105.3679,15.1547],[105.3681,15.1539],[105.3693,15.1536],[105.3704,15.1536],[105.3704,15.1544],[105.3684,15.155],[105.3665,15.1574],[105.3656,15.1574],[105.3656,15.158],[105.3645,15.158],[105.3637,15.1585],[105.3626,15.1582],[105.3623,15.1574],[105.3617,15.1574],[105.3614,15.1569],[105.3603,15.1569],[105.3598,15.158],[105.3584,15.158],[105.3584,15.1585],[105.3578,15.1585],[105.3584,15.1588],[105.3587,15.1607],[105.3578,15.1615]]]}},{"type":"Feature","properties":{"kind":"seasonal","area_km2":0.4,"date":"2026-10-09"},"geometry":{"type":"Polygon","coordinates":[[[105.4146,15.0792],[105.4141,15.0776],[105.4135,15.0776],[105.4132,15.0738],[105.4135,15.0733],[105.4143,15.0733],[105.4141,15.0724],[105.4146,15.0716],[105.4171,15.0719],[105.4174,15.0695],[105.4188,15.0681],[105.4196,15.0681],[105.4199,15.0673],[105.4191,15.0673],[105.4185,15.0667],[105.4177,15.0667],[105.4177,15.0673],[105.416,15.0673],[105.4152,15.0654],[105.4135,15.0654],[105.4129,15.0667],[105.4124,15.0667],[105.4129,15.067],[105.4124,15.0695],[105.4115,15.0695],[105.4115,15.0681],[105.411,15.0673],[105.4115,15.0632],[105.4107,15.0624],[105.4085,15.0627],[105.4076,15.0619],[105.4065,15.0616],[105.4062,15.0592],[105.4068,15.0586],[105.4076,15.0589],[105.4073,15.0605],[105.4079,15.0616],[105.4085,15.0616],[105.4087,15.0621],[105.4112,15.0619],[105.4121,15.0624],[105.4121,15.0646],[105.4154,15.0646],[105.4154,15.0654],[105.4163,15.0654],[105.4166,15.0662],[105.4194,15.0665],[105.4199,15.067],[105.421,15.0667],[105.421,15.0673],[105.4216,15.0675],[105.4216,15.0684],[105.4202,15.0684],[105.4199,15.0692],[105.4188,15.0692],[105.4182,15.0697],[105.4177,15.0724],[105.4146,15.0727],[105.4146,15.0735],[105.4138,15.0743],[105.4141,15.0773],[105.4149,15.0784],[105.4146,15.0792]]]}},{"type":"Feature","properties":{"kind":"seasonal","area_km2":0.395,"date":"2026-10-09"},"geometry":{"type":"Polygon","coordinates":[[[105.3974,15.8305],[105.3971,15.8294],[105.3954,15.8286],[105.3954,15.8281],[105.3965,15.827],[105.3965,15.8251],[105.3954,15.8232],[105.3943,15.8232],[105.3948,15.8224],[105.3934,15.8221],[105.3934,15.821],[105.3929,15.821],[105.3926,15.8205],[105.3929,15.8172],[105.3923,15.8167],[105.3931,15.8156],[105.394,15.8153],[105.3937,15.8132],[105.3942,15.8126],[105.3945,15.8134],[105.3951,15.8134],[105.3948,15.8164],[105.3959,15.8186],[105.3957,15.8202],[105.3962,15.8216],[105.3971,15.8219],[105.3957,15.8221],[105.3957,15.8208],[105.3954,15.8208],[105.3954,15.8224],[105.3962,15.8232],[105.3968,15.8232],[105.3968,15.824],[105.3973,15.8246],[105.3974,15.8273],[105.3988,15.8256],[105.3982,15.8251],[105.3979,15.8237],[105.3985,15.8237],[105.3985,15.8246],[105.399,15.8248],[105.399,15.8262],[105.3985,15.8265],[105.3985,15.8284],[105.3971,15.8286],[105.3974,15.8292],[105.3979,15.8292],[105.3979,15.8303],[105.3974,15.8305]],[[105.3951,15.8208],[105.3954,15.8191],[105.3945,15.8189],[105.3951,15.8197],[105.3951,15.8208]]]}},{"type":"Feature","properties":{"kind":"seasonal","area_km2":0.387,"date":"2026-10-09"},"geometry":{"type":"Polygon","coordinates":[[[105.4509,15.1836],[105.4497,15.1825],[105.4492,15.1825],[105.4486,15.1814],[105.4464,15.1817],[105.4464,15.1811],[105.4456,15.1811],[105.4444,15.179],[105.4428,15.179],[105.4433,15.1798],[105.4433,15.1809],[105.443,15.1801],[105.4422,15.1793],[105.4416,15.1793],[105.4416,15.1784],[105.4428,15.1784],[105.4422,15.1782],[105.4422,15.1776],[105.4439,15.1776],[105.4439,15.1768],[105.445,15.1768],[105.4453,15.1776],[105.4444,15.1782],[105.445,15.1782],[105.4458,15.179],[105.4464,15.1787],[105.4469,15.1792],[105.4469,15.1798],[105.4464,15.1798],[105.4464,15.1809],[105.4469,15.1803],[105.4469,15.1809],[105.4489,15.1814],[105.4511,15.1811],[105.4506,15.1809],[105.4506,15.1803],[105.4497,15.18],[105.4497,15.1787],[105.4492,15.1787],[105.4486,15.1773],[105.4478,15.1773],[105.4478,15.1765],[105.4469,15.1757],[105.4464,15.1735],[105.4464,15.17],[105.4478,15.1706],[105.45,15.17],[105.4503,15.1706],[105.4508,15.1706],[105.4508,15.1714],[105.4489,15.1714],[105.4472,15.1725],[105.4475,15.1754],[105.4497,15.1771],[105.4497,15.1784],[105.4506,15.179],[105.4506,15.1798],[105.4517,15.1803],[105.4525,15.1819],[105.4525,15.1833],[105.4509,15.1836]],[[105.4492,15.1814],[105.4497,15.1817],[105.4497,15.1814],[105.4492,15.1814]]]}},{"type":"Feature","properties":{"kind":"seasonal","area_km2":0.379,"date":"2026-10-09"},"geometry":{"type":"Polygon","coordinates":[[[105.3761,15.8675],[105.3761,15.8666],[105.375,15.8672],[105.3745,15.8669],[105.3745,15.8664],[105.3731,15.8664],[105.3728,15.8653],[105.3733,15.8653],[105.3747,15.8634],[105.3744,15.862],[105.3739,15.862],[105.3736,15.8612],[105.3744,15.8615],[105.3756,15.8609],[105.3747,15.8601],[105.3756,15.8585],[105.3756,15.8569],[105.3761,15.8569],[105.3761,15.8563],[105.3767,15.8563],[105.377,15.8558],[105.3778,15.8558],[105.3784,15.8563],[105.3784,15.8609],[105.3781,15.8609],[105.3781,15.862],[105.3775,15.862],[105.3773,15.8656],[105.377,15.865],[105.3764,15.865],[105.3767,15.8669],[105.3761,15.8675]],[[105.3761,15.8661],[105.3764,15.8664],[105.3764,15.8661],[105.3761,15.8661]],[[105.3745,15.8661],[105.375,15.8661],[105.3756,15.8653],[105.3753,15.8639],[105.3747,15.8639],[105.3744,15.8645],[105.3745,15.8661]],[[105.3778,15.8604],[105.3781,15.8609],[105.3781,15.8604],[105.3778,15.8604]]]}},{"type":"Feature","properties":{"kind":"seasonal","area_km2":0.355,"date":"2026-10-09"},"geometry":{"type":"Polygon","coordinates":[[[105.5943,15.4523],[105.5943,15.4504],[105.5952,15.4498],[105.5946,15.452],[105.5957,15.4504],[105.5957,15.4488],[105.5954,15.4493],[105.5949,15.4493],[105.5949,15.4479],[105.5957,15.4471],[105.5957,15.4466],[105.5946,15.4463],[105.594,15.4452],[105.5932,15.4447],[105.5932,15.4439],[105.594,15.4439],[105.594,15.4431],[105.5935,15.4431],[105.5932,15.4425],[105.5935,15.4404],[105.5929,15.4393],[105.5929,15.4379],[105.5943,15.4379],[105.5946,15.4387],[105.596,15.4393],[105.5963,15.4417],[105.5954,15.4422],[105.5963,15.4431],[105.5968,15.445],[105.5963,15.445],[105.5963,15.4441],[105.5957,15.4441],[105.5954,15.4455],[105.596,15.446],[105.5971,15.4458],[105.5974,15.4463],[105.5971,15.4501],[105.5966,15.4498],[105.5971,15.4515],[105.5954,15.4512],[105.5955,15.452],[105.5943,15.4523]],[[105.5966,15.4477],[105.5971,15.4477],[105.5971,15.4469],[105.5966,15.4469],[105.5966,15.4477]],[[105.5943,15.4423],[105.5949,15.442],[105.5949,15.4412],[105.5943,15.4412],[105.5943,15.4423]],[[105.594,15.4409],[105.5943,15.4412],[105.5943,15.4409],[105.594,15.4409]],[[105.594,15.439],[105.5943,15.4393],[105.5943,15.439],[105.594,15.439]]]}},{"type":"Feature","properties":{"kind":"seasonal","area_km2":0.334,"date":"2026-10-09"},"geometry":{"type":"Polygon","coordinates":[[[105.3434,15.9193],[105.3429,15.9188],[105.3432,15.9166],[105.3446,15.9152],[105.3451,15.9152],[105.3451,15.9139],[105.3457,15.9139],[105.3451,15.9136],[105.3451,15.9131],[105.3462,15.912],[105.3474,15.9117],[105.3476,15.9109],[105.3488,15.9109],[105.3499,15.9101],[105.3504,15.909],[105.3521,15.9082],[105.3518,15.9095],[105.351,15.9112],[105.3504,15.9114],[105.3499,15.9155],[105.3485,15.9152],[105.3474,15.9163],[105.3462,15.9163],[105.3462,15.9158],[105.3454,15.9155],[105.3448,15.9161],[105.3448,15.9174],[105.344,15.9177],[105.344,15.919],[105.3434,15.9193]],[[105.3462,15.915],[105.3471,15.915],[105.3476,15.9144],[105.3474,15.9131],[105.3471,15.9136],[105.346,15.9139],[105.3462,15.915]]]}},{"type":"Feature","properties":{"kind":"seasonal","area_km2":0.294,"date":"2026-10-09"},"geometry":{"type":"Polygon","coordinates":[[[105.3694,15.0614],[105.368,15.0603],[105.368,15.0592],[105.3719,15.0592],[105.3719,15.0568],[105.3724,15.0568],[105.3724,15.0552],[105.3741,15.0549],[105.3752,15.056],[105.3755,15.0584],[105.3761,15.0584],[105.3761,15.0589],[105.3766,15.0592],[105.3766,15.06],[105.3772,15.0603],[105.3775,15.0614],[105.3766,15.0614],[105.3766,15.0608],[105.3752,15.06],[105.3741,15.06],[105.3738,15.0606],[105.3727,15.0608],[105.3716,15.0606],[105.3702,15.0614],[105.3694,15.0614]],[[105.3738,15.0576],[105.375,15.0573],[105.3747,15.056],[105.3733,15.0562],[105.3738,15.0576]]]}},{"type":"Feature","properties":{"kind":"seasonal","area_km2":0.281,"date":"2026-10-09"},"geometry":{"type":"Polygon","coordinates":[[[105.1514,15.8468],[105.1469,15.8468],[105.1452,15.8455],[105.1416,15.8452],[105.1416,15.8439],[105.1444,15.8433],[105.1452,15.8425],[105.1466,15.8425],[105.1472,15.8433],[105.1483,15.8433],[105.15,15.8439],[105.15,15.8444],[105.1514,15.8447],[105.1514,15.8468]],[[105.1466,15.8458],[105.1483,15.8455],[105.1483,15.8444],[105.1475,15.8444],[105.1463,15.8433],[105.1463,15.8441],[105.1458,15.8441],[105.1458,15.8447],[105.1463,15.8449],[105.1458,15.8452],[105.1466,15.8452],[105.1466,15.8458]],[[105.1491,15.8452],[105.1494,15.8455],[105.1494,15.8452],[105.1491,15.8452]],[[105.1489,15.8449],[105.1491,15.8452],[105.1491,15.8449],[105.1489,15.8449]],[[105.1491,15.8447],[105.1494,15.8449],[105.1494,15.8447],[105.1491,15.8447]]]}},{"type":"Feature","properties":{"kind":"seasonal","area_km2":0.273,"date":"2026-10-09"},"geometry":{"type":"Polygon","coordinates":[[[105.4094,15.0966],[105.4082,15.0955],[105.4077,15.0936],[105.4082,15.0936],[105.4091,15.0928],[105.4099,15.0895],[105.4096,15.0885],[105.4088,15.0879],[105.4085,15.086],[105.4079,15.086],[105.4071,15.0828],[105.4077,15.0819],[105.4091,15.0817],[105.4099,15.0828],[105.4124,15.0836],[105.4121,15.0817],[105.4127,15.0811],[105.4141,15.0811],[105.4141,15.0806],[105.4146,15.0806],[105.4146,15.0814],[105.413,15.0822],[105.4135,15.0841],[105.4127,15.0846],[105.4113,15.0847],[105.4096,15.083],[105.4079,15.0833],[105.4085,15.0857],[105.4091,15.0863],[105.4091,15.0874],[105.4105,15.0895],[105.4102,15.0917],[105.4096,15.0922],[105.4096,15.0931],[105.4091,15.0933],[105.4094,15.0944],[105.4113,15.0925],[105.4116,15.0906],[105.4121,15.0906],[105.4116,15.0931],[105.4094,15.0966]]]}},{"type":"Feature","properties":{"kind":"seasonal","area_km2":0.272,"date":"2026-10-09"},"geometry":{"type":"Polygon","coordinates":[[[105.3539,15.947],[105.3527,15.9461],[105.3527,15.9456],[105.3513,15.9453],[105.3513,15.9448],[105.3502,15.9437],[105.3502,15.9432],[105.3508,15.9432],[105.3516,15.944],[105.3525,15.944],[105.3527,15.9434],[105.3519,15.9429],[105.3508,15.9405],[105.3502,15.9405],[105.3505,15.9429],[105.3499,15.9429],[105.3496,15.938],[105.3508,15.9386],[105.3513,15.9394],[105.3519,15.9394],[105.3519,15.9399],[105.353,15.9404],[105.353,15.9413],[105.3538,15.9415],[105.3544,15.9426],[105.3558,15.9426],[105.3544,15.9429],[105.3547,15.9434],[105.3558,15.9437],[105.3541,15.944],[105.3541,15.9448],[105.3547,15.9453],[105.3536,15.9448],[105.3527,15.9448],[105.3527,15.9453],[105.3536,15.9459],[105.3547,15.9456],[105.3547,15.9464],[105.3555,15.9464],[105.3555,15.9456],[105.3561,15.9456],[105.3564,15.9464],[105.3558,15.947],[105.3539,15.947]]]}},{"type":"Feature","properties":{"kind":"seasonal","area_km2":0.246,"date":"2026-10-09"},"geometry":{"type":"Polygon","coordinates":[[[105.3406,15.9166],[105.3406,15.9106],[105.3415,15.9104],[105.3417,15.9093],[105.3426,15.9087],[105.3423,15.9082],[105.3409,15.9085],[105.3412,15.9077],[105.3431,15.9074],[105.3434,15.9063],[105.3443,15.9063],[105.3448,15.9068],[105.3468,15.9068],[105.3471,15.9074],[105.3454,15.9076],[105.3437,15.9093],[105.3437,15.9101],[105.3429,15.9106],[105.3429,15.912],[105.3417,15.9139],[105.342,15.915],[105.3415,15.915],[105.3415,15.9161],[105.3409,15.9161],[105.3406,15.9166]]]}},{"type":"Feature","properties":{"kind":"seasonal","area_km2":0.246,"date":"2026-10-09"},"geometry":{"type":"Polygon","coordinates":[[[105.4128,15.1283],[105.4128,15.1259],[105.4119,15.1245],[105.4119,15.1229],[105.413,15.1223],[105.4116,15.1207],[105.4116,15.1191],[105.4122,15.1177],[105.4128,15.118],[105.4128,15.1191],[105.4136,15.121],[105.4156,15.1215],[105.4156,15.1221],[105.4161,15.1221],[105.4167,15.1199],[105.4175,15.1196],[105.4169,15.1218],[105.4161,15.1226],[105.4147,15.1223],[105.4144,15.1237],[105.4133,15.1245],[105.4139,15.1272],[105.415,15.127],[105.4153,15.1261],[105.4161,15.1261],[105.4161,15.1267],[105.4153,15.127],[105.4153,15.1278],[105.4128,15.1283]]]}},{"type":"Feature","properties":{"kind":"seasonal","area_km2":0.235,"date":"2026-10-09"},"geometry":{"type":"Polygon","coordinates":[[[105.3525,15.1724],[105.3528,15.1691],[105.3536,15.1686],[105.3536,15.1677],[105.355,15.1672],[105.3562,15.1658],[105.3562,15.165],[105.3553,15.1642],[105.3536,15.1639],[105.3536,15.1629],[105.3545,15.1629],[105.3548,15.161],[105.3553,15.161],[105.3559,15.1612],[105.3556,15.1631],[105.3559,15.1639],[105.3567,15.1642],[105.357,15.1661],[105.3553,15.1677],[105.3539,15.168],[105.3539,15.1694],[105.3553,15.1699],[105.3578,15.1699],[105.3578,15.1704],[105.3567,15.1702],[105.3567,15.1723],[105.3559,15.1724],[105.3559,15.1718],[105.3553,15.1718],[105.3548,15.171],[105.3539,15.171],[105.3537,15.1724],[105.3525,15.1724]]]}},{"type":"Feature","properties":{"kind":"seasonal","area_km2":0.197,"date":"2026-10-09"},"geometry":{"type":"Polygon","coordinates":[[[105.4649,15.3463],[105.4646,15.3447],[105.4638,15.3444],[105.4638,15.343],[105.4629,15.343],[105.4629,15.3422],[105.4646,15.34],[105.4657,15.3398],[105.466,15.3392],[105.4668,15.3392],[105.4668,15.3406],[105.4685,15.34],[105.4685,15.3414],[105.468,15.3417],[105.4677,15.3438],[105.4671,15.3446],[105.466,15.3444],[105.4663,15.3438],[105.4669,15.3438],[105.4669,15.3427],[105.466,15.3427],[105.4657,15.3422],[105.4652,15.3425],[105.4652,15.3438],[105.4657,15.3444],[105.4652,15.3444],[105.4649,15.3463]],[[105.4669,15.3427],[105.4674,15.3427],[105.4674,15.3422],[105.4669,15.3422],[105.4669,15.3427]],[[105.4638,15.3422],[105.4643,15.3419],[105.4643,15.3411],[105.4638,15.3414],[105.4638,15.3422]],[[105.466,15.3419],[105.4666,15.3419],[105.4669,15.3411],[105.4663,15.3411],[105.466,15.3419]],[[105.4643,15.3409],[105.4646,15.3411],[105.4646,15.3409],[105.4643,15.3409]],[[105.468,15.3406],[105.4682,15.3408],[105.4682,15.3406],[105.468,15.3406]],[[105.4646,15.3403],[105.4652,15.3406],[105.4652,15.3403],[105.4646,15.3403]]]}},{"type":"Feature","properties":{"kind":"seasonal","area_km2":0.185,"date":"2026-10-09"},"geometry":{"type":"Polygon","coordinates":[[[105.3401,15.0682],[105.3392,15.0674],[105.3392,15.0663],[105.3409,15.0663],[105.3423,15.0644],[105.344,15.0639],[105.3457,15.0644],[105.3482,15.0636],[105.3482,15.0641],[105.3468,15.0641],[105.3454,15.0663],[105.3445,15.0663],[105.3434,15.0671],[105.3412,15.0674],[105.3406,15.0682],[105.3401,15.0682]]]}},{"type":"Feature","properties":{"kind":"seasonal","area_km2":0.178,"date":"2026-10-09"},"geometry":{"type":"Polygon","coordinates":[[[105.4593,15.1985],[105.459,15.1958],[105.4595,15.1952],[105.4595,15.1941],[105.4573,15.1941],[105.457,15.1955],[105.4556,15.1955],[105.4556,15.195],[105.4551,15.195],[105.4548,15.1928],[105.4567,15.1928],[105.4579,15.1917],[105.4584,15.1917],[105.4584,15.1909],[105.4559,15.1912],[105.4567,15.1903],[105.4593,15.1906],[105.4593,15.1933],[105.4607,15.1941],[105.4607,15.1949],[105.4595,15.1955],[105.4596,15.1971],[105.4604,15.1977],[105.4621,15.1977],[105.4621,15.1982],[105.4601,15.1979],[105.4601,15.1985],[105.4593,15.1985]],[[105.4559,15.195],[105.4565,15.195],[105.457,15.1936],[105.4579,15.1939],[105.4576,15.1928],[105.4554,15.1933],[105.4559,15.195]]]}},{"type":"Feature","properties":{"kind":"seasonal","area_km2":0.164,"date":"2026-10-09"},"geometry":{"type":"Polygon","coordinates":[[[105.3705,15.9776],[105.3682,15.9746],[105.3682,15.9716],[105.3699,15.9722],[105.3699,15.973],[105.369,15.973],[105.3696,15.9743],[105.371,15.9743],[105.3713,15.9735],[105.3724,15.9735],[105.3735,15.9746],[105.3735,15.9757],[105.3721,15.9762],[105.3702,15.9762],[105.3702,15.9768],[105.3713,15.9768],[105.3713,15.9773],[105.3705,15.9776]],[[105.3699,15.9757],[105.3707,15.9757],[105.3707,15.9751],[105.3699,15.9751],[105.3699,15.9757]],[[105.3721,15.9749],[105.373,15.9751],[105.373,15.9749],[105.3721,15.9749]]]}},{"type":"Feature","properties":{"kind":"seasonal","area_km2":0.162,"date":"2026-10-09"},"geometry":{"type":"Polygon","coordinates":[[[105.4101,15.0573],[105.4107,15.0556],[105.4132,15.0554],[105.4124,15.0548],[105.4121,15.0535],[105.4115,15.0532],[105.411,15.0532],[105.4107,15.0537],[105.4084,15.0532],[105.4082,15.0524],[105.4076,15.0524],[105.4076,15.0518],[105.4062,15.0508],[105.4065,15.0489],[105.407,15.0489],[105.4068,15.0505],[105.4079,15.0513],[105.4084,15.0524],[105.409,15.0524],[105.4093,15.0529],[105.4126,15.0524],[105.4129,15.054],[105.4137,15.0543],[105.4146,15.0556],[105.4151,15.0556],[105.4151,15.0572],[105.4138,15.057],[105.4138,15.0564],[105.4112,15.0564],[105.4101,15.0573]],[[105.4135,15.0556],[105.4143,15.0559],[105.4143,15.0556],[105.4135,15.0556]]]}},{"type":"Feature","properties":{"kind":"seasonal","area_km2":0.148,"date":"2026-10-09"},"geometry":{"type":"Polygon","coordinates":[[[105.4427,15.1733],[105.4411,15.1722],[105.4402,15.17],[105.4394,15.1698],[105.4394,15.1681],[105.4402,15.1679],[105.4402,15.1662],[105.4394,15.1665],[105.4394,15.166],[105.4388,15.166],[105.4371,15.1665],[105.4369,15.1657],[105.4357,15.1654],[105.4352,15.166],[105.4355,15.1679],[105.4346,15.1684],[105.4352,15.1646],[105.4369,15.1649],[105.4374,15.166],[105.4383,15.1657],[105.4413,15.166],[105.4413,15.1679],[105.4408,15.1687],[105.4399,15.1687],[105.4399,15.1695],[105.4411,15.1698],[105.4411,15.1711],[105.4422,15.1725],[105.443,15.1727],[105.4436,15.1719],[105.4436,15.173],[105.4427,15.1733]]]}},{"type":"Feature","properties":{"kind":"seasonal","area_km2":0.142,"date":"2026-10-09"},"geometry":{"type":"Polygon","coordinates":[[[105.4298,15.1201],[105.4295,15.1196],[105.4306,15.1196],[105.4306,15.1185],[105.4301,15.1174],[105.4292,15.1172],[105.4292,15.1145],[105.4287,15.1142],[105.4284,15.1147],[105.4278,15.1147],[105.4278,15.1142],[105.4284,15.1139],[105.4298,15.1142],[105.4295,15.1161],[105.4303,15.1174],[105.4323,15.1177],[105.4337,15.1188],[105.4368,15.1185],[105.4368,15.1193],[105.4345,15.1193],[105.4343,15.1199],[105.4334,15.1199],[105.4331,15.1193],[105.432,15.1191],[105.4315,15.1201],[105.4298,15.1201]]]}},{"type":"Feature","properties":{"kind":"seasonal","area_km2":0.142,"date":"2026-10-09"},"geometry":{"type":"Polygon","coordinates":[[[105.3886,15.0169],[105.3874,15.0161],[105.3874,15.0155],[105.3858,15.0163],[105.3847,15.0161],[105.3844,15.0155],[105.3846,15.0136],[105.3852,15.0131],[105.3849,15.0104],[105.3855,15.0104],[105.3858,15.0088],[105.3866,15.0087],[105.3866,15.0082],[105.3869,15.009],[105.386,15.0098],[105.386,15.0144],[105.3883,15.0147],[105.3888,15.0158],[105.3886,15.0169]]]}},{"type":"Feature","properties":{"kind":"seasonal","area_km2":0.139,"date":"2026-10-09"},"geometry":{"type":"Polygon","coordinates":[[[105.3878,15.8268],[105.3878,15.8232],[105.387,15.8219],[105.387,15.8205],[105.3881,15.817],[105.3872,15.8124],[105.3884,15.8124],[105.3886,15.8132],[105.3895,15.8132],[105.3895,15.8126],[105.39,15.8124],[105.39,15.8132],[105.3881,15.814],[105.3878,15.8145],[105.3886,15.8175],[105.3884,15.8221],[105.3878,15.8221],[105.3887,15.8267],[105.3878,15.8268]],[[105.3875,15.8202],[105.3878,15.8205],[105.3878,15.8202],[105.3875,15.8202]]]}},{"type":"Feature","properties":{"kind":"seasonal","area_km2":0.138,"date":"2026-10-09"},"geometry":{"type":"Polygon","coordinates":[[[105.3956,15.0342],[105.3936,15.0326],[105.3922,15.0334],[105.3903,15.0332],[105.3925,15.0326],[105.3933,15.0315],[105.3942,15.0315],[105.3947,15.0323],[105.3953,15.0323],[105.3953,15.0318],[105.3958,15.0315],[105.3953,15.0277],[105.3958,15.0277],[105.3961,15.0283],[105.3961,15.0318],[105.3967,15.0318],[105.3967,15.0323],[105.3978,15.0329],[105.3972,15.0342],[105.3956,15.0342]]]}},{"type":"Feature","properties":{"kind":"seasonal","area_km2":0.136,"date":"2026-10-09"},"geometry":{"type":"Polygon","coordinates":[[[105.4178,15.1438],[105.4175,15.1432],[105.417,15.1432],[105.4167,15.1413],[105.4156,15.1413],[105.4159,15.1408],[105.417,15.1411],[105.4178,15.1421],[105.4187,15.1421],[105.4195,15.14],[105.4226,15.1402],[105.4231,15.1397],[105.4231,15.1389],[105.4248,15.1386],[105.4248,15.1402],[105.4256,15.1408],[105.4256,15.1416],[105.4245,15.1408],[105.4245,15.1397],[105.4237,15.14],[105.4234,15.1413],[105.4201,15.1408],[105.4195,15.1413],[105.4192,15.1427],[105.4178,15.1438]]]}},{"type":"Feature","properties":{"kind":"seasonal","area_km2":0.131,"date":"2026-10-09"},"geometry":{"type":"Polygon","coordinates":[[[105.5941,15.4607],[105.5924,15.4574],[105.5969,15.4574],[105.5972,15.4601],[105.5944,15.4599],[105.5941,15.4607]]]}},{"type":"Feature","properties":{"kind":"seasonal","area_km2":0.131,"date":"2026-10-09"},"geometry":{"type":"Polygon","coordinates":[[[105.3886,15.0329],[105.3877,15.0323],[105.3877,15.0318],[105.3869,15.0315],[105.3866,15.0304],[105.3866,15.021],[105.388,15.0188],[105.388,15.018],[105.3891,15.0177],[105.3891,15.0185],[105.3877,15.0204],[105.3877,15.0215],[105.3872,15.0218],[105.3875,15.0307],[105.3886,15.0323],[105.39,15.0326],[105.3886,15.0329]]]}},{"type":"Feature","properties":{"kind":"seasonal","area_km2":0.13,"date":"2026-10-09"},"geometry":{"type":"Polygon","coordinates":[[[105.3783,15.9786],[105.3775,15.9781],[105.3761,15.9781],[105.3755,15.9765],[105.3761,15.9765],[105.3766,15.9773],[105.3769,15.9767],[105.3763,15.9757],[105.3755,15.9754],[105.3752,15.9743],[105.3741,15.974],[105.3744,15.9735],[105.3724,15.9724],[105.3721,15.9716],[105.373,15.9719],[105.3738,15.9708],[105.3772,15.9767],[105.3777,15.9767],[105.3786,15.9778],[105.38,15.9778],[105.3805,15.9784],[105.3783,15.9786]],[[105.3735,15.9724],[105.3744,15.9727],[105.3744,15.9724],[105.3735,15.9724]]]}},{"type":"Feature","properties":{"kind":"seasonal","area_km2":0.123,"date":"2026-10-09"},"geometry":{"type":"Polygon","coordinates":[[[105.3423,15.9283],[105.3409,15.925],[105.3404,15.9247],[105.3392,15.9226],[105.3392,15.9218],[105.3398,15.9226],[105.3404,15.9223],[105.3404,15.9212],[105.3406,15.9218],[105.3423,15.9215],[105.3426,15.9223],[105.3423,15.925],[105.3429,15.9253],[105.3429,15.9258],[105.3423,15.9264],[105.3423,15.9283]],[[105.3409,15.925],[105.342,15.925],[105.342,15.9247],[105.3409,15.9245],[105.3409,15.925]],[[105.3415,15.9245],[105.342,15.9242],[105.3418,15.9242],[105.3418,15.9239],[105.3415,15.9239],[105.3415,15.9237],[105.3412,15.9237],[105.3415,15.9245]],[[105.3409,15.9234],[105.3412,15.9237],[105.3412,15.9234],[105.3409,15.9234]]]}},{"type":"Feature","properties":{"kind":"seasonal","area_km2":0.122,"date":"2026-10-09"},"geometry":{"type":"Polygon","coordinates":[[[105.6286,15.6033],[105.6286,15.6014],[105.6283,15.6003],[105.6278,15.6003],[105.6278,15.5995],[105.6289,15.5989],[105.6292,15.5978],[105.6289,15.5965],[105.6278,15.5959],[105.6275,15.5951],[105.6275,15.5911],[105.6278,15.5921],[105.6286,15.5921],[105.6286,15.593],[105.6278,15.5932],[105.6278,15.5946],[105.6292,15.5946],[105.6297,15.5957],[105.6295,15.6011],[105.6292,15.603],[105.6286,15.6033]]]}},{"type":"Feature","properties":{"kind":"seasonal","area_km2":0.121,"date":"2026-10-09"},"geometry":{"type":"Polygon","coordinates":[[[105.1134,15.5965],[105.1131,15.596],[105.1112,15.5957],[105.1112,15.5946],[105.1117,15.5946],[105.1115,15.5925],[105.112,15.5927],[105.1123,15.5938],[105.1129,15.5938],[105.1129,15.5946],[105.1134,15.5946],[105.1134,15.5919],[105.1145,15.5919],[105.1151,15.5946],[105.1145,15.5952],[105.1145,15.5963],[105.1134,15.5965]]]}},{"type":"Feature","properties":{"kind":"seasonal","area_km2":0.121,"date":"2026-10-09"},"geometry":{"type":"Polygon","coordinates":[[[105.4147,15.1378],[105.4161,15.1367],[105.415,15.1362],[105.415,15.1345],[105.4153,15.1318],[105.4159,15.1316],[105.4161,15.1297],[105.417,15.1291],[105.4161,15.1272],[105.4161,15.1267],[105.4167,15.1267],[105.4172,15.1272],[105.4178,15.1297],[105.4167,15.1305],[105.4167,15.131],[105.4159,15.1318],[105.4156,15.1351],[105.4161,15.1356],[105.4178,15.1356],[105.4178,15.1364],[105.417,15.1375],[105.4147,15.1378]]]}},{"type":"Feature","properties":{"kind":"seasonal","area_km2":0.121,"date":"2026-10-09"},"geometry":{"type":"Polygon","coordinates":[[[105.3874,15.0068],[105.3874,15.0058],[105.3869,15.0055],[105.3869,15.0036],[105.3883,15.0033],[105.3888,15.0014],[105.3902,15.0009],[105.3899,14.9995],[105.3908,14.9995],[105.391,15.0011],[105.3905,15.0011],[105.3905,15.0017],[105.3896,15.0025],[105.3894,15.0041],[105.3888,15.0044],[105.3888,15.0058],[105.388,15.0058],[105.3874,15.0068]]]}},{"type":"Feature","properties":{"kind":"seasonal","area_km2":0.116,"date":"2026-10-09"},"geometry":{"type":"Polygon","coordinates":[[[105.3742,15.8696],[105.3739,15.8688],[105.3736,15.8694],[105.3728,15.8694],[105.3728,15.8685],[105.3722,15.8688],[105.3722,15.8694],[105.37,15.8691],[105.3705,15.868],[105.3714,15.8677],[105.3711,15.8666],[105.3728,15.8666],[105.3733,15.8675],[105.3761,15.8675],[105.3753,15.8694],[105.3742,15.8696]],[[105.3745,15.8685],[105.3747,15.8691],[105.3747,15.8685],[105.3745,15.8685]],[[105.3736,15.8685],[105.3742,15.8685],[105.3742,15.868],[105.3736,15.868],[105.3736,15.8685]]]}},{"type":"Feature","properties":{"kind":"seasonal","area_km2":0.115,"date":"2026-10-09"},"geometry":{"type":"Polygon","coordinates":[[[105.339,15.9212],[105.3395,15.9207],[105.3395,15.9199],[105.3387,15.9199],[105.3381,15.9193],[105.3376,15.918],[105.3378,15.9166],[105.3384,15.9188],[105.339,15.9188],[105.339,15.918],[105.3415,15.9171],[105.3415,15.9177],[105.3406,15.9182],[105.3406,15.919],[105.3412,15.919],[105.342,15.9182],[105.3418,15.9207],[105.3398,15.9207],[105.3395,15.9212],[105.339,15.9212]]]}},{"type":"Feature","properties":{"kind":"seasonal","area_km2":0.112,"date":"2026-10-09"},"geometry":{"type":"Polygon","coordinates":[[[105.3479,15.9057],[105.3473,15.9049],[105.3468,15.9049],[105.3468,15.9041],[105.3487,15.9041],[105.3499,15.9033],[105.3515,15.9033],[105.3521,15.9022],[105.3535,15.9022],[105.3529,15.9033],[105.3501,15.9036],[105.3499,15.9041],[105.349,15.9041],[105.3501,15.9044],[105.3527,15.9038],[105.3521,15.9055],[105.3515,15.9049],[105.3513,15.9055],[105.3479,15.9057]],[[105.3476,15.9044],[105.3485,15.9047],[105.3485,15.9044],[105.3476,15.9044]]]}},{"type":"Feature","properties":{"kind":"seasonal","area_km2":0.105,"date":"2026-10-09"},"geometry":{"type":"Polygon","coordinates":[[[105.075,15.3514],[105.0747,15.3497],[105.0758,15.3486],[105.0789,15.3484],[105.0806,15.3489],[105.0806,15.35],[105.077,15.3497],[105.0758,15.3505],[105.0758,15.3514],[105.075,15.3514]]]}},{"type":"Feature","properties":{"kind":"seasonal","area_km2":0.105,"date":"2026-10-09"},"geometry":{"type":"Polygon","coordinates":[[[105.1979,15.2423],[105.1973,15.2414],[105.1973,15.2404],[105.1984,15.2401],[105.1982,15.239],[105.1987,15.2385],[105.1996,15.2385],[105.2001,15.2398],[105.2007,15.2398],[105.2021,15.2414],[105.2021,15.2422],[105.1979,15.2423]],[[105.1979,15.2417],[105.1984,15.2417],[105.1993,15.2409],[105.2001,15.2409],[105.2001,15.2404],[105.1979,15.2404],[105.1979,15.2417]],[[105.199,15.2414],[105.2001,15.2417],[105.2001,15.2412],[105.199,15.2414]]]}},{"type":"Feature","properties":{"kind":"seasonal","area_km2":0.105,"date":"2026-10-09"},"geometry":{"type":"Polygon","coordinates":[[[105.0701,15.0088],[105.0699,15.0083],[105.0682,15.0083],[105.0673,15.0077],[105.0668,15.0053],[105.0682,15.0053],[105.0687,15.0066],[105.0718,15.0072],[105.0718,15.0083],[105.0707,15.0083],[105.0701,15.0088]]]}},{"type":"Feature","properties":{"kind":"seasonal","area_km2":0.104,"date":"2026-10-09"},"geometry":{"type":"Polygon","coordinates":[[[105.3909,15.8069],[105.3909,15.8061],[105.3903,15.8061],[105.39,15.8067],[105.3883,15.8067],[105.3883,15.8059],[105.3889,15.8056],[105.3895,15.804],[105.3903,15.8037],[105.3906,15.8029],[105.3914,15.8029],[105.3917,15.804],[105.3911,15.8045],[105.392,15.8045],[105.3923,15.805],[105.3909,15.8069]]]}},{"type":"Feature","properties":{"kind":"seasonal","area_km2":0.104,"date":"2026-10-09"},"geometry":{"type":"Polygon","coordinates":[[[105.427,15.1212],[105.4256,15.1199],[105.4245,15.1199],[105.4234,15.1207],[105.4236,15.1193],[105.4262,15.1196],[105.4253,15.1185],[105.4256,15.1172],[105.4278,15.1177],[105.4281,15.1188],[105.4295,15.1193],[105.4276,15.1193],[105.4276,15.1188],[105.427,15.1185],[105.4267,15.1193],[105.4276,15.1202],[105.4276,15.1212],[105.427,15.1212]]]}},{"type":"Feature","properties":{"kind":"seasonal","area_km2":0.103,"date":"2026-10-09"},"geometry":{"type":"Polygon","coordinates":[[[105.4948,15.2255],[105.4942,15.225],[105.4942,15.2242],[105.4926,15.2231],[105.4926,15.222],[105.4937,15.2212],[105.4948,15.2212],[105.4954,15.2225],[105.4965,15.2236],[105.4962,15.2255],[105.4948,15.2255]],[[105.4945,15.2239],[105.4951,15.2239],[105.4948,15.2225],[105.4937,15.2231],[105.4945,15.2239]],[[105.494,15.2225],[105.4945,15.2223],[105.4942,15.2215],[105.4937,15.2215],[105.494,15.2225]]]}},{"type":"Feature","properties":{"kind":"seasonal","area_km2":0.103,"date":"2026-10-09"},"geometry":{"type":"Polygon","coordinates":[[[105.0856,15.3188],[105.0851,15.318],[105.0845,15.318],[105.0845,15.3172],[105.0859,15.3169],[105.0873,15.3156],[105.089,15.3156],[105.0887,15.3172],[105.0878,15.318],[105.0873,15.318],[105.0873,15.3185],[105.0856,15.3188]]]}},{"type":"Feature","properties":{"kind":"seasonal","area_km2":0.103,"date":"2026-10-09"},"geometry":{"type":"Polygon","coordinates":[[[105.4377,15.1486],[105.4377,15.1481],[105.4368,15.1475],[105.4368,15.1467],[105.4349,15.1462],[105.4349,15.1451],[105.436,15.1454],[105.4368,15.1451],[105.4371,15.1443],[105.4382,15.1445],[105.4388,15.1462],[105.4382,15.1486],[105.4377,15.1486]]]}},{"type":"Feature","properties":{"kind":"seasonal","area_km2":0.102,"date":"2026-10-09"},"geometry":{"type":"Polygon","coordinates":[[[105.3786,15.8433],[105.378,15.8411],[105.3786,15.8406],[105.3794,15.8379],[105.3808,15.8363],[105.3806,15.8376],[105.3811,15.8379],[105.38,15.8382],[105.3797,15.8398],[105.3803,15.8401],[105.3811,15.8384],[105.3814,15.8392],[105.3808,15.8398],[105.3806,15.8411],[105.3794,15.8417],[105.3795,15.8428],[105.3789,15.8428],[105.3786,15.8433]]]}}]}
