{"type":"FeatureCollection","properties":{"v":3,"id":"t97_9","name":"พังงา","aoi":[97.815,9.36,97.919,9.493],"date":"2026-10-07","dates":["2026-10-07"],"baseline_years":3,"has_seasonal":false,"totals":{"flood_high":0.0,"flood_low":0.0,"seasonal":0.0},"provinces":[],"scenes":{"2026-10-07":1},"baseline_dates":["2025-10-05","2024-10-09","2023-10-04"],"threshold_db":-16.0,"auto":true,"source":"Sentinel-1 RTC (Copernicus/ESA) via Microsoft Planetary Computer; JRC Global Surface Water; Copernicus DEM","method":"ChatGeo v3: Otsu threshold on VV dB; minus JRC permanent water and slope > 5 deg; unusual = water not present in most of the previous 3 years (same season)","added":"2026-10-10T03:24+07:00"},"features":[]}
