{"type":"FeatureCollection","properties":{"v":3,"id":"t97_19","name":"แม่ฮ่องสอน","aoi":[97.6953,19.0,98.0,19.6547],"date":"2026-10-02","dates":["2026-10-02"],"baseline_years":3,"has_seasonal":false,"totals":{"flood_high":0.0,"flood_low":0.0,"seasonal":0.0},"provinces":[],"scenes":{"2026-10-02":1},"baseline_dates":["2025-09-30","2024-10-05","2023-10-08"],"threshold_db":-15.0,"auto":true,"source":"Sentinel-1 RTC (Copernicus/ESA) via Microsoft Planetary Computer; JRC Global Surface Water; Copernicus DEM","method":"ChatGeo v3: Otsu threshold on VV dB; minus JRC permanent water and slope > 5 deg; unusual = water not present in most of the previous 3 years (same season)","added":"2026-10-07T18:42+07:00"},"features":[]}
