{"type":"FeatureCollection","properties":{"v":3,"id":"t97_17","name":"แม่ฮ่องสอน · ตาก","aoi":[97.656,17.4591,98.0,18.0],"date":"2026-10-02","dates":["2026-10-02"],"baseline_years":3,"has_seasonal":true,"totals":{"flood_high":0.0,"flood_low":0.0,"seasonal":0.4},"provinces":[{"name":"แม่ฮ่องสอน","zone":"th-n","flood_high":0.0,"flood_low":0.0,"seasonal":0.4}],"scenes":{"2026-10-02":1},"baseline_dates":["2025-10-04","2024-10-05","2023-10-08"],"threshold_db":-15.0,"auto":true,"source":"Sentinel-1 RTC (Copernicus/ESA) via Microsoft Planetary Computer; JRC Global Surface Water; Copernicus DEM","method":"ChatGeo v3: Otsu threshold on VV dB; minus JRC permanent water and slope > 5 deg; unusual = water not present in most of the previous 3 years (same season)","added":"2026-10-07T18:42+07:00"},"features":[{"type":"Feature","properties":{"kind":"seasonal","area_km2":0.168,"date":"2026-10-02"},"geometry":{"type":"Polygon","coordinates":[[[97.7146,17.8199],[97.7138,17.8194],[97.7104,17.8193],[97.7104,17.8188],[97.7144,17.8186],[97.7149,17.8191],[97.7169,17.8191],[97.7183,17.8183],[97.7183,17.8178],[97.7189,17.8175],[97.7189,17.8151],[97.7178,17.8099],[97.7187,17.8099],[97.7198,17.8153],[97.7195,17.8178],[97.7186,17.8194],[97.7177,17.8199],[97.7146,17.8199]]]}},{"type":"Feature","properties":{"kind":"seasonal","area_km2":0.111,"date":"2026-10-02"},"geometry":{"type":"Polygon","coordinates":[[[97.7221,17.8013],[97.7233,17.7988],[97.7258,17.7983],[97.7289,17.7983],[97.7303,17.7978],[97.7303,17.7986],[97.7286,17.7989],[97.7281,17.7994],[97.7261,17.7994],[97.7233,17.8007],[97.7232,17.8013],[97.7221,17.8013]]]}},{"type":"Feature","properties":{"kind":"seasonal","area_km2":0.101,"date":"2026-10-02"},"geometry":{"type":"Polygon","coordinates":[[[97.7178,17.808],[97.7178,17.8069],[97.7193,17.8056],[97.7193,17.8048],[97.7204,17.8037],[97.7207,17.8023],[97.7213,17.8018],[97.7221,17.8018],[97.7224,17.8037],[97.7198,17.8056],[97.7187,17.808],[97.7178,17.808]]]}}]}
