{"type":"FeatureCollection","properties":{"v":3,"id":"t97_18","name":"แม่ฮ่องสอน","aoi":[97.331,18.0,98.0,19.0],"date":"2026-10-02","dates":["2026-10-02"],"baseline_years":3,"has_seasonal":true,"totals":{"flood_high":0.0,"flood_low":0.0,"seasonal":0.8},"provinces":[{"name":"แม่ฮ่องสอน","zone":"th-n","flood_high":0.0,"flood_low":0.0,"seasonal":0.8}],"scenes":{"2026-10-02":2},"baseline_dates":["2025-10-04","2024-10-05","2023-10-08"],"threshold_db":-15.0,"auto":true,"source":"Sentinel-1 RTC (Copernicus/ESA) via Microsoft Planetary Computer; JRC Global Surface Water; Copernicus DEM","method":"ChatGeo v3: Otsu threshold on VV dB; minus JRC permanent water and slope > 5 deg; unusual = water not present in most of the previous 3 years (same season)","added":"2026-10-07T18:42+07:00"},"features":[{"type":"Feature","properties":{"kind":"seasonal","area_km2":0.634,"date":"2026-10-02"},"geometry":{"type":"Polygon","coordinates":[[[97.5604,18.3401],[97.561,18.3391],[97.5627,18.3388],[97.5627,18.3377],[97.5635,18.3377],[97.5655,18.3367],[97.5701,18.3372],[97.5709,18.3383],[97.5729,18.3386],[97.5734,18.3389],[97.5734,18.3394],[97.5757,18.3394],[97.5757,18.3389],[97.5766,18.3386],[97.5769,18.3378],[97.5777,18.3376],[97.5777,18.337],[97.5786,18.3365],[97.5786,18.3357],[97.5792,18.3357],[97.58,18.3346],[97.5809,18.3346],[97.5809,18.3338],[97.5814,18.3333],[97.5834,18.3327],[97.586,18.3327],[97.586,18.3322],[97.5885,18.3322],[97.5888,18.3317],[97.5894,18.3317],[97.5897,18.3322],[97.5945,18.332],[97.5954,18.3315],[97.5954,18.3306],[97.5959,18.3301],[97.5974,18.3298],[97.5979,18.3288],[97.5985,18.3288],[97.5985,18.3293],[97.5994,18.3293],[97.5994,18.3288],[97.6011,18.328],[97.6036,18.3277],[97.6039,18.3272],[97.6068,18.3261],[97.6088,18.3234],[97.6096,18.3234],[97.6096,18.3229],[97.6108,18.3226],[97.6111,18.3218],[97.6116,18.3218],[97.6116,18.3213],[97.6136,18.3205],[97.6133,18.3216],[97.6122,18.3218],[97.6108,18.3232],[97.6102,18.3232],[97.6088,18.3245],[97.6088,18.3251],[97.6076,18.3256],[97.6059,18.3275],[97.6033,18.3283],[97.6031,18.3288],[97.6019,18.3288],[97.6013,18.3293],[97.5976,18.3301],[97.5956,18.332],[97.5942,18.3325],[97.5925,18.3325],[97.5925,18.3331],[97.5863,18.333],[97.584,18.3335],[97.5811,18.3349],[97.5809,18.3357],[97.5794,18.3368],[97.5794,18.3373],[97.578,18.3387],[97.5766,18.3389],[97.5763,18.3397],[97.5757,18.3397],[97.5754,18.3403],[97.5706,18.3391],[97.57,18.3383],[97.5669,18.338],[97.5649,18.338],[97.5646,18.3396],[97.5612,18.3396],[97.5604,18.3401]]]}},{"type":"Feature","properties":{"kind":"seasonal","area_km2":0.135,"date":"2026-10-02"},"geometry":{"type":"Polygon","coordinates":[[[97.4432,18.4016],[97.4432,18.401],[97.4437,18.4008],[97.4438,18.3991],[97.4446,18.3991],[97.4446,18.3986],[97.4452,18.3983],[97.4452,18.3972],[97.4458,18.3973],[97.4461,18.3956],[97.4481,18.3943],[97.4486,18.3924],[97.4495,18.3921],[97.4495,18.3916],[97.4501,18.3919],[97.4501,18.3911],[97.4506,18.3905],[97.4518,18.3908],[97.4526,18.3903],[97.4526,18.3911],[97.4506,18.3916],[97.4503,18.3924],[97.4486,18.3938],[97.4478,18.3956],[97.4466,18.3959],[97.4466,18.3973],[97.446,18.3983],[97.4452,18.3989],[97.4446,18.401],[97.444,18.4016],[97.4432,18.4016]]]}}]}
