{"type":"FeatureCollection","properties":{"v":3,"id":"t98_14","name":"กาญจนบุรี · อุทัยธานี","aoi":[98.171,14.0,99.0,15.0],"date":"2026-10-02","dates":["2026-10-02"],"baseline_years":3,"has_seasonal":true,"totals":{"flood_high":0.0,"flood_low":0.0,"seasonal":18.0},"provinces":[{"name":"กาญจนบุรี","zone":"th-w","flood_high":0.0,"flood_low":0.0,"seasonal":18.0}],"scenes":{"2026-10-02":1},"baseline_dates":["2025-10-04","2024-10-05","2023-10-03"],"threshold_db":-15.0,"auto":true,"source":"Sentinel-1 RTC (Copernicus/ESA) via Microsoft Planetary Computer; JRC Global Surface Water; Copernicus DEM","method":"ChatGeo v3: Otsu threshold on VV dB; minus JRC permanent water and slope > 5 deg; unusual = water not present in most of the previous 3 years (same season)","added":"2026-10-07T18:42+07:00"},"features":[{"type":"Feature","properties":{"kind":"seasonal","area_km2":2.509,"date":"2026-10-02"},"geometry":{"type":"Polygon","coordinates":[[[98.5206,14.7886],[98.52,14.7881],[98.52,14.7872],[98.5209,14.7867],[98.5209,14.7856],[98.5223,14.7851],[98.5228,14.784],[98.5237,14.7835],[98.5237,14.7826],[98.5226,14.7824],[98.5223,14.7816],[98.524,14.7807],[98.524,14.7797],[98.5234,14.7788],[98.5226,14.7788],[98.522,14.7794],[98.522,14.7805],[98.5209,14.7805],[98.5209,14.7783],[98.5203,14.7783],[98.5201,14.7791],[98.5187,14.7791],[98.5192,14.7769],[98.519,14.775],[98.5195,14.7748],[98.5201,14.7734],[98.5195,14.7729],[98.5184,14.7729],[98.5178,14.7734],[98.5167,14.778],[98.5153,14.7777],[98.5156,14.7794],[98.515,14.7796],[98.5156,14.7799],[98.5156,14.7805],[98.5148,14.7813],[98.5142,14.7813],[98.5142,14.7818],[98.5136,14.7818],[98.5137,14.7794],[98.5142,14.7783],[98.5139,14.7777],[98.5145,14.7775],[98.5142,14.7739],[98.5137,14.7729],[98.5095,14.7728],[98.5089,14.7726],[98.5092,14.7718],[98.5084,14.7718],[98.5084,14.7712],[98.5078,14.7712],[98.5078,14.7704],[98.5073,14.7701],[98.5073,14.769],[98.5078,14.7693],[98.5081,14.7685],[98.5087,14.7693],[98.5087,14.7682],[98.5081,14.768],[98.5078,14.7663],[98.5084,14.7653],[98.5095,14.7658],[98.5095,14.768],[98.5109,14.7682],[98.5117,14.7672],[98.5117,14.7636],[98.5103,14.762],[98.5084,14.7623],[98.5076,14.7631],[98.5078,14.7639],[98.507,14.7639],[98.5073,14.7625],[98.5067,14.7625],[98.5067,14.7617],[98.5073,14.7612],[98.5084,14.7612],[98.5078,14.7596],[98.5087,14.7596],[98.5092,14.759],[98.5092,14.7568],[98.509,14.7563],[98.5084,14.7563],[98.5081,14.7552],[98.5081,14.7547],[98.509,14.7547],[98.509,14.7541],[98.5095,14.7541],[98.5095,14.7533],[98.5092,14.7528],[98.5087,14.753],[98.5087,14.7525],[98.5093,14.7525],[98.5093,14.7517],[98.5112,14.752],[98.5118,14.7509],[98.5151,14.7503],[98.5154,14.7498],[98.5165,14.7501],[98.5165,14.7514],[98.5154,14.752],[98.5145,14.7512],[98.5134,14.7514],[98.5132,14.7533],[98.5137,14.7533],[98.5137,14.7547],[98.5154,14.7552],[98.5154,14.7569],[98.5168,14.7566],[98.5159,14.7571],[98.5159,14.7588],[98.5154,14.7588],[98.5148,14.7598],[98.5154,14.7607],[98.5159,14.7607],[98.5165,14.7604],[98.5168,14.7593],[98.5173,14.7593],[98.5176,14.7604],[98.5184,14.7607],[98.5173,14.7626],[98.5179,14.7628],[98.5179,14.7642],[98.519,14.7645],[98.519,14.765],[98.5181,14.7655],[98.5184,14.7664],[98.5167,14.7666],[98.517,14.7653],[98.5159,14.7653],[98.5165,14.7642],[98.5159,14.7642],[98.5156,14.7634],[98.5148,14.7634],[98.5148,14.7623],[98.5142,14.7628],[98.5131,14.7609],[98.5129,14.762],[98.5134,14.7636],[98.5128,14.7636],[98.5131,14.7663],[98.5126,14.7666],[98.5145,14.7666],[98.5145,14.7674],[98.5137,14.7677],[98.5134,14.7699],[98.5148,14.7712],[98.5148,14.7723],[98.5156,14.7726],[98.5153,14.7745],[98.5164,14.7742],[98.5173,14.7734],[98.5173,14.7712],[98.5181,14.771],[98.5184,14.7718],[98.5201,14.7715],[98.5206,14.7704],[98.5215,14.7702],[98.5215,14.768],[98.5229,14.7677],[98.5232,14.7691],[98.5223,14.7699],[98.5234,14.7699],[98.5237,14.771],[98.5243,14.771],[98.5245,14.7704],[98.5262,14.7707],[98.5262,14.7715],[98.5254,14.7718],[98.5254,14.7713],[98.5248,14.771],[98.524,14.7718],[98.5237,14.7729],[98.5229,14.7729],[98.5226,14.7734],[98.5237,14.7737],[98.5254,14.7723],[98.5248,14.7737],[98.5268,14.7737],[98.5273,14.7767],[98.5281,14.7778],[98.5281,14.7783],[98.5276,14.7783],[98.5268,14.7772],[98.527,14.778],[98.5265,14.7783],[98.5265,14.7797],[98.5268,14.7802],[98.5273,14.7802],[98.527,14.7813],[98.5248,14.7824],[98.5245,14.7835],[98.5234,14.7843],[98.5234,14.7856],[98.5239,14.7862],[98.5231,14.7859],[98.522,14.7873],[98.522,14.7883],[98.5206,14.7886]],[[98.5254,14.7794],[98.5256,14.7799],[98.5256,14.7794],[98.5254,14.7794]],[[98.5256,14.7791],[98.5262,14.7794],[98.5262,14.7791],[98.5256,14.7791]],[[98.5248,14.7788],[98.5259,14.7783],[98.5256,14.7767],[98.5265,14.7764],[98.5265,14.7748],[98.5262,14.7742],[98.5256,14.7742],[98.5251,14.7748],[98.5248,14.7761],[98.5243,14.7759],[98.5248,14.7737],[98.524,14.7742],[98.5229,14.7742],[98.5229,14.774],[98.5223,14.774],[98.5223,14.7748],[98.5215,14.7759],[98.5206,14.7759],[98.5206,14.7767],[98.5223,14.7764],[98.5223,14.7772],[98.5229,14.7772],[98.5229,14.7753],[98.5234,14.7748],[98.5231,14.7764],[98.5237,14.7772],[98.5245,14.7775],[98.5248,14.7788]],[[98.5237,14.7783],[98.524,14.7786],[98.524,14.7783],[98.5237,14.7783]],[[98.524,14.7778],[98.5242,14.778],[98.5242,14.7778],[98.524,14.7778]],[[98.527,14.777],[98.5273,14.7772],[98.5273,14.777],[98.527,14.777]],[[98.5203,14.7767],[98.5206,14.7769],[98.5206,14.7767],[98.5203,14.7767]],[[98.522,14.7737],[98.5223,14.774],[98.5223,14.7737],[98.522,14.7737]],[[98.5217,14.7734],[98.522,14.7737],[98.522,14.7734],[98.5217,14.7734]],[[98.5206,14.7726],[98.5217,14.7726],[98.5231,14.7707],[98.5223,14.7704],[98.5223,14.771],[98.5209,14.771],[98.5204,14.7718],[98.5206,14.7726]],[[98.512,14.7723],[98.5131,14.772],[98.5131,14.7685],[98.5123,14.7677],[98.5114,14.7682],[98.5114,14.7693],[98.512,14.7696],[98.512,14.7723]],[[98.5134,14.7718],[98.5137,14.772],[98.5137,14.7718],[98.5134,14.7718]],[[98.5092,14.7715],[98.5095,14.7718],[98.5095,14.7715],[98.5092,14.7715]],[[98.5231,14.7713],[98.5237,14.7715],[98.5237,14.7713],[98.5231,14.7713]],[[98.5112,14.7704],[98.5114,14.7707],[98.5114,14.7704],[98.5112,14.7704]],[[98.5084,14.7674],[98.5087,14.768],[98.5087,14.7674],[98.5084,14.7674]],[[98.5165,14.7634],[98.5168,14.7636],[98.5168,14.7634],[98.5165,14.7634]],[[98.5148,14.7615],[98.5151,14.7623],[98.5151,14.7615],[98.5148,14.7615]],[[98.5092,14.7615],[98.5095,14.7617],[98.5095,14.7615],[98.5092,14.7615]],[[98.5101,14.7615],[98.5103,14.7617],[98.5103,14.7615],[98.5101,14.7615]],[[98.5129,14.7601],[98.5131,14.7604],[98.5131,14.7601],[98.5129,14.7601]],[[98.5101,14.7571],[98.5104,14.7574],[98.5104,14.7571],[98.5101,14.7571]],[[98.5098,14.7568],[98.5101,14.7571],[98.5101,14.7568],[98.5098,14.7568]],[[98.5104,14.7568],[98.5106,14.7571],[98.5106,14.7568],[98.5104,14.7568]],[[98.5123,14.7544],[98.5129,14.7544],[98.5129,14.7539],[98.5123,14.7539],[98.5123,14.7544]]]}},{"type":"Feature","properties":{"kind":"seasonal","area_km2":1.411,"date":"2026-10-02"},"geometry":{"type":"Polygon","coordinates":[[[98.5615,14.6943],[98.5601,14.6938],[98.5568,14.6937],[98.5526,14.6924],[98.5512,14.6929],[98.5512,14.6924],[98.5506,14.6924],[98.5506,14.6907],[98.552,14.6908],[98.552,14.6902],[98.5543,14.688],[98.5543,14.6867],[98.5548,14.6867],[98.5557,14.6853],[98.5568,14.6853],[98.5576,14.6859],[98.5612,14.6856],[98.5618,14.6851],[98.5626,14.6853],[98.5632,14.6845],[98.564,14.6845],[98.5646,14.684],[98.569,14.6837],[98.5701,14.6843],[98.5713,14.6837],[98.571,14.6832],[98.5732,14.684],[98.5752,14.6837],[98.5777,14.6843],[98.5785,14.6851],[98.5813,14.6862],[98.5821,14.6873],[98.5838,14.6876],[98.5838,14.6881],[98.583,14.6881],[98.5816,14.6873],[98.5799,14.687],[98.5796,14.6865],[98.5788,14.6865],[98.5788,14.6859],[98.5774,14.6859],[98.5768,14.6854],[98.5757,14.6859],[98.5757,14.6867],[98.5726,14.6867],[98.5729,14.6854],[98.5699,14.6859],[98.5699,14.6864],[98.569,14.6867],[98.5685,14.6864],[98.5685,14.6859],[98.5676,14.6856],[98.5654,14.6859],[98.5654,14.6864],[98.5651,14.6859],[98.5643,14.6859],[98.5643,14.6864],[98.5623,14.687],[98.5626,14.6881],[98.5632,14.6883],[98.5623,14.6894],[98.5618,14.6894],[98.5618,14.69],[98.5632,14.6905],[98.5612,14.6921],[98.562,14.6921],[98.5626,14.6916],[98.5646,14.6916],[98.5651,14.6932],[98.5643,14.6935],[98.5643,14.6927],[98.5634,14.6924],[98.5632,14.6938],[98.5637,14.694],[98.5615,14.6943]],[[98.5615,14.6872],[98.5621,14.6875],[98.5621,14.6872],[98.5615,14.6872]]]}},{"type":"Feature","properties":{"kind":"seasonal","area_km2":1.032,"date":"2026-10-02"},"geometry":{"type":"Polygon","coordinates":[[[98.5735,14.958],[98.5735,14.9574],[98.5724,14.9569],[98.5724,14.9561],[98.5735,14.9552],[98.5738,14.9536],[98.5749,14.9531],[98.5744,14.9528],[98.5744,14.9506],[98.576,14.9501],[98.5763,14.9487],[98.5769,14.9482],[98.5788,14.9485],[98.5799,14.9479],[98.58,14.9468],[98.5811,14.9452],[98.5836,14.9452],[98.5853,14.9444],[98.5853,14.9439],[98.5861,14.9436],[98.5861,14.9431],[98.5869,14.9423],[98.5878,14.9423],[98.5872,14.9433],[98.5872,14.9477],[98.5883,14.9479],[98.5889,14.9461],[98.5894,14.9461],[98.5905,14.9477],[98.5914,14.9477],[98.5914,14.9485],[98.5908,14.949],[98.5917,14.9499],[98.5917,14.9504],[98.5908,14.9512],[98.5905,14.9534],[98.5911,14.9539],[98.5919,14.9539],[98.5914,14.9542],[98.5917,14.9555],[98.5897,14.9555],[98.5891,14.9558],[98.5891,14.9564],[98.5886,14.9564],[98.5889,14.9553],[98.5903,14.9545],[98.5903,14.9539],[98.5894,14.9539],[98.5894,14.9545],[98.5889,14.9545],[98.5889,14.9531],[98.5894,14.9534],[98.5894,14.952],[98.5905,14.9509],[98.5905,14.9501],[98.59,14.9501],[98.59,14.9496],[98.5903,14.9485],[98.5908,14.9485],[98.5908,14.948],[98.59,14.9482],[98.5892,14.9471],[98.5892,14.9488],[98.5886,14.9488],[98.5889,14.9509],[98.5872,14.9509],[98.5869,14.9479],[98.5861,14.9479],[98.585,14.9488],[98.585,14.9504],[98.5844,14.9504],[98.5841,14.9509],[98.5799,14.9498],[98.5794,14.9509],[98.5794,14.9534],[98.5769,14.9531],[98.5763,14.9536],[98.5763,14.9547],[98.5755,14.9555],[98.5749,14.9555],[98.5746,14.9571],[98.5741,14.9571],[98.5735,14.958]],[[98.5738,14.955],[98.5741,14.9552],[98.5741,14.955],[98.5738,14.955]],[[98.5749,14.9525],[98.5752,14.9528],[98.5752,14.9525],[98.5749,14.9525]],[[98.5875,14.9493],[98.5878,14.9498],[98.5878,14.9493],[98.5875,14.9493]],[[98.5878,14.949],[98.5883,14.9498],[98.5883,14.949],[98.5878,14.949]],[[98.5802,14.9474],[98.5805,14.9477],[98.5805,14.9474],[98.5802,14.9474]],[[98.5805,14.9471],[98.5808,14.9474],[98.5808,14.9471],[98.5805,14.9471]],[[98.5811,14.9458],[98.5813,14.946],[98.5813,14.9458],[98.5811,14.9458]]]}},{"type":"Feature","properties":{"kind":"seasonal","area_km2":0.895,"date":"2026-10-02"},"geometry":{"type":"Polygon","coordinates":[[[98.5936,14.9808],[98.5933,14.9802],[98.5913,14.9802],[98.591,14.9797],[98.5899,14.9802],[98.5897,14.9791],[98.5885,14.9791],[98.5883,14.9797],[98.5877,14.9794],[98.5877,14.9789],[98.5883,14.9789],[98.5883,14.9783],[98.5894,14.9778],[98.5899,14.9789],[98.5908,14.9789],[98.591,14.9794],[98.5922,14.9797],[98.5922,14.9791],[98.5913,14.9791],[98.5913,14.9786],[98.5919,14.9783],[98.5905,14.9781],[98.5902,14.9772],[98.5916,14.9759],[98.593,14.9759],[98.5927,14.9751],[98.5936,14.9748],[98.5933,14.974],[98.5913,14.9756],[98.5877,14.9759],[98.5874,14.9745],[98.5888,14.9745],[98.5885,14.9737],[98.5891,14.9734],[98.5883,14.9734],[98.5883,14.974],[98.5872,14.9745],[98.5869,14.9737],[98.588,14.9737],[98.588,14.9732],[98.5885,14.9729],[98.5883,14.9721],[98.5894,14.9724],[98.5913,14.9718],[98.5902,14.9718],[98.5899,14.9713],[98.5894,14.9718],[98.5886,14.9715],[98.5897,14.971],[98.5894,14.9705],[98.5902,14.9705],[98.5899,14.9699],[98.5897,14.9699],[98.5897,14.9702],[98.5874,14.9702],[98.5874,14.9694],[98.5883,14.9691],[98.5888,14.968],[98.5897,14.9683],[98.5902,14.9678],[98.5908,14.9686],[98.5913,14.9686],[98.5913,14.9669],[98.5897,14.9669],[98.5891,14.9661],[98.5908,14.9659],[98.5911,14.965],[98.5919,14.965],[98.5922,14.9664],[98.5939,14.9664],[98.5944,14.9659],[98.5944,14.9653],[98.5933,14.9645],[98.5925,14.965],[98.5919,14.9645],[98.5905,14.9642],[98.5902,14.9637],[98.5908,14.9626],[98.5919,14.9629],[98.5919,14.9623],[98.5936,14.9623],[98.5936,14.9618],[98.5916,14.9618],[98.5922,14.9612],[98.5922,14.9604],[98.5916,14.9599],[98.5928,14.9596],[98.5925,14.9577],[98.5939,14.958],[98.5928,14.9572],[98.5933,14.9564],[98.5939,14.9564],[98.5939,14.9556],[98.5928,14.9558],[98.5928,14.9553],[98.5944,14.9545],[98.5953,14.9553],[98.5947,14.9558],[98.5947,14.9569],[98.5958,14.9572],[98.5961,14.9566],[98.5967,14.9566],[98.5967,14.9577],[98.5958,14.9583],[98.5958,14.9588],[98.5944,14.9591],[98.5944,14.9604],[98.5936,14.9612],[98.5941,14.9621],[98.5953,14.9621],[98.5953,14.9634],[98.5947,14.9634],[98.5944,14.9629],[98.5928,14.9629],[98.5919,14.9637],[98.5919,14.9642],[98.5944,14.9642],[98.595,14.9637],[98.595,14.9659],[98.5961,14.9667],[98.5961,14.9672],[98.5953,14.9672],[98.5955,14.9667],[98.5947,14.9664],[98.5936,14.9678],[98.5939,14.9691],[98.5933,14.9694],[98.5933,14.9707],[98.595,14.9724],[98.595,14.9748],[98.5938,14.9756],[98.5941,14.9767],[98.5933,14.977],[98.5933,14.9764],[98.5927,14.9762],[98.5916,14.9767],[98.5916,14.9775],[98.5927,14.9778],[98.593,14.98],[98.5941,14.9797],[98.595,14.9789],[98.595,14.9797],[98.5938,14.98],[98.5936,14.9808]],[[98.588,14.9748],[98.5885,14.9751],[98.5885,14.9748],[98.588,14.9748]],[[98.5888,14.9751],[98.5894,14.9751],[98.5894,14.9745],[98.5888,14.9745],[98.5888,14.9751]],[[98.5897,14.9748],[98.5899,14.9751],[98.5899,14.9748],[98.5897,14.9748]],[[98.5897,14.9743],[98.5902,14.9748],[98.5902,14.9743],[98.5897,14.9743]],[[98.5888,14.974],[98.5897,14.9743],[98.5897,14.9737],[98.5888,14.974]],[[98.5911,14.974],[98.5922,14.974],[98.5922,14.9735],[98.5933,14.9732],[98.5933,14.9713],[98.5925,14.9713],[98.5916,14.9724],[98.5897,14.9726],[98.5911,14.974]],[[98.5941,14.9735],[98.5944,14.974],[98.5944,14.9735],[98.5941,14.9735]],[[98.5936,14.9735],[98.5938,14.9737],[98.5938,14.9735],[98.5936,14.9735]],[[98.5938,14.9732],[98.5941,14.9735],[98.5941,14.9732],[98.5938,14.9732]],[[98.5913,14.9702],[98.593,14.9699],[98.593,14.9691],[98.5922,14.9683],[98.5911,14.9694],[98.5913,14.9702]],[[98.5894,14.9699],[98.5899,14.9697],[98.5897,14.9686],[98.5888,14.9688],[98.5894,14.9699]],[[98.5925,14.9675],[98.5927,14.9678],[98.5927,14.9675],[98.5925,14.9675]],[[98.5933,14.9675],[98.5936,14.9678],[98.5936,14.9675],[98.5933,14.9675]]]}},{"type":"Feature","properties":{"kind":"seasonal","area_km2":0.883,"date":"2026-10-02"},"geometry":{"type":"Polygon","coordinates":[[[98.4723,14.805],[98.4723,14.8045],[98.4709,14.8042],[98.4707,14.8034],[98.4715,14.8034],[98.4721,14.804],[98.4732,14.8037],[98.4748,14.8021],[98.4743,14.801],[98.4749,14.8013],[98.476,14.8007],[98.4765,14.7999],[98.4757,14.7994],[98.4763,14.7988],[98.4763,14.7977],[98.4754,14.7977],[98.4751,14.7972],[98.4729,14.7972],[98.4726,14.7964],[98.4737,14.7961],[98.4738,14.795],[98.4732,14.7945],[98.4718,14.7945],[98.4715,14.795],[98.471,14.795],[98.471,14.7934],[98.4721,14.7931],[98.4726,14.7937],[98.474,14.7937],[98.4746,14.7945],[98.4765,14.7939],[98.4765,14.7926],[98.476,14.7923],[98.4757,14.7912],[98.4757,14.7896],[98.4777,14.7907],[98.4777,14.7912],[98.4782,14.7915],[98.4782,14.7934],[98.4788,14.7939],[98.4799,14.7939],[98.4802,14.7934],[98.4807,14.7934],[98.4818,14.7918],[98.4818,14.7907],[98.4827,14.7901],[98.4821,14.7888],[98.4832,14.7877],[98.4832,14.7861],[98.4824,14.7858],[98.4824,14.7842],[98.481,14.7839],[98.481,14.7834],[98.4816,14.7831],[98.4816,14.782],[98.481,14.782],[98.481,14.7815],[98.4819,14.7807],[98.4833,14.7807],[98.4833,14.7801],[98.4844,14.7801],[98.4844,14.7817],[98.4849,14.7823],[98.486,14.782],[98.4863,14.7812],[98.4872,14.7812],[98.4872,14.7826],[98.4866,14.7836],[98.4855,14.7845],[98.4852,14.7864],[98.4849,14.7858],[98.4844,14.7858],[98.4841,14.7874],[98.4827,14.7891],[98.483,14.7904],[98.4821,14.7912],[98.4821,14.7931],[98.4816,14.7937],[98.4816,14.7961],[98.4824,14.7964],[98.4824,14.7977],[98.4815,14.7986],[98.4807,14.7986],[98.4796,14.7972],[98.479,14.7972],[98.479,14.7964],[98.4796,14.7958],[98.4788,14.7958],[98.4785,14.795],[98.479,14.7945],[98.4782,14.7942],[98.4779,14.7926],[98.4774,14.792],[98.4765,14.7923],[98.4771,14.7923],[98.4777,14.7939],[98.4777,14.7958],[98.4763,14.7964],[98.4754,14.7953],[98.4743,14.795],[98.4743,14.7966],[98.4754,14.7966],[98.4754,14.7972],[98.4763,14.7972],[98.4765,14.7977],[98.4768,14.7972],[98.4779,14.7972],[98.4782,14.7983],[98.4796,14.798],[98.4804,14.7988],[98.4796,14.7996],[98.4796,14.801],[98.4788,14.801],[98.4782,14.7991],[98.4768,14.7996],[98.4768,14.8002],[98.4779,14.8002],[98.4785,14.8023],[98.4788,14.8018],[98.4796,14.8018],[98.4801,14.8029],[98.4771,14.8026],[98.4765,14.8026],[98.4765,14.8029],[98.4751,14.8029],[98.4748,14.8026],[98.4748,14.804],[98.4726,14.8042],[98.4729,14.8048],[98.4723,14.805]],[[98.4757,14.8026],[98.4765,14.8026],[98.4768,14.8021],[98.4779,14.8023],[98.4782,14.8015],[98.4768,14.8015],[98.4762,14.8007],[98.4754,14.8013],[98.4757,14.8026]],[[98.4768,14.8007],[98.4771,14.801],[98.4771,14.8007],[98.4768,14.8007]],[[98.4774,14.8007],[98.4776,14.801],[98.4776,14.8007],[98.4774,14.8007]],[[98.4771,14.8004],[98.4774,14.8007],[98.4774,14.8004],[98.4771,14.8004]],[[98.481,14.7983],[98.4821,14.7975],[98.4821,14.7969],[98.481,14.7961],[98.4799,14.7961],[98.4796,14.7967],[98.481,14.7983]],[[98.4846,14.7855],[98.4849,14.7842],[98.4846,14.7839],[98.4841,14.7839],[98.4841,14.7853],[98.4846,14.7855]],[[98.4838,14.7836],[98.4841,14.7839],[98.4841,14.7836],[98.4838,14.7836]]]}},{"type":"Feature","properties":{"kind":"seasonal","area_km2":0.83,"date":"2026-10-02"},"geometry":{"type":"Polygon","coordinates":[[[98.5846,14.687],[98.5849,14.6851],[98.5855,14.6851],[98.586,14.6843],[98.5855,14.6824],[98.5863,14.6824],[98.5866,14.6813],[98.5871,14.6811],[98.5872,14.6794],[98.5863,14.6792],[98.5858,14.6778],[98.5872,14.6775],[98.588,14.6762],[98.5883,14.6743],[98.5877,14.6726],[98.5883,14.6724],[98.5883,14.6713],[98.5877,14.6707],[98.5888,14.6702],[98.5886,14.6694],[98.5891,14.6694],[98.5894,14.6678],[98.59,14.6683],[98.59,14.667],[98.5891,14.6672],[98.5897,14.6661],[98.5897,14.6642],[98.5891,14.6642],[98.5891,14.6637],[98.5905,14.6637],[98.5914,14.6632],[98.5916,14.661],[98.5908,14.6607],[98.5908,14.6594],[98.5911,14.6588],[98.5922,14.6588],[98.5936,14.6602],[98.5936,14.6615],[98.593,14.6618],[98.593,14.6637],[98.5919,14.6648],[98.5922,14.668],[98.593,14.6686],[98.593,14.6708],[98.5927,14.6716],[98.5919,14.6721],[98.5919,14.6735],[98.5925,14.6737],[98.5919,14.6748],[98.5919,14.6762],[98.593,14.6773],[98.5922,14.6778],[98.5924,14.6797],[98.5913,14.68],[98.5919,14.6813],[98.5908,14.6819],[98.5905,14.683],[98.5897,14.683],[98.5902,14.6816],[98.591,14.6811],[98.5911,14.6775],[98.5905,14.677],[98.5905,14.6748],[98.5911,14.6743],[98.5902,14.674],[98.5902,14.6729],[98.5894,14.6729],[98.5891,14.6721],[98.5891,14.6756],[98.5885,14.6773],[98.5888,14.6786],[98.5883,14.6789],[98.5885,14.68],[98.5874,14.6811],[98.5874,14.6832],[98.5863,14.6838],[98.5863,14.6851],[98.5857,14.6851],[98.5855,14.6867],[98.5846,14.687]],[[98.5872,14.6786],[98.5874,14.6789],[98.5874,14.6786],[98.5872,14.6786]],[[98.5872,14.6781],[98.5874,14.6783],[98.5874,14.6781],[98.5872,14.6781]],[[98.5894,14.6721],[98.59,14.6718],[98.59,14.6713],[98.5894,14.6716],[98.5894,14.6721]],[[98.5894,14.6686],[98.5897,14.6691],[98.5897,14.6686],[98.5894,14.6686]]]}},{"type":"Feature","properties":{"kind":"seasonal","area_km2":0.811,"date":"2026-10-02"},"geometry":{"type":"Polygon","coordinates":[[[98.4121,14.8185],[98.4118,14.8174],[98.4107,14.8168],[98.4104,14.816],[98.414,14.8171],[98.414,14.816],[98.4149,14.816],[98.416,14.8149],[98.416,14.8133],[98.4168,14.813],[98.4177,14.8122],[98.4177,14.8117],[98.4191,14.8112],[98.4194,14.8095],[98.4219,14.8071],[98.4224,14.8057],[98.4241,14.806],[98.4255,14.8047],[98.4266,14.8047],[98.4272,14.8063],[98.428,14.8071],[98.4286,14.8071],[98.4288,14.8079],[98.4297,14.8079],[98.4308,14.809],[98.4305,14.8096],[98.4299,14.8096],[98.4291,14.8087],[98.4272,14.8082],[98.4272,14.8076],[98.426,14.8076],[98.4274,14.8087],[98.4274,14.8095],[98.4266,14.8098],[98.4277,14.8106],[98.4277,14.8112],[98.4269,14.8109],[98.4274,14.812],[98.4258,14.812],[98.4249,14.8112],[98.4227,14.8114],[98.4224,14.812],[98.4219,14.8114],[98.4207,14.8122],[98.4202,14.8139],[98.4188,14.8144],[98.4182,14.8152],[98.4174,14.8155],[98.4171,14.8163],[98.4163,14.8166],[98.4154,14.8182],[98.4146,14.8179],[98.4138,14.8185],[98.4121,14.8185]],[[98.414,14.8171],[98.4143,14.8174],[98.4143,14.8171],[98.414,14.8171]],[[98.4241,14.8106],[98.4244,14.8109],[98.4244,14.8106],[98.4241,14.8106]],[[98.4238,14.8104],[98.4241,14.8106],[98.4241,14.8104],[98.4238,14.8104]],[[98.4266,14.8104],[98.4269,14.8106],[98.4269,14.8104],[98.4266,14.8104]],[[98.4263,14.8101],[98.4266,14.8104],[98.4266,14.8101],[98.4263,14.8101]],[[98.4235,14.8063],[98.4238,14.8066],[98.4238,14.8063],[98.4235,14.8063]],[[98.4241,14.806],[98.4244,14.8063],[98.4244,14.806],[98.4241,14.806]],[[98.4247,14.8057],[98.4249,14.806],[98.4249,14.8057],[98.4247,14.8057]],[[98.4255,14.8055],[98.4261,14.8057],[98.4261,14.8055],[98.4255,14.8055]]]}},{"type":"Feature","properties":{"kind":"seasonal","area_km2":0.747,"date":"2026-10-02"},"geometry":{"type":"Polygon","coordinates":[[[98.5653,14.7439],[98.5656,14.7426],[98.565,14.7426],[98.565,14.7412],[98.5642,14.7404],[98.5625,14.7404],[98.5611,14.739],[98.5594,14.7401],[98.5592,14.7396],[98.5578,14.7393],[98.5578,14.7385],[98.5561,14.7377],[98.5558,14.7371],[98.5536,14.7371],[98.5528,14.7379],[98.5519,14.7363],[98.5508,14.736],[98.5505,14.7355],[98.5497,14.7355],[98.5489,14.7344],[98.5478,14.7344],[98.5469,14.7336],[98.5475,14.7331],[98.5472,14.732],[98.548,14.732],[98.5475,14.7312],[98.5478,14.7293],[98.5483,14.7295],[98.5494,14.729],[98.5494,14.7284],[98.5486,14.7279],[98.5483,14.7263],[98.5494,14.7265],[98.5497,14.7274],[98.5506,14.7279],[98.5508,14.729],[98.5519,14.7298],[98.5519,14.7309],[98.5514,14.7309],[98.5508,14.732],[98.5511,14.7325],[98.5525,14.7328],[98.5522,14.7333],[98.5503,14.7328],[98.5505,14.7336],[98.5497,14.7339],[98.5508,14.7339],[98.5508,14.7344],[98.5514,14.7341],[98.5514,14.735],[98.5522,14.7355],[98.553,14.7352],[98.553,14.7344],[98.5539,14.7344],[98.5539,14.735],[98.5561,14.735],[98.5561,14.7355],[98.5586,14.7355],[98.5586,14.735],[98.5592,14.735],[98.5595,14.7358],[98.5608,14.7363],[98.5597,14.7369],[98.5603,14.7374],[98.5603,14.7388],[98.5622,14.7385],[98.5625,14.7377],[98.5636,14.7374],[98.565,14.7377],[98.565,14.7388],[98.5645,14.7391],[98.5645,14.7396],[98.5661,14.7407],[98.5664,14.7429],[98.5661,14.7439],[98.5653,14.7439]],[[98.5475,14.7322],[98.5478,14.7325],[98.5478,14.7322],[98.5475,14.7322]]]}},{"type":"Feature","properties":{"kind":"seasonal","area_km2":0.579,"date":"2026-10-02"},"geometry":{"type":"Polygon","coordinates":[[[98.4735,14.9059],[98.4726,14.9051],[98.4715,14.9051],[98.471,14.9032],[98.4715,14.9032],[98.4724,14.9046],[98.4743,14.9057],[98.4766,14.9049],[98.478,14.9035],[98.4774,14.8986],[98.4763,14.8975],[98.4738,14.8975],[98.4727,14.8959],[98.4716,14.8959],[98.471,14.8964],[98.4707,14.8956],[98.4699,14.8951],[98.4702,14.894],[98.4696,14.8935],[98.4646,14.8934],[98.4626,14.8943],[98.4626,14.8937],[98.4635,14.8929],[98.464,14.8929],[98.4635,14.8926],[98.464,14.8924],[98.4635,14.8918],[98.464,14.8918],[98.4638,14.8902],[98.4643,14.8902],[98.4643,14.8896],[98.4632,14.8886],[98.4629,14.8869],[98.4638,14.8875],[98.4635,14.8867],[98.4646,14.8869],[98.4649,14.8864],[98.4663,14.8861],[98.4671,14.8875],[98.4671,14.8897],[98.4682,14.8902],[98.4671,14.8905],[98.4671,14.8899],[98.4665,14.8899],[98.4665,14.8905],[98.4657,14.8905],[98.466,14.891],[98.4674,14.8913],[98.4671,14.8926],[98.4688,14.8924],[98.4699,14.8929],[98.471,14.894],[98.471,14.8956],[98.473,14.8951],[98.4738,14.8959],[98.4746,14.8959],[98.4746,14.8965],[98.4763,14.8967],[98.4766,14.8975],[98.4788,14.8986],[98.4785,14.9019],[98.4791,14.9024],[98.4796,14.9046],[98.4791,14.9051],[98.4785,14.9049],[98.4779,14.906],[98.4774,14.906],[98.4777,14.9049],[98.4763,14.9051],[98.4752,14.9059],[98.4735,14.9059]],[[98.4743,14.897],[98.4746,14.8973],[98.4746,14.897],[98.4743,14.897]],[[98.4643,14.8902],[98.4646,14.8905],[98.4646,14.8902],[98.4643,14.8902]],[[98.4646,14.8869],[98.4649,14.8872],[98.4649,14.8869],[98.4646,14.8869]]]}},{"type":"Feature","properties":{"kind":"seasonal","area_km2":0.535,"date":"2026-10-02"},"geometry":{"type":"Polygon","coordinates":[[[98.4855,14.9],[98.4849,14.8995],[98.4841,14.8995],[98.4849,14.8989],[98.4849,14.8976],[98.4858,14.8973],[98.4863,14.8962],[98.4875,14.8959],[98.488,14.8932],[98.4883,14.894],[98.4889,14.8938],[98.4886,14.8927],[98.488,14.8927],[98.4877,14.8913],[98.4872,14.8908],[98.4847,14.8908],[98.4844,14.8916],[98.4836,14.8916],[98.4824,14.8924],[98.4813,14.8924],[98.4808,14.8932],[98.4799,14.8935],[98.4799,14.894],[98.4808,14.8943],[98.4808,14.8957],[98.4796,14.8957],[98.4785,14.8954],[98.4785,14.8948],[98.4771,14.8943],[98.4771,14.8932],[98.4746,14.8935],[98.4744,14.8927],[98.4718,14.8924],[98.4716,14.8918],[98.4699,14.8918],[98.4682,14.8905],[98.4705,14.8905],[98.4707,14.891],[98.4716,14.891],[98.4721,14.8918],[98.4744,14.8921],[98.4752,14.8929],[98.4757,14.8929],[98.4774,14.8921],[98.4774,14.8916],[98.4788,14.89],[98.4788,14.8891],[98.4797,14.8889],[98.4797,14.8881],[98.4802,14.8881],[98.4805,14.8886],[98.4805,14.8905],[98.4816,14.891],[98.4841,14.8911],[98.4841,14.89],[98.4847,14.8897],[98.4869,14.8894],[98.4875,14.89],[98.4883,14.89],[98.4889,14.8911],[98.4886,14.8921],[98.4894,14.8924],[98.4891,14.8959],[98.4883,14.8965],[98.4883,14.897],[98.4877,14.897],[98.4877,14.8976],[98.4869,14.8978],[98.4866,14.8997],[98.4855,14.9]],[[98.4796,14.8929],[98.4799,14.8932],[98.4799,14.8929],[98.4796,14.8929]],[[98.478,14.8929],[98.4794,14.8927],[98.4791,14.8905],[98.478,14.8919],[98.478,14.8929]],[[98.4799,14.8927],[98.4802,14.8929],[98.4802,14.8927],[98.4799,14.8927]],[[98.4872,14.8905],[98.4875,14.8908],[98.4875,14.8905],[98.4872,14.8905]]]}},{"type":"Feature","properties":{"kind":"seasonal","area_km2":0.527,"date":"2026-10-02"},"geometry":{"type":"Polygon","coordinates":[[[98.5688,14.7868],[98.5694,14.7846],[98.5699,14.7849],[98.5705,14.7841],[98.5716,14.7836],[98.5719,14.7819],[98.5714,14.7787],[98.5705,14.7787],[98.5688,14.7768],[98.5683,14.7768],[98.5683,14.7719],[98.5691,14.7694],[98.5689,14.764],[98.5694,14.7629],[98.5706,14.7619],[98.5711,14.7619],[98.5711,14.76],[98.5717,14.7594],[98.5717,14.7583],[98.5731,14.7581],[98.5739,14.7559],[98.5745,14.7559],[98.5747,14.7567],[98.5742,14.757],[98.5739,14.7583],[98.5714,14.7605],[98.5717,14.7621],[98.5705,14.7627],[98.57,14.7646],[98.57,14.7662],[98.5708,14.7675],[98.5705,14.77],[98.5711,14.7703],[98.5716,14.773],[98.5694,14.773],[98.5694,14.7757],[98.5702,14.7765],[98.5719,14.7765],[98.5722,14.777],[98.573,14.7833],[98.5716,14.7852],[98.5711,14.7852],[98.5697,14.7868],[98.5688,14.7868]],[[98.5697,14.7678],[98.57,14.7681],[98.57,14.7678],[98.5697,14.7678]],[[98.5694,14.7675],[98.5697,14.7678],[98.5697,14.7675],[98.5694,14.7675]]]}},{"type":"Feature","properties":{"kind":"seasonal","area_km2":0.469,"date":"2026-10-02"},"geometry":{"type":"Polygon","coordinates":[[[98.4476,14.7871],[98.4467,14.7863],[98.4462,14.7838],[98.4439,14.7846],[98.4426,14.7838],[98.4412,14.7841],[98.4417,14.7825],[98.4431,14.7822],[98.4423,14.7797],[98.4426,14.7789],[98.4434,14.7789],[98.4434,14.7784],[98.4426,14.7784],[98.4426,14.7776],[98.4476,14.7776],[98.4476,14.7784],[98.4465,14.7784],[98.4462,14.7789],[98.4456,14.7789],[98.4456,14.7795],[98.4454,14.7795],[98.4454,14.78],[98.4459,14.7803],[98.4459,14.7808],[98.4465,14.7808],[98.4465,14.7819],[98.447,14.7819],[98.4467,14.7814],[98.4473,14.7814],[98.4473,14.7819],[98.4479,14.7819],[98.4479,14.7814],[98.4487,14.7814],[98.449,14.783],[98.4504,14.7849],[98.4504,14.7857],[98.449,14.7855],[98.4481,14.7871],[98.4476,14.7871]],[[98.4473,14.7863],[98.4478,14.7863],[98.4478,14.7855],[98.4473,14.7855],[98.4473,14.7863]],[[98.4451,14.7792],[98.4454,14.7795],[98.4454,14.7792],[98.4451,14.7792]]]}},{"type":"Feature","properties":{"kind":"seasonal","area_km2":0.427,"date":"2026-10-02"},"geometry":{"type":"Polygon","coordinates":[[[98.4858,14.8726],[98.4861,14.8715],[98.4856,14.8713],[98.4856,14.8704],[98.4867,14.8702],[98.487,14.8685],[98.4884,14.8685],[98.4884,14.8694],[98.4895,14.8694],[98.4895,14.8683],[98.4889,14.8683],[98.4886,14.8667],[98.487,14.8666],[98.4867,14.8661],[98.4853,14.8658],[98.4853,14.865],[98.487,14.8653],[98.4881,14.8645],[98.4881,14.8639],[98.4875,14.8637],[98.4878,14.8631],[98.4867,14.8631],[98.4856,14.862],[98.4842,14.8618],[98.4845,14.8604],[98.4856,14.8593],[98.4867,14.8593],[98.4875,14.8601],[98.4884,14.8601],[98.4884,14.8607],[98.487,14.8604],[98.4864,14.8607],[98.4864,14.8612],[98.4884,14.8623],[98.4884,14.8629],[98.49,14.8634],[98.49,14.8645],[98.4906,14.8648],[98.4906,14.8658],[98.4886,14.8658],[98.4886,14.8664],[98.4892,14.8664],[98.4898,14.8672],[98.4909,14.8672],[98.4909,14.8667],[98.492,14.8664],[98.4928,14.8677],[98.4925,14.8686],[98.4917,14.8683],[98.4917,14.8688],[98.4909,14.8688],[98.4906,14.8696],[98.49,14.8696],[98.49,14.8705],[98.4889,14.8707],[98.4883,14.8702],[98.4875,14.871],[98.4878,14.8721],[98.4858,14.8726]],[[98.4884,14.8656],[98.4886,14.8658],[98.4886,14.8656],[98.4884,14.8656]]]}},{"type":"Feature","properties":{"kind":"seasonal","area_km2":0.424,"date":"2026-10-02"},"geometry":{"type":"Polygon","coordinates":[[[98.6128,14.987],[98.612,14.9865],[98.6125,14.9865],[98.6125,14.986],[98.6131,14.986],[98.6136,14.9852],[98.6134,14.9843],[98.6142,14.9838],[98.6139,14.9827],[98.6148,14.9816],[98.6148,14.9805],[98.6142,14.9805],[98.6142,14.98],[98.6131,14.9805],[98.6131,14.98],[98.6125,14.98],[98.6125,14.9792],[98.6145,14.9789],[98.615,14.9784],[98.615,14.977],[98.6173,14.977],[98.6173,14.9765],[98.6178,14.9762],[98.6176,14.9746],[98.6187,14.9743],[98.6195,14.9749],[98.6195,14.9759],[98.619,14.9765],[98.6192,14.9781],[98.6187,14.9789],[98.6176,14.9795],[98.6178,14.98],[98.617,14.9808],[98.6175,14.9824],[98.6167,14.983],[98.6167,14.9841],[98.6178,14.9843],[98.6178,14.9852],[98.6173,14.9849],[98.6156,14.9857],[98.6156,14.9849],[98.6145,14.9849],[98.6128,14.987]]]}},{"type":"Feature","properties":{"kind":"seasonal","area_km2":0.409,"date":"2026-10-02"},"geometry":{"type":"Polygon","coordinates":[[[98.4937,14.8642],[98.4937,14.8604],[98.4931,14.8604],[98.4931,14.861],[98.4926,14.8612],[98.4903,14.8607],[98.4898,14.8596],[98.4898,14.858],[98.4889,14.8582],[98.4892,14.8601],[98.4884,14.8601],[98.4889,14.8591],[98.4881,14.8582],[98.4881,14.8572],[98.4887,14.8569],[98.4887,14.8563],[98.4892,14.8563],[98.4895,14.8574],[98.4909,14.8585],[98.4909,14.8591],[98.4923,14.8596],[98.4934,14.8588],[98.494,14.8591],[98.4951,14.8569],[98.4948,14.855],[98.4954,14.855],[98.4956,14.8555],[98.4965,14.8555],[98.4965,14.8561],[98.4954,14.8574],[98.4953,14.8593],[98.4959,14.8591],[98.4959,14.8602],[98.4953,14.8602],[98.4951,14.861],[98.4962,14.8612],[98.4979,14.8588],[98.499,14.8588],[98.499,14.8593],[98.4995,14.8594],[98.5004,14.8604],[98.4998,14.8604],[98.4987,14.8615],[98.4984,14.8629],[98.4979,14.8607],[98.4979,14.8615],[98.4967,14.8621],[98.4965,14.8631],[98.4956,14.8631],[98.4953,14.8642],[98.4937,14.8642]],[[98.4945,14.8602],[98.4948,14.8604],[98.4948,14.8602],[98.4945,14.8602]],[[98.4948,14.8599],[98.4953,14.8602],[98.4953,14.8599],[98.4948,14.8599]],[[98.4934,14.8593],[98.4937,14.8596],[98.4937,14.8593],[98.4934,14.8593]]]}},{"type":"Feature","properties":{"kind":"seasonal","area_km2":0.315,"date":"2026-10-02"},"geometry":{"type":"Polygon","coordinates":[[[98.4978,14.9998],[98.4978,14.999],[98.4992,14.9977],[98.4998,14.9955],[98.5009,14.9952],[98.5012,14.9944],[98.5042,14.9939],[98.5045,14.9977],[98.5028,14.999],[98.5028,14.9999],[98.4978,14.9998]]]}},{"type":"Feature","properties":{"kind":"seasonal","area_km2":0.287,"date":"2026-10-02"},"geometry":{"type":"Polygon","coordinates":[[[98.4992,14.9952],[98.4992,14.9906],[98.4995,14.9901],[98.5001,14.9901],[98.5001,14.9893],[98.5006,14.989],[98.5006,14.9874],[98.5012,14.986],[98.502,14.9857],[98.502,14.9833],[98.5029,14.9828],[98.5029,14.9822],[98.5048,14.9825],[98.5054,14.9828],[98.5054,14.9839],[98.504,14.983],[98.5029,14.9836],[98.5023,14.9847],[98.5026,14.986],[98.5015,14.9868],[98.5015,14.9887],[98.5026,14.9882],[98.5048,14.9882],[98.5059,14.9871],[98.5059,14.9866],[98.5065,14.9866],[98.5065,14.9871],[98.5056,14.9879],[98.5056,14.989],[98.5045,14.9887],[98.5042,14.9898],[98.5026,14.9904],[98.5026,14.9933],[98.5006,14.9936],[98.5003,14.995],[98.4992,14.9952]],[[98.4995,14.9928],[98.5003,14.9928],[98.5017,14.9917],[98.5015,14.9895],[98.5003,14.9901],[98.5001,14.992],[98.4995,14.9928]],[[98.5012,14.9893],[98.5023,14.9895],[98.5023,14.989],[98.5012,14.9887],[98.5012,14.9893]],[[98.5023,14.9887],[98.5026,14.989],[98.5026,14.9887],[98.5023,14.9887]]]}},{"type":"Feature","properties":{"kind":"seasonal","area_km2":0.275,"date":"2026-10-02"},"geometry":{"type":"Polygon","coordinates":[[[98.5284,14.9088],[98.5276,14.908],[98.5279,14.9066],[98.5265,14.9066],[98.527,14.9033],[98.5262,14.9028],[98.5262,14.9014],[98.5245,14.9012],[98.5245,14.9004],[98.5234,14.8998],[98.5229,14.9004],[98.5229,14.8995],[98.5234,14.8995],[98.5234,14.8987],[98.5245,14.8987],[98.5257,14.8998],[98.5276,14.9001],[98.5287,14.8974],[98.5301,14.8968],[98.5304,14.8958],[98.5315,14.8958],[98.5321,14.896],[98.5318,14.8966],[98.5324,14.8966],[98.5324,14.8974],[98.5318,14.8974],[98.5315,14.8982],[98.5298,14.8977],[98.5287,14.899],[98.5287,14.9001],[98.5307,14.9017],[98.5298,14.9015],[98.5296,14.902],[98.529,14.9012],[98.5273,14.9012],[98.5273,14.902],[98.5282,14.9025],[98.5276,14.9028],[98.5279,14.9034],[98.5273,14.9033],[98.5273,14.9047],[98.5279,14.905],[98.5279,14.9055],[98.5273,14.9058],[98.5279,14.9058],[98.5279,14.9063],[98.5284,14.9066],[98.5281,14.908],[98.529,14.9082],[98.5284,14.9088]],[[98.527,14.9058],[98.5273,14.9061],[98.5273,14.9058],[98.527,14.9058]]]}},{"type":"Feature","properties":{"kind":"seasonal","area_km2":0.267,"date":"2026-10-02"},"geometry":{"type":"Polygon","coordinates":[[[98.5118,14.9714],[98.5113,14.9703],[98.5102,14.9703],[98.5104,14.969],[98.5113,14.9695],[98.5113,14.97],[98.5118,14.9692],[98.5124,14.9692],[98.5124,14.9687],[98.5118,14.9687],[98.5116,14.9681],[98.5104,14.9681],[98.5107,14.9652],[98.5113,14.9643],[98.511,14.9622],[98.5116,14.9616],[98.5124,14.9616],[98.5132,14.9592],[98.5141,14.9589],[98.5146,14.9578],[98.5144,14.9554],[98.5152,14.9551],[98.5152,14.954],[98.5166,14.9535],[98.5158,14.9546],[98.5158,14.9576],[98.5152,14.9578],[98.5152,14.9587],[98.5138,14.9595],[98.5132,14.9624],[98.5124,14.9633],[98.5124,14.9641],[98.5116,14.9654],[98.5118,14.9671],[98.513,14.9673],[98.5135,14.9684],[98.5132,14.97],[98.5118,14.9714]]]}},{"type":"Feature","properties":{"kind":"seasonal","area_km2":0.264,"date":"2026-10-02"},"geometry":{"type":"Polygon","coordinates":[[[98.5123,14.9999],[98.5123,14.9991],[98.5132,14.9991],[98.5137,14.9983],[98.5143,14.9983],[98.5143,14.9974],[98.5137,14.9972],[98.5137,14.9966],[98.5129,14.9966],[98.5129,14.9961],[98.5134,14.9961],[98.5134,14.9953],[98.5126,14.9945],[98.5118,14.9944],[98.5118,14.9936],[98.5129,14.9931],[98.5129,14.9923],[98.5135,14.9917],[98.5154,14.992],[98.5157,14.9912],[98.5165,14.9915],[98.5168,14.9901],[98.5174,14.9901],[98.5171,14.9888],[98.5176,14.9885],[98.5171,14.9871],[98.5185,14.9871],[98.5182,14.9858],[98.5193,14.9858],[98.5199,14.9844],[98.5204,14.9861],[98.5202,14.9866],[98.5188,14.9861],[98.5188,14.9869],[98.5193,14.9869],[98.5193,14.9874],[98.5179,14.9877],[98.5176,14.9888],[98.5185,14.9896],[98.5185,14.9901],[98.5174,14.9904],[98.5174,14.9912],[98.5168,14.9915],[98.5174,14.9923],[98.5185,14.992],[98.5176,14.9928],[98.5176,14.9936],[98.5168,14.9936],[98.5165,14.992],[98.516,14.9928],[98.5132,14.9926],[98.5134,14.9945],[98.514,14.9945],[98.5146,14.9936],[98.5151,14.9936],[98.5151,14.9942],[98.5165,14.9945],[98.5165,14.9953],[98.516,14.9958],[98.514,14.9953],[98.514,14.9961],[98.5151,14.9961],[98.5148,14.9983],[98.5157,14.9991],[98.5143,14.9985],[98.5137,14.9993],[98.5132,14.9993],[98.5134,14.9999],[98.5123,14.9999]],[[98.5151,14.9955],[98.5157,14.9955],[98.516,14.9947],[98.5148,14.995],[98.5151,14.9955]]]}},{"type":"Feature","properties":{"kind":"seasonal","area_km2":0.242,"date":"2026-10-02"},"geometry":{"type":"Polygon","coordinates":[[[98.4704,14.9187],[98.4704,14.9181],[98.4695,14.9176],[98.4698,14.9162],[98.4693,14.9157],[98.469,14.9143],[98.4676,14.9138],[98.4676,14.9127],[98.4671,14.9122],[98.4657,14.9122],[98.4657,14.9116],[98.4651,14.9116],[98.4648,14.91],[98.4643,14.9097],[98.4643,14.9089],[98.4648,14.9089],[98.4651,14.9084],[98.4659,14.9084],[98.4659,14.9089],[98.4651,14.9089],[98.4651,14.9097],[98.4662,14.9105],[98.4662,14.9114],[98.4679,14.9116],[98.4682,14.913],[98.4698,14.9141],[98.4704,14.9168],[98.4712,14.916],[98.4715,14.9149],[98.4732,14.9133],[98.4751,14.9135],[98.4757,14.9146],[98.4776,14.9152],[98.4779,14.9157],[98.4774,14.916],[98.4762,14.9152],[98.4749,14.9149],[98.4737,14.9152],[98.4729,14.9162],[98.4712,14.9165],[98.4709,14.9184],[98.4704,14.9187]],[[98.4707,14.9168],[98.4709,14.9171],[98.4709,14.9168],[98.4707,14.9168]],[[98.4729,14.9149],[98.4732,14.9152],[98.4732,14.9149],[98.4729,14.9149]]]}},{"type":"Feature","properties":{"kind":"seasonal","area_km2":0.228,"date":"2026-10-02"},"geometry":{"type":"Polygon","coordinates":[[[98.6184,14.9998],[98.6186,14.9979],[98.6178,14.9974],[98.6184,14.9966],[98.6203,14.9957],[98.6212,14.9968],[98.6217,14.9968],[98.6225,14.9963],[98.6234,14.9947],[98.6245,14.9947],[98.6245,14.9952],[98.6253,14.9952],[98.6253,14.9968],[98.6242,14.9971],[98.6231,14.9985],[98.6217,14.9987],[98.6211,14.9995],[98.62,14.9995],[98.62,14.9998],[98.6184,14.9998]],[[98.6195,14.999],[98.62,14.9995],[98.62,14.999],[98.6195,14.999]],[[98.6189,14.9974],[98.6195,14.9971],[98.6192,14.9966],[98.6186,14.9968],[98.6189,14.9974]]]}},{"type":"Feature","properties":{"kind":"seasonal","area_km2":0.227,"date":"2026-10-02"},"geometry":{"type":"Polygon","coordinates":[[[98.6072,14.9938],[98.6072,14.9933],[98.6089,14.9922],[98.6089,14.9911],[98.608,14.99],[98.6083,14.9908],[98.6072,14.9906],[98.6072,14.993],[98.6058,14.9933],[98.6061,14.9927],[98.6055,14.9925],[98.6055,14.9933],[98.6047,14.9933],[98.605,14.9916],[98.6066,14.9925],[98.6067,14.9914],[98.6053,14.9914],[98.6061,14.9903],[98.6058,14.9895],[98.6064,14.9889],[98.6092,14.9889],[98.6094,14.9895],[98.6097,14.9887],[98.6092,14.9887],[98.6089,14.9881],[98.6111,14.9884],[98.612,14.9881],[98.612,14.9876],[98.6125,14.9876],[98.6128,14.9889],[98.6134,14.9892],[98.6133,14.9914],[98.6125,14.9898],[98.6114,14.9895],[98.6108,14.99],[98.6097,14.9895],[98.6092,14.99],[98.6092,14.9911],[98.61,14.9917],[98.6103,14.9925],[98.6094,14.9922],[98.6092,14.9936],[98.6072,14.9938]]]}},{"type":"Feature","properties":{"kind":"seasonal","area_km2":0.22,"date":"2026-10-02"},"geometry":{"type":"Polygon","coordinates":[[[98.5072,14.8024],[98.5072,14.8019],[98.5077,14.8019],[98.5086,14.8011],[98.5075,14.8],[98.5075,14.7967],[98.508,14.7967],[98.5083,14.7959],[98.5089,14.7959],[98.5086,14.7951],[98.5094,14.7948],[98.5094,14.7943],[98.5089,14.7943],[98.5086,14.7929],[98.5094,14.7913],[98.512,14.7913],[98.5111,14.7897],[98.5122,14.7897],[98.5122,14.788],[98.5136,14.7878],[98.5136,14.7899],[98.5128,14.7905],[98.5128,14.7916],[98.5111,14.7921],[98.5108,14.7927],[98.51,14.7927],[98.5106,14.7937],[98.5097,14.7962],[98.51,14.7981],[98.5094,14.7983],[98.5089,14.7983],[98.5089,14.7978],[98.5083,14.7978],[98.508,14.7981],[98.508,14.8],[98.5089,14.8002],[98.5089,14.8019],[98.5072,14.8024]],[[98.508,14.7975],[98.5083,14.7978],[98.5083,14.7975],[98.508,14.7975]]]}},{"type":"Feature","properties":{"kind":"seasonal","area_km2":0.211,"date":"2026-10-02"},"geometry":{"type":"Polygon","coordinates":[[[98.4523,14.8009],[98.4526,14.7979],[98.4537,14.7971],[98.4534,14.7952],[98.4523,14.795],[98.4526,14.7944],[98.4531,14.7944],[98.4528,14.7931],[98.4523,14.7931],[98.4523,14.792],[98.4512,14.7931],[98.4512,14.7939],[98.4506,14.7939],[98.4506,14.7944],[98.4512,14.7944],[98.4509,14.7952],[98.4506,14.7947],[98.4495,14.795],[98.4495,14.7941],[98.4501,14.7941],[98.4509,14.7933],[98.4512,14.7922],[98.4526,14.7906],[98.454,14.7904],[98.4545,14.7912],[98.4545,14.7928],[98.4551,14.7933],[98.4548,14.7947],[98.4553,14.7958],[98.4531,14.7982],[98.4531,14.7996],[98.4523,14.8009]]]}},{"type":"Feature","properties":{"kind":"seasonal","area_km2":0.211,"date":"2026-10-02"},"geometry":{"type":"Polygon","coordinates":[[[98.5688,14.9634],[98.569,14.962],[98.5679,14.9617],[98.5679,14.9609],[98.5674,14.9609],[98.5671,14.9601],[98.5665,14.9609],[98.566,14.9609],[98.5663,14.9598],[98.5682,14.959],[98.5685,14.9582],[98.5707,14.9585],[98.5704,14.958],[98.5713,14.958],[98.5721,14.9588],[98.573,14.9588],[98.5724,14.9601],[98.5693,14.9598],[98.5693,14.9607],[98.5713,14.9609],[98.5716,14.962],[98.571,14.9631],[98.5688,14.9634]]]}},{"type":"Feature","properties":{"kind":"seasonal","area_km2":0.194,"date":"2026-10-02"},"geometry":{"type":"Polygon","coordinates":[[[98.617,14.9952],[98.6164,14.9949],[98.6164,14.9936],[98.6156,14.9936],[98.615,14.993],[98.615,14.9922],[98.6156,14.9919],[98.6164,14.9925],[98.6181,14.9906],[98.6189,14.9906],[98.6189,14.9917],[98.6206,14.9914],[98.6223,14.99],[98.6228,14.9884],[98.6234,14.9884],[98.6237,14.9895],[98.6231,14.9895],[98.6226,14.99],[98.6226,14.9909],[98.6214,14.9914],[98.6214,14.9928],[98.6212,14.9933],[98.62,14.9936],[98.62,14.9947],[98.6192,14.9949],[98.6195,14.9941],[98.6189,14.9936],[98.6181,14.9936],[98.617,14.9952]],[[98.6195,14.9936],[98.62,14.9928],[98.6209,14.9928],[98.6209,14.9922],[98.6189,14.9928],[98.6195,14.993],[98.6195,14.9936]],[[98.6178,14.9925],[98.6184,14.9928],[98.6184,14.9925],[98.6178,14.9925]],[[98.6175,14.9922],[98.6178,14.9925],[98.6178,14.9922],[98.6175,14.9922]],[[98.617,14.9919],[98.6175,14.9922],[98.6175,14.9919],[98.617,14.9919]]]}},{"type":"Feature","properties":{"kind":"seasonal","area_km2":0.192,"date":"2026-10-02"},"geometry":{"type":"Polygon","coordinates":[[[98.4781,14.8392],[98.4781,14.8387],[98.4773,14.8381],[98.4778,14.8376],[98.477,14.8373],[98.477,14.8362],[98.4784,14.8365],[98.4778,14.8325],[98.4778,14.8319],[98.4787,14.8316],[98.479,14.83],[98.4784,14.8278],[98.479,14.827],[98.4804,14.827],[98.4804,14.8265],[98.4815,14.8259],[98.4815,14.8265],[98.4806,14.827],[98.4806,14.8278],[98.479,14.8284],[98.4795,14.8289],[98.479,14.8308],[98.4795,14.8319],[98.479,14.8319],[98.4784,14.8327],[98.4784,14.8344],[98.479,14.8352],[98.4798,14.8354],[98.4798,14.836],[98.4809,14.8365],[98.4809,14.8376],[98.4803,14.8373],[98.4798,14.8382],[98.4792,14.8381],[98.4792,14.8387],[98.4787,14.8387],[98.4789,14.8392],[98.4781,14.8392]],[[98.4787,14.8381],[98.4789,14.8384],[98.4789,14.8381],[98.4787,14.8381]]]}},{"type":"Feature","properties":{"kind":"seasonal","area_km2":0.178,"date":"2026-10-02"},"geometry":{"type":"Polygon","coordinates":[[[98.4316,14.8104],[98.4311,14.8066],[98.43,14.8074],[98.4288,14.8074],[98.4283,14.8063],[98.4274,14.8063],[98.4286,14.8058],[98.4288,14.8047],[98.4302,14.8049],[98.4305,14.8041],[98.4316,14.8044],[98.4313,14.8052],[98.4327,14.8052],[98.4327,14.8047],[98.4333,14.805],[98.4333,14.8058],[98.4327,14.806],[98.4327,14.8068],[98.4322,14.8074],[98.4325,14.8087],[98.4333,14.809],[98.4333,14.8104],[98.4316,14.8104]],[[98.4327,14.8093],[98.433,14.8098],[98.433,14.8093],[98.4327,14.8093]],[[98.4291,14.8055],[98.4294,14.8058],[98.4294,14.8055],[98.4291,14.8055]]]}},{"type":"Feature","properties":{"kind":"seasonal","area_km2":0.17,"date":"2026-10-02"},"geometry":{"type":"Polygon","coordinates":[[[98.4745,14.9314],[98.4745,14.9263],[98.4757,14.9266],[98.4759,14.9257],[98.4771,14.9249],[98.4776,14.9239],[98.4771,14.9222],[98.4779,14.9217],[98.4813,14.9212],[98.481,14.9217],[98.4796,14.922],[98.4796,14.923],[98.4787,14.9233],[98.4787,14.9241],[98.4776,14.9244],[98.4776,14.9252],[98.4768,14.926],[98.4773,14.9266],[98.4762,14.9274],[98.4762,14.929],[98.4754,14.9304],[98.4754,14.9312],[98.4745,14.9314]]]}},{"type":"Feature","properties":{"kind":"seasonal","area_km2":0.163,"date":"2026-10-02"},"geometry":{"type":"Polygon","coordinates":[[[98.4992,14.8916],[98.4956,14.8881],[98.4961,14.8876],[98.4967,14.8827],[98.4972,14.8835],[98.4978,14.8835],[98.4986,14.8819],[98.4992,14.8819],[98.4986,14.8827],[98.4986,14.8846],[98.5003,14.8838],[98.5009,14.8854],[98.5003,14.8854],[98.5003,14.8862],[98.4997,14.8851],[98.4992,14.8851],[98.4986,14.8859],[98.4972,14.8862],[98.4967,14.8884],[98.4989,14.8908],[98.5014,14.89],[98.5011,14.8908],[98.5003,14.8908],[98.5,14.8916],[98.4992,14.8916]],[[98.4978,14.8854],[98.4984,14.8851],[98.4984,14.884],[98.4972,14.8838],[98.497,14.8848],[98.4978,14.8854]]]}},{"type":"Feature","properties":{"kind":"seasonal","area_km2":0.159,"date":"2026-10-02"},"geometry":{"type":"Polygon","coordinates":[[[98.4804,14.9206],[98.4807,14.9193],[98.4796,14.919],[98.4796,14.9182],[98.4804,14.9179],[98.4807,14.9171],[98.4802,14.9163],[98.4796,14.9171],[98.4785,14.9171],[98.4782,14.9163],[98.479,14.916],[98.4793,14.9152],[98.4807,14.9152],[98.4815,14.916],[98.4824,14.916],[98.4824,14.9165],[98.4829,14.9168],[98.4829,14.9187],[98.4824,14.9193],[98.4824,14.9201],[98.4818,14.9198],[98.4804,14.9206]],[[98.4807,14.919],[98.481,14.9193],[98.481,14.919],[98.4807,14.919]]]}},{"type":"Feature","properties":{"kind":"seasonal","area_km2":0.144,"date":"2026-10-02"},"geometry":{"type":"Polygon","coordinates":[[[98.4841,14.9998],[98.4853,14.9987],[98.485,14.9971],[98.4858,14.9963],[98.4864,14.9963],[98.4869,14.9974],[98.4875,14.9968],[98.4889,14.9968],[98.4889,14.9974],[98.4894,14.9977],[98.4892,14.9987],[98.49,14.9987],[98.49,14.9993],[98.4894,14.9993],[98.4892,14.9998],[98.4841,14.9998]],[[98.4869,14.999],[98.4872,14.9993],[98.4872,14.999],[98.4869,14.999]],[[98.488,14.999],[98.4883,14.9993],[98.4883,14.999],[98.488,14.999]],[[98.4883,14.999],[98.4886,14.9977],[98.4875,14.9977],[98.4883,14.9979],[98.4883,14.999]],[[98.4872,14.9979],[98.4875,14.9982],[98.4875,14.9979],[98.4872,14.9979]]]}},{"type":"Feature","properties":{"kind":"seasonal","area_km2":0.144,"date":"2026-10-02"},"geometry":{"type":"Polygon","coordinates":[[[98.4638,14.9672],[98.4638,14.9659],[98.4627,14.9659],[98.4622,14.9653],[98.4616,14.9656],[98.4622,14.9645],[98.4639,14.9637],[98.4641,14.9629],[98.4636,14.9623],[98.4644,14.9623],[98.4644,14.9642],[98.4652,14.9648],[98.4675,14.9648],[98.4675,14.9653],[98.468,14.9656],[98.4694,14.9656],[98.4705,14.9651],[98.4703,14.9656],[98.4697,14.9656],[98.4703,14.9659],[98.4703,14.9664],[98.4694,14.9661],[98.4691,14.9667],[98.468,14.9664],[98.4675,14.967],[98.4675,14.9661],[98.4661,14.9653],[98.4661,14.9656],[98.4658,14.9656],[98.4658,14.9659],[98.4655,14.9659],[98.4655,14.9661],[98.4652,14.9661],[98.465,14.9664],[98.4647,14.9672],[98.4638,14.9672]],[[98.4647,14.9659],[98.4652,14.9661],[98.4652,14.9659],[98.4647,14.9659]],[[98.4655,14.9656],[98.4658,14.9651],[98.4644,14.9651],[98.4644,14.9653],[98.4655,14.9656]],[[98.4641,14.9648],[98.4644,14.9651],[98.4644,14.9648],[98.4641,14.9648]]]}},{"type":"Feature","properties":{"kind":"seasonal","area_km2":0.14,"date":"2026-10-02"},"geometry":{"type":"Polygon","coordinates":[[[98.598,14.9943],[98.598,14.9938],[98.5972,14.9935],[98.598,14.993],[98.598,14.9924],[98.5974,14.9919],[98.5963,14.9924],[98.5963,14.9916],[98.5972,14.9916],[98.5972,14.9903],[98.5955,14.99],[98.5952,14.9908],[98.5947,14.9908],[98.5949,14.9897],[98.5958,14.9895],[98.5955,14.9884],[98.5969,14.9886],[98.5952,14.9878],[98.5958,14.9865],[98.5972,14.9865],[98.5963,14.987],[98.5966,14.9881],[98.598,14.9878],[98.598,14.9862],[98.5975,14.9857],[98.5986,14.9859],[98.5983,14.9873],[98.5988,14.9892],[98.598,14.9897],[98.598,14.9889],[98.5974,14.9884],[98.5963,14.9892],[98.5963,14.9897],[98.5977,14.99],[98.598,14.9916],[98.5988,14.9916],[98.5994,14.9911],[98.5994,14.9925],[98.6008,14.993],[98.6,14.9933],[98.5991,14.9925],[98.5986,14.9924],[98.598,14.9943]],[[98.598,14.9919],[98.5991,14.9922],[98.5991,14.9916],[98.598,14.9919]],[[98.5974,14.9916],[98.5977,14.9919],[98.5977,14.9916],[98.5974,14.9916]]]}},{"type":"Feature","properties":{"kind":"seasonal","area_km2":0.136,"date":"2026-10-02"},"geometry":{"type":"Polygon","coordinates":[[[98.4358,14.821],[98.4341,14.821],[98.4347,14.8204],[98.4344,14.8199],[98.4316,14.8193],[98.4324,14.8182],[98.4333,14.818],[98.4333,14.8174],[98.4324,14.8172],[98.4319,14.8161],[98.433,14.815],[98.433,14.8139],[98.4344,14.8144],[98.4344,14.8128],[98.4352,14.8128],[98.4355,14.8139],[98.4349,14.815],[98.4341,14.8155],[98.4341,14.8166],[98.4335,14.8169],[98.4335,14.8185],[98.4344,14.8191],[98.4347,14.8199],[98.4352,14.8199],[98.4355,14.8191],[98.4358,14.8199],[98.4349,14.8207],[98.4358,14.8204],[98.4358,14.821]],[[98.433,14.8166],[98.4336,14.8166],[98.4336,14.8158],[98.4327,14.8158],[98.433,14.8166]]]}},{"type":"Feature","properties":{"kind":"seasonal","area_km2":0.131,"date":"2026-10-02"},"geometry":{"type":"Polygon","coordinates":[[[98.5799,14.7055],[98.5793,14.7052],[98.5793,14.7046],[98.5813,14.7044],[98.581,14.7027],[98.5793,14.7019],[98.5785,14.7011],[98.5782,14.7],[98.5768,14.7003],[98.5757,14.6997],[98.5751,14.6987],[98.5765,14.6987],[98.5774,14.6995],[98.579,14.6992],[98.5799,14.7014],[98.5815,14.7017],[98.5821,14.703],[98.5818,14.7055],[98.5807,14.7055],[98.5804,14.7049],[98.5799,14.7055]]]}},{"type":"Feature","properties":{"kind":"seasonal","area_km2":0.129,"date":"2026-10-02"},"geometry":{"type":"Polygon","coordinates":[[[98.5096,14.8624],[98.5082,14.8618],[98.5076,14.8607],[98.5071,14.8613],[98.5065,14.8607],[98.5054,14.8607],[98.5051,14.8602],[98.5054,14.8596],[98.5059,14.8596],[98.5059,14.8588],[98.5054,14.8586],[98.5043,14.8607],[98.504,14.8583],[98.5046,14.8583],[98.5046,14.8572],[98.5059,14.8575],[98.5057,14.858],[98.5065,14.8591],[98.5068,14.8605],[98.5073,14.8605],[98.5085,14.8591],[98.5096,14.8591],[98.5096,14.8624]]]}},{"type":"Feature","properties":{"kind":"seasonal","area_km2":0.125,"date":"2026-10-02"},"geometry":{"type":"Polygon","coordinates":[[[98.5209,14.9172],[98.5206,14.9166],[98.5195,14.9166],[98.5192,14.9158],[98.5186,14.9158],[98.5184,14.9153],[98.5184,14.9134],[98.5198,14.9139],[98.5198,14.9126],[98.5189,14.9126],[98.5187,14.912],[98.52,14.9117],[98.5198,14.9123],[98.5203,14.9126],[98.5214,14.912],[98.5212,14.9134],[98.5203,14.9134],[98.5203,14.9139],[98.5209,14.9139],[98.5209,14.9153],[98.5217,14.9155],[98.522,14.9169],[98.5209,14.9172]]]}},{"type":"Feature","properties":{"kind":"seasonal","area_km2":0.118,"date":"2026-10-02"},"geometry":{"type":"Polygon","coordinates":[[[98.5282,14.7661],[98.5282,14.765],[98.5271,14.7645],[98.5265,14.7634],[98.5262,14.7639],[98.5257,14.7639],[98.5254,14.7653],[98.5254,14.7642],[98.5246,14.7642],[98.5257,14.7631],[98.5251,14.7604],[98.5262,14.7601],[98.5265,14.7593],[98.5271,14.7593],[98.5274,14.7601],[98.5262,14.761],[98.5262,14.7615],[98.5276,14.7623],[98.5285,14.7623],[98.5285,14.7648],[98.529,14.7653],[98.5282,14.7661]],[[98.5271,14.7637],[98.5279,14.7634],[98.5276,14.7626],[98.5268,14.7628],[98.5271,14.7637]],[[98.5262,14.7623],[98.5265,14.7631],[98.5265,14.7623],[98.5262,14.7623]]]}},{"type":"Feature","properties":{"kind":"seasonal","area_km2":0.116,"date":"2026-10-02"},"geometry":{"type":"Polygon","coordinates":[[[98.5874,14.703],[98.5871,14.7014],[98.5877,14.7014],[98.5877,14.7006],[98.5885,14.7006],[98.5899,14.6981],[98.5893,14.6971],[98.5896,14.696],[98.5891,14.6957],[98.5896,14.6957],[98.5899,14.6949],[98.5907,14.6946],[98.591,14.6987],[98.5899,14.699],[98.5902,14.7],[98.5882,14.7017],[98.5879,14.7028],[98.5874,14.703]]]}},{"type":"Feature","properties":{"kind":"seasonal","area_km2":0.112,"date":"2026-10-02"},"geometry":{"type":"Polygon","coordinates":[[[98.4781,14.9377],[98.4793,14.9353],[98.4796,14.9334],[98.4812,14.932],[98.4812,14.9315],[98.4826,14.9301],[98.4818,14.9325],[98.4804,14.9334],[98.4818,14.9334],[98.4818,14.9339],[98.4815,14.935],[98.4804,14.9353],[98.4804,14.9358],[98.4798,14.9361],[98.4801,14.9374],[98.4781,14.9377]]]}},{"type":"Feature","properties":{"kind":"seasonal","area_km2":0.109,"date":"2026-10-02"},"geometry":{"type":"Polygon","coordinates":[[[98.4625,14.8308],[98.4622,14.8302],[98.4611,14.8305],[98.4611,14.8297],[98.4625,14.8286],[98.4625,14.8267],[98.4634,14.8265],[98.4631,14.8243],[98.4639,14.8243],[98.4639,14.8254],[98.4656,14.8254],[98.4661,14.827],[98.4656,14.8275],[98.4656,14.8262],[98.465,14.8256],[98.4639,14.8259],[98.4642,14.8265],[98.4634,14.827],[98.4642,14.827],[98.4645,14.8278],[98.4639,14.8286],[98.4634,14.8286],[98.4633,14.83],[98.4625,14.8308]],[[98.4628,14.8283],[98.4631,14.8286],[98.4631,14.8283],[98.4628,14.8283]],[[98.4628,14.8273],[98.4634,14.8275],[98.4634,14.8273],[98.4628,14.8273]]]}},{"type":"Feature","properties":{"kind":"seasonal","area_km2":0.108,"date":"2026-10-02"},"geometry":{"type":"Polygon","coordinates":[[[98.4836,14.8761],[98.4833,14.8748],[98.4814,14.875],[98.4808,14.8756],[98.4797,14.8756],[98.4794,14.875],[98.4814,14.8742],[98.4816,14.8734],[98.4822,14.8737],[98.4822,14.8731],[98.4833,14.8731],[98.4836,14.8737],[98.4847,14.874],[98.4856,14.8737],[98.4853,14.8753],[98.4836,14.8761]],[[98.4825,14.8734],[98.4828,14.8737],[98.4828,14.8734],[98.4825,14.8734]]]}},{"type":"Feature","properties":{"kind":"seasonal","area_km2":0.105,"date":"2026-10-02"},"geometry":{"type":"Polygon","coordinates":[[[98.4964,14.8762],[98.4964,14.8751],[98.4936,14.8753],[98.4934,14.8748],[98.4914,14.8745],[98.4917,14.8726],[98.4922,14.8726],[98.4925,14.8721],[98.4942,14.8726],[98.4945,14.8734],[98.495,14.8734],[98.4956,14.8743],[98.4967,14.8748],[98.4964,14.8762]],[[98.4939,14.8748],[98.4948,14.8745],[98.4945,14.8734],[98.4942,14.874],[98.4936,14.874],[98.4939,14.8748]]]}},{"type":"Feature","properties":{"kind":"seasonal","area_km2":0.101,"date":"2026-10-02"},"geometry":{"type":"Polygon","coordinates":[[[98.5284,14.7916],[98.5281,14.7905],[98.5287,14.7902],[98.5287,14.7889],[98.5281,14.7889],[98.5278,14.7883],[98.5281,14.7875],[98.5273,14.787],[98.5273,14.7878],[98.5267,14.7878],[98.527,14.7886],[98.5256,14.7889],[98.5256,14.7873],[98.5262,14.7875],[98.5267,14.787],[98.527,14.7854],[98.5281,14.7854],[98.5281,14.787],[98.529,14.7875],[98.5287,14.7881],[98.5292,14.7884],[98.529,14.7894],[98.5301,14.7894],[98.5295,14.7908],[98.529,14.7908],[98.529,14.7913],[98.5284,14.7916]],[[98.5276,14.7862],[98.5279,14.787],[98.5279,14.7862],[98.5276,14.7862]]]}}]}
