{"type":"FeatureCollection","properties":{"v":3,"id":"t98_16","name":"ตาก · กำแพงเพชร","aoi":[98.4189,16.0,99.0,17.0],"date":"2026-10-09","dates":["2026-10-09","2026-10-02"],"baseline_years":3,"has_seasonal":true,"totals":{"flood_high":0.0,"flood_low":0.0,"seasonal":0.2},"provinces":[{"name":"ตาก","zone":"th-w","flood_high":0.0,"flood_low":0.0,"seasonal":0.2}],"scenes":{"2026-10-09":2,"2026-10-02":2},"baseline_dates":["2025-10-07","2024-10-09","2023-10-06"],"threshold_db":-15.0,"auto":true,"source":"Sentinel-1 RTC (Copernicus/ESA) via Microsoft Planetary Computer; JRC Global Surface Water; Copernicus DEM","method":"ChatGeo v3: Otsu threshold on VV dB; minus JRC permanent water and slope > 5 deg; unusual = water not present in most of the previous 3 years (same season)","added":"2026-10-10T16:37+07:00"},"features":[{"type":"Feature","properties":{"kind":"seasonal","area_km2":0.121,"date":"2026-10-02"},"geometry":{"type":"Polygon","coordinates":[[[98.784,16.4326],[98.7818,16.4323],[98.7812,16.4318],[98.7798,16.4318],[98.7803,16.4291],[98.7818,16.4291],[98.7843,16.431],[98.784,16.4326]],[[98.7803,16.4312],[98.7809,16.431],[98.7809,16.4299],[98.7806,16.4299],[98.7803,16.4312]]]}},{"type":"Feature","properties":{"kind":"seasonal","area_km2":0.106,"date":"2026-10-02"},"geometry":{"type":"Polygon","coordinates":[[[98.7407,16.835],[98.7399,16.8334],[98.7399,16.8326],[98.7407,16.8317],[98.743,16.8317],[98.7436,16.8323],[98.745,16.8323],[98.745,16.8331],[98.7433,16.8336],[98.743,16.8342],[98.7419,16.8342],[98.7407,16.835]],[[98.7424,16.8334],[98.7436,16.8334],[98.7441,16.8328],[98.743,16.8323],[98.743,16.8331],[98.7424,16.8334]],[[98.7419,16.8328],[98.7422,16.8331],[98.7422,16.8328],[98.7419,16.8328]]]}}]}
