{"type":"FeatureCollection","properties":{"v":3,"id":"t98_17","name":"ลำพูน · ตาก · เชียงใหม่","aoi":[98.0,17.0,99.0,18.0],"date":"2026-10-09","dates":["2026-10-09","2026-10-02"],"baseline_years":3,"has_seasonal":true,"totals":{"flood_high":1.7,"flood_low":0.3,"seasonal":49.2},"provinces":[{"name":"เชียงใหม่","zone":"th-n","flood_high":1.7,"flood_low":0.2,"seasonal":35.9},{"name":"ตาก","zone":"th-w","flood_high":0.0,"flood_low":0.1,"seasonal":11.4},{"name":"ลำพูน","zone":"th-n","flood_high":0.0,"flood_low":0.0,"seasonal":1.9}],"scenes":{"2026-10-09":1,"2026-10-02":1},"baseline_dates":["2025-10-09","2024-10-09","2023-10-08"],"threshold_db":-15.0,"auto":true,"source":"Sentinel-1 RTC (Copernicus/ESA) via Microsoft Planetary Computer; JRC Global Surface Water; Copernicus DEM","method":"ChatGeo v3: Otsu threshold on VV dB; minus JRC permanent water and slope > 5 deg; unusual = water not present in most of the previous 3 years (same season)","added":"2026-10-10T16:37+07:00"},"features":[{"type":"Feature","properties":{"kind":"flood","area_km2":1.257,"conf":"high","date":"2026-10-09"},"geometry":{"type":"Polygon","coordinates":[[[98.6379,17.9998],[98.6376,17.9982],[98.6371,17.9982],[98.6371,17.9976],[98.6399,17.9946],[98.6399,17.9941],[98.6391,17.9946],[98.6371,17.9946],[98.6371,17.9938],[98.6394,17.993],[98.6405,17.9911],[98.6405,17.9903],[98.6413,17.99],[98.6416,17.9892],[98.6425,17.9887],[98.6425,17.9881],[98.6433,17.9873],[98.6433,17.9865],[98.6445,17.9854],[98.645,17.9854],[98.645,17.9846],[98.6459,17.9841],[98.6459,17.983],[98.647,17.983],[98.647,17.9838],[98.6476,17.9838],[98.6476,17.983],[98.6484,17.9825],[98.6485,17.9811],[98.647,17.9808],[98.6487,17.9806],[98.6487,17.9789],[98.6496,17.9789],[98.649,17.9822],[98.6493,17.9827],[98.6504,17.983],[98.6513,17.9844],[98.6501,17.9846],[98.6499,17.9868],[98.6524,17.9868],[98.6535,17.9882],[98.6521,17.9882],[98.6521,17.9873],[98.6507,17.9873],[98.6507,17.9884],[98.6499,17.9884],[98.6496,17.989],[98.6498,17.9911],[98.6487,17.9911],[98.6487,17.9925],[98.6479,17.9925],[98.6479,17.9941],[98.6498,17.9944],[98.6493,17.9947],[98.649,17.9974],[98.6473,17.9982],[98.647,17.9976],[98.6464,17.9976],[98.6473,17.9968],[98.647,17.9957],[98.6447,17.9952],[98.6447,17.9968],[98.6436,17.9971],[98.6436,17.996],[98.6425,17.996],[98.6428,17.9955],[98.6422,17.9955],[98.6422,17.9974],[98.6408,17.9974],[98.6408,17.9982],[98.6385,17.9982],[98.6388,17.9998],[98.6379,17.9998]],[[98.6394,17.9971],[98.6408,17.9971],[98.6408,17.9965],[98.6416,17.9965],[98.6416,17.9949],[98.6399,17.9949],[98.6399,17.9957],[98.6394,17.9957],[98.6394,17.9971]],[[98.6416,17.9946],[98.6436,17.9947],[98.6436,17.9938],[98.645,17.9936],[98.645,17.9922],[98.6436,17.9922],[98.6433,17.9938],[98.643,17.9933],[98.6416,17.9933],[98.6416,17.9946]],[[98.6467,17.9928],[98.647,17.993],[98.647,17.9928],[98.6467,17.9928]],[[98.6411,17.9922],[98.6416,17.9917],[98.643,17.9917],[98.6433,17.9906],[98.6442,17.9906],[98.6442,17.989],[98.6425,17.989],[98.6425,17.9898],[98.6419,17.9898],[98.6411,17.9922]],[[98.6479,17.9833],[98.6482,17.9838],[98.6482,17.9833],[98.6479,17.9833]],[[98.6493,17.9833],[98.6496,17.9838],[98.6496,17.9833],[98.6493,17.9833]],[[98.6482,17.983],[98.6484,17.9833],[98.6484,17.983],[98.6482,17.983]]]}},{"type":"Feature","properties":{"kind":"flood","area_km2":0.29,"conf":"high","date":"2026-10-09"},"geometry":{"type":"Polygon","coordinates":[[[98.6564,17.9868],[98.6564,17.9863],[98.6578,17.9863],[98.6578,17.9857],[98.6586,17.9855],[98.6586,17.9841],[98.6558,17.9838],[98.6558,17.9855],[98.6541,17.9855],[98.6541,17.9849],[98.6533,17.9849],[98.6533,17.9841],[98.6544,17.9841],[98.6541,17.9822],[98.6553,17.9811],[98.6553,17.9792],[98.6547,17.9792],[98.6547,17.9779],[98.6538,17.9773],[98.6541,17.9765],[98.6544,17.9773],[98.655,17.9773],[98.6553,17.9779],[98.6564,17.9776],[98.6564,17.9789],[98.657,17.9789],[98.657,17.9806],[98.6561,17.9808],[98.6564,17.9836],[98.6578,17.9836],[98.6584,17.9808],[98.6584,17.9822],[98.6589,17.9825],[98.6589,17.983],[98.6606,17.983],[98.6606,17.9855],[98.6615,17.9857],[98.6595,17.9857],[98.6595,17.9868],[98.6564,17.9868]]]}},{"type":"Feature","properties":{"kind":"flood","area_km2":0.094,"conf":"low","date":"2026-10-09"},"geometry":{"type":"Polygon","coordinates":[[[98.6297,17.9998],[98.6294,17.9984],[98.6286,17.9984],[98.6297,17.9981],[98.6297,17.9976],[98.6328,17.9973],[98.6325,17.9979],[98.6331,17.9979],[98.6328,17.9984],[98.6331,17.999],[98.6337,17.999],[98.6337,17.9998],[98.6297,17.9998]]]}},{"type":"Feature","properties":{"kind":"flood","area_km2":0.087,"conf":"high","date":"2026-10-09"},"geometry":{"type":"Polygon","coordinates":[[[98.6359,18.0025],[98.6359,18.0014],[98.6374,18.0014],[98.6374,18.0006],[98.6379,18.0003],[98.6396,18.0003],[98.6405,18.0017],[98.6405,18.0025],[98.6359,18.0025]]]}},{"type":"Feature","properties":{"kind":"flood","area_km2":0.067,"conf":"low","date":"2026-10-09"},"geometry":{"type":"Polygon","coordinates":[[[98.6346,17.977],[98.6346,17.9765],[98.6323,17.9765],[98.6323,17.9743],[98.6337,17.9743],[98.634,17.9754],[98.6351,17.9754],[98.6363,17.9765],[98.6363,17.9767],[98.6357,17.9767],[98.6357,17.9765],[98.6354,17.9765],[98.6354,17.977],[98.6346,17.977]],[[98.6351,17.9762],[98.6354,17.9765],[98.6354,17.9762],[98.6351,17.9762]],[[98.6349,17.9759],[98.6351,17.9762],[98.6351,17.9759],[98.6349,17.9759]]]}},{"type":"Feature","properties":{"kind":"flood","area_km2":0.066,"conf":"low","date":"2026-10-09"},"geometry":{"type":"Polygon","coordinates":[[[98.6327,17.913],[98.6327,17.9117],[98.6305,17.9119],[98.6307,17.9092],[98.6322,17.91],[98.6324,17.9114],[98.6336,17.9114],[98.6339,17.913],[98.6327,17.913]]]}},{"type":"Feature","properties":{"kind":"flood","area_km2":0.056,"conf":"high","date":"2026-10-09"},"geometry":{"type":"Polygon","coordinates":[[[98.6414,17.9814],[98.6411,17.9808],[98.64,17.9805],[98.6417,17.9803],[98.6411,17.9797],[98.6428,17.9797],[98.6428,17.9803],[98.6448,17.98],[98.6453,17.9792],[98.6451,17.9806],[98.6436,17.9806],[98.6431,17.9814],[98.6414,17.9814]],[[98.6419,17.98],[98.6422,17.9803],[98.6422,17.98],[98.6419,17.98]]]}},{"type":"Feature","properties":{"kind":"flood","area_km2":0.054,"conf":"low","date":"2026-10-02"},"geometry":{"type":"Polygon","coordinates":[[[98.0333,17.4576],[98.0333,17.4563],[98.0342,17.4552],[98.0347,17.4552],[98.0353,17.453],[98.0364,17.4522],[98.0367,17.4536],[98.0359,17.4544],[98.0353,17.4544],[98.0344,17.4568],[98.0333,17.4576]]]}},{"type":"Feature","properties":{"kind":"flood","area_km2":0.05,"conf":"high","date":"2026-10-09"},"geometry":{"type":"Polygon","coordinates":[[[98.6572,17.9898],[98.6561,17.9884],[98.6595,17.9884],[98.6595,17.9874],[98.6601,17.9874],[98.6601,17.989],[98.6592,17.989],[98.6592,17.9895],[98.6572,17.9898]]]}},{"type":"Feature","properties":{"kind":"seasonal","area_km2":30.055,"date":"2026-10-09"},"geometry":{"type":"Polygon","coordinates":[[[98.6564,17.9836],[98.6561,17.9808],[98.657,17.9806],[98.657,17.9789],[98.6564,17.9789],[98.6564,17.9776],[98.6544,17.9773],[98.6544,17.9765],[98.655,17.976],[98.6538,17.9762],[98.653,17.9773],[98.6519,17.9779],[98.6504,17.977],[98.6485,17.977],[98.6485,17.9765],[98.6476,17.9762],[98.6462,17.9781],[98.6468,17.9781],[98.6476,17.9773],[98.6476,17.9768],[98.6482,17.977],[98.6482,17.9784],[98.6476,17.9784],[98.6473,17.9792],[98.6487,17.9792],[98.6487,17.9806],[98.6479,17.9808],[98.647,17.9808],[98.6476,17.9797],[98.6468,17.9795],[98.6462,17.9803],[98.6453,17.9803],[98.6451,17.9789],[98.6442,17.9797],[98.6402,17.9797],[98.6394,17.9792],[98.6377,17.9795],[98.6383,17.9789],[98.6366,17.9776],[98.6363,17.9765],[98.6351,17.9754],[98.634,17.9754],[98.6337,17.974],[98.6334,17.974],[98.6334,17.9743],[98.6323,17.9743],[98.6326,17.9729],[98.6315,17.9719],[98.6303,17.9721],[98.6306,17.9716],[98.6298,17.9705],[98.6301,17.9697],[98.6292,17.967],[98.6292,17.9664],[98.6298,17.9667],[98.6298,17.9634],[98.6287,17.9637],[98.6284,17.9624],[98.6261,17.9626],[98.627,17.9594],[98.6287,17.9596],[98.6292,17.9583],[98.6295,17.9596],[98.6306,17.9596],[98.6298,17.9586],[98.6295,17.9545],[98.6301,17.9542],[98.6298,17.9537],[98.6312,17.9537],[98.6324,17.9529],[98.6318,17.9526],[98.6324,17.9521],[98.6292,17.9515],[98.6284,17.9507],[98.6284,17.9502],[98.6264,17.9501],[98.6256,17.9485],[98.6256,17.9455],[98.6261,17.9453],[98.6261,17.9445],[98.6287,17.9447],[98.6281,17.9436],[98.6264,17.9431],[98.6267,17.9382],[98.6262,17.9382],[98.6262,17.9377],[98.6267,17.9379],[98.627,17.9371],[98.6267,17.9355],[98.6256,17.9355],[98.6256,17.935],[98.6262,17.9344],[98.6276,17.9344],[98.6276,17.9325],[98.6284,17.9325],[98.6287,17.932],[98.6284,17.9314],[98.6276,17.9314],[98.6276,17.9304],[98.6262,17.9304],[98.6262,17.9295],[98.6267,17.929],[98.6233,17.9301],[98.6236,17.9312],[98.6225,17.9317],[98.6228,17.9303],[98.6222,17.9303],[98.6219,17.9287],[98.625,17.9287],[98.6242,17.9276],[98.6248,17.9276],[98.625,17.9282],[98.6253,17.9276],[98.6242,17.9268],[98.6242,17.9263],[98.625,17.9263],[98.6248,17.9268],[98.6262,17.9268],[98.6262,17.9263],[98.6273,17.9268],[98.6284,17.926],[98.6279,17.9252],[98.6273,17.9252],[98.6276,17.9247],[98.6282,17.9249],[98.6282,17.9239],[98.6276,17.9233],[98.6268,17.9233],[98.6276,17.9225],[98.629,17.9225],[98.629,17.922],[98.6287,17.922],[98.6287,17.9222],[98.627,17.922],[98.627,17.9214],[98.6282,17.9211],[98.6285,17.9201],[98.6293,17.9198],[98.6299,17.9184],[98.6299,17.9176],[98.6285,17.9173],[98.6285,17.916],[98.629,17.9165],[98.629,17.9154],[98.6296,17.9152],[98.6296,17.9135],[98.6305,17.913],[98.6305,17.9119],[98.6327,17.9119],[98.6327,17.913],[98.6339,17.913],[98.6336,17.9114],[98.6324,17.9114],[98.6322,17.91],[98.6307,17.9092],[98.6296,17.9065],[98.6279,17.9065],[98.6279,17.9051],[98.6288,17.9038],[98.6282,17.9027],[98.6276,17.9027],[98.6276,17.9024],[98.6274,17.9024],[98.6274,17.9032],[98.6259,17.903],[98.6259,17.9035],[98.6245,17.9038],[98.6245,17.9043],[98.6237,17.9046],[98.6234,17.9038],[98.6223,17.9032],[98.6223,17.9024],[98.6228,17.9019],[98.622,17.9013],[98.622,17.9002],[98.6217,17.9002],[98.6217,17.9011],[98.6214,17.9011],[98.6214,17.9016],[98.6211,17.9016],[98.6211,17.9021],[98.62,17.9021],[98.6197,17.9002],[98.6192,17.9008],[98.6197,17.8992],[98.618,17.8989],[98.6177,17.8978],[98.6172,17.8975],[98.6172,17.8962],[98.6177,17.8962],[98.618,17.8973],[98.6192,17.897],[98.6192,17.8948],[98.6166,17.8948],[98.6152,17.8932],[98.6132,17.8935],[98.6127,17.8929],[98.6127,17.8935],[98.6118,17.8934],[98.6115,17.8916],[98.6121,17.8918],[98.6121,17.8924],[98.6127,17.8924],[98.6127,17.8918],[98.6121,17.8916],[98.6121,17.8902],[98.6124,17.8907],[98.6141,17.8907],[98.6146,17.8894],[98.6163,17.8886],[98.618,17.8886],[98.6183,17.8891],[98.6189,17.8889],[98.6189,17.8883],[98.6183,17.8883],[98.6183,17.8867],[98.6158,17.8869],[98.6144,17.8878],[98.6138,17.8875],[98.6138,17.8867],[98.6152,17.8864],[98.6132,17.8864],[98.6132,17.8856],[98.6152,17.8853],[98.6155,17.8842],[98.6161,17.8837],[98.6169,17.8837],[98.6169,17.8826],[98.6178,17.8826],[98.6175,17.8832],[98.6181,17.8832],[98.6181,17.8821],[98.6189,17.8813],[98.6189,17.8829],[98.6195,17.8829],[98.6195,17.8848],[98.6181,17.8848],[98.6181,17.8842],[98.6172,17.8842],[98.6172,17.8851],[98.6166,17.8851],[98.6178,17.8853],[98.6181,17.8861],[98.6189,17.8861],[98.6189,17.8853],[98.6198,17.8853],[98.62,17.8821],[98.6206,17.8815],[98.6215,17.8815],[98.6212,17.8807],[98.6223,17.8815],[98.6229,17.8826],[98.6229,17.884],[98.624,17.8853],[98.624,17.8862],[98.6232,17.8864],[98.6231,17.887],[98.624,17.8864],[98.624,17.8872],[98.6231,17.8875],[98.6229,17.8894],[98.6237,17.8886],[98.6246,17.8897],[98.6246,17.8908],[98.626,17.8908],[98.6271,17.8913],[98.6277,17.8908],[98.6274,17.8902],[98.628,17.8894],[98.6277,17.8875],[98.6285,17.8872],[98.6285,17.8853],[98.628,17.8853],[98.6285,17.8837],[98.6277,17.8834],[98.6277,17.8829],[98.6271,17.8826],[98.628,17.8826],[98.6285,17.8821],[98.6285,17.881],[98.6277,17.8807],[98.6271,17.8799],[98.626,17.8799],[98.6251,17.8791],[98.6271,17.8791],[98.6271,17.8796],[98.6288,17.8799],[98.63,17.8786],[98.6294,17.878],[98.6285,17.8783],[98.6283,17.8778],[98.6297,17.8778],[98.63,17.8764],[98.6305,17.8764],[98.6302,17.8791],[98.6308,17.8791],[98.6305,17.8788],[98.6308,17.878],[98.6311,17.8794],[98.6317,17.8786],[98.6317,17.8791],[98.6331,17.8794],[98.6331,17.8799],[98.6334,17.8794],[98.6342,17.8794],[98.6345,17.8802],[98.6351,17.8799],[98.6353,17.8805],[98.6382,17.8797],[98.6387,17.8786],[98.6399,17.8786],[98.6396,17.8797],[98.641,17.8794],[98.641,17.8789],[98.6419,17.8783],[98.6421,17.8789],[98.6438,17.8783],[98.6441,17.8791],[98.645,17.8794],[98.645,17.8772],[98.6427,17.877],[98.6441,17.8764],[98.643,17.8762],[98.6436,17.8751],[98.6427,17.8756],[98.6427,17.8748],[98.6433,17.8748],[98.6433,17.8743],[98.6438,17.8743],[98.6441,17.8748],[98.6458,17.8748],[98.6467,17.8743],[98.6458,17.8729],[98.645,17.8729],[98.6456,17.8724],[98.645,17.8721],[98.6456,17.8715],[98.645,17.8715],[98.6453,17.871],[98.6447,17.8705],[98.6453,17.8688],[98.645,17.868],[98.6458,17.8683],[98.6461,17.8691],[98.6467,17.8691],[98.6461,17.8705],[98.6473,17.8707],[98.6475,17.8726],[98.6495,17.8724],[98.6489,17.8759],[98.6492,17.8781],[98.6495,17.874],[98.6501,17.8721],[98.6509,17.8718],[98.6509,17.8713],[98.6526,17.8699],[98.6526,17.8694],[98.6546,17.868],[98.6543,17.8672],[98.6526,17.8689],[98.6529,17.8656],[98.6538,17.8645],[98.6546,17.8642],[98.6544,17.8602],[98.6546,17.8596],[98.6552,17.8596],[98.6549,17.8602],[98.6552,17.8648],[98.6552,17.8618],[98.6558,17.8613],[98.6555,17.8602],[98.6561,17.8602],[98.6566,17.8588],[98.6575,17.8588],[98.6586,17.8577],[98.6592,17.8577],[98.6592,17.8553],[98.6589,17.8569],[98.658,17.8567],[98.6586,17.8564],[98.6586,17.855],[98.6597,17.8518],[98.6617,17.8502],[98.6623,17.8502],[98.6634,17.8485],[98.6626,17.8526],[98.6609,17.8542],[98.6603,17.8542],[98.66,17.8583],[98.6609,17.8588],[98.6597,17.8588],[98.6589,17.8596],[98.6589,17.8626],[98.6583,17.8626],[98.6575,17.8634],[98.6575,17.864],[98.658,17.8637],[98.6583,17.8645],[98.6583,17.8667],[98.658,17.8659],[98.6577,17.8659],[98.6577,17.8656],[98.6575,17.8656],[98.658,17.8694],[98.6572,17.8694],[98.6572,17.8702],[98.6577,17.8702],[98.6572,17.8708],[98.658,17.8708],[98.658,17.8732],[98.6572,17.874],[98.6572,17.8746],[98.6566,17.8732],[98.6566,17.8751],[98.6555,17.8745],[98.6555,17.8751],[98.6563,17.8754],[98.6563,17.8762],[98.6555,17.8762],[98.6543,17.877],[98.6535,17.877],[98.6535,17.8764],[98.6532,17.8764],[98.6523,17.8775],[98.6529,17.8778],[98.6526,17.8783],[98.6506,17.8781],[98.6501,17.8789],[98.6503,17.8805],[98.6498,17.8813],[98.6498,17.8824],[98.6518,17.8829],[98.6515,17.884],[98.6526,17.8862],[98.6532,17.8865],[98.6532,17.8873],[98.6529,17.8873],[98.652,17.8878],[98.6512,17.887],[98.6512,17.8865],[98.6509,17.8865],[98.6512,17.8878],[98.6509,17.8876],[98.6503,17.8878],[98.6512,17.8884],[98.6512,17.8889],[98.6498,17.8886],[98.6498,17.8881],[98.6492,17.8878],[98.6495,17.8867],[98.6486,17.8851],[98.6478,17.8848],[98.6481,17.8829],[98.6489,17.8827],[98.6486,17.8821],[98.6481,17.8821],[98.6475,17.8832],[98.6469,17.8824],[98.6452,17.8829],[98.6447,17.8835],[98.645,17.8848],[98.6441,17.8851],[98.6447,17.8862],[98.6458,17.8862],[98.6458,17.8884],[98.6469,17.8897],[98.6469,17.8913],[98.6475,17.8911],[98.6478,17.8932],[98.6489,17.8938],[98.6492,17.8954],[98.6472,17.8951],[98.6469,17.8946],[98.6464,17.8946],[98.6461,17.8935],[98.6447,17.8924],[98.6441,17.8924],[98.6427,17.8938],[98.6427,17.8943],[98.6421,17.8943],[98.6418,17.8965],[98.6427,17.8973],[98.6424,17.8987],[98.6429,17.8992],[98.6438,17.8992],[98.6441,17.9003],[98.6429,17.9006],[98.6424,17.9016],[98.6432,17.903],[98.6432,17.9038],[98.6421,17.9033],[98.6424,17.9041],[98.6418,17.9041],[98.6415,17.9046],[98.6432,17.9041],[98.6432,17.9049],[98.6415,17.9052],[98.6412,17.9057],[98.6432,17.9054],[98.6432,17.9063],[98.6424,17.9063],[98.6427,17.9068],[98.6415,17.9071],[98.6415,17.9076],[98.6421,17.9079],[98.6415,17.9084],[98.6424,17.9087],[98.6424,17.9092],[98.6429,17.9092],[98.6424,17.9098],[98.6429,17.9103],[98.6432,17.9098],[98.6443,17.9103],[98.6446,17.9101],[98.6472,17.9103],[98.6455,17.9109],[98.646,17.9136],[98.6466,17.9141],[98.6463,17.9147],[98.6463,17.9157],[98.6455,17.916],[98.6452,17.9171],[98.6423,17.9185],[98.6421,17.9195],[98.6412,17.9201],[98.6412,17.9206],[98.6418,17.9204],[98.6418,17.9222],[98.6409,17.9225],[98.6395,17.9244],[98.6395,17.9258],[98.6409,17.9258],[98.6406,17.9277],[98.6401,17.9279],[98.6398,17.9266],[98.6392,17.9269],[98.6398,17.9301],[98.6406,17.9317],[98.6415,17.9312],[98.6418,17.9304],[98.644,17.9304],[98.646,17.9315],[98.6474,17.9315],[98.6488,17.9323],[98.6502,17.932],[98.6514,17.9309],[98.6531,17.9309],[98.6534,17.9304],[98.6559,17.9304],[98.6562,17.9299],[98.6585,17.9296],[98.6599,17.9285],[98.6602,17.9277],[98.661,17.9274],[98.663,17.9277],[98.663,17.9283],[98.6647,17.9277],[98.6644,17.9302],[98.6638,17.9307],[98.663,17.9307],[98.663,17.9296],[98.6616,17.9299],[98.6621,17.9323],[98.6616,17.9323],[98.6613,17.9329],[98.6619,17.9331],[98.6619,17.9345],[98.6627,17.9353],[98.6627,17.9367],[98.6613,17.9369],[98.661,17.9375],[98.6593,17.9372],[98.659,17.938],[98.6582,17.938],[98.6576,17.9385],[98.6576,17.9396],[98.6565,17.9402],[98.6565,17.9407],[98.657,17.941],[98.6567,17.9423],[98.6542,17.9423],[98.6536,17.944],[98.6531,17.9442],[98.6533,17.945],[98.6542,17.945],[98.6542,17.9502],[98.6528,17.9499],[98.6522,17.9505],[98.6499,17.9505],[98.6494,17.951],[98.6477,17.9513],[98.6477,17.9507],[98.6454,17.9507],[98.6454,17.9502],[98.6448,17.9499],[98.6451,17.9515],[98.6457,17.951],[98.6465,17.9518],[98.6482,17.9515],[98.6479,17.9534],[98.6496,17.9534],[98.6508,17.9545],[98.6522,17.9543],[98.653,17.9548],[98.6547,17.9548],[98.6547,17.9556],[98.6562,17.9556],[98.6564,17.9564],[98.6573,17.9564],[98.6567,17.957],[98.6581,17.9573],[98.6578,17.9578],[98.6584,17.9583],[98.6618,17.9594],[98.6635,17.9611],[98.6655,17.9611],[98.6658,17.9619],[98.6678,17.9627],[98.6678,17.9632],[98.6686,17.9641],[98.6686,17.9657],[98.6692,17.9665],[98.6694,17.9684],[98.6689,17.9692],[98.6683,17.9692],[98.6686,17.9703],[98.6675,17.9719],[98.6672,17.9749],[98.666,17.9763],[98.6655,17.9763],[98.6643,17.9773],[98.6629,17.9768],[98.6632,17.9779],[98.6621,17.9787],[98.6623,17.9792],[98.6632,17.9792],[98.6629,17.9784],[98.6635,17.9779],[98.664,17.9781],[98.6638,17.9795],[98.6649,17.98],[98.6649,17.9814],[98.666,17.9817],[98.666,17.983],[98.6632,17.9828],[98.6621,17.9819],[98.6612,17.9819],[98.6606,17.983],[98.6589,17.983],[98.6589,17.9825],[98.6584,17.9822],[98.6584,17.9811],[98.6601,17.9809],[98.6598,17.9814],[98.6604,17.9817],[98.6604,17.9806],[98.6595,17.9803],[98.6581,17.9808],[98.6578,17.9836],[98.6564,17.9836]],[[98.6646,17.9814],[98.6649,17.9817],[98.6649,17.9814],[98.6646,17.9814]],[[98.6618,17.98],[98.6621,17.9803],[98.6621,17.98],[98.6618,17.98]],[[98.6451,17.9787],[98.6453,17.9789],[98.6453,17.9787],[98.6451,17.9787]],[[98.6456,17.9789],[98.6462,17.9789],[98.6462,17.9781],[98.6456,17.9784],[98.6456,17.9789]],[[98.657,17.9781],[98.6572,17.9784],[98.6572,17.9781],[98.657,17.9781]],[[98.6564,17.977],[98.657,17.9773],[98.657,17.977],[98.6564,17.977]],[[98.6587,17.9765],[98.6589,17.9768],[98.6589,17.9765],[98.6587,17.9765]],[[98.657,17.9762],[98.6572,17.9765],[98.6572,17.9762],[98.657,17.9762]],[[98.6479,17.9759],[98.6493,17.9762],[98.6499,17.9757],[98.6479,17.9759]],[[98.6499,17.9762],[98.6504,17.9762],[98.6507,17.9757],[98.6502,17.9757],[98.6499,17.9762]],[[98.6572,17.976],[98.6575,17.9762],[98.6575,17.976],[98.6572,17.976]],[[98.655,17.9757],[98.6553,17.976],[98.6553,17.9757],[98.655,17.9757]],[[98.6555,17.9754],[98.6558,17.9757],[98.6558,17.9754],[98.6555,17.9754]],[[98.6391,17.9751],[98.6397,17.9754],[98.6397,17.9751],[98.6391,17.9751]],[[98.6558,17.9751],[98.6561,17.9754],[98.6561,17.9752],[98.6558,17.9751]],[[98.6397,17.9748],[98.64,17.9751],[98.64,17.9748],[98.6397,17.9748]],[[98.6561,17.9749],[98.6564,17.9752],[98.6564,17.9749],[98.6561,17.9749]],[[98.6343,17.9746],[98.6346,17.9748],[98.6346,17.9746],[98.6343,17.9746]],[[98.6567,17.9746],[98.657,17.9749],[98.657,17.9746],[98.6567,17.9746]],[[98.6575,17.9743],[98.6578,17.9746],[98.6578,17.9743],[98.6575,17.9743]],[[98.6578,17.9741],[98.6584,17.9743],[98.6584,17.9741],[98.6578,17.9741]],[[98.6332,17.9738],[98.6334,17.974],[98.6334,17.9738],[98.6332,17.9738]],[[98.6326,17.9735],[98.6329,17.9738],[98.6329,17.9735],[98.6326,17.9735]],[[98.6595,17.9735],[98.6601,17.9738],[98.6601,17.9735],[98.6595,17.9735]],[[98.6533,17.9732],[98.6536,17.9735],[98.6536,17.9732],[98.6533,17.9732]],[[98.6581,17.9733],[98.6584,17.9735],[98.6584,17.9733],[98.6581,17.9733]],[[98.6584,17.9733],[98.659,17.973],[98.659,17.9724],[98.6584,17.9727],[98.6584,17.9733]],[[98.6618,17.9733],[98.6624,17.9733],[98.6624,17.9722],[98.6615,17.9724],[98.6621,17.9727],[98.6618,17.9733]],[[98.6578,17.9727],[98.6581,17.973],[98.6581,17.9727],[98.6578,17.9727]],[[98.6604,17.9727],[98.6607,17.973],[98.6607,17.9727],[98.6604,17.9727]],[[98.6386,17.9727],[98.6403,17.9727],[98.6405,17.9713],[98.6394,17.9713],[98.6394,17.9721],[98.6386,17.9727]],[[98.6553,17.9722],[98.6556,17.9724],[98.6556,17.9722],[98.6553,17.9722]],[[98.6581,17.9722],[98.6584,17.9724],[98.6584,17.9722],[98.6581,17.9722]],[[98.659,17.9722],[98.6592,17.9724],[98.6592,17.9722],[98.659,17.9722]],[[98.6598,17.9722],[98.6601,17.9724],[98.6601,17.9722],[98.6598,17.9722]],[[98.6626,17.9722],[98.6629,17.9725],[98.6629,17.9722],[98.6626,17.9722]],[[98.6601,17.9719],[98.6604,17.9722],[98.6604,17.9719],[98.6601,17.9719]],[[98.6592,17.9716],[98.6595,17.9719],[98.6595,17.9716],[98.6592,17.9716]],[[98.6604,17.9716],[98.6607,17.9719],[98.6607,17.9716],[98.6604,17.9716]],[[98.6584,17.9714],[98.6587,17.9716],[98.6587,17.9714],[98.6584,17.9714]],[[98.6595,17.9714],[98.6598,17.9716],[98.6598,17.9714],[98.6595,17.9714]],[[98.6607,17.9714],[98.6609,17.9716],[98.6609,17.9714],[98.6607,17.9714]],[[98.6669,17.9711],[98.6672,17.9716],[98.6672,17.9711],[98.6669,17.9711]],[[98.6408,17.9713],[98.6414,17.9711],[98.6414,17.9689],[98.6403,17.9683],[98.64,17.97],[98.6408,17.97],[98.6408,17.9713]],[[98.6598,17.9711],[98.6601,17.9714],[98.6601,17.9711],[98.6598,17.9711]],[[98.6524,17.9705],[98.653,17.9711],[98.653,17.9705],[98.6524,17.9705]],[[98.6604,17.9708],[98.6607,17.9711],[98.6607,17.9708],[98.6604,17.9708]],[[98.6575,17.97],[98.6578,17.9703],[98.6578,17.97],[98.6575,17.97]],[[98.6658,17.97],[98.6669,17.9703],[98.6672,17.9692],[98.6658,17.9692],[98.6658,17.9678],[98.6646,17.9678],[98.6643,17.9695],[98.6658,17.9695],[98.6658,17.97]],[[98.6301,17.9694],[98.6303,17.9697],[98.6303,17.9694],[98.6301,17.9694]],[[98.6561,17.9692],[98.6564,17.9695],[98.6564,17.9692],[98.6561,17.9692]],[[98.6507,17.9692],[98.651,17.9686],[98.6505,17.9684],[98.6502,17.9689],[98.6507,17.9692]],[[98.6558,17.9686],[98.6561,17.9689],[98.6561,17.9686],[98.6558,17.9686]],[[98.6564,17.9684],[98.6567,17.9686],[98.6567,17.9684],[98.6564,17.9684]],[[98.6303,17.9681],[98.6306,17.9683],[98.6306,17.9681],[98.6303,17.9681]],[[98.659,17.9678],[98.6592,17.9681],[98.6592,17.9678],[98.659,17.9678]],[[98.6303,17.9675],[98.6306,17.9678],[98.6306,17.9675],[98.6303,17.9675]],[[98.6408,17.9678],[98.6411,17.9673],[98.6417,17.9678],[98.6425,17.9673],[98.6439,17.9673],[98.6445,17.9662],[98.6456,17.9654],[98.6457,17.9648],[98.6437,17.9616],[98.6437,17.9608],[98.6445,17.9608],[98.6442,17.9599],[98.6434,17.9599],[98.6437,17.958],[98.642,17.9564],[98.6417,17.9575],[98.6403,17.9578],[98.64,17.9561],[98.6397,17.9567],[98.638,17.9567],[98.6374,17.9572],[98.6372,17.9586],[98.6377,17.958],[98.6377,17.9594],[98.6372,17.9605],[98.638,17.9613],[98.638,17.9621],[98.6369,17.9613],[98.6369,17.9605],[98.6366,17.9616],[98.6377,17.9626],[98.6377,17.9656],[98.6383,17.967],[98.6394,17.9675],[98.64,17.9675],[98.6397,17.967],[98.6408,17.967],[98.6408,17.9678]],[[98.6658,17.9678],[98.6672,17.9678],[98.6672,17.967],[98.6666,17.967],[98.6666,17.9676],[98.6658,17.9678]],[[98.6301,17.9672],[98.6303,17.9675],[98.6303,17.9672],[98.6301,17.9672]],[[98.6635,17.9665],[98.6641,17.9668],[98.6641,17.9665],[98.6635,17.9665]],[[98.6649,17.9659],[98.6652,17.9665],[98.6652,17.9659],[98.6649,17.9659]],[[98.6677,17.9651],[98.668,17.9654],[98.668,17.9651],[98.6677,17.9651]],[[98.6298,17.9629],[98.6301,17.9634],[98.6301,17.9629],[98.6298,17.9629]],[[98.6323,17.9629],[98.6326,17.9634],[98.6326,17.9629],[98.6323,17.9629]],[[98.6301,17.9626],[98.6304,17.9629],[98.6304,17.9626],[98.6301,17.9626]],[[98.6304,17.9624],[98.6306,17.9626],[98.6306,17.9624],[98.6304,17.9624]],[[98.6306,17.9621],[98.6309,17.9624],[98.6309,17.9621],[98.6306,17.9621]],[[98.6349,17.9618],[98.6355,17.9624],[98.6355,17.9618],[98.6349,17.9618]],[[98.6309,17.9618],[98.6312,17.9621],[98.6312,17.9618],[98.6309,17.9618]],[[98.6309,17.9607],[98.6312,17.9613],[98.6312,17.9607],[98.6309,17.9607]],[[98.6315,17.9607],[98.6326,17.961],[98.6326,17.9602],[98.6315,17.9602],[98.6315,17.9607]],[[98.6306,17.9602],[98.6309,17.9605],[98.6309,17.9602],[98.6306,17.9602]],[[98.6366,17.9594],[98.6369,17.9602],[98.6369,17.9594],[98.6366,17.9594]],[[98.661,17.9597],[98.6612,17.96],[98.6612,17.9597],[98.661,17.9597]],[[98.6482,17.9594],[98.6488,17.9597],[98.6488,17.9594],[98.6482,17.9594]],[[98.6581,17.9594],[98.6601,17.9597],[98.6601,17.9594],[98.6581,17.9594]],[[98.6369,17.9586],[98.6372,17.9594],[98.6372,17.9586],[98.6369,17.9586]],[[98.6329,17.9588],[98.6335,17.9586],[98.6335,17.9564],[98.6326,17.9564],[98.6326,17.9569],[98.6332,17.9569],[98.6332,17.9583],[98.6326,17.9583],[98.6329,17.9588]],[[98.6321,17.9583],[98.6329,17.9578],[98.6323,17.9575],[98.6324,17.9569],[98.6315,17.9575],[98.6321,17.9583]],[[98.6318,17.9556],[98.6321,17.9559],[98.6321,17.9556],[98.6318,17.9556]],[[98.653,17.9551],[98.6533,17.9554],[98.6533,17.9551],[98.653,17.9551]],[[98.6519,17.9548],[98.6522,17.9551],[98.6522,17.9548],[98.6519,17.9548]],[[98.6528,17.9548],[98.653,17.9551],[98.653,17.9548],[98.6528,17.9548]],[[98.642,17.9545],[98.6423,17.9548],[98.6423,17.9545],[98.642,17.9545]],[[98.6513,17.9545],[98.6516,17.9548],[98.6516,17.9545],[98.6513,17.9545]],[[98.6462,17.9543],[98.6468,17.9543],[98.6471,17.9537],[98.6465,17.9537],[98.6462,17.9543]],[[98.6479,17.954],[98.6482,17.9543],[98.6482,17.954],[98.6479,17.954]],[[98.6457,17.9534],[98.646,17.954],[98.646,17.9534],[98.6457,17.9534]],[[98.6477,17.9537],[98.6479,17.954],[98.6479,17.9537],[98.6477,17.9537]],[[98.6451,17.9518],[98.6457,17.9524],[98.6457,17.9515],[98.6451,17.9518]],[[98.6304,17.9499],[98.6307,17.9502],[98.6307,17.9499],[98.6304,17.9499]],[[98.6465,17.9502],[98.6477,17.9496],[98.6454,17.9494],[98.6462,17.9496],[98.6465,17.9502]],[[98.6298,17.9491],[98.6301,17.9493],[98.6301,17.9491],[98.6298,17.9491]],[[98.6293,17.9491],[98.6298,17.9491],[98.6298,17.9485],[98.6293,17.9485],[98.6293,17.9491]],[[98.6448,17.9483],[98.6451,17.9486],[98.6451,17.9483],[98.6448,17.9483]],[[98.6457,17.9483],[98.6462,17.9486],[98.6462,17.9483],[98.6457,17.9483]],[[98.629,17.948],[98.6293,17.9483],[98.6293,17.948],[98.629,17.948]],[[98.6443,17.9483],[98.6448,17.948],[98.6446,17.948],[98.6446,17.9477],[98.6443,17.9477],[98.6443,17.9475],[98.644,17.9475],[98.6443,17.9483]],[[98.6463,17.948],[98.6474,17.9483],[98.6474,17.9477],[98.6463,17.948]],[[98.6287,17.9477],[98.629,17.948],[98.629,17.9477],[98.6287,17.9477]],[[98.6284,17.9474],[98.6287,17.9477],[98.6287,17.9474],[98.6284,17.9474]],[[98.6437,17.9472],[98.644,17.9475],[98.644,17.9472],[98.6437,17.9472]],[[98.6434,17.9469],[98.6437,17.9472],[98.6437,17.9469],[98.6434,17.9469]],[[98.6431,17.9467],[98.6434,17.9469],[98.6434,17.9467],[98.6431,17.9467]],[[98.6276,17.9461],[98.6278,17.9466],[98.6278,17.9461],[98.6276,17.9461]],[[98.6429,17.9464],[98.6431,17.9467],[98.6431,17.9464],[98.6429,17.9464]],[[98.6423,17.9461],[98.6426,17.9464],[98.6426,17.9461],[98.6423,17.9461]],[[98.6457,17.9461],[98.646,17.9464],[98.646,17.9461],[98.6457,17.9461]],[[98.6273,17.9458],[98.6276,17.9461],[98.6276,17.9458],[98.6273,17.9458]],[[98.6434,17.9458],[98.644,17.9461],[98.644,17.9458],[98.6434,17.9458]],[[98.6301,17.9428],[98.6304,17.9436],[98.6307,17.9428],[98.6301,17.9428]],[[98.646,17.9434],[98.6463,17.9437],[98.6463,17.9434],[98.646,17.9434]],[[98.6446,17.9431],[98.6451,17.9431],[98.6451,17.9429],[98.6446,17.9426],[98.6446,17.9431]],[[98.6434,17.9418],[98.6437,17.942],[98.6437,17.9418],[98.6434,17.9418]],[[98.6465,17.9421],[98.648,17.9418],[98.648,17.941],[98.6468,17.941],[98.6463,17.9415],[98.6465,17.9421]],[[98.6267,17.9412],[98.627,17.9417],[98.627,17.9412],[98.6267,17.9412]],[[98.627,17.9404],[98.6273,17.9412],[98.6273,17.9404],[98.627,17.9404]],[[98.6528,17.9412],[98.6542,17.9407],[98.6545,17.9394],[98.6525,17.9391],[98.6522,17.9404],[98.6528,17.9412]],[[98.6437,17.9407],[98.644,17.941],[98.644,17.9407],[98.6437,17.9407]],[[98.644,17.9401],[98.6443,17.9404],[98.6443,17.9401],[98.644,17.9401]],[[98.6443,17.9399],[98.6446,17.9402],[98.6446,17.9399],[98.6443,17.9399]],[[98.6446,17.9399],[98.6451,17.9399],[98.6451,17.9393],[98.6449,17.9393],[98.6446,17.9399]],[[98.6276,17.9366],[98.6279,17.9379],[98.6279,17.9366],[98.6276,17.9366]],[[98.6483,17.9369],[98.6485,17.9372],[98.6485,17.9369],[98.6483,17.9369]],[[98.6488,17.9366],[98.6491,17.9369],[98.6491,17.9366],[98.6488,17.9366]],[[98.631,17.9358],[98.6315,17.9358],[98.6321,17.935],[98.6321,17.9342],[98.6315,17.9342],[98.6315,17.9336],[98.631,17.9336],[98.631,17.9358]],[[98.6264,17.9347],[98.6267,17.935],[98.6267,17.9347],[98.6264,17.9347]],[[98.6281,17.9342],[98.6284,17.9344],[98.6284,17.9342],[98.6281,17.9342]],[[98.6284,17.9336],[98.6287,17.9342],[98.6287,17.9336],[98.6284,17.9336]],[[98.6287,17.9336],[98.6293,17.9336],[98.6293,17.9333],[98.6287,17.9331],[98.6287,17.9336]],[[98.629,17.9328],[98.6293,17.9331],[98.6293,17.9328],[98.629,17.9328]],[[98.6293,17.9328],[98.6299,17.9328],[98.6299,17.932],[98.6293,17.932],[98.6293,17.9328]],[[98.6599,17.9326],[98.6604,17.9323],[98.6604,17.9315],[98.6593,17.9315],[98.6599,17.9326]],[[98.6299,17.9312],[98.6301,17.932],[98.6301,17.9312],[98.6299,17.9312]],[[98.6347,17.9309],[98.635,17.9315],[98.635,17.9309],[98.6347,17.9309]],[[98.6301,17.9306],[98.6304,17.9309],[98.6304,17.9306],[98.6301,17.9306]],[[98.6304,17.9301],[98.6307,17.9306],[98.631,17.9301],[98.6304,17.9301]],[[98.6276,17.9304],[98.6282,17.9304],[98.6282,17.929],[98.6276,17.929],[98.6276,17.9304]],[[98.631,17.929],[98.6313,17.9298],[98.6313,17.929],[98.631,17.929]],[[98.6333,17.9293],[98.6335,17.9298],[98.6335,17.9293],[98.6333,17.9293]],[[98.6321,17.9296],[98.6324,17.929],[98.6316,17.9287],[98.6316,17.9293],[98.6321,17.9296]],[[98.6316,17.9282],[98.6318,17.9285],[98.6318,17.9282],[98.6316,17.9282]],[[98.6318,17.9274],[98.6321,17.9277],[98.6321,17.9274],[98.6318,17.9274]],[[98.6327,17.9255],[98.6335,17.9258],[98.6335,17.9252],[98.6327,17.9255]],[[98.6335,17.9249],[98.6338,17.9252],[98.6338,17.9249],[98.6335,17.9249]],[[98.6369,17.9244],[98.6378,17.9241],[98.6378,17.9233],[98.6375,17.9225],[98.6367,17.9222],[98.637,17.9209],[98.6364,17.9209],[98.6361,17.9233],[98.6369,17.9244]],[[98.6341,17.9233],[98.6344,17.9236],[98.6344,17.9233],[98.6341,17.9233]],[[98.6344,17.9225],[98.6347,17.9228],[98.6347,17.9225],[98.6344,17.9225]],[[98.6401,17.9225],[98.6404,17.9228],[98.6404,17.9225],[98.6401,17.9225]],[[98.6378,17.922],[98.6381,17.9222],[98.6381,17.922],[98.6378,17.922]],[[98.6285,17.9217],[98.6287,17.922],[98.6287,17.9217],[98.6285,17.9217]],[[98.6347,17.9214],[98.635,17.922],[98.635,17.9214],[98.6347,17.9214]],[[98.6299,17.9214],[98.6302,17.9217],[98.6302,17.9214],[98.6299,17.9214]],[[98.6304,17.9214],[98.6307,17.9217],[98.6307,17.9214],[98.6304,17.9214]],[[98.6404,17.9214],[98.6406,17.9217],[98.6406,17.9214],[98.6404,17.9214]],[[98.6406,17.9214],[98.6412,17.9212],[98.6412,17.9206],[98.6406,17.9209],[98.6406,17.9214]],[[98.6293,17.9211],[98.6299,17.9211],[98.6299,17.9209],[98.6293,17.9206],[98.6293,17.9211]],[[98.635,17.9203],[98.6353,17.9209],[98.6353,17.9203],[98.635,17.9203]],[[98.6313,17.9203],[98.6316,17.9206],[98.6316,17.9203],[98.6313,17.9203]],[[98.631,17.9201],[98.6313,17.9203],[98.6313,17.9201],[98.631,17.9201]],[[98.6367,17.9198],[98.6381,17.9198],[98.6381,17.9187],[98.6375,17.9184],[98.6367,17.9193],[98.6367,17.9198]],[[98.6353,17.9193],[98.6355,17.9195],[98.6355,17.9193],[98.6353,17.9193]],[[98.6389,17.9195],[98.6398,17.9193],[98.6398,17.9179],[98.6395,17.9179],[98.6389,17.9195]],[[98.6319,17.919],[98.6321,17.9192],[98.6321,17.919],[98.6319,17.919]],[[98.6304,17.9187],[98.6316,17.9179],[98.6316,17.9173],[98.6304,17.9182],[98.6304,17.9187]],[[98.6307,17.9171],[98.631,17.9173],[98.631,17.9171],[98.6307,17.9171]],[[98.6406,17.9174],[98.6412,17.9174],[98.6412,17.9168],[98.6406,17.9168],[98.6406,17.9174]],[[98.6305,17.9168],[98.6307,17.9171],[98.6307,17.9168],[98.6305,17.9168]],[[98.6372,17.9168],[98.6375,17.9171],[98.6375,17.9168],[98.6372,17.9168]],[[98.6423,17.9166],[98.6426,17.9171],[98.6426,17.9166],[98.6423,17.9166]],[[98.6302,17.9165],[98.6305,17.9168],[98.6305,17.9165],[98.6302,17.9165]],[[98.6375,17.9165],[98.6381,17.9168],[98.6381,17.9165],[98.6375,17.9165]],[[98.6387,17.916],[98.6389,17.9163],[98.6389,17.916],[98.6387,17.916]],[[98.6395,17.9157],[98.6443,17.916],[98.6443,17.9157],[98.6395,17.9157]],[[98.6305,17.9152],[98.6307,17.9157],[98.6307,17.9152],[98.6305,17.9152]],[[98.6319,17.9149],[98.6322,17.9155],[98.6322,17.9149],[98.6319,17.9149]],[[98.6336,17.9152],[98.6339,17.9155],[98.6339,17.9152],[98.6336,17.9152]],[[98.6302,17.9149],[98.6305,17.9152],[98.6305,17.9149],[98.6302,17.9149]],[[98.6457,17.9149],[98.646,17.9152],[98.646,17.9149],[98.6457,17.9149]],[[98.6316,17.9146],[98.6319,17.9149],[98.6319,17.9146],[98.6316,17.9146]],[[98.6305,17.9144],[98.6316,17.9146],[98.6316,17.9144],[98.6305,17.9144]],[[98.646,17.9144],[98.6463,17.9147],[98.6463,17.9144],[98.646,17.9144]],[[98.6316,17.9138],[98.6319,17.9141],[98.6319,17.9138],[98.6316,17.9138]],[[98.6339,17.9136],[98.6341,17.9138],[98.6341,17.9136],[98.6339,17.9136]],[[98.6449,17.9111],[98.6452,17.9114],[98.6452,17.9111],[98.6449,17.9111]],[[98.6446,17.9106],[98.6449,17.9111],[98.6449,17.9106],[98.6446,17.9106]],[[98.6313,17.9089],[98.6316,17.9092],[98.6316,17.9089],[98.6313,17.9089]],[[98.6404,17.9079],[98.6412,17.9081],[98.6412,17.9079],[98.6404,17.9079]],[[98.6308,17.9076],[98.631,17.9079],[98.631,17.9076],[98.6308,17.9076]],[[98.6392,17.9076],[98.6404,17.9079],[98.6404,17.9071],[98.6395,17.9071],[98.6381,17.906],[98.6367,17.9057],[98.6381,17.9068],[98.6393,17.9071],[98.6392,17.9076]],[[98.6305,17.9073],[98.6308,17.9076],[98.6308,17.9073],[98.6305,17.9073]],[[98.6296,17.9065],[98.6305,17.9065],[98.6299,17.9051],[98.6293,17.9051],[98.6296,17.9065]],[[98.6407,17.9052],[98.641,17.9057],[98.641,17.9052],[98.6407,17.9052]],[[98.6285,17.9051],[98.6291,17.9054],[98.6291,17.9051],[98.6285,17.9051]],[[98.6356,17.9052],[98.6361,17.9054],[98.6361,17.9052],[98.6356,17.9052]],[[98.6291,17.9049],[98.6293,17.9051],[98.6293,17.9049],[98.6291,17.9049]],[[98.6344,17.9049],[98.635,17.9052],[98.635,17.9049],[98.6344,17.9049]],[[98.641,17.9049],[98.6412,17.9052],[98.6412,17.9049],[98.641,17.9049]],[[98.6339,17.9043],[98.6344,17.9049],[98.6344,17.9043],[98.6339,17.9043]],[[98.6336,17.9035],[98.6339,17.9038],[98.6339,17.9035],[98.6336,17.9035]],[[98.6333,17.9033],[98.6336,17.9035],[98.6336,17.9033],[98.6333,17.9033]],[[98.6401,17.9033],[98.6404,17.9035],[98.6404,17.9033],[98.6401,17.9033]],[[98.6251,17.903],[98.6254,17.9032],[98.6254,17.903],[98.6251,17.903]],[[98.6327,17.9033],[98.6333,17.9033],[98.6333,17.9027],[98.6327,17.9027],[98.6327,17.9024],[98.6325,17.9024],[98.6327,17.9033]],[[98.6381,17.903],[98.6384,17.9033],[98.6384,17.903],[98.6381,17.903]],[[98.6404,17.903],[98.6412,17.9033],[98.6412,17.903],[98.6404,17.903]],[[98.6248,17.9027],[98.6251,17.903],[98.6251,17.9027],[98.6248,17.9027]],[[98.6378,17.9027],[98.6381,17.903],[98.6381,17.9027],[98.6378,17.9027]],[[98.6412,17.9027],[98.6418,17.903],[98.6418,17.9027],[98.6412,17.9027]],[[98.6257,17.9024],[98.6259,17.9027],[98.6259,17.9024],[98.6257,17.9024]],[[98.6381,17.9024],[98.6387,17.9027],[98.6387,17.9024],[98.6381,17.9024]],[[98.6259,17.9022],[98.6262,17.9024],[98.6262,17.9022],[98.6259,17.9022]],[[98.6268,17.9022],[98.6274,17.9024],[98.6274,17.9022],[98.6268,17.9022]],[[98.6322,17.9022],[98.6325,17.9024],[98.6325,17.9022],[98.6322,17.9022]],[[98.6387,17.9022],[98.639,17.9024],[98.639,17.9022],[98.6387,17.9022]],[[98.6262,17.9019],[98.6268,17.9022],[98.6268,17.9019],[98.6262,17.9019]],[[98.6319,17.9019],[98.6322,17.9022],[98.6322,17.9019],[98.6319,17.9019]],[[98.6243,17.9016],[98.6245,17.9019],[98.6245,17.9016],[98.6243,17.9016]],[[98.6316,17.9016],[98.6319,17.9019],[98.6319,17.9016],[98.6316,17.9016]],[[98.6209,17.9013],[98.6211,17.9016],[98.6211,17.9013],[98.6209,17.9013]],[[98.6243,17.9013],[98.6248,17.9008],[98.6245,17.9003],[98.6243,17.9003],[98.6243,17.9013]],[[98.6313,17.9008],[98.6316,17.9014],[98.6316,17.9008],[98.6313,17.9008]],[[98.62,17.9008],[98.6206,17.9008],[98.6206,17.9002],[98.6217,17.8997],[98.622,17.8983],[98.6206,17.8983],[98.6206,17.8989],[98.62,17.8992],[98.62,17.9008]],[[98.6311,17.9],[98.6313,17.9008],[98.6313,17.9],[98.6311,17.9]],[[98.6226,17.9002],[98.6228,17.9005],[98.6228,17.9002],[98.6226,17.9002]],[[98.6234,17.9005],[98.624,17.9005],[98.6245,17.8994],[98.6234,17.8994],[98.6234,17.9005]],[[98.6401,17.9003],[98.6404,17.9006],[98.6404,17.9003],[98.6401,17.9003]],[[98.6404,17.8997],[98.6407,17.9],[98.6407,17.8997],[98.6404,17.8997]],[[98.6226,17.8994],[98.6228,17.8997],[98.6228,17.8994],[98.6226,17.8994]],[[98.6308,17.8992],[98.6311,17.8997],[98.6311,17.8992],[98.6308,17.8992]],[[98.6257,17.8989],[98.626,17.8994],[98.626,17.8989],[98.6257,17.8989]],[[98.6262,17.8989],[98.6265,17.8994],[98.6265,17.8989],[98.6262,17.8989]],[[98.6226,17.8989],[98.6228,17.8992],[98.6228,17.8989],[98.6226,17.8989]],[[98.6228,17.8989],[98.6248,17.8989],[98.6228,17.8986],[98.6228,17.8989]],[[98.6305,17.8986],[98.6308,17.8992],[98.6308,17.8986],[98.6305,17.8986]],[[98.6398,17.8992],[98.6404,17.8992],[98.6407,17.8984],[98.6401,17.8984],[98.6398,17.8992]],[[98.6302,17.8981],[98.6305,17.8986],[98.6305,17.8981],[98.6302,17.8981]],[[98.637,17.8986],[98.6379,17.8987],[98.6376,17.8976],[98.6373,17.8976],[98.637,17.8986]],[[98.6387,17.8984],[98.639,17.8987],[98.639,17.8984],[98.6387,17.8984]],[[98.6299,17.8976],[98.6302,17.8981],[98.6302,17.8976],[98.6299,17.8976]],[[98.6194,17.8975],[98.6197,17.8978],[98.6197,17.8975],[98.6194,17.8975]],[[98.6296,17.8965],[98.6299,17.8976],[98.6299,17.8965],[98.6296,17.8965]],[[98.637,17.897],[98.6376,17.8962],[98.6379,17.8938],[98.6373,17.8932],[98.6367,17.8932],[98.637,17.897]],[[98.622,17.8959],[98.6223,17.8965],[98.6223,17.8959],[98.622,17.8959]],[[98.6257,17.8962],[98.626,17.8965],[98.626,17.8962],[98.6257,17.8962]],[[98.6211,17.8954],[98.622,17.8951],[98.6214,17.894],[98.6212,17.894],[98.6211,17.8954]],[[98.6285,17.8946],[98.6288,17.8951],[98.6288,17.8946],[98.6285,17.8946]],[[98.6282,17.8946],[98.6285,17.894],[98.6277,17.8927],[98.6277,17.8938],[98.6282,17.8946]],[[98.6288,17.8943],[98.6294,17.8943],[98.6294,17.8938],[98.6288,17.8938],[98.6288,17.8943]],[[98.6376,17.893],[98.6379,17.8932],[98.6379,17.893],[98.6376,17.893]],[[98.6144,17.8929],[98.6158,17.8926],[98.6158,17.8924],[98.6144,17.8924],[98.6144,17.8929]],[[98.6127,17.8924],[98.6129,17.8926],[98.6129,17.8924],[98.6127,17.8924]],[[98.6294,17.8919],[98.6299,17.8927],[98.6299,17.8919],[98.6294,17.8919]],[[98.6308,17.8919],[98.6311,17.8924],[98.6311,17.8919],[98.6308,17.8919]],[[98.6458,17.8922],[98.6461,17.8924],[98.6461,17.8922],[98.6458,17.8922]],[[98.6384,17.8916],[98.6387,17.8919],[98.6387,17.8916],[98.6384,17.8916]],[[98.6413,17.8919],[98.6418,17.8919],[98.6421,17.8903],[98.6416,17.8903],[98.6413,17.8919]],[[98.6455,17.8919],[98.6461,17.8916],[98.6458,17.8916],[98.6458,17.8913],[98.6455,17.8913],[98.6455,17.8911],[98.6452,17.8911],[98.6455,17.8919]],[[98.639,17.8913],[98.6393,17.8916],[98.6393,17.8913],[98.639,17.8913]],[[98.6396,17.8913],[98.6398,17.8916],[98.6398,17.8913],[98.6396,17.8913]],[[98.6144,17.8907],[98.6146,17.8913],[98.6149,17.8907],[98.6144,17.8907]],[[98.6161,17.8907],[98.6163,17.8913],[98.6163,17.8907],[98.6161,17.8907]],[[98.6398,17.8911],[98.6401,17.8913],[98.6401,17.8911],[98.6398,17.8911]],[[98.6322,17.8908],[98.6325,17.891],[98.6325,17.8908],[98.6322,17.8908]],[[98.6449,17.8908],[98.6452,17.8911],[98.6452,17.8908],[98.6449,17.8908]],[[98.6407,17.8905],[98.641,17.8908],[98.641,17.8905],[98.6407,17.8905]],[[98.6438,17.8903],[98.6441,17.8908],[98.6441,17.8903],[98.6438,17.8903]],[[98.6149,17.8902],[98.6152,17.8905],[98.6152,17.8902],[98.6149,17.8902]],[[98.641,17.8903],[98.6413,17.8905],[98.6413,17.8903],[98.641,17.8903]],[[98.6237,17.8899],[98.624,17.8902],[98.624,17.8899],[98.6237,17.8899]],[[98.6413,17.89],[98.6416,17.8903],[98.6416,17.89],[98.6413,17.89]],[[98.6435,17.8897],[98.6438,17.8903],[98.6438,17.8897],[98.6435,17.8897]],[[98.6231,17.8894],[98.6234,17.8897],[98.6234,17.8894],[98.6231,17.8894]],[[98.6416,17.8894],[98.6418,17.8897],[98.6418,17.8894],[98.6416,17.8894]],[[98.643,17.8892],[98.6435,17.8897],[98.6435,17.8892],[98.643,17.8892]],[[98.6418,17.8889],[98.6421,17.8892],[98.6421,17.8889],[98.6418,17.8889]],[[98.6427,17.8889],[98.643,17.8892],[98.643,17.8889],[98.6427,17.8889]],[[98.6299,17.8881],[98.6305,17.8886],[98.6305,17.8881],[98.6299,17.8881]],[[98.628,17.8881],[98.6282,17.8883],[98.6282,17.8881],[98.628,17.8881]],[[98.6282,17.8875],[98.6285,17.8878],[98.6285,17.8875],[98.6282,17.8875]],[[98.6229,17.8872],[98.6231,17.8875],[98.6231,17.8872],[98.6229,17.8872]],[[98.6285,17.8872],[98.6288,17.8875],[98.6288,17.8872],[98.6285,17.8872]],[[98.6198,17.887],[98.6203,17.8872],[98.6203,17.887],[98.6198,17.887]],[[98.6291,17.8867],[98.6294,17.8872],[98.6294,17.8867],[98.6291,17.8867]],[[98.6526,17.887],[98.6529,17.8873],[98.6529,17.887],[98.6526,17.887]],[[98.6294,17.8867],[98.6299,17.8867],[98.6299,17.8859],[98.6294,17.8862],[98.6294,17.8867]],[[98.6506,17.8865],[98.6509,17.8859],[98.6503,17.8854],[98.6503,17.8862],[98.6506,17.8865]],[[98.6166,17.8859],[98.6169,17.8861],[98.6169,17.8859],[98.6166,17.8859]],[[98.6299,17.8859],[98.6305,17.8859],[98.6314,17.8851],[98.6314,17.8845],[98.6305,17.8848],[98.6299,17.8859]],[[98.6506,17.8851],[98.6509,17.8854],[98.6509,17.8851],[98.6506,17.8851]],[[98.6512,17.8851],[98.6518,17.8854],[98.6518,17.8851],[98.6512,17.8851]],[[98.6353,17.8848],[98.6359,17.8845],[98.6356,17.884],[98.635,17.8843],[98.6353,17.8848]],[[98.6314,17.8845],[98.6325,17.8835],[98.6328,17.8826],[98.6319,17.8829],[98.6314,17.8845]],[[98.6183,17.884],[98.6186,17.8842],[98.6186,17.884],[98.6183,17.884]],[[98.6339,17.8832],[98.6342,17.8835],[98.6342,17.8832],[98.6339,17.8832]],[[98.6328,17.8824],[98.6336,17.8826],[98.6336,17.8824],[98.6328,17.8824]],[[98.6336,17.8824],[98.6348,17.8821],[98.6353,17.8816],[98.6336,17.8818],[98.6336,17.8824]],[[98.6441,17.8819],[98.6452,17.8819],[98.6452,17.8816],[98.6433,17.8813],[98.6441,17.8819]],[[98.6359,17.8816],[98.6382,17.8816],[98.6421,17.8808],[98.641,17.8805],[98.6376,17.8813],[98.6362,17.881],[98.6359,17.8816]],[[98.6424,17.881],[98.643,17.8813],[98.643,17.881],[98.6424,17.881]],[[98.6469,17.881],[98.6472,17.8813],[98.6472,17.881],[98.6469,17.881]],[[98.6331,17.8807],[98.6334,17.881],[98.6334,17.8807],[98.6331,17.8807]],[[98.6472,17.881],[98.6478,17.881],[98.6484,17.88],[98.6481,17.88],[98.6472,17.881]],[[98.6334,17.8805],[98.6336,17.8807],[98.6336,17.8805],[98.6334,17.8805]],[[98.6339,17.8805],[98.6342,17.8807],[98.6342,17.8805],[98.6339,17.8805]],[[98.6325,17.8802],[98.6328,17.8805],[98.6328,17.8802],[98.6325,17.8802]],[[98.6328,17.8799],[98.6331,17.8802],[98.6331,17.8799],[98.6328,17.8799]],[[98.6484,17.8791],[98.6487,17.88],[98.6487,17.8791],[98.6484,17.8791]],[[98.6308,17.8794],[98.6311,17.8797],[98.6311,17.8794],[98.6308,17.8794]],[[98.6317,17.8794],[98.6319,17.8797],[98.6319,17.8794],[98.6317,17.8794]],[[98.6487,17.8781],[98.6489,17.8791],[98.6489,17.8781],[98.6487,17.8781]],[[98.645,17.877],[98.6453,17.8772],[98.6453,17.877],[98.645,17.877]],[[98.645,17.8764],[98.6453,17.8767],[98.6453,17.8764],[98.645,17.8764]],[[98.6529,17.8764],[98.6532,17.8759],[98.6523,17.8748],[98.6523,17.8759],[98.6529,17.8764]],[[98.6538,17.8748],[98.654,17.8751],[98.654,17.8748],[98.6538,17.8748]],[[98.6546,17.8748],[98.6549,17.8751],[98.6549,17.8748],[98.6546,17.8748]],[[98.6526,17.8745],[98.6529,17.8748],[98.6529,17.8745],[98.6526,17.8745]],[[98.6535,17.8745],[98.6538,17.8748],[98.6538,17.8745],[98.6535,17.8745]],[[98.6549,17.8745],[98.6552,17.8748],[98.6552,17.8745],[98.6549,17.8745]],[[98.6529,17.8743],[98.6535,17.8745],[98.6535,17.8743],[98.6529,17.8743]],[[98.6566,17.8727],[98.6569,17.8729],[98.6569,17.8727],[98.6566,17.8727]],[[98.6563,17.8724],[98.6566,17.8727],[98.6566,17.8724],[98.6563,17.8724]],[[98.6566,17.8708],[98.6572,17.871],[98.6572,17.8708],[98.6566,17.8708]],[[98.6532,17.8691],[98.6535,17.8697],[98.6535,17.8691],[98.6532,17.8691]],[[98.6546,17.8651],[98.6549,17.8672],[98.6549,17.8651],[98.6546,17.8651]],[[98.6572,17.8653],[98.6575,17.8656],[98.6575,17.8653],[98.6572,17.8653]],[[98.6572,17.864],[98.6575,17.8648],[98.6575,17.864],[98.6572,17.864]],[[98.6595,17.8539],[98.66,17.8539],[98.66,17.8534],[98.6597,17.8534],[98.6595,17.8539]]]}},{"type":"Feature","properties":{"kind":"seasonal","area_km2":4.772,"date":"2026-10-02"},"geometry":{"type":"Polygon","coordinates":[[[98.6672,17.3588],[98.6655,17.358],[98.6655,17.3566],[98.6649,17.3561],[98.6641,17.3561],[98.6638,17.3556],[98.6624,17.3556],[98.6629,17.355],[98.6629,17.3534],[98.661,17.3534],[98.661,17.3523],[98.6612,17.3526],[98.6618,17.3523],[98.6607,17.3512],[98.6598,17.3512],[98.6596,17.3507],[98.6584,17.3504],[98.6562,17.3485],[98.6533,17.3485],[98.6534,17.3477],[98.6542,17.3477],[98.6548,17.3469],[98.6553,17.3469],[98.6553,17.3474],[98.6559,17.3477],[98.6573,17.3477],[98.6573,17.3469],[98.6565,17.3466],[98.6565,17.3447],[98.6559,17.3444],[98.6559,17.3409],[98.6565,17.3401],[98.6579,17.3401],[98.659,17.3395],[98.659,17.339],[98.6604,17.339],[98.661,17.3395],[98.661,17.339],[98.6618,17.3393],[98.6621,17.3387],[98.6627,17.3387],[98.6632,17.3393],[98.6632,17.3409],[98.6638,17.3409],[98.6635,17.3385],[98.6627,17.3385],[98.6621,17.3374],[98.6627,17.3371],[98.6627,17.3366],[98.6638,17.336],[98.665,17.3314],[98.6655,17.3314],[98.6655,17.3311],[98.6667,17.3303],[98.6667,17.3295],[98.6695,17.3284],[98.6712,17.3293],[98.6715,17.3301],[98.6731,17.3301],[98.6751,17.3287],[98.6751,17.3282],[98.6746,17.3279],[98.6748,17.3263],[98.6743,17.3257],[98.674,17.3233],[98.6734,17.323],[98.6734,17.3222],[98.6715,17.3206],[98.6723,17.3173],[98.6695,17.3154],[98.6692,17.3135],[98.6704,17.3138],[98.6703,17.3154],[98.6718,17.3157],[98.6723,17.3152],[98.6726,17.3135],[98.6735,17.3135],[98.674,17.3144],[98.6746,17.3144],[98.6757,17.3138],[98.6757,17.313],[98.676,17.3135],[98.6774,17.3133],[98.678,17.3122],[98.6788,17.3125],[98.6802,17.3116],[98.6814,17.3081],[98.6834,17.3065],[98.6836,17.3057],[98.6822,17.3054],[98.6797,17.3079],[98.6771,17.3081],[98.676,17.3076],[98.6754,17.3065],[98.6757,17.3032],[98.6746,17.3032],[98.6746,17.3027],[98.6752,17.3022],[98.6757,17.3024],[98.676,17.3013],[98.6772,17.3008],[98.6766,17.3005],[98.6766,17.3],[98.6777,17.2992],[98.6774,17.2984],[98.678,17.2978],[98.6772,17.2962],[98.678,17.2962],[98.6786,17.2973],[98.6794,17.2973],[98.6803,17.2965],[98.6808,17.2978],[98.6808,17.2924],[98.682,17.2921],[98.6834,17.2935],[98.6834,17.2943],[98.6822,17.2951],[98.6822,17.2957],[98.6837,17.2965],[98.6836,17.2973],[98.6831,17.2973],[98.6831,17.2981],[98.6822,17.2986],[98.6822,17.3],[98.6814,17.3],[98.6811,17.2994],[98.6805,17.3003],[98.6783,17.3008],[98.6769,17.3019],[98.6774,17.3022],[98.6783,17.3013],[98.6774,17.3038],[98.6766,17.3041],[98.6763,17.3068],[98.6771,17.3076],[98.6777,17.3076],[98.6777,17.3065],[98.6794,17.3062],[98.6797,17.3054],[98.6808,17.3049],[98.6811,17.3035],[98.6805,17.3035],[98.6805,17.3027],[98.6814,17.303],[98.6811,17.3024],[98.6817,17.3024],[98.6822,17.303],[98.6836,17.3022],[98.6836,17.3014],[98.6831,17.3019],[98.6828,17.3005],[98.6842,17.3003],[98.6842,17.2978],[98.6848,17.297],[98.6856,17.297],[98.6868,17.2986],[98.6865,17.2973],[98.6859,17.2967],[98.6848,17.2967],[98.6848,17.2962],[98.6873,17.2957],[98.6873,17.2962],[98.6879,17.2965],[98.6879,17.2973],[98.687,17.2978],[98.687,17.2984],[98.6876,17.2986],[98.6879,17.3008],[98.6876,17.3008],[98.6876,17.3019],[98.687,17.3022],[98.6867,17.3033],[98.6862,17.3035],[98.685,17.3057],[98.685,17.3068],[98.6853,17.3073],[98.6859,17.3073],[98.685,17.3081],[98.6853,17.3092],[98.6839,17.3089],[98.6831,17.3098],[98.6825,17.3119],[98.6816,17.3122],[98.6819,17.3136],[98.6814,17.3138],[98.6814,17.3144],[98.6805,17.3144],[98.6797,17.3152],[98.6771,17.316],[98.6768,17.3173],[98.6777,17.3179],[98.6777,17.319],[98.6782,17.319],[98.6782,17.3198],[98.6777,17.3198],[98.6774,17.3187],[98.6768,17.3184],[98.6754,17.3184],[98.6743,17.3192],[98.6749,17.3222],[98.676,17.323],[98.6768,17.323],[98.6763,17.3233],[98.6765,17.3249],[98.6757,17.3247],[98.6757,17.3252],[98.6763,17.3252],[98.6771,17.3263],[98.6771,17.3255],[98.6777,17.3249],[98.6785,17.3247],[98.6788,17.3252],[98.6794,17.3252],[98.6794,17.3276],[98.6799,17.3282],[98.6794,17.3298],[98.6802,17.3304],[98.6785,17.332],[98.6785,17.3333],[98.6774,17.3333],[98.6762,17.3344],[98.674,17.3347],[98.6737,17.3355],[98.6723,17.3339],[98.6717,17.3339],[98.6709,17.335],[98.6709,17.3333],[98.6703,17.3328],[98.6686,17.3325],[98.6678,17.3336],[98.6678,17.3352],[98.6692,17.3363],[98.6703,17.3366],[98.6695,17.3371],[98.6695,17.3379],[98.6683,17.3377],[98.6678,17.3387],[98.6678,17.3398],[98.6683,17.3404],[98.6672,17.3415],[98.6672,17.3439],[98.6678,17.3444],[98.6689,17.3444],[98.6689,17.3461],[98.668,17.3469],[98.6694,17.348],[98.6694,17.3461],[98.6703,17.3461],[98.6709,17.3466],[98.6717,17.3466],[98.6714,17.3474],[98.6726,17.348],[98.6709,17.3488],[98.6711,17.3496],[98.6717,17.3488],[98.672,17.3501],[98.6714,17.3499],[98.6717,17.3507],[98.6709,17.3507],[98.67,17.3515],[98.6697,17.3545],[98.6683,17.3542],[98.668,17.3547],[98.668,17.3539],[98.6686,17.3537],[98.6677,17.3534],[98.6677,17.3542],[98.6672,17.3542],[98.6669,17.3553],[98.6663,17.3553],[98.666,17.3545],[98.6655,17.3545],[98.6652,17.355],[98.6646,17.3547],[98.6646,17.3553],[98.6655,17.3556],[98.6652,17.3561],[98.6658,17.3561],[98.6658,17.3569],[98.6663,17.3566],[98.6663,17.3572],[98.6672,17.3572],[98.6672,17.3588]],[[98.6658,17.3539],[98.666,17.3542],[98.666,17.3539],[98.6658,17.3539]],[[98.6649,17.3537],[98.6655,17.3539],[98.6655,17.3537],[98.6649,17.3537]],[[98.6658,17.3537],[98.6666,17.3534],[98.6663,17.352],[98.6646,17.352],[98.6641,17.3501],[98.6624,17.3501],[98.6624,17.3507],[98.6638,17.3509],[98.6641,17.3531],[98.6658,17.3537]],[[98.6686,17.3531],[98.6689,17.3537],[98.6689,17.3531],[98.6686,17.3531]],[[98.6689,17.3531],[98.6694,17.3529],[98.6694,17.3504],[98.6689,17.3504],[98.6683,17.3493],[98.6677,17.3493],[98.6677,17.3491],[98.6669,17.349],[98.6669,17.3488],[98.6666,17.3488],[98.6672,17.3501],[98.6689,17.3507],[98.6689,17.3531]],[[98.661,17.3504],[98.6613,17.3509],[98.6613,17.3504],[98.661,17.3504]],[[98.6598,17.3496],[98.6601,17.3504],[98.6604,17.3493],[98.6598,17.3496]],[[98.6618,17.3493],[98.6624,17.349],[98.6627,17.348],[98.6632,17.3482],[98.6632,17.3477],[98.6638,17.3477],[98.6638,17.3471],[98.663,17.3471],[98.663,17.3477],[98.6621,17.3477],[98.6621,17.3474],[98.6615,17.3474],[98.6615,17.3471],[98.661,17.3471],[98.661,17.3482],[98.6618,17.3493]],[[98.6655,17.3488],[98.6666,17.3488],[98.6666,17.3482],[98.6655,17.3469],[98.6652,17.3434],[98.6647,17.3434],[98.6647,17.3425],[98.6652,17.3425],[98.6652,17.3412],[98.665,17.3344],[98.6644,17.3344],[98.6646,17.3455],[98.6638,17.3466],[98.6646,17.3471],[98.6646,17.348],[98.6652,17.348],[98.6655,17.3488]],[[98.6598,17.348],[98.6601,17.3482],[98.6601,17.348],[98.6598,17.348]],[[98.6604,17.3471],[98.661,17.3471],[98.661,17.3466],[98.6604,17.3466],[98.6604,17.3471]],[[98.6576,17.3461],[98.6593,17.3455],[98.6596,17.3447],[98.6593,17.3439],[98.6584,17.3436],[98.6584,17.3428],[98.6593,17.3428],[98.6601,17.342],[98.6615,17.3417],[98.6616,17.3412],[98.659,17.3409],[98.659,17.3404],[98.6579,17.3404],[98.6579,17.3409],[98.657,17.3409],[98.6565,17.342],[98.6565,17.3436],[98.657,17.3444],[98.6567,17.345],[98.657,17.3455],[98.6576,17.3455],[98.6576,17.3461]],[[98.6627,17.3444],[98.6638,17.345],[98.6635,17.3433],[98.6627,17.3431],[98.6627,17.3444]],[[98.6663,17.3442],[98.6666,17.3444],[98.6666,17.3442],[98.6663,17.3442]],[[98.6638,17.3417],[98.6641,17.3423],[98.6641,17.3417],[98.6638,17.3417]],[[98.665,17.3322],[98.6652,17.3325],[98.6652,17.3322],[98.665,17.3322]],[[98.6652,17.3317],[98.6655,17.332],[98.6655,17.3317],[98.6652,17.3317]],[[98.6768,17.3317],[98.6771,17.332],[98.6771,17.3317],[98.6768,17.3317]],[[98.672,17.3314],[98.6723,17.3317],[98.6723,17.3314],[98.672,17.3314]],[[98.6771,17.3314],[98.6774,17.3317],[98.6774,17.3314],[98.6771,17.3314]],[[98.6658,17.3312],[98.6661,17.3314],[98.6661,17.3312],[98.6658,17.3312]],[[98.6664,17.3309],[98.6669,17.3312],[98.6669,17.3309],[98.6664,17.3309]],[[98.6774,17.3309],[98.6782,17.3309],[98.6782,17.3282],[98.6777,17.3282],[98.6774,17.3309]],[[98.6774,17.3271],[98.6777,17.3279],[98.6777,17.3271],[98.6774,17.3271]],[[98.6751,17.3241],[98.6754,17.3244],[98.6754,17.3241],[98.6751,17.3241]],[[98.6786,17.3073],[98.6788,17.3076],[98.6788,17.3073],[98.6786,17.3073]],[[98.6788,17.307],[98.6791,17.3073],[98.6791,17.307],[98.6788,17.307]],[[98.6766,17.3022],[98.6769,17.3024],[98.6769,17.3022],[98.6766,17.3022]],[[98.6873,17.3005],[98.6876,17.3008],[98.6876,17.3005],[98.6873,17.3005]],[[98.6788,17.3003],[98.6791,17.3005],[98.6791,17.3003],[98.6788,17.3003]],[[98.687,17.3005],[98.6873,17.3],[98.6868,17.2995],[98.6867,17.3003],[98.687,17.3005]],[[98.6791,17.3],[98.6794,17.3003],[98.6794,17.3],[98.6791,17.3]],[[98.68,17.2997],[98.6803,17.3],[98.6803,17.2997],[98.68,17.2997]],[[98.6803,17.2994],[98.6805,17.2997],[98.6805,17.2994],[98.6803,17.2994]],[[98.6814,17.2981],[98.6817,17.2992],[98.6817,17.2981],[98.6814,17.2981]],[[98.6777,17.2986],[98.678,17.2989],[98.678,17.2986],[98.6777,17.2986]],[[98.6814,17.2978],[98.6817,17.297],[98.6811,17.2967],[98.6811,17.2973],[98.6814,17.2978]]]}},{"type":"Feature","properties":{"kind":"seasonal","area_km2":2.489,"date":"2026-10-09"},"geometry":{"type":"Polygon","coordinates":[[[98.7857,17.8902],[98.7857,17.8897],[98.7849,17.8896],[98.7849,17.8891],[98.7834,17.8891],[98.7834,17.8896],[98.7829,17.8896],[98.7829,17.8891],[98.7815,17.8894],[98.7815,17.8883],[98.7809,17.888],[98.7806,17.8869],[98.7798,17.8867],[98.7795,17.8858],[98.7783,17.885],[98.7783,17.8837],[98.7772,17.882],[98.7761,17.882],[98.7752,17.8812],[98.7735,17.881],[98.773,17.8815],[98.773,17.8826],[98.7721,17.8823],[98.7713,17.8829],[98.7713,17.8834],[98.7707,17.8834],[98.771,17.8818],[98.7699,17.8807],[98.7696,17.8791],[98.7713,17.8791],[98.7718,17.8785],[98.7718,17.8777],[98.771,17.8769],[98.7721,17.8772],[98.7721,17.8788],[98.7738,17.8782],[98.7738,17.8774],[98.775,17.8774],[98.7761,17.8788],[98.7764,17.8772],[98.7755,17.8769],[98.7755,17.8761],[98.773,17.8758],[98.7724,17.8753],[98.773,17.8747],[98.7727,17.8742],[98.771,17.8744],[98.7701,17.8736],[98.7704,17.8731],[98.771,17.8731],[98.771,17.8726],[98.7721,17.8723],[98.7721,17.8715],[98.773,17.8707],[98.773,17.8701],[98.7736,17.8701],[98.7736,17.8696],[98.7721,17.8696],[98.7721,17.8701],[98.7704,17.8704],[98.7696,17.8696],[98.7696,17.8677],[98.7687,17.8698],[98.7693,17.8707],[98.7693,17.8723],[98.7684,17.8736],[98.7699,17.8747],[98.7707,17.8763],[98.7701,17.8763],[98.7701,17.8758],[98.7679,17.8739],[98.7687,17.8728],[98.7687,17.8712],[98.7676,17.8696],[98.7687,17.869],[98.7687,17.8682],[98.7668,17.8666],[98.7668,17.8655],[98.7682,17.8655],[98.7687,17.865],[98.7685,17.8628],[98.7693,17.8622],[98.7693,17.8617],[98.7719,17.8617],[98.7724,17.8628],[98.7753,17.8628],[98.7738,17.8639],[98.773,17.8636],[98.771,17.8641],[98.7707,17.8652],[98.7724,17.8666],[98.7724,17.8674],[98.775,17.8671],[98.7758,17.8679],[98.7764,17.8679],[98.7775,17.8669],[98.7795,17.8669],[98.7801,17.8666],[98.7801,17.8661],[98.7809,17.8661],[98.7815,17.868],[98.7809,17.868],[98.7809,17.8682],[98.7789,17.8679],[98.7784,17.869],[98.7767,17.8696],[98.7769,17.8701],[98.7792,17.8704],[98.7792,17.8709],[98.7758,17.8715],[98.7761,17.8726],[98.7767,17.8728],[98.7769,17.875],[98.7789,17.8753],[98.7792,17.8739],[98.7801,17.8734],[98.7801,17.8728],[98.7823,17.8726],[98.7826,17.872],[98.7837,17.8723],[98.784,17.8728],[98.7857,17.8723],[98.7863,17.8734],[98.788,17.8728],[98.788,17.8753],[98.7869,17.8753],[98.7869,17.8745],[98.7854,17.8742],[98.7849,17.8755],[98.7837,17.8758],[98.7846,17.8769],[98.7854,17.8769],[98.7854,17.8777],[98.7849,17.8774],[98.784,17.8783],[98.7835,17.878],[98.782,17.8788],[98.782,17.8796],[98.7835,17.8796],[98.7843,17.8802],[98.786,17.8799],[98.7863,17.8807],[98.7857,17.8807],[98.7854,17.8812],[98.784,17.8812],[98.7837,17.8821],[98.7817,17.8829],[98.7823,17.884],[98.784,17.8845],[98.7834,17.8845],[98.7832,17.885],[98.7812,17.885],[98.7812,17.8856],[98.7823,17.8861],[98.7829,17.8872],[98.7837,17.8869],[98.7843,17.888],[98.7866,17.8875],[98.7863,17.8883],[98.7866,17.8902],[98.7857,17.8902]],[[98.786,17.888],[98.7863,17.8883],[98.7863,17.888],[98.786,17.888]],[[98.7832,17.888],[98.7837,17.888],[98.7837,17.8878],[98.7832,17.8875],[98.7832,17.888]],[[98.7738,17.8742],[98.7744,17.8742],[98.7744,17.8736],[98.7738,17.8736],[98.7738,17.8742]],[[98.7741,17.8709],[98.7744,17.8712],[98.7744,17.8709],[98.7741,17.8709]],[[98.7804,17.8677],[98.7809,17.868],[98.7809,17.8677],[98.7804,17.8677]]]}},{"type":"Feature","properties":{"kind":"seasonal","area_km2":1.629,"date":"2026-10-09"},"geometry":{"type":"Polygon","coordinates":[[[98.7551,17.6862],[98.7551,17.6849],[98.7565,17.6835],[98.7585,17.683],[98.7585,17.6824],[98.7591,17.6825],[98.7599,17.6816],[98.7594,17.6814],[98.7594,17.6808],[98.7577,17.6808],[98.7574,17.6814],[98.756,17.6819],[98.7548,17.6816],[98.7548,17.6803],[98.7557,17.6795],[98.7585,17.6784],[98.7585,17.6776],[98.7571,17.6768],[98.7568,17.6751],[98.7563,17.6751],[98.7565,17.6738],[98.7574,17.6738],[98.7574,17.6732],[98.758,17.6732],[98.7582,17.6727],[98.7599,17.6724],[98.7602,17.6719],[98.7619,17.6713],[98.7628,17.6697],[98.7625,17.6684],[98.7633,17.6675],[98.7639,17.6678],[98.7642,17.6667],[98.765,17.6665],[98.7642,17.6659],[98.7645,17.6648],[98.765,17.6648],[98.7648,17.6632],[98.7656,17.6632],[98.7656,17.6624],[98.7662,17.6621],[98.7662,17.6602],[98.7673,17.66],[98.7679,17.6608],[98.7684,17.6608],[98.7687,17.6594],[98.7693,17.6594],[98.7696,17.6586],[98.7718,17.6583],[98.7718,17.66],[98.7713,17.6602],[98.7713,17.661],[98.7704,17.6616],[98.7699,17.6627],[98.7693,17.6627],[98.7693,17.6635],[98.7701,17.6643],[98.7701,17.6684],[98.7698,17.6689],[98.769,17.6689],[98.769,17.6697],[98.767,17.6713],[98.767,17.6741],[98.7662,17.6749],[98.765,17.6751],[98.7659,17.6741],[98.7659,17.6735],[98.7653,17.6732],[98.7656,17.6711],[98.7667,17.6708],[98.7676,17.67],[98.7673,17.6694],[98.7667,17.6703],[98.765,17.6711],[98.7653,17.6741],[98.7636,17.6749],[98.7633,17.6757],[98.7619,17.6757],[98.7613,17.6762],[98.7628,17.6776],[98.7628,17.6784],[98.7633,17.6789],[98.7642,17.6787],[98.7645,17.6797],[98.7636,17.6806],[98.7622,17.6808],[98.7616,17.6819],[98.7608,17.6819],[98.7599,17.683],[98.7591,17.6827],[98.7571,17.6846],[98.7568,17.686],[98.7551,17.6862]],[[98.7574,17.6806],[98.7577,17.6808],[98.7577,17.6806],[98.7574,17.6806]],[[98.7594,17.6806],[98.7596,17.6808],[98.7596,17.6806],[98.7594,17.6806]],[[98.7653,17.6694],[98.7662,17.6694],[98.7653,17.6689],[98.7653,17.6694]],[[98.7687,17.6684],[98.769,17.6689],[98.769,17.6684],[98.7687,17.6684]],[[98.7653,17.6686],[98.7659,17.6681],[98.7656,17.6667],[98.7653,17.6667],[98.7653,17.6686]],[[98.765,17.6665],[98.7653,17.6667],[98.7653,17.6665],[98.765,17.6665]]]}},{"type":"Feature","properties":{"kind":"seasonal","area_km2":1.256,"date":"2026-10-09"},"geometry":{"type":"Polygon","coordinates":[[[98.8335,17.3672],[98.8315,17.3661],[98.8321,17.365],[98.8309,17.3642],[98.8332,17.3644],[98.834,17.3639],[98.8343,17.3625],[98.8355,17.3625],[98.836,17.362],[98.8357,17.3615],[98.8349,17.3615],[98.8349,17.3606],[98.8338,17.3606],[98.8349,17.3598],[98.8338,17.3587],[98.8357,17.3574],[98.8352,17.3555],[98.8343,17.356],[98.8343,17.3555],[98.8335,17.3552],[98.8332,17.3569],[98.8318,17.3558],[98.8309,17.3558],[98.8304,17.3563],[98.8304,17.3571],[98.8298,17.3571],[98.8301,17.3563],[98.8295,17.3558],[98.8284,17.356],[98.8284,17.3547],[98.829,17.3544],[98.829,17.3539],[98.8301,17.3541],[98.8304,17.3531],[98.8315,17.3528],[98.8315,17.3517],[98.8326,17.3514],[98.8332,17.3509],[98.8332,17.3501],[98.8346,17.349],[98.8341,17.3468],[98.8349,17.3457],[98.8355,17.3463],[98.8363,17.346],[98.8358,17.3449],[98.836,17.3444],[98.8355,17.3441],[98.8363,17.3436],[98.836,17.343],[98.8355,17.343],[98.836,17.3425],[98.836,17.339],[98.8372,17.3392],[98.8375,17.3387],[98.8386,17.3387],[98.8397,17.3395],[98.8397,17.34],[98.8386,17.3403],[98.8386,17.3409],[98.8377,17.3414],[98.8394,17.3422],[98.8397,17.3438],[98.8383,17.3438],[98.8383,17.3444],[98.8375,17.3447],[98.8375,17.3455],[98.838,17.346],[98.8369,17.3465],[98.8369,17.3474],[98.8355,17.3471],[98.8355,17.3479],[98.836,17.3479],[98.8363,17.3487],[98.8363,17.3498],[98.836,17.3503],[98.8352,17.3501],[98.8352,17.3514],[98.8338,17.3528],[98.8338,17.3533],[98.8352,17.3533],[98.8352,17.3525],[98.8363,17.3517],[98.8374,17.3517],[98.838,17.3522],[98.838,17.3514],[98.8389,17.3506],[98.8389,17.3495],[98.8403,17.3487],[98.8411,17.3487],[98.8411,17.3495],[98.8397,17.3501],[98.8391,17.3517],[98.8394,17.3528],[98.84,17.3528],[98.84,17.3536],[98.8391,17.3536],[98.8383,17.3547],[98.8394,17.3558],[98.8386,17.3569],[98.8374,17.3563],[98.8374,17.3593],[98.8363,17.3588],[98.8366,17.3606],[98.8389,17.3607],[98.8391,17.3601],[98.8397,17.3601],[98.8405,17.3615],[98.8394,17.3612],[98.8391,17.3617],[98.838,17.362],[98.8374,17.3625],[98.8374,17.3642],[98.8369,17.3653],[98.8357,17.3647],[98.8349,17.3655],[98.8349,17.3661],[98.8335,17.3672]],[[98.8383,17.339],[98.8386,17.3392],[98.8386,17.339],[98.8383,17.339]]]}},{"type":"Feature","properties":{"kind":"seasonal","area_km2":1.01,"date":"2026-10-09"},"geometry":{"type":"Polygon","coordinates":[[[98.6479,17.9941],[98.6479,17.9925],[98.6487,17.9925],[98.6487,17.9911],[98.6498,17.9911],[98.6496,17.989],[98.6499,17.9884],[98.6507,17.9884],[98.6507,17.9873],[98.6521,17.9873],[98.6521,17.9882],[98.6535,17.9882],[98.6524,17.9868],[98.6499,17.9868],[98.6501,17.9846],[98.6513,17.9844],[98.651,17.9835],[98.6493,17.9827],[98.649,17.9822],[98.649,17.9806],[98.6496,17.9806],[98.6496,17.9787],[98.6502,17.9787],[98.6504,17.9795],[98.6507,17.9784],[98.6516,17.9784],[98.6527,17.9779],[98.6533,17.977],[98.6538,17.977],[98.6547,17.9779],[98.6547,17.9792],[98.6553,17.9792],[98.6553,17.9811],[98.6541,17.9822],[98.6544,17.9841],[98.6533,17.9841],[98.6533,17.9849],[98.6541,17.9849],[98.6541,17.9855],[98.6558,17.9855],[98.6558,17.9838],[98.6584,17.9838],[98.6586,17.9855],[98.6581,17.9855],[98.6578,17.9863],[98.6564,17.9863],[98.6564,17.9868],[98.6595,17.9868],[98.6595,17.9857],[98.6615,17.986],[98.6612,17.9855],[98.6606,17.9855],[98.6609,17.983],[98.6609,17.9841],[98.6626,17.9863],[98.662,17.9865],[98.662,17.9871],[98.6626,17.9871],[98.6623,17.9884],[98.6632,17.9887],[98.6632,17.9882],[98.664,17.9882],[98.664,17.9895],[98.6632,17.9903],[98.662,17.9903],[98.6623,17.989],[98.6618,17.9893],[98.6618,17.9887],[98.6606,17.9876],[98.6595,17.9874],[98.6595,17.9884],[98.6561,17.9884],[98.6561,17.9876],[98.6555,17.9882],[98.6558,17.9868],[98.6552,17.9868],[98.6552,17.9895],[98.6541,17.9898],[98.653,17.9892],[98.6533,17.9903],[98.6524,17.9903],[98.6518,17.9895],[98.6513,17.9895],[98.6513,17.9901],[98.6501,17.9906],[98.6504,17.9925],[98.6498,17.9925],[98.6496,17.9941],[98.6479,17.9941]],[[98.6615,17.986],[98.6618,17.9863],[98.6618,17.986],[98.6615,17.986]],[[98.6499,17.9825],[98.6501,17.9827],[98.6501,17.9825],[98.6499,17.9825]],[[98.6501,17.9819],[98.6504,17.9822],[98.6504,17.9819],[98.6501,17.9819]],[[98.6504,17.9816],[98.6507,17.9819],[98.6507,17.9816],[98.6504,17.9816]],[[98.6519,17.9814],[98.6524,17.9817],[98.6524,17.9814],[98.6519,17.9814]],[[98.6513,17.9803],[98.6516,17.9806],[98.6516,17.9803],[98.6513,17.9803]],[[98.6516,17.98],[98.6519,17.9803],[98.6519,17.98],[98.6516,17.98]]]}},{"type":"Feature","properties":{"kind":"seasonal","area_km2":0.783,"date":"2026-10-09"},"geometry":{"type":"Polygon","coordinates":[[[98.6617,17.8469],[98.6615,17.8464],[98.6609,17.8464],[98.6609,17.8453],[98.6615,17.845],[98.6617,17.8439],[98.6612,17.8417],[98.6623,17.8428],[98.6626,17.8455],[98.6629,17.8434],[98.662,17.8415],[98.6612,17.8409],[98.6609,17.8401],[98.6603,17.8401],[98.6603,17.839],[98.6609,17.839],[98.6609,17.8385],[98.6603,17.8382],[98.6612,17.8361],[98.6618,17.8363],[98.6609,17.838],[98.6615,17.8377],[98.6626,17.8355],[98.6669,17.8355],[98.6671,17.835],[98.668,17.835],[98.668,17.8344],[98.6694,17.8334],[98.6717,17.8325],[98.6734,17.8307],[98.6734,17.8288],[98.672,17.8255],[98.6717,17.8233],[98.6708,17.8231],[98.6703,17.8201],[98.6706,17.8184],[98.6717,17.8179],[98.6757,17.8179],[98.6751,17.8185],[98.6728,17.8184],[98.6731,17.8193],[98.6757,17.8193],[98.6768,17.819],[98.6774,17.8185],[98.6771,17.8174],[98.6782,17.8168],[98.6785,17.8176],[98.6776,17.8182],[98.6774,17.8195],[98.6768,17.8193],[98.6757,17.8204],[98.672,17.8201],[98.6714,17.8206],[98.6717,17.8228],[98.6723,17.8239],[98.6728,17.8239],[98.6723,17.8244],[98.6725,17.8252],[98.6745,17.8252],[98.6742,17.826],[98.6734,17.8266],[98.6742,17.8274],[98.6742,17.8279],[98.6737,17.8279],[98.6739,17.829],[98.6748,17.8296],[98.6745,17.8301],[98.6739,17.8301],[98.6739,17.8323],[98.6728,17.8331],[98.6728,17.8339],[98.6717,17.835],[98.67,17.8353],[98.6697,17.8358],[98.6688,17.8353],[98.6677,17.8366],[98.6671,17.8366],[98.6671,17.8374],[98.666,17.8385],[98.664,17.8382],[98.6629,17.839],[98.6626,17.8404],[98.6632,17.8407],[98.6629,17.842],[98.6634,17.845],[98.6629,17.8458],[98.6629,17.8469],[98.6617,17.8469]]]}},{"type":"Feature","properties":{"kind":"seasonal","area_km2":0.758,"date":"2026-10-09"},"geometry":{"type":"Polygon","coordinates":[[[98.8516,17.3262],[98.8519,17.3251],[98.851,17.3246],[98.8513,17.3227],[98.8507,17.3224],[98.8505,17.323],[98.849,17.3232],[98.8479,17.3222],[98.8471,17.3222],[98.8474,17.3213],[98.8462,17.3208],[98.8462,17.3203],[98.8471,17.3197],[98.8471,17.3186],[98.8462,17.3186],[98.8462,17.3175],[98.8468,17.317],[98.8462,17.317],[98.8459,17.3165],[98.8474,17.3162],[98.8468,17.3143],[98.8476,17.314],[98.8471,17.314],[98.8471,17.3135],[98.8465,17.3137],[98.8474,17.311],[98.8468,17.3105],[98.8457,17.3108],[98.8454,17.3097],[98.846,17.3097],[98.8462,17.3091],[98.8479,17.3091],[98.8479,17.3078],[98.8468,17.3075],[98.8465,17.3067],[98.8454,17.3062],[98.8457,17.3051],[98.8462,17.3051],[98.8465,17.3045],[98.8471,17.3045],[98.8471,17.3053],[98.8477,17.3059],[98.8485,17.3056],[98.8488,17.3045],[98.8491,17.3059],[98.8516,17.3059],[98.8516,17.3083],[98.8541,17.3081],[98.853,17.3124],[98.8536,17.3129],[98.8558,17.3124],[98.855,17.3135],[98.8522,17.3132],[98.8522,17.3127],[98.8527,17.3124],[98.8527,17.3105],[98.8513,17.311],[98.8516,17.3091],[98.851,17.3097],[98.8488,17.3099],[98.8491,17.3105],[98.8496,17.3105],[98.8496,17.3124],[98.8482,17.3124],[98.8482,17.3132],[98.8493,17.3143],[98.8493,17.3151],[98.8488,17.3154],[98.8482,17.3167],[98.8482,17.3189],[98.8488,17.3194],[98.8488,17.3203],[98.8499,17.3189],[98.8505,17.3189],[98.8505,17.3205],[98.8499,17.3211],[98.8499,17.3219],[98.8519,17.3216],[98.8519,17.3238],[98.8527,17.3243],[98.8522,17.3246],[98.8524,17.326],[98.8516,17.3262]]]}},{"type":"Feature","properties":{"kind":"seasonal","area_km2":0.686,"date":"2026-10-09"},"geometry":{"type":"Polygon","coordinates":[[[98.8728,17.2565],[98.8725,17.2546],[98.8714,17.2546],[98.8717,17.2527],[98.8731,17.2533],[98.8734,17.2522],[98.8745,17.2519],[98.8745,17.2511],[98.8751,17.2509],[98.8748,17.2503],[98.8756,17.2503],[98.8756,17.2495],[98.8768,17.249],[98.877,17.2481],[98.8779,17.2481],[98.8785,17.249],[98.8796,17.249],[98.8799,17.2481],[98.8807,17.2484],[98.8804,17.2479],[98.8793,17.2476],[98.8793,17.2465],[98.8799,17.2465],[98.8796,17.2457],[98.8804,17.2443],[98.8844,17.2443],[98.8847,17.2454],[98.8847,17.2443],[98.8864,17.2435],[98.8864,17.243],[98.8858,17.2427],[98.8864,17.2414],[98.8861,17.2406],[98.89,17.2403],[98.8909,17.2408],[98.892,17.2408],[98.8931,17.24],[98.894,17.24],[98.8943,17.2392],[98.8951,17.2395],[98.8946,17.2406],[98.8934,17.2406],[98.892,17.2414],[98.8903,17.2414],[98.8903,17.2419],[98.8875,17.2419],[98.8869,17.2441],[98.8864,17.2443],[98.8864,17.2454],[98.8872,17.2457],[98.8872,17.2471],[98.8861,17.2471],[98.8858,17.2479],[98.8847,17.2479],[98.885,17.246],[98.8844,17.246],[98.8841,17.2468],[98.8827,17.2465],[98.8827,17.246],[98.8813,17.246],[98.8813,17.2495],[98.8799,17.2506],[98.8793,17.25],[98.8782,17.25],[98.8787,17.2503],[98.8787,17.2511],[98.8776,17.2511],[98.8776,17.2519],[98.8768,17.2522],[98.8776,17.2536],[98.877,17.2541],[98.8762,17.2541],[98.8759,17.2533],[98.8754,17.2536],[98.8754,17.2546],[98.8728,17.2546],[98.8728,17.2552],[98.8734,17.2555],[98.8728,17.2565]],[[98.8773,17.2506],[98.8776,17.2511],[98.8776,17.2506],[98.8773,17.2506]]]}},{"type":"Feature","properties":{"kind":"seasonal","area_km2":0.619,"date":"2026-10-09"},"geometry":{"type":"Polygon","coordinates":[[[98.6192,17.9998],[98.6189,17.9979],[98.6195,17.9968],[98.6187,17.9968],[98.6187,17.996],[98.6195,17.996],[98.6198,17.9954],[98.6221,17.9943],[98.6286,17.9946],[98.6289,17.996],[98.6303,17.996],[98.6303,17.9965],[98.6309,17.9965],[98.6309,17.9957],[98.6314,17.9957],[98.6326,17.9971],[98.6317,17.9976],[98.6297,17.9976],[98.6297,17.9981],[98.6286,17.9981],[98.6294,17.9984],[98.6297,17.9998],[98.6192,17.9998]],[[98.6243,17.9987],[98.6246,17.999],[98.6246,17.9987],[98.6243,17.9987]],[[98.6255,17.9973],[98.6263,17.9968],[98.6263,17.996],[98.6252,17.996],[98.6255,17.9973]],[[98.6218,17.9965],[98.6252,17.996],[98.6252,17.9952],[98.6218,17.9957],[98.6218,17.9965]]]}},{"type":"Feature","properties":{"kind":"seasonal","area_km2":0.617,"date":"2026-10-09"},"geometry":{"type":"Polygon","coordinates":[[[98.8869,17.2793],[98.8869,17.2788],[98.8852,17.2788],[98.8847,17.2777],[98.883,17.2766],[98.8807,17.2769],[98.8787,17.2761],[98.8784,17.2755],[98.8759,17.2753],[98.8756,17.2747],[98.8731,17.2753],[98.8717,17.2742],[98.8705,17.2742],[98.8703,17.2736],[98.8697,17.2736],[98.87,17.2731],[98.8714,17.2728],[98.872,17.2717],[98.8711,17.2706],[98.8697,17.2706],[98.8705,17.2682],[98.8711,17.2682],[98.872,17.2668],[98.8717,17.2663],[98.87,17.2658],[98.8697,17.2628],[98.8694,17.2622],[98.8689,17.2622],[98.8694,17.2603],[98.8711,17.2606],[98.8705,17.2609],[98.8705,17.2625],[98.8711,17.2625],[98.8711,17.2641],[98.872,17.2644],[98.8711,17.2652],[98.8722,17.2658],[98.8737,17.2658],[98.8728,17.2674],[98.8734,17.2677],[98.8734,17.2687],[98.8728,17.2696],[98.8731,17.2704],[98.8739,17.2698],[98.8748,17.2701],[98.8748,17.2723],[98.8742,17.2723],[98.8745,17.2739],[98.877,17.2739],[98.8779,17.2744],[98.879,17.2742],[98.881,17.2761],[98.8838,17.2761],[98.8847,17.2769],[98.8855,17.2769],[98.8855,17.2777],[98.8861,17.278],[98.8892,17.2772],[98.8889,17.2782],[98.8872,17.2788],[98.8869,17.2793]],[[98.8717,17.2698],[98.8722,17.2698],[98.872,17.269],[98.8708,17.2687],[98.8711,17.2693],[98.8717,17.2693],[98.8717,17.2698]]]}},{"type":"Feature","properties":{"kind":"seasonal","area_km2":0.565,"date":"2026-10-09"},"geometry":{"type":"Polygon","coordinates":[[[98.8727,17.4049],[98.8704,17.4035],[98.8679,17.4035],[98.8673,17.4027],[98.8656,17.4027],[98.8665,17.4016],[98.8659,17.4008],[98.8648,17.4013],[98.8634,17.4011],[98.8642,17.4005],[98.8642,17.4],[98.8634,17.3992],[98.8628,17.3992],[98.8625,17.397],[98.8617,17.3962],[98.8603,17.3962],[98.8592,17.3954],[98.8583,17.3919],[98.8563,17.39],[98.8561,17.3886],[98.8552,17.3875],[98.8544,17.3872],[98.8541,17.3862],[98.8521,17.3848],[98.8527,17.3837],[98.8524,17.3829],[98.8532,17.3821],[98.853,17.3815],[98.8538,17.381],[98.8541,17.3802],[98.8544,17.3818],[98.8532,17.3829],[98.8532,17.3837],[98.8555,17.3843],[98.8552,17.3859],[98.8566,17.387],[98.8572,17.3883],[98.858,17.3886],[98.858,17.39],[98.8589,17.39],[98.8589,17.391],[98.86,17.3916],[98.8592,17.3921],[98.86,17.3927],[98.8603,17.3946],[98.8614,17.3946],[98.8614,17.3954],[98.8625,17.3957],[98.8625,17.3962],[98.8631,17.3965],[98.8631,17.3981],[98.8651,17.3989],[98.8665,17.3989],[98.8665,17.4],[98.8682,17.4003],[98.8676,17.4005],[98.8676,17.4019],[98.8713,17.4022],[98.8719,17.4024],[98.8724,17.4038],[98.8738,17.4041],[98.8738,17.4049],[98.8727,17.4049]],[[98.8721,17.4038],[98.8724,17.4041],[98.8724,17.4038],[98.8721,17.4038]],[[98.8662,17.4],[98.8665,17.4003],[98.8665,17.4],[98.8662,17.4]]]}},{"type":"Feature","properties":{"kind":"seasonal","area_km2":0.321,"date":"2026-10-09"},"geometry":{"type":"Polygon","coordinates":[[[98.842,17.3379],[98.8417,17.3373],[98.8394,17.3373],[98.8397,17.3368],[98.8411,17.3368],[98.8414,17.336],[98.8425,17.3354],[98.8417,17.3343],[98.8411,17.3343],[98.8411,17.3333],[98.8417,17.3333],[98.8428,17.3344],[98.8437,17.3344],[98.8437,17.333],[98.8445,17.3333],[98.8451,17.3327],[98.8451,17.3319],[98.8459,17.3316],[98.8457,17.3303],[98.8448,17.3292],[98.8462,17.3289],[98.8462,17.3278],[98.8471,17.3278],[98.8476,17.3273],[98.8502,17.3273],[98.8507,17.3265],[98.8513,17.3265],[98.8513,17.327],[98.8499,17.3276],[98.8496,17.3284],[98.8482,17.3281],[98.8468,17.3287],[98.8488,17.3297],[98.8485,17.3306],[98.8476,17.3306],[98.8476,17.3311],[98.8482,17.3311],[98.8485,17.3316],[98.8479,17.3316],[98.8479,17.3322],[98.8468,17.3322],[98.8465,17.3333],[98.8457,17.333],[98.8448,17.3335],[98.8451,17.3344],[98.8442,17.3349],[98.8442,17.3357],[98.8448,17.3357],[98.8451,17.3363],[98.8445,17.3365],[98.8445,17.3373],[98.8431,17.3373],[98.8428,17.3379],[98.842,17.3379]]]}},{"type":"Feature","properties":{"kind":"seasonal","area_km2":0.317,"date":"2026-10-09"},"geometry":{"type":"Polygon","coordinates":[[[98.8903,17.2262],[98.8892,17.2256],[98.8886,17.2243],[98.8881,17.2243],[98.8878,17.2237],[98.8872,17.2237],[98.8869,17.2229],[98.8864,17.2229],[98.8864,17.2224],[98.8855,17.2218],[98.8847,17.2202],[98.8833,17.2205],[98.883,17.2197],[98.8819,17.2194],[98.883,17.2189],[98.8836,17.218],[98.883,17.2159],[98.8838,17.217],[98.885,17.2167],[98.8847,17.2153],[98.8864,17.2161],[98.8867,17.217],[98.8855,17.2172],[98.8867,17.2191],[98.8864,17.221],[98.8869,17.2213],[98.8869,17.2221],[98.8875,17.2221],[98.8875,17.2227],[98.8884,17.2227],[98.8884,17.2221],[98.8895,17.2218],[98.8892,17.2235],[98.8906,17.2237],[98.8906,17.2251],[98.892,17.224],[98.8931,17.2237],[98.8931,17.2243],[98.8926,17.2246],[98.8929,17.2251],[98.8923,17.2256],[98.8903,17.2262]]]}},{"type":"Feature","properties":{"kind":"seasonal","area_km2":0.264,"date":"2026-10-09"},"geometry":{"type":"Polygon","coordinates":[[[98.8437,17.3593],[98.8439,17.3585],[98.8431,17.3585],[98.8422,17.3577],[98.8431,17.3574],[98.8431,17.3569],[98.8422,17.3566],[98.8422,17.3558],[98.8434,17.3555],[98.8434,17.356],[98.8439,17.3563],[98.8437,17.3555],[98.8442,17.3555],[98.8442,17.356],[98.8459,17.3563],[98.8465,17.3558],[98.8462,17.355],[98.8476,17.3547],[98.8476,17.3542],[98.8468,17.3541],[98.8465,17.3536],[98.847,17.3531],[98.8487,17.3531],[98.8487,17.3523],[98.8482,17.352],[98.8496,17.3517],[98.8496,17.3512],[98.8504,17.3504],[98.8516,17.3509],[98.8518,17.3504],[98.8527,17.3504],[98.853,17.3509],[98.8513,17.3514],[98.8496,17.3531],[98.8493,17.3542],[98.8487,17.3539],[98.8487,17.3558],[98.8479,17.356],[98.8482,17.3579],[98.8465,17.3579],[98.8453,17.3574],[98.8453,17.3569],[98.8448,17.3566],[98.8445,17.3579],[98.8451,17.3588],[98.8445,17.3593],[98.8437,17.3593]],[[98.8439,17.3582],[98.8442,17.3585],[98.8442,17.3582],[98.8439,17.3582]],[[98.8431,17.3574],[98.8434,17.3579],[98.8434,17.3574],[98.8431,17.3574]],[[98.8468,17.3569],[98.8473,17.3571],[98.8473,17.3569],[98.8468,17.3569]]]}},{"type":"Feature","properties":{"kind":"seasonal","area_km2":0.263,"date":"2026-10-09"},"geometry":{"type":"Polygon","coordinates":[[[98.6144,18.0025],[98.6144,18.0016],[98.6153,18.0011],[98.6153,18.0006],[98.6161,18.0003],[98.6255,18.0003],[98.6255,18.0025],[98.6158,18.0025],[98.6158,18.0014],[98.6153,18.0025],[98.6144,18.0025]]]}},{"type":"Feature","properties":{"kind":"seasonal","area_km2":0.263,"date":"2026-10-09"},"geometry":{"type":"Polygon","coordinates":[[[98.8321,17.3639],[98.8315,17.3631],[98.8326,17.3631],[98.8329,17.3625],[98.8324,17.362],[98.8318,17.362],[98.8318,17.3623],[98.8307,17.3623],[98.8304,17.3609],[98.8307,17.3598],[98.8321,17.3596],[98.8321,17.359],[98.8326,17.359],[98.8329,17.3585],[98.8318,17.3577],[98.8318,17.3585],[98.8312,17.3582],[98.8309,17.359],[98.8298,17.3587],[98.8298,17.3596],[98.8273,17.3596],[98.8267,17.3577],[98.8273,17.3577],[98.8276,17.3571],[98.8281,17.3571],[98.8281,17.3568],[98.829,17.3563],[98.8295,17.3563],[98.829,17.3574],[98.8304,17.3579],[98.8312,17.3563],[98.8318,17.3566],[98.8318,17.3571],[98.8329,17.3577],[98.8338,17.3569],[98.8349,17.3574],[98.8335,17.3582],[98.8332,17.3593],[98.8343,17.3598],[98.8332,17.3601],[98.8329,17.3606],[98.8329,17.3612],[98.8335,17.3609],[98.8335,17.3615],[98.8349,17.362],[98.8338,17.3623],[98.8332,17.3639],[98.8321,17.3639]],[[98.8332,17.3623],[98.8335,17.3625],[98.8335,17.3623],[98.8332,17.3623]],[[98.8312,17.3617],[98.8318,17.362],[98.8321,17.3612],[98.8318,17.3612],[98.8318,17.3615],[98.8315,17.3615],[98.8315,17.3617],[98.8312,17.3617]],[[98.8309,17.3615],[98.8312,17.3617],[98.8312,17.3615],[98.8309,17.3615]],[[98.8315,17.3606],[98.8318,17.3609],[98.8318,17.3606],[98.8315,17.3606]],[[98.8304,17.3585],[98.8307,17.3587],[98.8307,17.3585],[98.8304,17.3585]],[[98.8276,17.3574],[98.8278,17.3579],[98.8278,17.3574],[98.8276,17.3574]],[[98.8309,17.3574],[98.8312,17.3577],[98.8312,17.3574],[98.8309,17.3574]],[[98.8284,17.3568],[98.8287,17.3571],[98.8287,17.3568],[98.8284,17.3568]]]}},{"type":"Feature","properties":{"kind":"seasonal","area_km2":0.19,"date":"2026-10-09"},"geometry":{"type":"Polygon","coordinates":[[[98.8147,17.4713],[98.8147,17.4688],[98.8176,17.4672],[98.8179,17.4656],[98.8187,17.4645],[98.8195,17.4642],[98.8193,17.4631],[98.8215,17.4634],[98.8215,17.4621],[98.8227,17.4621],[98.8229,17.4626],[98.8238,17.4626],[98.8244,17.4634],[98.8277,17.464],[98.8263,17.4645],[98.8258,17.464],[98.8246,17.4642],[98.8235,17.4634],[98.8227,17.4634],[98.8224,17.464],[98.821,17.4637],[98.8215,17.464],[98.8215,17.4645],[98.8201,17.464],[98.8201,17.4656],[98.819,17.4653],[98.8193,17.4664],[98.8187,17.4664],[98.8184,17.4658],[98.8184,17.4675],[98.8178,17.4677],[98.8178,17.4688],[98.8159,17.4694],[98.8159,17.4705],[98.8153,17.4705],[98.8153,17.4713],[98.8147,17.4713]]]}},{"type":"Feature","properties":{"kind":"seasonal","area_km2":0.181,"date":"2026-10-09"},"geometry":{"type":"Polygon","coordinates":[[[98.845,17.4802],[98.8444,17.4792],[98.8433,17.4783],[98.8413,17.4781],[98.8404,17.4786],[98.8413,17.4754],[98.8404,17.4743],[98.8396,17.474],[98.8427,17.4745],[98.8424,17.4756],[98.8419,17.4759],[98.8416,17.4775],[98.843,17.4775],[98.843,17.477],[98.8436,17.477],[98.8441,17.4773],[98.8441,17.4786],[98.8452,17.4778],[98.8452,17.477],[98.8461,17.4764],[98.8458,17.4759],[98.8469,17.4756],[98.8469,17.4751],[98.8478,17.4751],[98.8478,17.4756],[98.8484,17.4756],[98.8486,17.4743],[98.8486,17.4751],[98.8492,17.4756],[98.8486,17.4756],[98.8484,17.4762],[98.8472,17.4762],[98.8467,17.4767],[98.8467,17.4783],[98.8461,17.4786],[98.8461,17.4792],[98.8455,17.4792],[98.845,17.4802]]]}},{"type":"Feature","properties":{"kind":"seasonal","area_km2":0.159,"date":"2026-10-09"},"geometry":{"type":"Polygon","coordinates":[[[98.8738,17.4051],[98.8738,17.4038],[98.8755,17.4035],[98.8755,17.4022],[98.8806,17.4022],[98.882,17.4011],[98.8829,17.4014],[98.8832,17.4005],[98.8837,17.4005],[98.8837,17.3997],[98.8846,17.3995],[98.884,17.4011],[98.8832,17.4014],[98.8823,17.4024],[98.8817,17.4024],[98.8809,17.4033],[98.8809,17.4041],[98.8801,17.4033],[98.8786,17.4038],[98.8781,17.403],[98.8772,17.403],[98.8761,17.4041],[98.8764,17.4046],[98.8747,17.4046],[98.8744,17.4051],[98.8738,17.4051]],[[98.8755,17.4035],[98.8758,17.4038],[98.8758,17.4035],[98.8755,17.4035]]]}},{"type":"Feature","properties":{"kind":"seasonal","area_km2":0.155,"date":"2026-10-09"},"geometry":{"type":"Polygon","coordinates":[[[98.7895,17.8341],[98.7889,17.8324],[98.7878,17.8333],[98.7855,17.8335],[98.7849,17.833],[98.7852,17.8305],[98.7858,17.83],[98.7869,17.83],[98.7855,17.8311],[98.7858,17.8327],[98.7869,17.8324],[98.7869,17.8316],[98.7889,17.8316],[98.79,17.8324],[98.7903,17.8316],[98.7914,17.8319],[98.7917,17.8311],[98.7948,17.8314],[98.7948,17.8322],[98.7926,17.8319],[98.7923,17.8333],[98.7903,17.833],[98.79,17.8341],[98.7895,17.8341]]]}},{"type":"Feature","properties":{"kind":"seasonal","area_km2":0.151,"date":"2026-10-09"},"geometry":{"type":"Polygon","coordinates":[[[98.9273,17.9855],[98.927,17.9849],[98.9256,17.9847],[98.9256,17.983],[98.9261,17.9828],[98.9267,17.9814],[98.9276,17.9806],[98.9284,17.9806],[98.9284,17.9811],[98.9293,17.982],[98.931,17.9814],[98.9307,17.9825],[98.9276,17.9828],[98.9278,17.9836],[98.9293,17.9847],[98.9293,17.9855],[98.9273,17.9855]]]}},{"type":"Feature","properties":{"kind":"seasonal","area_km2":0.149,"date":"2026-10-09"},"geometry":{"type":"Polygon","coordinates":[[[98.6731,17.8174],[98.674,17.8171],[98.6748,17.816],[98.6754,17.816],[98.6754,17.8147],[98.6762,17.8144],[98.676,17.813],[98.6754,17.8128],[98.6757,17.8098],[98.676,17.8111],[98.6771,17.8114],[98.6777,17.8133],[98.6782,17.8133],[98.6782,17.8149],[98.6777,17.8149],[98.6779,17.8155],[98.6771,17.816],[98.6771,17.8166],[98.6731,17.8174]]]}},{"type":"Feature","properties":{"kind":"seasonal","area_km2":0.146,"date":"2026-10-09"},"geometry":{"type":"Polygon","coordinates":[[[98.8298,17.3688],[98.8273,17.3685],[98.8273,17.3677],[98.8278,17.3677],[98.8278,17.3669],[98.8284,17.3669],[98.8287,17.3663],[98.8295,17.3663],[98.8298,17.3653],[98.829,17.3653],[98.829,17.3644],[98.8298,17.3644],[98.8295,17.3634],[98.8307,17.3631],[98.8309,17.3639],[98.8304,17.3639],[98.8304,17.3644],[98.8315,17.365],[98.8309,17.3661],[98.8324,17.3674],[98.8318,17.3674],[98.8315,17.368],[98.8304,17.368],[98.8298,17.3688]],[[98.8298,17.3647],[98.8301,17.365],[98.8301,17.3647],[98.8298,17.3647]]]}},{"type":"Feature","properties":{"kind":"seasonal","area_km2":0.146,"date":"2026-10-09"},"geometry":{"type":"Polygon","coordinates":[[[98.8572,17.3157],[98.8575,17.3148],[98.8601,17.3138],[98.8606,17.3127],[98.8612,17.3135],[98.8626,17.3135],[98.8629,17.3127],[98.8623,17.3116],[98.8657,17.3119],[98.8671,17.3108],[98.8668,17.3119],[98.8663,17.3119],[98.866,17.3127],[98.864,17.3127],[98.864,17.3135],[98.8649,17.3138],[98.8649,17.3143],[98.8629,17.314],[98.8623,17.3146],[98.8623,17.3157],[98.8615,17.3154],[98.8615,17.3143],[98.8609,17.3143],[98.8609,17.3138],[98.8606,17.3154],[98.8601,17.3148],[98.8589,17.3148],[98.8587,17.3154],[98.8581,17.3151],[98.8572,17.3157]]]}},{"type":"Feature","properties":{"kind":"seasonal","area_km2":0.143,"date":"2026-10-09"},"geometry":{"type":"Polygon","coordinates":[[[98.7466,17.6955],[98.7463,17.6936],[98.7475,17.6933],[98.7475,17.6922],[98.748,17.6914],[98.748,17.6892],[98.7489,17.6889],[98.7489,17.6884],[98.7509,17.6881],[98.7514,17.6887],[98.7528,17.6887],[98.7531,17.6895],[98.7526,17.6898],[98.7494,17.6895],[98.7489,17.69],[98.7492,17.6936],[98.748,17.6946],[98.7472,17.6946],[98.7472,17.6952],[98.7466,17.6955]]]}},{"type":"Feature","properties":{"kind":"seasonal","area_km2":0.14,"date":"2026-10-09"},"geometry":{"type":"Polygon","coordinates":[[[98.8668,17.3105],[98.8663,17.3094],[98.8646,17.3086],[98.8643,17.3081],[98.8657,17.3083],[98.866,17.3078],[98.8668,17.3078],[98.8677,17.3067],[98.8688,17.3064],[98.8705,17.3043],[98.8714,17.3043],[98.8728,17.3026],[98.8731,17.304],[98.8725,17.3054],[98.8702,17.3054],[98.8702,17.3059],[98.8694,17.3062],[98.8694,17.3073],[98.8685,17.3073],[98.8685,17.3081],[98.8694,17.3081],[98.8683,17.3086],[98.8685,17.3091],[98.8671,17.3089],[98.8671,17.3083],[98.866,17.3086],[98.8666,17.3097],[98.8671,17.3097],[98.8668,17.3105]]]}},{"type":"Feature","properties":{"kind":"seasonal","area_km2":0.14,"date":"2026-10-09"},"geometry":{"type":"Polygon","coordinates":[[[98.7927,17.475],[98.7924,17.474],[98.7902,17.474],[98.7893,17.4723],[98.7873,17.4729],[98.7873,17.4723],[98.7868,17.4726],[98.7865,17.4718],[98.7854,17.4718],[98.7848,17.4712],[98.7873,17.471],[98.7882,17.4721],[98.7887,17.4721],[98.7899,17.471],[98.7904,17.4718],[98.7921,17.4726],[98.7924,17.4734],[98.7938,17.4729],[98.7941,17.4737],[98.795,17.4737],[98.795,17.4742],[98.7933,17.4737],[98.7933,17.4745],[98.7927,17.475]]]}},{"type":"Feature","properties":{"kind":"seasonal","area_km2":0.12,"date":"2026-10-09"},"geometry":{"type":"Polygon","coordinates":[[[98.8278,17.3541],[98.8276,17.3522],[98.8284,17.3522],[98.829,17.3512],[98.8312,17.3512],[98.8318,17.3498],[98.8332,17.3493],[98.8332,17.3487],[98.8327,17.3484],[98.8327,17.3465],[98.8332,17.3465],[98.8332,17.3471],[98.8341,17.3476],[98.8341,17.349],[98.8329,17.3498],[98.8329,17.3503],[98.8321,17.3501],[98.8324,17.3509],[98.831,17.3517],[98.831,17.3525],[98.8298,17.3528],[98.8298,17.3536],[98.8287,17.3533],[98.8284,17.3541],[98.8278,17.3541]],[[98.8284,17.3528],[98.8287,17.3531],[98.8287,17.3528],[98.8284,17.3528]],[[98.829,17.352],[98.8293,17.3522],[98.8293,17.352],[98.829,17.352]],[[98.8298,17.3517],[98.8301,17.352],[98.8301,17.3517],[98.8298,17.3517]]]}},{"type":"Feature","properties":{"kind":"seasonal","area_km2":0.117,"date":"2026-10-09"},"geometry":{"type":"Polygon","coordinates":[[[98.6263,18.0025],[98.6263,18.0003],[98.6308,18.0003],[98.6308,18.0025],[98.6263,18.0025]],[[98.6274,18.0011],[98.628,18.0011],[98.628,18.0006],[98.6277,18.0006],[98.6274,18.0011]]]}},{"type":"Feature","properties":{"kind":"seasonal","area_km2":0.111,"date":"2026-10-02"},"geometry":{"type":"Polygon","coordinates":[[[98.664,17.3724],[98.6646,17.3702],[98.6652,17.3705],[98.6683,17.3699],[98.6677,17.3694],[98.6691,17.3691],[98.6691,17.3675],[98.6705,17.3678],[98.67,17.3694],[98.6705,17.3694],[98.6708,17.3686],[98.6714,17.3686],[98.6711,17.3699],[98.668,17.3702],[98.6677,17.3713],[98.6657,17.3707],[98.6652,17.3713],[98.6652,17.3721],[98.664,17.3724]]]}},{"type":"Feature","properties":{"kind":"seasonal","area_km2":0.11,"date":"2026-10-09"},"geometry":{"type":"Polygon","coordinates":[[[98.6388,17.9998],[98.6385,17.9982],[98.6408,17.9982],[98.6408,17.9974],[98.6422,17.9974],[98.6422,17.996],[98.6436,17.996],[98.6436,17.9971],[98.6442,17.9971],[98.6442,17.9976],[98.643,17.9974],[98.6419,17.9995],[98.6388,17.9998]]]}},{"type":"Feature","properties":{"kind":"seasonal","area_km2":0.103,"date":"2026-10-09"},"geometry":{"type":"Polygon","coordinates":[[[98.6577,17.5947],[98.6566,17.5939],[98.6557,17.5944],[98.6554,17.5936],[98.6571,17.5939],[98.6571,17.5928],[98.6577,17.5925],[98.6622,17.5926],[98.6622,17.5931],[98.6611,17.5934],[98.66,17.5947],[98.6577,17.5947]]]}},{"type":"Feature","properties":{"kind":"seasonal","area_km2":0.103,"date":"2026-10-09"},"geometry":{"type":"Polygon","coordinates":[[[98.6873,17.6311],[98.6876,17.6295],[98.6882,17.6289],[98.6873,17.6287],[98.687,17.6273],[98.6862,17.6262],[98.6865,17.6232],[98.687,17.6232],[98.687,17.6249],[98.6865,17.6249],[98.6865,17.6254],[98.687,17.6254],[98.6873,17.6259],[98.687,17.6265],[98.6879,17.6273],[98.6879,17.6284],[98.6887,17.6287],[98.6884,17.6295],[98.6896,17.6295],[98.6899,17.63],[98.6899,17.6289],[98.6904,17.6289],[98.6916,17.6298],[98.6913,17.6303],[98.6904,17.6297],[98.6896,17.6306],[98.6896,17.6311],[98.689,17.6303],[98.6873,17.6311]]]}},{"type":"Feature","properties":{"kind":"seasonal","area_km2":0.1,"date":"2026-10-09"},"geometry":{"type":"Polygon","coordinates":[[[98.6633,17.9329],[98.663,17.9318],[98.6636,17.9318],[98.6644,17.931],[98.6655,17.9312],[98.6655,17.9307],[98.6692,17.9304],[98.6692,17.9312],[98.6687,17.9312],[98.6678,17.9321],[98.6672,17.9318],[98.667,17.9323],[98.6633,17.9329]]]}},{"type":"Feature","properties":{"kind":"seasonal","area_km2":0.1,"date":"2026-10-09"},"geometry":{"type":"Polygon","coordinates":[[[98.6862,17.7827],[98.6862,17.7792],[98.6873,17.7792],[98.6879,17.7786],[98.689,17.7786],[98.6899,17.7781],[98.691,17.7783],[98.6899,17.7792],[98.689,17.7792],[98.6885,17.7797],[98.6885,17.7805],[98.6876,17.7808],[98.6879,17.7819],[98.6868,17.7819],[98.6862,17.7827]]]}}]}
