{"type":"FeatureCollection","properties":{"v":3,"id":"t98_9","name":"ระนอง · พังงา · สุราษฎร์ธานี","aoi":[98.22,9.0,99.0,10.0],"date":"2026-10-07","dates":["2026-10-07","2026-10-02"],"baseline_years":3,"has_seasonal":true,"totals":{"flood_high":0.0,"flood_low":0.0,"seasonal":1.7},"provinces":[{"name":"สุราษฎร์ธานี","zone":"th-s","flood_high":0.0,"flood_low":0.0,"seasonal":1.0},{"name":"ระนอง","zone":"th-s","flood_high":0.0,"flood_low":0.0,"seasonal":0.7}],"scenes":{"2026-10-07":1,"2026-10-02":2},"baseline_dates":["2025-10-05","2024-10-09","2023-10-10"],"threshold_db":-15.0,"auto":true,"source":"Sentinel-1 RTC (Copernicus/ESA) via Microsoft Planetary Computer; JRC Global Surface Water; Copernicus DEM","method":"ChatGeo v3: Otsu threshold on VV dB; minus JRC permanent water and slope > 5 deg; unusual = water not present in most of the previous 3 years (same season)","added":"2026-10-10T03:24+07:00"},"features":[{"type":"Feature","properties":{"kind":"seasonal","area_km2":0.516,"date":"2026-10-02"},"geometry":{"type":"Polygon","coordinates":[[[98.7097,9.9548],[98.7089,9.9543],[98.7048,9.9543],[98.7048,9.9532],[98.704,9.9529],[98.7042,9.9518],[98.7037,9.9513],[98.7037,9.9505],[98.7007,9.9496],[98.7015,9.9453],[98.702,9.9445],[98.7031,9.9445],[98.7031,9.9453],[98.7045,9.945],[98.7051,9.9456],[98.7059,9.9456],[98.7061,9.9472],[98.707,9.948],[98.7075,9.9478],[98.7078,9.9483],[98.7092,9.9483],[98.7092,9.9494],[98.7075,9.9499],[98.7059,9.9521],[98.707,9.9521],[98.7075,9.9537],[98.7097,9.9535],[98.7097,9.9548]],[[98.7048,9.9483],[98.7056,9.948],[98.7053,9.9467],[98.7042,9.9472],[98.7048,9.9483]]]}},{"type":"Feature","properties":{"kind":"seasonal","area_km2":0.467,"date":"2026-10-02"},"geometry":{"type":"Polygon","coordinates":[[[98.7166,9.1671],[98.7164,9.1655],[98.7169,9.1649],[98.7169,9.1641],[98.7158,9.1628],[98.7158,9.1598],[98.7147,9.1592],[98.7147,9.1576],[98.7139,9.1571],[98.7134,9.1525],[98.7145,9.1525],[98.7145,9.1552],[98.7158,9.156],[98.7158,9.1571],[98.7164,9.1571],[98.7164,9.1579],[98.7177,9.1579],[98.7175,9.1563],[98.7186,9.1557],[98.7186,9.1546],[98.718,9.1538],[98.7183,9.1527],[98.7191,9.1527],[98.7199,9.1522],[98.7199,9.1516],[98.7208,9.1516],[98.7221,9.147],[98.7227,9.1468],[98.7229,9.1476],[98.7224,9.1481],[98.7218,9.1508],[98.721,9.1516],[98.721,9.1527],[98.7199,9.153],[98.7199,9.1535],[98.7194,9.1538],[98.7197,9.1565],[98.7191,9.1568],[98.7191,9.1579],[98.7186,9.1582],[98.718,9.1603],[98.7172,9.1611],[98.7172,9.1625],[98.7188,9.1633],[98.7188,9.1647],[98.7183,9.1649],[98.718,9.1663],[98.7172,9.1671],[98.7166,9.1671]]]}},{"type":"Feature","properties":{"kind":"seasonal","area_km2":0.202,"date":"2026-10-02"},"geometry":{"type":"Polygon","coordinates":[[[98.5907,9.2573],[98.5896,9.2565],[98.589,9.2554],[98.5879,9.2554],[98.5868,9.2563],[98.5866,9.2571],[98.5857,9.2571],[98.5857,9.2563],[98.5844,9.2563],[98.5844,9.2554],[98.586,9.2554],[98.5863,9.2544],[98.5871,9.2546],[98.5874,9.2541],[98.5907,9.2541],[98.5912,9.2549],[98.5929,9.2552],[98.5918,9.2557],[98.5926,9.256],[98.5926,9.2565],[98.5928,9.256],[98.5953,9.2557],[98.595,9.2565],[98.5931,9.2565],[98.5928,9.2574],[98.592,9.2574],[98.592,9.2563],[98.5915,9.2565],[98.5915,9.2573],[98.5907,9.2573]]]}},{"type":"Feature","properties":{"kind":"seasonal","area_km2":0.2,"date":"2026-10-02"},"geometry":{"type":"Polygon","coordinates":[[[98.604,9.2574],[98.6038,9.2563],[98.603,9.2555],[98.603,9.2544],[98.6035,9.2549],[98.604,9.2549],[98.6043,9.2544],[98.6049,9.2547],[98.6043,9.253],[98.6049,9.2528],[98.6049,9.2517],[98.6035,9.2522],[98.6035,9.2514],[98.6057,9.2514],[98.6062,9.2525],[98.606,9.2538],[98.6068,9.2538],[98.6073,9.2525],[98.6087,9.2522],[98.6087,9.2533],[98.6081,9.2536],[98.6081,9.2541],[98.6071,9.2541],[98.6071,9.2547],[98.6081,9.2547],[98.6081,9.2557],[98.6062,9.2557],[98.6049,9.2568],[98.6049,9.2574],[98.604,9.2574]]]}},{"type":"Feature","properties":{"kind":"seasonal","area_km2":0.14,"date":"2026-10-02"},"geometry":{"type":"Polygon","coordinates":[[[98.5964,9.2598],[98.5959,9.259],[98.5959,9.2579],[98.5964,9.2568],[98.5972,9.2565],[98.5964,9.256],[98.5969,9.2557],[98.5969,9.2546],[98.5989,9.2544],[98.5989,9.2533],[98.5994,9.2527],[98.6016,9.2519],[98.6016,9.2527],[98.5997,9.2533],[98.5989,9.256],[98.598,9.256],[98.598,9.2555],[98.5975,9.2555],[98.5978,9.2568],[98.5991,9.2574],[98.5997,9.2587],[98.5969,9.2579],[98.5967,9.2587],[98.5972,9.259],[98.5972,9.2598],[98.5964,9.2598]],[[98.5964,9.2574],[98.5967,9.2576],[98.5967,9.2574],[98.5964,9.2574]]]}},{"type":"Feature","properties":{"kind":"seasonal","area_km2":0.135,"date":"2026-10-07"},"geometry":{"type":"Polygon","coordinates":[[[98.4365,9.4856],[98.4363,9.4832],[98.4354,9.4834],[98.4352,9.4851],[98.4343,9.4848],[98.4338,9.4837],[98.4338,9.4785],[98.4343,9.4794],[98.4368,9.4791],[98.4341,9.4802],[98.4341,9.4823],[98.4346,9.4823],[98.4346,9.4834],[98.4352,9.4829],[98.4354,9.4802],[98.4379,9.4796],[98.4379,9.4802],[98.4365,9.4802],[98.4363,9.4813],[98.4368,9.4815],[98.4365,9.4856]]]}}]}
