{"type":"FeatureCollection","properties":{"v":3,"id":"t98_19","name":"เชียงใหม่ · แม่ฮ่องสอน","aoi":[98.0,19.0,99.0,19.8398],"date":"2026-10-09","dates":["2026-10-09","2026-10-02"],"baseline_years":3,"has_seasonal":true,"totals":{"flood_high":0.0,"flood_low":0.0,"seasonal":0.5},"provinces":[{"name":"เชียงใหม่","zone":"th-n","flood_high":0.0,"flood_low":0.0,"seasonal":0.5}],"scenes":{"2026-10-09":2,"2026-10-02":1},"baseline_dates":["2025-10-09","2024-10-09","2023-10-08"],"threshold_db":-15.0,"auto":true,"source":"Sentinel-1 RTC (Copernicus/ESA) via Microsoft Planetary Computer; JRC Global Surface Water; Copernicus DEM","method":"ChatGeo v3: Otsu threshold on VV dB; minus JRC permanent water and slope > 5 deg; unusual = water not present in most of the previous 3 years (same season)","added":"2026-10-10T16:37+07:00"},"features":[{"type":"Feature","properties":{"kind":"seasonal","area_km2":0.281,"date":"2026-10-09"},"geometry":{"type":"Polygon","coordinates":[[[98.9239,19.1622],[98.9236,19.1601],[98.9222,19.159],[98.9222,19.1579],[98.9231,19.1568],[98.9242,19.1563],[98.9242,19.1557],[98.9259,19.1541],[98.9271,19.1541],[98.9279,19.1549],[98.9279,19.156],[98.9271,19.1571],[98.9271,19.1582],[98.9265,19.1584],[98.9262,19.1601],[98.9248,19.1611],[98.9248,19.1622],[98.9239,19.1622]]]}},{"type":"Feature","properties":{"kind":"seasonal","area_km2":0.236,"date":"2026-10-09"},"geometry":{"type":"Polygon","coordinates":[[[98.9211,19.1658],[98.9205,19.1647],[98.9176,19.1644],[98.9176,19.1636],[98.9182,19.1633],[98.9182,19.1617],[98.9191,19.1617],[98.9194,19.1603],[98.9202,19.1598],[98.9211,19.1598],[98.9216,19.1609],[98.9225,19.1614],[98.9222,19.1625],[98.9231,19.1641],[98.9228,19.1658],[98.9211,19.1658]]]}}]}
