{"type":"FeatureCollection","properties":{"v":3,"id":"t98_15","name":"กาญจนบุรี · อุทัยธานี · ตาก","aoi":[98.14,15.0,99.0,16.0],"date":"2026-10-09","dates":["2026-10-09","2026-10-02"],"baseline_years":3,"has_seasonal":true,"totals":{"flood_high":0.0,"flood_low":0.7,"seasonal":23.3},"provinces":[{"name":"กาญจนบุรี","zone":"th-w","flood_high":0.0,"flood_low":0.7,"seasonal":23.3}],"scenes":{"2026-10-09":1,"2026-10-02":2},"baseline_dates":["2025-10-07","2024-10-09","2023-10-11"],"threshold_db":-15.0,"auto":true,"source":"Sentinel-1 RTC (Copernicus/ESA) via Microsoft Planetary Computer; JRC Global Surface Water; Copernicus DEM","method":"ChatGeo v3: Otsu threshold on VV dB; minus JRC permanent water and slope > 5 deg; unusual = water not present in most of the previous 3 years (same season)","added":"2026-10-10T16:37+07:00"},"features":[{"type":"Feature","properties":{"kind":"flood","area_km2":0.194,"conf":"low","date":"2026-10-02"},"geometry":{"type":"Polygon","coordinates":[[[98.5304,15.1437],[98.5304,15.1429],[98.5285,15.1431],[98.5285,15.1418],[98.529,15.1415],[98.5274,15.1415],[98.5276,15.1396],[98.5282,15.139],[98.5293,15.1393],[98.5299,15.1388],[98.5315,15.1388],[98.5315,15.1396],[98.5324,15.1401],[98.5324,15.1418],[98.5313,15.1426],[98.5324,15.1434],[98.5304,15.1437]],[[98.5293,15.1401],[98.5301,15.1404],[98.5301,15.1401],[98.5293,15.1401]]]}},{"type":"Feature","properties":{"kind":"flood","area_km2":0.102,"conf":"low","date":"2026-10-02"},"geometry":{"type":"Polygon","coordinates":[[[98.3794,15.114],[98.3792,15.1135],[98.3803,15.1118],[98.3803,15.1105],[98.3809,15.1102],[98.3809,15.1094],[98.3828,15.1091],[98.3828,15.1097],[98.382,15.1102],[98.3822,15.1132],[98.3814,15.1132],[98.3806,15.114],[98.3794,15.114]]]}},{"type":"Feature","properties":{"kind":"flood","area_km2":0.088,"conf":"low","date":"2026-10-02"},"geometry":{"type":"Polygon","coordinates":[[[98.5571,15.0689],[98.5571,15.068],[98.5551,15.0683],[98.5557,15.0656],[98.5563,15.0651],[98.5565,15.0659],[98.5577,15.0659],[98.5588,15.0634],[98.5596,15.0632],[98.5591,15.0637],[98.5588,15.0659],[98.5563,15.0672],[98.5565,15.0678],[98.5582,15.0672],[98.5582,15.0683],[98.5571,15.0689]]]}},{"type":"Feature","properties":{"kind":"flood","area_km2":0.072,"conf":"low","date":"2026-10-02"},"geometry":{"type":"Polygon","coordinates":[[[98.524,15.1412],[98.5237,15.1404],[98.5243,15.1401],[98.5243,15.1393],[98.5232,15.1393],[98.5235,15.1377],[98.5237,15.1385],[98.5251,15.1385],[98.5251,15.138],[98.5254,15.1388],[98.5271,15.1385],[98.5271,15.1393],[98.5262,15.1393],[98.5254,15.1401],[98.5254,15.1409],[98.524,15.1412]]]}},{"type":"Feature","properties":{"kind":"flood","area_km2":0.068,"conf":"low","date":"2026-10-02"},"geometry":{"type":"Polygon","coordinates":[[[98.5399,15.151],[98.5391,15.1502],[98.5391,15.1488],[98.5379,15.1486],[98.538,15.1477],[98.5405,15.148],[98.5407,15.1507],[98.5399,15.151]]]}},{"type":"Feature","properties":{"kind":"flood","area_km2":0.063,"conf":"low","date":"2026-10-02"},"geometry":{"type":"Polygon","coordinates":[[[98.3741,15.1202],[98.373,15.1202],[98.3725,15.1172],[98.3752,15.1173],[98.3752,15.1181],[98.3744,15.1181],[98.3744,15.1189],[98.3738,15.1191],[98.3741,15.1202]]]}},{"type":"Feature","properties":{"kind":"flood","area_km2":0.06,"conf":"low","date":"2026-10-02"},"geometry":{"type":"Polygon","coordinates":[[[98.5329,15.1488],[98.5307,15.1485],[98.5307,15.1477],[98.5318,15.1477],[98.5324,15.1472],[98.5335,15.1472],[98.534,15.1477],[98.5343,15.1469],[98.5352,15.1469],[98.5349,15.1486],[98.5329,15.1483],[98.5329,15.1488]]]}},{"type":"Feature","properties":{"kind":"flood","area_km2":0.054,"conf":"low","date":"2026-10-02"},"geometry":{"type":"Polygon","coordinates":[[[98.5304,15.1469],[98.5301,15.1453],[98.5324,15.145],[98.5327,15.1434],[98.5326,15.1464],[98.5321,15.1469],[98.5304,15.1469]]]}},{"type":"Feature","properties":{"kind":"seasonal","area_km2":4.405,"date":"2026-10-02"},"geometry":{"type":"Polygon","coordinates":[[[98.4112,15.1274],[98.411,15.1263],[98.4104,15.1268],[98.4098,15.1266],[98.4096,15.1255],[98.409,15.1257],[98.4096,15.1247],[98.4087,15.1239],[98.4076,15.1241],[98.4076,15.1217],[98.4065,15.1214],[98.4062,15.1209],[98.4048,15.1211],[98.4048,15.1217],[98.404,15.1217],[98.404,15.1209],[98.406,15.1195],[98.406,15.1184],[98.4018,15.1157],[98.4023,15.1133],[98.4001,15.1108],[98.3984,15.1105],[98.3973,15.1097],[98.3968,15.11],[98.3962,15.1094],[98.394,15.1092],[98.3937,15.1086],[98.3929,15.1086],[98.3929,15.1081],[98.392,15.1075],[98.3901,15.1081],[98.3898,15.1075],[98.3876,15.1072],[98.3876,15.1067],[98.3867,15.1059],[98.3845,15.1059],[98.3837,15.1067],[98.3834,15.1086],[98.3825,15.1094],[98.3809,15.1094],[98.3794,15.1135],[98.3761,15.114],[98.3764,15.1124],[98.375,15.1124],[98.3747,15.1118],[98.3747,15.111],[98.3753,15.111],[98.375,15.1086],[98.3728,15.1091],[98.3728,15.108],[98.3733,15.1075],[98.3747,15.1075],[98.3744,15.1064],[98.3739,15.1059],[98.373,15.1059],[98.373,15.1053],[98.3736,15.1048],[98.3756,15.1053],[98.3756,15.104],[98.3781,15.1042],[98.3792,15.1034],[98.3792,15.1026],[98.3767,15.1026],[98.3778,15.1004],[98.3795,15.0999],[98.3798,15.0994],[98.3823,15.0999],[98.3845,15.0972],[98.3856,15.0972],[98.3859,15.098],[98.3859,15.0972],[98.387,15.0972],[98.3882,15.0961],[98.3898,15.0964],[98.3898,15.0969],[98.3904,15.097],[98.3907,15.0978],[98.3915,15.098],[98.3912,15.0989],[98.3907,15.0989],[98.3907,15.0994],[98.3898,15.0994],[98.3901,15.1021],[98.3906,15.1026],[98.4001,15.1019],[98.4032,15.1021],[98.4038,15.1027],[98.4043,15.1049],[98.4049,15.1049],[98.4057,15.1057],[98.4057,15.1065],[98.4074,15.1073],[98.4074,15.11],[98.4082,15.1116],[98.4088,15.1116],[98.4088,15.1135],[98.4096,15.1146],[98.4096,15.1157],[98.4102,15.1157],[98.4099,15.1176],[98.4104,15.1179],[98.4104,15.1187],[98.4115,15.1206],[98.4124,15.1209],[98.4126,15.1268],[98.4121,15.1274],[98.4112,15.1274]],[[98.4051,15.1143],[98.4062,15.1141],[98.4065,15.1135],[98.4051,15.1138],[98.4051,15.1143]],[[98.4065,15.1127],[98.4071,15.113],[98.4071,15.1127],[98.4065,15.1127]],[[98.4074,15.1125],[98.4076,15.113],[98.4076,15.1125],[98.4074,15.1125]],[[98.3755,15.111],[98.3758,15.1113],[98.3758,15.111],[98.3755,15.111]],[[98.3895,15.0986],[98.3898,15.0994],[98.3898,15.0986],[98.3895,15.0986]],[[98.3893,15.0983],[98.3895,15.0986],[98.3895,15.0983],[98.3893,15.0983]]]}},{"type":"Feature","properties":{"kind":"seasonal","area_km2":3.948,"date":"2026-10-02"},"geometry":{"type":"Polygon","coordinates":[[[98.4068,15.1043],[98.4052,15.103],[98.4049,15.1021],[98.4035,15.1019],[98.4029,15.1008],[98.4024,15.1008],[98.3996,15.0983],[98.3985,15.0983],[98.3957,15.0994],[98.3957,15.0999],[98.3974,15.1002],[98.3971,15.1013],[98.3932,15.1024],[98.3906,15.1021],[98.3907,15.1002],[98.3912,15.1002],[98.3915,15.0991],[98.3926,15.0986],[98.3935,15.0964],[98.3943,15.0956],[98.3949,15.0956],[98.3951,15.0926],[98.3965,15.0921],[98.3968,15.0905],[98.3963,15.0902],[98.396,15.091],[98.3951,15.091],[98.3949,15.0937],[98.3943,15.0937],[98.3943,15.0948],[98.3937,15.0959],[98.3929,15.0964],[98.3926,15.0978],[98.3918,15.098],[98.3912,15.097],[98.3912,15.0964],[98.3918,15.0967],[98.3918,15.0961],[98.3907,15.0959],[98.3907,15.0953],[98.3912,15.0953],[98.3921,15.0942],[98.3935,15.094],[98.394,15.0934],[98.394,15.0923],[98.3932,15.0915],[98.3932,15.0907],[98.3926,15.0904],[98.3926,15.0896],[98.3921,15.0891],[98.3924,15.0875],[98.3915,15.0869],[98.3918,15.0847],[98.389,15.0826],[98.389,15.0815],[98.3882,15.0809],[98.3882,15.0801],[98.389,15.0796],[98.389,15.079],[98.3913,15.0777],[98.3913,15.0763],[98.3888,15.0766],[98.3879,15.0755],[98.3879,15.0747],[98.3888,15.0747],[98.3893,15.0755],[98.3902,15.0755],[98.3902,15.075],[98.3896,15.075],[98.3896,15.0736],[98.3918,15.0734],[98.393,15.0736],[98.3932,15.0744],[98.3938,15.0744],[98.3938,15.0736],[98.3955,15.0736],[98.3963,15.0745],[98.3974,15.0745],[98.3971,15.0758],[98.3988,15.0758],[98.3985,15.0796],[98.3991,15.0796],[98.3991,15.0726],[98.4019,15.0731],[98.4019,15.0739],[98.4011,15.0747],[98.4005,15.0747],[98.4005,15.0756],[98.401,15.0756],[98.4016,15.081],[98.4024,15.0821],[98.4041,15.0815],[98.4041,15.0823],[98.4033,15.0832],[98.4047,15.0848],[98.4055,15.0848],[98.4055,15.0856],[98.4063,15.0859],[98.406,15.0891],[98.4072,15.0899],[98.4074,15.0908],[98.4071,15.0927],[98.4055,15.0935],[98.4049,15.0951],[98.4049,15.0973],[98.4063,15.097],[98.406,15.0983],[98.4066,15.0994],[98.4066,15.1013],[98.4082,15.1032],[98.4082,15.1043],[98.4077,15.1032],[98.4074,15.1043],[98.4068,15.1043]],[[98.3915,15.0956],[98.3918,15.0959],[98.3918,15.0956],[98.3915,15.0956]],[[98.3982,15.0918],[98.3988,15.0921],[98.3988,15.0918],[98.3982,15.0918]],[[98.3991,15.0915],[98.3993,15.0918],[98.3993,15.0916],[98.3991,15.0915]],[[98.3996,15.091],[98.4002,15.091],[98.4002,15.0905],[98.401,15.0905],[98.4018,15.0897],[98.3999,15.0902],[98.3996,15.091]],[[98.4021,15.0894],[98.4024,15.0897],[98.4024,15.0894],[98.4021,15.0894]],[[98.403,15.0888],[98.4032,15.0891],[98.4032,15.0888],[98.403,15.0888]],[[98.4032,15.0888],[98.4038,15.0888],[98.4038,15.087],[98.4032,15.088],[98.403,15.0864],[98.4021,15.0864],[98.4021,15.0878],[98.4032,15.0883],[98.4032,15.0888]],[[98.403,15.0864],[98.4035,15.0864],[98.4035,15.0856],[98.403,15.0856],[98.403,15.0864]],[[98.3991,15.0856],[98.4007,15.0861],[98.4002,15.0837],[98.4013,15.0837],[98.4021,15.0848],[98.403,15.0848],[98.4033,15.0842],[98.4024,15.0842],[98.4027,15.0832],[98.4016,15.0826],[98.4019,15.0821],[98.4013,15.0821],[98.401,15.0812],[98.4005,15.0812],[98.3999,15.0815],[98.398,15.0793],[98.3963,15.0791],[98.396,15.0785],[98.3946,15.0788],[98.3955,15.0793],[98.3957,15.0801],[98.3968,15.0802],[98.3968,15.0807],[98.3977,15.0807],[98.3977,15.0815],[98.3988,15.0818],[98.3991,15.0856]],[[98.4002,15.081],[98.4005,15.0812],[98.4005,15.081],[98.4002,15.081]],[[98.3996,15.0807],[98.3999,15.081],[98.3999,15.0807],[98.3996,15.0807]],[[98.3991,15.0796],[98.3994,15.0799],[98.3994,15.0796],[98.3991,15.0796]],[[98.3929,15.0793],[98.3941,15.0788],[98.3941,15.0755],[98.393,15.0763],[98.3932,15.0766],[98.3929,15.0793]],[[98.3927,15.0766],[98.393,15.0772],[98.393,15.0766],[98.3927,15.0766]]]}},{"type":"Feature","properties":{"kind":"seasonal","area_km2":3.935,"date":"2026-10-02"},"geometry":{"type":"Polygon","coordinates":[[[98.4851,15.0489],[98.4851,15.047],[98.4857,15.0465],[98.4865,15.0465],[98.4871,15.0443],[98.4865,15.0427],[98.4874,15.0419],[98.4865,15.0419],[98.4865,15.0413],[98.4871,15.041],[98.4871,15.0402],[98.4882,15.0397],[98.4882,15.0389],[98.4891,15.0383],[98.4888,15.0373],[98.4899,15.0364],[98.4896,15.0348],[98.4888,15.0364],[98.4882,15.0367],[98.4866,15.0367],[98.486,15.0362],[98.4835,15.0375],[98.4824,15.0372],[98.4824,15.0362],[98.4829,15.037],[98.4838,15.037],[98.4852,15.0359],[98.4852,15.0332],[98.4863,15.0329],[98.4863,15.0324],[98.4868,15.0324],[98.4874,15.0316],[98.4871,15.0299],[98.4866,15.0294],[98.4829,15.0302],[98.4827,15.0318],[98.4838,15.0326],[98.4838,15.0337],[98.4832,15.034],[98.4832,15.0356],[98.4827,15.0353],[98.4824,15.0359],[98.4821,15.0345],[98.4821,15.0359],[98.4815,15.0359],[98.4815,15.0364],[98.4804,15.037],[98.4807,15.0375],[98.4801,15.0375],[98.4801,15.0399],[98.4793,15.041],[98.4787,15.041],[98.4785,15.0424],[98.4779,15.0424],[98.4773,15.0432],[98.4773,15.0446],[98.4779,15.0446],[98.4779,15.0462],[98.4773,15.0462],[98.477,15.0467],[98.4773,15.0421],[98.4782,15.0416],[98.4782,15.0408],[98.4796,15.0394],[98.4793,15.0372],[98.4799,15.037],[98.4799,15.0361],[98.481,15.0353],[98.4807,15.0343],[98.4815,15.034],[98.4815,15.0329],[98.481,15.0324],[98.481,15.0313],[98.4818,15.0307],[98.4813,15.0296],[98.4821,15.0291],[98.4821,15.0283],[98.4816,15.028],[98.4827,15.0275],[98.4824,15.0272],[98.4827,15.0253],[98.4832,15.0253],[98.4832,15.0245],[98.4838,15.0245],[98.483,15.0234],[98.483,15.0226],[98.4835,15.021],[98.4844,15.0204],[98.4841,15.0196],[98.4846,15.0193],[98.4846,15.0188],[98.4833,15.0188],[98.4833,15.0177],[98.4838,15.0174],[98.4833,15.0169],[98.4835,15.015],[98.4824,15.0153],[98.481,15.0147],[98.481,15.0139],[98.4821,15.0136],[98.4822,15.0131],[98.481,15.0131],[98.481,15.0123],[98.4816,15.0126],[98.4813,15.0112],[98.4822,15.0112],[98.4822,15.0117],[98.4838,15.0123],[98.4838,15.0117],[98.4833,15.0117],[98.4838,15.0115],[98.4838,15.0104],[98.4844,15.0104],[98.4838,15.0093],[98.4838,15.0079],[98.4816,15.0063],[98.4808,15.0069],[98.4813,15.0058],[98.4808,15.0058],[98.4808,15.0044],[98.4799,15.0044],[98.4799,15.0036],[98.4805,15.0039],[98.4805,15.0033],[98.4797,15.0031],[98.4791,15.002],[98.4772,15.0022],[98.4766,15.0014],[98.4766,15.0001],[98.4777,15.0001],[98.4777,15.0006],[98.4788,15.0014],[98.4808,15.0014],[98.4822,15.0004],[98.4841,14.9998],[98.4844,14.9993],[98.4894,14.9993],[98.4892,15.0004],[98.49,15.0009],[98.49,15.0017],[98.4894,15.0023],[98.4889,15.002],[98.4889,15.0031],[98.4883,15.0039],[98.4878,15.0039],[98.4878,15.0047],[98.4869,15.0047],[98.4866,15.0058],[98.4852,15.0058],[98.485,15.0066],[98.485,15.0071],[98.4866,15.0069],[98.4877,15.0074],[98.4877,15.0085],[98.4869,15.0101],[98.4875,15.0107],[98.4877,15.012],[98.4883,15.0115],[98.4897,15.0115],[98.4897,15.0099],[98.4905,15.0088],[98.4911,15.0088],[98.4911,15.0066],[98.4917,15.0066],[98.4919,15.0082],[98.4928,15.0082],[98.4936,15.0072],[98.4961,15.0074],[98.4961,15.0069],[98.497,15.0069],[98.4978,15.0074],[98.4978,15.008],[98.4986,15.008],[98.4989,15.0066],[98.4975,15.0066],[98.4967,15.0055],[98.497,15.0047],[98.4964,15.0028],[98.497,15.0023],[98.4972,15.0004],[98.4978,14.9993],[98.5028,14.9993],[98.5025,15.0012],[98.5011,15.0036],[98.5011,15.005],[98.5006,15.0058],[98.5009,15.0069],[98.5,15.0077],[98.5006,15.0093],[98.4989,15.0104],[98.4986,15.0145],[98.4975,15.0139],[98.4978,15.0129],[98.4958,15.0131],[98.495,15.0115],[98.4942,15.0115],[98.4942,15.011],[98.4933,15.0104],[98.4922,15.0104],[98.4916,15.0115],[98.4916,15.012],[98.4922,15.0123],[98.4916,15.0123],[98.4916,15.0131],[98.4911,15.0131],[98.4911,15.0139],[98.4916,15.0139],[98.4916,15.015],[98.4908,15.0153],[98.4911,15.0161],[98.4902,15.0194],[98.49,15.018],[98.4905,15.0172],[98.4905,15.0139],[98.49,15.0137],[98.4894,15.0147],[98.4886,15.0145],[98.4883,15.0153],[98.4874,15.0158],[98.4874,15.0166],[98.4883,15.0172],[98.4877,15.0207],[98.4866,15.0202],[98.4866,15.0204],[98.486,15.0204],[98.4858,15.0207],[98.4858,15.0212],[98.4855,15.0212],[98.4855,15.0221],[98.4852,15.0221],[98.4852,15.0226],[98.4858,15.0234],[98.4863,15.0234],[98.4855,15.0272],[98.4869,15.0286],[98.4877,15.0286],[98.4866,15.0291],[98.4885,15.0294],[98.4885,15.0299],[98.4894,15.0299],[98.4894,15.0305],[98.4905,15.0299],[98.4905,15.0294],[98.4916,15.0297],[98.4916,15.0302],[98.491,15.0302],[98.4908,15.0307],[98.4908,15.0316],[98.4916,15.0318],[98.4916,15.0324],[98.4924,15.0324],[98.4924,15.0316],[98.4938,15.0316],[98.4952,15.0302],[98.4966,15.0302],[98.4969,15.028],[98.4975,15.0275],[98.4989,15.0275],[98.4989,15.027],[98.4997,15.0267],[98.5003,15.0259],[98.5019,15.0259],[98.5025,15.027],[98.5017,15.0262],[98.5003,15.0264],[98.4989,15.0281],[98.4983,15.0281],[98.498,15.0308],[98.4969,15.0308],[98.4963,15.0318],[98.4958,15.0316],[98.4949,15.0324],[98.4949,15.0335],[98.4935,15.034],[98.4924,15.0351],[98.4924,15.0359],[98.4916,15.0364],[98.491,15.0375],[98.491,15.0386],[98.4905,15.0386],[98.4888,15.0408],[98.4893,15.0416],[98.4899,15.0416],[98.4899,15.0424],[98.4893,15.0427],[98.4893,15.0421],[98.4885,15.0421],[98.4879,15.0427],[98.4874,15.0459],[98.4868,15.0467],[98.4874,15.0484],[98.4851,15.0489]],[[98.486,15.0351],[98.4863,15.0353],[98.4863,15.0351],[98.486,15.0351]],[[98.4896,15.0343],[98.4899,15.0345],[98.4899,15.0343],[98.4896,15.0343]],[[98.4877,15.0326],[98.488,15.0329],[98.488,15.0326],[98.4877,15.0326]],[[98.4874,15.0324],[98.4877,15.0326],[98.4877,15.0324],[98.4874,15.0324]],[[98.4871,15.0321],[98.4874,15.0324],[98.4874,15.0321],[98.4871,15.0321]],[[98.4882,15.0318],[98.4885,15.0321],[98.4885,15.0318],[98.4882,15.0318]],[[98.4882,15.0313],[98.4885,15.0316],[98.4885,15.0313],[98.4882,15.0313]],[[98.4877,15.031],[98.488,15.0313],[98.488,15.031],[98.4877,15.031]],[[98.4824,15.0302],[98.4827,15.0305],[98.4827,15.0302],[98.4824,15.0302]],[[98.4821,15.0299],[98.4824,15.0302],[98.4824,15.0299],[98.4821,15.0299]],[[98.4816,15.0296],[98.4818,15.0299],[98.4818,15.0296],[98.4816,15.0296]],[[98.4846,15.0291],[98.4855,15.0288],[98.4849,15.028],[98.4843,15.0283],[98.4846,15.0291]],[[98.4824,15.0277],[98.4827,15.028],[98.4827,15.0277],[98.4824,15.0277]],[[98.4827,15.0267],[98.483,15.0269],[98.483,15.0267],[98.4827,15.0267]],[[98.4832,15.0256],[98.4835,15.0259],[98.4835,15.0256],[98.4832,15.0256]],[[98.4838,15.0245],[98.4841,15.0248],[98.4841,15.0245],[98.4838,15.0245]],[[98.4832,15.0231],[98.4835,15.0234],[98.4835,15.0231],[98.4832,15.0231]],[[98.4849,15.0218],[98.4852,15.0221],[98.4852,15.0218],[98.4849,15.0218]],[[98.4855,15.0204],[98.4858,15.0207],[98.4858,15.0204],[98.4855,15.0204]],[[98.4852,15.0196],[98.4855,15.0199],[98.4855,15.0196],[98.4852,15.0196]],[[98.4866,15.0196],[98.4869,15.0199],[98.4869,15.0196],[98.4866,15.0196]],[[98.4846,15.0193],[98.4852,15.0196],[98.4852,15.0193],[98.4846,15.0193]],[[98.4869,15.0196],[98.4877,15.0196],[98.4877,15.0191],[98.4869,15.0188],[98.4869,15.0196]],[[98.4841,15.0172],[98.4852,15.0174],[98.4852,15.0172],[98.4841,15.0172]],[[98.4852,15.0169],[98.4855,15.0172],[98.4855,15.0169],[98.4852,15.0169]],[[98.4852,15.0161],[98.4855,15.0164],[98.4855,15.0161],[98.4852,15.0161]],[[98.4841,15.015],[98.4844,15.0153],[98.4844,15.015],[98.4841,15.015]],[[98.4905,15.0107],[98.4916,15.0107],[98.4919,15.0096],[98.4911,15.0093],[98.4905,15.0107]],[[98.4841,15.0058],[98.4852,15.0058],[98.4847,15.0047],[98.4841,15.0047],[98.4841,15.0058]],[[98.4838,15.0039],[98.4841,15.0044],[98.4841,15.0039],[98.4838,15.0039]],[[98.4836,15.0036],[98.4838,15.0039],[98.4838,15.0036],[98.4836,15.0036]],[[98.4827,15.0031],[98.483,15.0033],[98.483,15.0031],[98.4827,15.0031]],[[98.5006,15.0026],[98.5009,15.0028],[98.5009,15.0026],[98.5006,15.0026]],[[98.5009,15.0023],[98.5012,15.0026],[98.5012,15.0023],[98.5009,15.0023]]]}},{"type":"Feature","properties":{"kind":"seasonal","area_km2":1.753,"date":"2026-10-02"},"geometry":{"type":"Polygon","coordinates":[[[98.4661,15.166],[98.4647,15.1655],[98.4639,15.1658],[98.4642,15.1652],[98.4634,15.1649],[98.4636,15.1641],[98.4631,15.1641],[98.4625,15.1636],[98.4628,15.163],[98.4622,15.1628],[98.4622,15.162],[98.4628,15.162],[98.4628,15.1625],[98.4636,15.1628],[98.4639,15.1617],[98.4645,15.162],[98.4653,15.1611],[98.4653,15.1601],[98.4645,15.1598],[98.465,15.1592],[98.4648,15.1584],[98.4639,15.1579],[98.4639,15.1573],[98.4631,15.1573],[98.4634,15.1563],[98.4648,15.1552],[98.4651,15.1544],[98.4648,15.1538],[98.4639,15.1538],[98.4645,15.146],[98.464,15.1438],[98.4645,15.1432],[98.4651,15.1449],[98.4651,15.1514],[98.4653,15.1508],[98.4659,15.1514],[98.4667,15.1514],[98.4662,15.1525],[98.467,15.1525],[98.4676,15.1522],[98.4676,15.1517],[98.467,15.1514],[98.4679,15.1511],[98.4667,15.1511],[98.4665,15.15],[98.4656,15.1492],[98.4662,15.1481],[98.4679,15.1487],[98.4679,15.1476],[98.467,15.1473],[98.467,15.1468],[98.4684,15.1473],[98.4679,15.1468],[98.4679,15.1457],[98.4684,15.1454],[98.4679,15.1452],[98.4679,15.1446],[98.467,15.1446],[98.467,15.1438],[98.4676,15.1438],[98.4679,15.143],[98.4682,15.1438],[98.4687,15.1435],[98.4684,15.1416],[98.469,15.1416],[98.469,15.1403],[98.4698,15.1403],[98.4698,15.1408],[98.4709,15.1414],[98.4709,15.1427],[98.4715,15.1427],[98.4718,15.1438],[98.4723,15.1435],[98.4726,15.1416],[98.4718,15.1416],[98.4715,15.1406],[98.4718,15.1395],[98.4726,15.1387],[98.4732,15.1351],[98.4738,15.1349],[98.4738,15.1343],[98.4743,15.1343],[98.4738,15.1359],[98.4738,15.1378],[98.4743,15.1381],[98.4743,15.1387],[98.4737,15.1389],[98.4737,15.1406],[98.4743,15.1406],[98.4743,15.1411],[98.4732,15.1422],[98.4735,15.1441],[98.4726,15.1444],[98.4726,15.146],[98.4734,15.1473],[98.4723,15.1492],[98.4723,15.1509],[98.4732,15.1514],[98.4731,15.1557],[98.4723,15.1557],[98.4723,15.1574],[98.4715,15.1574],[98.4709,15.1582],[98.4703,15.1582],[98.4715,15.1571],[98.4709,15.1568],[98.4684,15.1593],[98.4684,15.1601],[98.4675,15.1612],[98.4675,15.1625],[98.4664,15.1641],[98.4664,15.1655],[98.4661,15.166]],[[98.4631,15.1636],[98.4636,15.1639],[98.4636,15.1636],[98.4631,15.1636]],[[98.4679,15.1517],[98.4681,15.1519],[98.4681,15.1517],[98.4679,15.1517]],[[98.4695,15.1503],[98.4706,15.1498],[98.4707,15.1476],[98.4698,15.1476],[98.4698,15.1468],[98.4693,15.1468],[98.4695,15.1476],[98.4687,15.1484],[98.4695,15.1503]],[[98.4679,15.1487],[98.4681,15.1492],[98.4681,15.1487],[98.4679,15.1487]],[[98.4698,15.1462],[98.4701,15.1465],[98.4701,15.1462],[98.4698,15.1462]],[[98.469,15.1452],[98.4695,15.1449],[98.4693,15.1443],[98.4698,15.1441],[98.4684,15.1443],[98.469,15.1452]]]}},{"type":"Feature","properties":{"kind":"seasonal","area_km2":1.172,"date":"2026-10-02"},"geometry":{"type":"Polygon","coordinates":[[[98.5048,15.1314],[98.5045,15.13],[98.5031,15.1295],[98.5025,15.1298],[98.5025,15.1306],[98.4992,15.1303],[98.4989,15.1292],[98.4983,15.1292],[98.4983,15.1287],[98.4975,15.1284],[98.4967,15.1273],[98.4944,15.1273],[98.4942,15.1279],[98.493,15.1279],[98.4925,15.1268],[98.4914,15.126],[98.4928,15.1257],[98.493,15.1243],[98.4922,15.1243],[98.4919,15.1238],[98.4911,15.1241],[98.4911,15.1235],[98.4942,15.1232],[98.4939,15.1227],[98.4944,15.1224],[98.4944,15.1232],[98.4956,15.1235],[98.4958,15.1243],[98.497,15.1243],[98.4975,15.1233],[98.4995,15.1233],[98.4978,15.1238],[98.4975,15.1249],[98.4986,15.1249],[98.4986,15.1254],[98.5009,15.1254],[98.5009,15.126],[98.5034,15.126],[98.5031,15.1249],[98.5048,15.1244],[98.5037,15.1241],[98.5025,15.123],[98.5023,15.12],[98.5014,15.1197],[98.5009,15.1189],[98.4992,15.1186],[98.4992,15.1181],[98.4973,15.117],[98.4973,15.1162],[98.4978,15.1167],[98.5006,15.1167],[98.5009,15.1146],[98.5023,15.1149],[98.5028,15.1138],[98.5034,15.1138],[98.5037,15.1132],[98.5045,15.1132],[98.5045,15.1138],[98.504,15.1138],[98.5034,15.1149],[98.502,15.1157],[98.502,15.1184],[98.5037,15.1197],[98.5051,15.1197],[98.5051,15.1206],[98.5059,15.1211],[98.5059,15.1227],[98.5073,15.123],[98.5064,15.126],[98.507,15.1265],[98.507,15.1282],[98.5078,15.129],[98.5076,15.1303],[98.507,15.1298],[98.5062,15.1298],[98.5053,15.1314],[98.5048,15.1314]],[[98.5062,15.1271],[98.5064,15.1276],[98.5064,15.1271],[98.5062,15.1271]],[[98.5059,15.1265],[98.5062,15.1268],[98.5062,15.1265],[98.5059,15.1265]],[[98.5056,15.1257],[98.5059,15.126],[98.5059,15.1257],[98.5056,15.1257]],[[98.4956,15.1254],[98.4958,15.1257],[98.4958,15.1254],[98.4956,15.1254]],[[98.5051,15.1254],[98.5056,15.1254],[98.5056,15.1246],[98.5048,15.1246],[98.5051,15.1254]]]}},{"type":"Feature","properties":{"kind":"seasonal","area_km2":0.77,"date":"2026-10-02"},"geometry":{"type":"Polygon","coordinates":[[[98.6052,15.0101],[98.6049,15.009],[98.6041,15.0093],[98.6041,15.0087],[98.6047,15.0087],[98.6055,15.0077],[98.6052,15.0058],[98.6058,15.0058],[98.6063,15.0068],[98.6077,15.0068],[98.6066,15.0066],[98.6066,15.0055],[98.6072,15.006],[98.608,15.0058],[98.608,15.0039],[98.6075,15.0036],[98.6063,15.0052],[98.6058,15.0033],[98.6077,15.003],[98.6083,15.0036],[98.6089,15.0025],[98.6119,14.9995],[98.6142,14.9995],[98.6144,15.0001],[98.6156,15.0001],[98.6161,15.0003],[98.6164,15.0017],[98.6178,15.0017],[98.6175,15.0006],[98.6186,15.0006],[98.6186,15.0001],[98.6181,14.9998],[98.6198,14.9995],[98.6195,15.0028],[98.6186,15.0044],[98.6172,15.0044],[98.617,15.0031],[98.6156,15.0031],[98.615,15.0041],[98.6142,15.0047],[98.6139,15.0058],[98.6128,15.0063],[98.6111,15.0063],[98.6111,15.0074],[98.6108,15.0068],[98.6091,15.0068],[98.6091,15.0079],[98.6086,15.0074],[98.6077,15.0074],[98.6072,15.0082],[98.6075,15.0096],[98.6052,15.0101]],[[98.6061,15.0093],[98.6063,15.0096],[98.6063,15.0093],[98.6061,15.0093]],[[98.6164,15.002],[98.6167,15.0022],[98.6167,15.002],[98.6164,15.002]]]}},{"type":"Feature","properties":{"kind":"seasonal","area_km2":0.764,"date":"2026-10-02"},"geometry":{"type":"Polygon","coordinates":[[[98.5535,15.074],[98.5535,15.0729],[98.5526,15.0726],[98.5532,15.0721],[98.5532,15.0716],[98.5526,15.0713],[98.5526,15.0689],[98.5532,15.0678],[98.5529,15.0667],[98.5532,15.0661],[98.5546,15.0659],[98.5543,15.0653],[98.5538,15.0653],[98.5538,15.0648],[98.5546,15.0648],[98.5549,15.064],[98.556,15.064],[98.5563,15.0626],[98.5554,15.0626],[98.5552,15.0632],[98.5546,15.0632],[98.5549,15.0623],[98.5524,15.0626],[98.5518,15.0637],[98.551,15.064],[98.5501,15.0637],[98.5513,15.0634],[98.5529,15.0615],[98.5543,15.0613],[98.5546,15.0618],[98.5557,15.0618],[98.5563,15.0599],[98.5596,15.0605],[98.5608,15.0591],[98.5607,15.0605],[98.5596,15.0607],[98.5593,15.0615],[98.5607,15.0615],[98.5621,15.0624],[98.5619,15.0613],[98.561,15.0613],[98.5607,15.0607],[98.5627,15.0607],[98.5638,15.0621],[98.5638,15.0626],[98.563,15.0626],[98.5635,15.0653],[98.5624,15.0653],[98.5619,15.064],[98.5602,15.0637],[98.5596,15.0632],[98.5588,15.0634],[98.5588,15.064],[98.5579,15.0648],[98.5577,15.0659],[98.5565,15.0659],[98.5566,15.0653],[98.5557,15.0653],[98.5554,15.0648],[98.5557,15.067],[98.5551,15.0683],[98.5571,15.068],[98.5571,15.0691],[98.5565,15.0697],[98.5582,15.0697],[98.5585,15.0718],[98.5574,15.0718],[98.5557,15.0737],[98.5535,15.074]],[[98.5563,15.0689],[98.5565,15.0691],[98.5565,15.0689],[98.5563,15.0689]],[[98.5549,15.0689],[98.5554,15.0689],[98.5554,15.0686],[98.5551,15.0683],[98.5546,15.0683],[98.5549,15.0689]],[[98.5557,15.0686],[98.556,15.0689],[98.556,15.0686],[98.5557,15.0686]],[[98.5543,15.068],[98.5546,15.0683],[98.5546,15.068],[98.5543,15.068]],[[98.5546,15.0675],[98.5549,15.068],[98.5549,15.0675],[98.5546,15.0675]],[[98.5549,15.0661],[98.5552,15.0664],[98.5552,15.0661],[98.5549,15.0661]],[[98.5552,15.0659],[98.5554,15.0661],[98.5554,15.0659],[98.5552,15.0659]],[[98.5557,15.0645],[98.556,15.0648],[98.556,15.0645],[98.5557,15.0645]],[[98.5563,15.0648],[98.5568,15.0648],[98.5568,15.0645],[98.556,15.0642],[98.5563,15.0648]],[[98.5577,15.0645],[98.5579,15.0648],[98.5579,15.0645],[98.5577,15.0645]],[[98.5577,15.064],[98.5579,15.0643],[98.5579,15.064],[98.5577,15.064]],[[98.5579,15.0637],[98.5582,15.064],[98.5582,15.0637],[98.5579,15.0637]],[[98.5582,15.0634],[98.5585,15.0637],[98.5585,15.0634],[98.5582,15.0634]],[[98.5613,15.0632],[98.5616,15.0637],[98.5616,15.0632],[98.5613,15.0632]],[[98.5585,15.0626],[98.5588,15.0629],[98.5588,15.0626],[98.5585,15.0626]],[[98.5588,15.0624],[98.5591,15.0626],[98.5591,15.0624],[98.5588,15.0624]],[[98.5593,15.0624],[98.5599,15.0626],[98.5599,15.0624],[98.5593,15.0624]]]}},{"type":"Feature","properties":{"kind":"seasonal","area_km2":0.679,"date":"2026-10-02"},"geometry":{"type":"Polygon","coordinates":[[[98.5176,15.1423],[98.5176,15.1407],[98.5165,15.1407],[98.5165,15.1374],[98.5156,15.1344],[98.5148,15.1339],[98.5134,15.1341],[98.5131,15.133],[98.512,15.1339],[98.512,15.1344],[98.5115,15.1344],[98.5101,15.1328],[98.5092,15.1328],[98.5087,15.1322],[98.5084,15.1309],[98.5089,15.1309],[98.5101,15.1295],[98.5115,15.1295],[98.5115,15.1303],[98.5131,15.1309],[98.5137,15.132],[98.5145,15.1312],[98.5159,15.1317],[98.517,15.1309],[98.5179,15.1309],[98.5179,15.1322],[98.5187,15.1333],[98.5193,15.1377],[98.5235,15.1377],[98.5232,15.139],[98.5226,15.139],[98.5223,15.1396],[98.5218,15.139],[98.5209,15.1393],[98.5201,15.1404],[98.5193,15.1407],[98.5187,15.1423],[98.5176,15.1423]]]}},{"type":"Feature","properties":{"kind":"seasonal","area_km2":0.531,"date":"2026-10-02"},"geometry":{"type":"Polygon","coordinates":[[[98.5262,15.0219],[98.5262,15.0194],[98.5259,15.02],[98.5251,15.0194],[98.5243,15.0202],[98.5243,15.0211],[98.5229,15.0211],[98.5232,15.02],[98.5226,15.0194],[98.5218,15.0194],[98.5223,15.0189],[98.5223,15.0175],[98.5218,15.0175],[98.5218,15.017],[98.5226,15.0162],[98.5243,15.0159],[98.524,15.0148],[98.5246,15.0145],[98.5246,15.014],[98.5234,15.0137],[98.5229,15.0148],[98.5223,15.0143],[98.5232,15.0137],[98.5232,15.0132],[98.5243,15.0132],[98.5251,15.0143],[98.5251,15.0151],[98.5246,15.0151],[98.5248,15.0159],[98.5237,15.0164],[98.5246,15.017],[98.5246,15.0175],[98.5234,15.0178],[98.524,15.0181],[98.524,15.0189],[98.5234,15.0189],[98.5234,15.0194],[98.524,15.0194],[98.5243,15.02],[98.5243,15.0181],[98.5251,15.0178],[98.5248,15.017],[98.5254,15.0164],[98.5254,15.0145],[98.5262,15.014],[98.5265,15.0146],[98.5271,15.0146],[98.5271,15.0137],[98.5276,15.0135],[98.5285,15.0118],[98.5279,15.0102],[98.5288,15.0094],[98.5296,15.0094],[98.5296,15.0099],[98.529,15.0099],[98.529,15.0116],[98.5296,15.0116],[98.5296,15.0124],[98.5288,15.0127],[98.5288,15.0137],[98.5296,15.0137],[98.5296,15.0132],[98.5304,15.0129],[98.5307,15.0118],[98.5313,15.0118],[98.5307,15.0116],[98.5307,15.011],[98.5321,15.0108],[98.5318,15.0121],[98.5324,15.0121],[98.5324,15.0129],[98.5321,15.0129],[98.5321,15.0132],[98.5315,15.0132],[98.5315,15.0135],[98.5329,15.0138],[98.5329,15.0143],[98.5321,15.0143],[98.5318,15.0151],[98.531,15.0151],[98.5315,15.0156],[98.531,15.0156],[98.5307,15.0165],[98.5299,15.0156],[98.529,15.0159],[98.5285,15.0167],[98.5285,15.0159],[98.5296,15.0156],[98.5299,15.0151],[98.5285,15.0148],[98.5285,15.0143],[98.5274,15.014],[98.5274,15.0148],[98.5265,15.0151],[98.5265,15.0159],[98.5276,15.0173],[98.5285,15.017],[98.5285,15.0175],[98.5276,15.0181],[98.5276,15.0189],[98.5285,15.0189],[98.529,15.0181],[98.529,15.0186],[98.5299,15.0186],[98.5299,15.0194],[98.5279,15.0211],[98.5276,15.0203],[98.5282,15.0197],[98.5276,15.0197],[98.5268,15.0216],[98.5262,15.0219]],[[98.5273,15.0189],[98.5276,15.0194],[98.5276,15.0189],[98.5273,15.0189]],[[98.5259,15.0192],[98.5265,15.0189],[98.5265,15.0181],[98.5257,15.0183],[98.5259,15.0192]],[[98.5254,15.0178],[98.5257,15.0181],[98.5257,15.0178],[98.5254,15.0178]],[[98.5257,15.0173],[98.5265,15.0175],[98.5265,15.017],[98.5257,15.0173]],[[98.5257,15.0167],[98.526,15.017],[98.526,15.0167],[98.5257,15.0167]],[[98.526,15.0164],[98.5262,15.0167],[98.5262,15.0165],[98.526,15.0164]],[[98.5293,15.0146],[98.5296,15.0148],[98.5296,15.0146],[98.5293,15.0146]],[[98.5318,15.0127],[98.5321,15.0129],[98.5321,15.0127],[98.5318,15.0127]]]}},{"type":"Feature","properties":{"kind":"seasonal","area_km2":0.479,"date":"2026-10-02"},"geometry":{"type":"Polygon","coordinates":[[[98.5946,15.0215],[98.5943,15.0209],[98.5938,15.0209],[98.5938,15.0201],[98.5943,15.0196],[98.594,15.0188],[98.5924,15.019],[98.5924,15.0182],[98.5918,15.0179],[98.5887,15.0185],[98.5887,15.0177],[98.589,15.0171],[98.591,15.0174],[98.5915,15.0163],[98.5924,15.0163],[98.5921,15.0171],[98.5949,15.0179],[98.5952,15.0185],[98.5954,15.0174],[98.596,15.0171],[98.5957,15.0158],[98.5946,15.0158],[98.5952,15.0141],[98.5963,15.0141],[98.5963,15.015],[98.5971,15.0141],[98.5971,15.012],[98.5966,15.012],[98.5966,15.0109],[98.5971,15.0109],[98.5971,15.0103],[98.598,15.0103],[98.5982,15.0109],[98.5996,15.0106],[98.5994,15.0095],[98.6005,15.0093],[98.5994,15.0087],[98.5994,15.0079],[98.5982,15.0076],[98.598,15.0071],[98.5983,15.0066],[98.5996,15.0071],[98.5999,15.0066],[98.5994,15.0066],[98.5991,15.006],[98.6002,15.006],[98.6002,15.0068],[98.6019,15.0071],[98.6013,15.0079],[98.6013,15.0093],[98.6005,15.0104],[98.6008,15.0114],[98.5994,15.0114],[98.5991,15.0125],[98.598,15.0125],[98.5985,15.0128],[98.5994,15.0152],[98.5991,15.0158],[98.5977,15.016],[98.5971,15.0166],[98.596,15.0215],[98.5946,15.0215]],[[98.5918,15.0171],[98.5921,15.0174],[98.5921,15.0171],[98.5918,15.0171]],[[98.596,15.0155],[98.5963,15.016],[98.5963,15.0155],[98.596,15.0155]],[[98.5971,15.0117],[98.5974,15.012],[98.5974,15.0117],[98.5971,15.0117]]]}},{"type":"Feature","properties":{"kind":"seasonal","area_km2":0.468,"date":"2026-10-02"},"geometry":{"type":"Polygon","coordinates":[[[98.4592,15.1408],[98.4595,15.1403],[98.4589,15.1402],[98.4584,15.1392],[98.4587,15.1381],[98.4581,15.1381],[98.4581,15.1373],[98.4576,15.1367],[98.4559,15.1364],[98.4553,15.1359],[98.4545,15.1337],[98.4562,15.127],[98.4576,15.1264],[98.4579,15.1272],[98.4584,15.1259],[98.459,15.1259],[98.459,15.1248],[98.4601,15.1243],[98.4604,15.1253],[98.4598,15.1253],[98.4587,15.1264],[98.4587,15.1275],[98.4581,15.1278],[98.4595,15.1397],[98.4601,15.14],[98.4601,15.1405],[98.4592,15.1408]],[[98.4576,15.1275],[98.4579,15.1278],[98.4579,15.1275],[98.4576,15.1275]]]}},{"type":"Feature","properties":{"kind":"seasonal","area_km2":0.338,"date":"2026-10-02"},"geometry":{"type":"Polygon","coordinates":[[[98.5669,15.0605],[98.5663,15.0594],[98.5658,15.0594],[98.5655,15.0602],[98.5649,15.0599],[98.5649,15.0594],[98.5655,15.0591],[98.5652,15.0586],[98.5658,15.0583],[98.5655,15.0572],[98.5647,15.0575],[98.5647,15.0583],[98.5635,15.058],[98.5638,15.0575],[98.5644,15.0575],[98.5647,15.0567],[98.5661,15.0572],[98.5661,15.0583],[98.5669,15.058],[98.5669,15.0575],[98.5663,15.0572],[98.5663,15.0567],[98.5672,15.0564],[98.5672,15.0559],[98.5666,15.0556],[98.5666,15.0521],[98.5655,15.0515],[98.5655,15.0499],[98.5669,15.0499],[98.5677,15.0504],[98.5677,15.051],[98.5697,15.0507],[98.5697,15.0502],[98.5705,15.0499],[98.5705,15.0477],[98.5694,15.0477],[98.5686,15.0469],[98.5703,15.0469],[98.57,15.0464],[98.5711,15.0464],[98.5705,15.0469],[98.5714,15.0472],[98.5714,15.048],[98.5719,15.0483],[98.5719,15.0504],[98.5725,15.0521],[98.5722,15.0526],[98.5708,15.0523],[98.5708,15.0532],[98.57,15.0532],[98.5689,15.0513],[98.5672,15.0518],[98.5672,15.0542],[98.5675,15.0548],[98.568,15.0548],[98.568,15.0556],[98.5691,15.0567],[98.568,15.0567],[98.568,15.058],[98.5672,15.0586],[98.5677,15.0605],[98.5669,15.0605]],[[98.5714,15.0521],[98.5716,15.0523],[98.5717,15.0521],[98.5714,15.0521]],[[98.5663,15.0512],[98.5669,15.0515],[98.5669,15.0512],[98.5663,15.0512]],[[98.5661,15.051],[98.5663,15.0512],[98.5663,15.051],[98.5661,15.051]],[[98.5669,15.0507],[98.5672,15.0512],[98.5672,15.0507],[98.5669,15.0507]],[[98.5663,15.0507],[98.5666,15.051],[98.5666,15.0507],[98.5663,15.0507]]]}},{"type":"Feature","properties":{"kind":"seasonal","area_km2":0.327,"date":"2026-10-02"},"geometry":{"type":"Polygon","coordinates":[[[98.3983,15.0609],[98.3961,15.0606],[98.3961,15.0601],[98.3955,15.0603],[98.3938,15.0598],[98.3927,15.0587],[98.3902,15.0587],[98.3891,15.0582],[98.3891,15.0573],[98.3916,15.0574],[98.3933,15.0582],[98.3944,15.0582],[98.3958,15.0593],[98.3969,15.0593],[98.3975,15.0576],[98.4,15.0576],[98.4005,15.0571],[98.4014,15.0571],[98.4019,15.056],[98.4033,15.0563],[98.4033,15.0606],[98.4025,15.0606],[98.4025,15.0601],[98.4019,15.0601],[98.4019,15.0596],[98.4003,15.0585],[98.3997,15.0601],[98.3986,15.0604],[98.3983,15.0609]],[[98.3902,15.0579],[98.3905,15.0582],[98.3905,15.0579],[98.3902,15.0579]],[[98.3897,15.0576],[98.3899,15.0579],[98.3899,15.0576],[98.3897,15.0576]],[[98.4014,15.0574],[98.4017,15.0577],[98.4017,15.0574],[98.4014,15.0574]]]}},{"type":"Feature","properties":{"kind":"seasonal","area_km2":0.307,"date":"2026-10-02"},"geometry":{"type":"Polygon","coordinates":[[[98.4178,15.1719],[98.4175,15.17],[98.4181,15.1689],[98.4181,15.1659],[98.4192,15.1659],[98.4198,15.164],[98.4203,15.164],[98.4204,15.1635],[98.4198,15.1632],[98.4201,15.1627],[98.4192,15.1621],[98.419,15.1586],[98.4204,15.1567],[98.4229,15.1567],[98.4232,15.1578],[98.4226,15.1578],[98.4226,15.1572],[98.4215,15.1572],[98.4204,15.1586],[98.4204,15.161],[98.4209,15.1613],[98.4206,15.1621],[98.4217,15.1627],[98.4217,15.1648],[98.4212,15.1654],[98.4212,15.1662],[98.4201,15.1667],[98.4201,15.1675],[98.4195,15.1681],[98.4195,15.1692],[98.4206,15.1694],[98.4206,15.17],[98.4195,15.1705],[98.4187,15.1713],[98.4187,15.1719],[98.4178,15.1719]],[[98.4201,15.1654],[98.4203,15.1659],[98.4203,15.1654],[98.4201,15.1654]],[[98.4203,15.1648],[98.4215,15.1646],[98.4215,15.1643],[98.4203,15.1643],[98.4203,15.1648]],[[98.4206,15.1635],[98.4209,15.1638],[98.4209,15.1635],[98.4206,15.1635]],[[98.4201,15.1613],[98.4206,15.1616],[98.4206,15.1613],[98.4201,15.1613]]]}},{"type":"Feature","properties":{"kind":"seasonal","area_km2":0.302,"date":"2026-10-02"},"geometry":{"type":"Polygon","coordinates":[[[98.5325,15.0878],[98.5319,15.0873],[98.5325,15.087],[98.5325,15.0851],[98.5333,15.084],[98.5333,15.0829],[98.5353,15.0813],[98.5353,15.0799],[98.5345,15.0797],[98.5345,15.0783],[98.535,15.078],[98.5353,15.0767],[98.535,15.0756],[98.5353,15.0748],[98.5373,15.0734],[98.5373,15.0726],[98.5381,15.0715],[98.5376,15.0742],[98.537,15.0742],[98.5356,15.0756],[98.5359,15.0786],[98.5367,15.0786],[98.5373,15.0794],[98.5375,15.0772],[98.537,15.0759],[98.5375,15.0759],[98.5381,15.077],[98.5378,15.081],[98.5364,15.081],[98.5359,15.0818],[98.5361,15.0824],[98.5375,15.0824],[98.5375,15.0829],[98.5361,15.0835],[98.5359,15.084],[98.535,15.0835],[98.5345,15.084],[98.5333,15.0873],[98.5325,15.0878]],[[98.5364,15.0799],[98.5367,15.0805],[98.5367,15.0799],[98.5364,15.0799]],[[98.5367,15.0797],[98.537,15.0799],[98.537,15.0797],[98.5367,15.0797]]]}},{"type":"Feature","properties":{"kind":"seasonal","area_km2":0.291,"date":"2026-10-02"},"geometry":{"type":"Polygon","coordinates":[[[98.4285,15.1296],[98.4255,15.1293],[98.4252,15.1285],[98.4249,15.1285],[98.4249,15.1288],[98.4241,15.1288],[98.4238,15.1266],[98.4232,15.1263],[98.4235,15.1255],[98.423,15.125],[98.4216,15.1255],[98.4216,15.1261],[98.4221,15.1263],[98.4204,15.1277],[98.4182,15.1277],[98.4171,15.1274],[98.4168,15.1269],[98.4171,15.126],[98.4185,15.1271],[98.4202,15.1269],[98.4207,15.1258],[98.4216,15.1252],[98.4219,15.1242],[98.423,15.1236],[98.423,15.1231],[98.4238,15.1231],[98.4238,15.1239],[98.4244,15.1242],[98.4241,15.1261],[98.4246,15.1261],[98.4246,15.1274],[98.4258,15.1277],[98.4266,15.1285],[98.4274,15.1285],[98.4285,15.1269],[98.4299,15.1269],[98.4308,15.1277],[98.4327,15.128],[98.4336,15.1274],[98.4336,15.1269],[98.4341,15.1272],[98.4341,15.1277],[98.4347,15.1277],[98.4352,15.1269],[98.4366,15.1266],[98.4352,15.128],[98.4344,15.128],[98.4333,15.1288],[98.4308,15.1288],[98.4305,15.1282],[98.4297,15.1282],[98.4288,15.1288],[98.4285,15.1296]],[[98.4246,15.1282],[98.4249,15.1285],[98.4249,15.1282],[98.4246,15.1282]],[[98.4255,15.1282],[98.426,15.1285],[98.426,15.1282],[98.4255,15.1282]],[[98.4302,15.1277],[98.4305,15.128],[98.4305,15.1277],[98.4302,15.1277]],[[98.4288,15.1277],[98.4299,15.1277],[98.4299,15.1274],[98.4291,15.1272],[98.4288,15.1277]]]}},{"type":"Feature","properties":{"kind":"seasonal","area_km2":0.281,"date":"2026-10-02"},"geometry":{"type":"Polygon","coordinates":[[[98.3921,15.0712],[98.3919,15.0706],[98.3902,15.0704],[98.3899,15.0698],[98.3891,15.0698],[98.3871,15.0687],[98.3868,15.0676],[98.3888,15.0674],[98.3896,15.0685],[98.3899,15.0674],[98.3913,15.0677],[98.3913,15.0682],[98.3919,15.0685],[98.393,15.0677],[98.3941,15.0677],[98.3944,15.0682],[98.396,15.0679],[98.3966,15.0685],[98.3966,15.0698],[98.3977,15.0698],[98.3977,15.0709],[98.3969,15.0709],[98.3958,15.0701],[98.3944,15.0701],[98.3938,15.0712],[98.3921,15.0712]],[[98.3972,15.0704],[98.3974,15.0707],[98.3974,15.0704],[98.3972,15.0704]]]}},{"type":"Feature","properties":{"kind":"seasonal","area_km2":0.228,"date":"2026-10-02"},"geometry":{"type":"Polygon","coordinates":[[[98.5237,15.0094],[98.5237,15.0086],[98.5221,15.0088],[98.5212,15.008],[98.5218,15.0078],[98.5218,15.0059],[98.521,15.0059],[98.5204,15.0072],[98.5198,15.0072],[98.5198,15.0061],[98.5204,15.005],[98.5212,15.0056],[98.5215,15.004],[98.521,15.0034],[98.5218,15.0029],[98.5218,15.0021],[98.5238,15.0023],[98.5238,15.0018],[98.5232,15.0015],[98.5232,15.0004],[98.5243,15.0004],[98.5246,15.0015],[98.524,15.0021],[98.5251,15.0023],[98.5249,15.0015],[98.5252,14.9999],[98.524,14.9994],[98.5257,14.9994],[98.5252,15.001],[98.5265,15.001],[98.5263,15.0021],[98.5257,15.0021],[98.5257,15.0026],[98.5238,15.0029],[98.5237,15.0051],[98.5226,15.0048],[98.5221,15.0059],[98.5232,15.0061],[98.5232,15.007],[98.5223,15.0072],[98.5223,15.008],[98.5232,15.0072],[98.524,15.0075],[98.524,15.0067],[98.5246,15.0067],[98.5243,15.0061],[98.5249,15.0061],[98.5249,15.0072],[98.524,15.008],[98.524,15.0086],[98.5246,15.0089],[98.5237,15.0094]],[[98.5221,15.0034],[98.5229,15.0034],[98.5229,15.0032],[98.5218,15.0029],[98.5221,15.0034]],[[98.5238,15.0023],[98.524,15.0026],[98.524,15.0023],[98.5238,15.0023]],[[98.5235,15.001],[98.5238,15.0013],[98.5238,15.001],[98.5235,15.001]],[[98.5238,15.0007],[98.524,15.001],[98.524,15.0007],[98.5238,15.0007]]]}},{"type":"Feature","properties":{"kind":"seasonal","area_km2":0.211,"date":"2026-10-02"},"geometry":{"type":"Polygon","coordinates":[[[98.5703,15.0461],[98.5703,15.0453],[98.5697,15.0447],[98.5689,15.045],[98.5686,15.0458],[98.5678,15.0458],[98.568,15.045],[98.5655,15.0445],[98.5689,15.0442],[98.5694,15.042],[98.5694,15.0396],[98.5711,15.0391],[98.5714,15.038],[98.5728,15.0374],[98.5728,15.0363],[98.5734,15.0363],[98.5734,15.0369],[98.5742,15.0369],[98.5747,15.0374],[98.5747,15.0388],[98.5742,15.0382],[98.5731,15.0382],[98.5728,15.0388],[98.5714,15.0391],[98.5706,15.0399],[98.5703,15.0426],[98.5717,15.0428],[98.5717,15.0439],[98.5708,15.0442],[98.5708,15.0447],[98.5714,15.0445],[98.5714,15.0458],[98.5703,15.0461]]]}},{"type":"Feature","properties":{"kind":"seasonal","area_km2":0.187,"date":"2026-10-02"},"geometry":{"type":"Polygon","coordinates":[[[98.5326,15.026],[98.5326,15.0251],[98.5315,15.0249],[98.5318,15.0235],[98.5312,15.0238],[98.531,15.0232],[98.5307,15.0208],[98.5299,15.0208],[98.5293,15.0213],[98.5293,15.0224],[98.5282,15.0224],[98.5282,15.0208],[98.5287,15.0213],[98.5301,15.02],[98.5312,15.0208],[98.5307,15.0186],[98.5318,15.0186],[98.5318,15.0181],[98.5329,15.0181],[98.5324,15.0197],[98.5335,15.0203],[98.5329,15.0208],[98.5329,15.0219],[98.5335,15.0216],[98.5335,15.023],[98.5329,15.0232],[98.5329,15.0238],[98.5337,15.0254],[98.5326,15.026]],[[98.5324,15.0232],[98.5329,15.0227],[98.5329,15.0219],[98.5324,15.0219],[98.5324,15.0232]]]}},{"type":"Feature","properties":{"kind":"seasonal","area_km2":0.186,"date":"2026-10-02"},"geometry":{"type":"Polygon","coordinates":[[[98.5071,15.0658],[98.5072,15.0622],[98.5083,15.062],[98.5094,15.0625],[98.5094,15.0609],[98.508,15.0606],[98.5091,15.0604],[98.51,15.0582],[98.5122,15.0582],[98.5122,15.0587],[98.5116,15.0587],[98.5111,15.0609],[98.5127,15.0617],[98.5127,15.0636],[98.5113,15.0636],[98.5119,15.0631],[98.5119,15.062],[98.5105,15.0617],[98.5099,15.0625],[98.5099,15.0639],[98.5091,15.0639],[98.5088,15.0633],[98.5077,15.0636],[98.5071,15.0658]],[[98.51,15.0593],[98.5105,15.0595],[98.5105,15.0593],[98.51,15.0593]]]}},{"type":"Feature","properties":{"kind":"seasonal","area_km2":0.173,"date":"2026-10-02"},"geometry":{"type":"Polygon","coordinates":[[[98.5271,15.1458],[98.526,15.1445],[98.526,15.1437],[98.5268,15.1431],[98.5268,15.1418],[98.5285,15.1418],[98.5285,15.1431],[98.5304,15.1429],[98.5304,15.1437],[98.5324,15.1434],[98.5324,15.145],[98.5299,15.1453],[98.5296,15.1447],[98.5287,15.1447],[98.5279,15.1458],[98.5271,15.1458]],[[98.5279,15.1437],[98.5285,15.1434],[98.5282,15.1428],[98.5279,15.1428],[98.5279,15.1437]]]}},{"type":"Feature","properties":{"kind":"seasonal","area_km2":0.158,"date":"2026-10-02"},"geometry":{"type":"Polygon","coordinates":[[[98.5134,15.0346],[98.5136,15.0324],[98.5142,15.0327],[98.5142,15.0332],[98.5153,15.033],[98.5156,15.0324],[98.5164,15.0324],[98.5161,15.0338],[98.517,15.0338],[98.5175,15.0327],[98.5175,15.0319],[98.517,15.0316],[98.517,15.0322],[98.5164,15.0322],[98.5167,15.0313],[98.5162,15.0311],[98.5162,15.0303],[98.5176,15.03],[98.5167,15.0297],[98.5167,15.0278],[98.5162,15.0278],[98.5162,15.027],[98.5167,15.027],[98.517,15.0265],[98.5192,15.027],[98.5195,15.0284],[98.5187,15.0278],[98.5187,15.0273],[98.5176,15.027],[98.517,15.0276],[98.517,15.0289],[98.5181,15.0295],[98.5187,15.0314],[98.5195,15.0316],[98.5195,15.0322],[98.5181,15.0314],[98.5184,15.0327],[98.5175,15.0332],[98.517,15.0343],[98.5159,15.0343],[98.5159,15.0332],[98.5153,15.0332],[98.515,15.0341],[98.5142,15.0338],[98.5142,15.0343],[98.5134,15.0346]]]}},{"type":"Feature","properties":{"kind":"seasonal","area_km2":0.153,"date":"2026-10-02"},"geometry":{"type":"Polygon","coordinates":[[[98.5781,15.0372],[98.5787,15.035],[98.5784,15.0323],[98.5789,15.032],[98.5789,15.0315],[98.5792,15.0331],[98.5803,15.0331],[98.5806,15.032],[98.5812,15.032],[98.582,15.0328],[98.5829,15.0315],[98.5837,15.0315],[98.5837,15.0323],[98.5831,15.0326],[98.5831,15.0339],[98.5826,15.0339],[98.582,15.0347],[98.5809,15.0345],[98.5803,15.0353],[98.5795,15.0353],[98.5789,15.0361],[98.5789,15.0372],[98.5781,15.0372]]]}},{"type":"Feature","properties":{"kind":"seasonal","area_km2":0.145,"date":"2026-10-02"},"geometry":{"type":"Polygon","coordinates":[[[98.5498,15.0743],[98.5498,15.0735],[98.5493,15.0732],[98.5504,15.0726],[98.5504,15.0705],[98.5496,15.0699],[98.5476,15.0697],[98.5484,15.0688],[98.5485,15.0667],[98.5493,15.0664],[98.5493,15.065],[98.5498,15.0669],[98.549,15.0678],[98.5504,15.0678],[98.5498,15.068],[98.5498,15.0688],[98.551,15.0688],[98.5515,15.0713],[98.5524,15.0713],[98.5526,15.0718],[98.5526,15.0724],[98.551,15.0724],[98.5507,15.074],[98.5498,15.0743]]]}},{"type":"Feature","properties":{"kind":"seasonal","area_km2":0.142,"date":"2026-10-02"},"geometry":{"type":"Polygon","coordinates":[[[98.4101,15.1309],[98.4096,15.1293],[98.4101,15.1287],[98.4101,15.1277],[98.4104,15.1282],[98.4115,15.1282],[98.4126,15.1274],[98.4149,15.1277],[98.414,15.1285],[98.414,15.1306],[98.4132,15.1309],[98.4107,15.1301],[98.4101,15.1309]],[[98.4135,15.1279],[98.4137,15.1282],[98.4137,15.1279],[98.4135,15.1279]]]}},{"type":"Feature","properties":{"kind":"seasonal","area_km2":0.139,"date":"2026-10-02"},"geometry":{"type":"Polygon","coordinates":[[[98.4623,15.14],[98.4623,15.1389],[98.4629,15.1386],[98.4631,15.1343],[98.4637,15.1338],[98.4632,15.1329],[98.464,15.1324],[98.4634,15.131],[98.4634,15.1291],[98.464,15.1286],[98.4632,15.1275],[98.4623,15.1278],[98.4615,15.1259],[98.4626,15.1259],[98.4626,15.1272],[98.4632,15.127],[98.4634,15.1275],[98.464,15.1275],[98.464,15.1281],[98.466,15.1286],[98.466,15.1291],[98.4651,15.1291],[98.4648,15.1297],[98.4643,15.1294],[98.4643,15.1305],[98.4651,15.1302],[98.4651,15.1316],[98.4646,15.1316],[98.4648,15.1324],[98.464,15.1332],[98.4643,15.1343],[98.4634,15.1346],[98.4634,15.1354],[98.464,15.1354],[98.464,15.1359],[98.4634,15.1359],[98.4631,15.1367],[98.4631,15.1397],[98.4623,15.14]]]}},{"type":"Feature","properties":{"kind":"seasonal","area_km2":0.131,"date":"2026-10-02"},"geometry":{"type":"Polygon","coordinates":[[[98.4107,15.311],[98.4104,15.3096],[98.4113,15.3088],[98.411,15.308],[98.4099,15.3083],[98.4088,15.3099],[98.4079,15.3099],[98.4082,15.3091],[98.4077,15.3088],[98.4077,15.308],[98.4096,15.3064],[98.4105,15.3064],[98.4121,15.3077],[98.4121,15.3105],[98.4118,15.311],[98.4107,15.311]],[[98.4107,15.3096],[98.4113,15.3099],[98.4113,15.3096],[98.4107,15.3096]]]}},{"type":"Feature","properties":{"kind":"seasonal","area_km2":0.118,"date":"2026-10-02"},"geometry":{"type":"Polygon","coordinates":[[[98.4665,15.0375],[98.4667,15.0356],[98.4662,15.0353],[98.4676,15.0345],[98.4676,15.0334],[98.4687,15.0323],[98.4687,15.0307],[98.4695,15.0307],[98.4695,15.035],[98.4684,15.0356],[98.4681,15.0367],[98.4673,15.0367],[98.4665,15.0375]]]}},{"type":"Feature","properties":{"kind":"seasonal","area_km2":0.114,"date":"2026-10-02"},"geometry":{"type":"Polygon","coordinates":[[[98.4377,15.1548],[98.438,15.1538],[98.4374,15.1529],[98.4363,15.1529],[98.4357,15.1535],[98.4321,15.1532],[98.4318,15.1537],[98.4307,15.154],[98.4299,15.154],[98.4299,15.1535],[98.4302,15.1529],[98.4346,15.1527],[98.4352,15.1519],[98.4363,15.1521],[98.4374,15.1513],[98.4377,15.1505],[98.4383,15.1505],[98.4383,15.1513],[98.4377,15.1513],[98.4377,15.1519],[98.4383,15.1524],[98.4385,15.1543],[98.4382,15.1548],[98.4377,15.1548]],[[98.4374,15.1519],[98.4377,15.1521],[98.4377,15.1519],[98.4374,15.1519]]]}},{"type":"Feature","properties":{"kind":"seasonal","area_km2":0.113,"date":"2026-10-02"},"geometry":{"type":"Polygon","coordinates":[[[98.5247,15.075],[98.525,15.0739],[98.5261,15.0731],[98.5272,15.0731],[98.5278,15.0718],[98.5281,15.0683],[98.5267,15.0683],[98.5261,15.0666],[98.5275,15.0666],[98.5272,15.0674],[98.5289,15.068],[98.5303,15.0669],[98.5303,15.0664],[98.5311,15.0664],[98.5311,15.0669],[98.5306,15.0669],[98.53,15.068],[98.5286,15.0683],[98.5286,15.0712],[98.5281,15.0737],[98.5255,15.0739],[98.5255,15.0748],[98.5247,15.075]]]}},{"type":"Feature","properties":{"kind":"seasonal","area_km2":0.113,"date":"2026-10-02"},"geometry":{"type":"Polygon","coordinates":[[[98.498,15.0552],[98.498,15.0535],[98.4974,15.053],[98.4985,15.0525],[98.4982,15.0516],[98.4991,15.0514],[98.4988,15.0511],[98.4991,15.0495],[98.4999,15.0495],[98.4999,15.0503],[98.501,15.0508],[98.5019,15.05],[98.5041,15.0508],[98.5041,15.0514],[98.5005,15.0514],[98.4996,15.0503],[98.4991,15.0503],[98.4994,15.0517],[98.501,15.0522],[98.501,15.0536],[98.5005,15.0527],[98.4991,15.0525],[98.4991,15.053],[98.4988,15.053],[98.4985,15.0535],[98.4985,15.0546],[98.498,15.0552]],[[98.4985,15.0527],[98.4988,15.053],[98.4988,15.0527],[98.4985,15.0527]]]}},{"type":"Feature","properties":{"kind":"seasonal","area_km2":0.111,"date":"2026-10-02"},"geometry":{"type":"Polygon","coordinates":[[[98.5036,15.0197],[98.5039,15.0172],[98.5047,15.0164],[98.5064,15.0164],[98.505,15.0161],[98.5056,15.015],[98.5045,15.0156],[98.5042,15.015],[98.5059,15.0142],[98.5061,15.0134],[98.5067,15.0142],[98.5075,15.0142],[98.5081,15.0134],[98.5087,15.0134],[98.5089,15.0142],[98.5078,15.0142],[98.5073,15.0148],[98.5075,15.017],[98.505,15.0172],[98.505,15.018],[98.5036,15.0197]],[[98.5056,15.015],[98.5061,15.0151],[98.5061,15.0145],[98.5056,15.0145],[98.5056,15.015]]]}},{"type":"Feature","properties":{"kind":"seasonal","area_km2":0.104,"date":"2026-10-02"},"geometry":{"type":"Polygon","coordinates":[[[98.3206,15.2739],[98.3189,15.2736],[98.3189,15.2728],[98.3184,15.2725],[98.3175,15.2692],[98.3189,15.2692],[98.3198,15.2701],[98.3198,15.2709],[98.3209,15.2711],[98.3203,15.2725],[98.3206,15.2739]]]}}]}
