{"type":"FeatureCollection","properties":{"v":3,"id":"t98_8","name":"พังงา · ภูเก็ต · กระบี่","aoi":[98.178,8.0,99.0,9.0],"date":"2026-10-07","dates":["2026-10-07","2026-10-02"],"baseline_years":3,"has_seasonal":true,"totals":{"flood_high":0.0,"flood_low":0.3,"seasonal":1.1},"provinces":[{"name":"กระบี่","zone":"th-s","flood_high":0.0,"flood_low":0.3,"seasonal":0.8},{"name":"พังงา","zone":"th-s","flood_high":0.0,"flood_low":0.0,"seasonal":0.1},{"name":"สุราษฎร์ธานี","zone":"th-s","flood_high":0.0,"flood_low":0.0,"seasonal":0.1},{"name":"ภูเก็ต","zone":"th-s","flood_high":0.0,"flood_low":0.0,"seasonal":0.1}],"scenes":{"2026-10-07":2,"2026-10-02":2},"baseline_dates":["2025-10-05","2024-10-09","2023-10-10"],"threshold_db":-15.0,"auto":true,"source":"Sentinel-1 RTC (Copernicus/ESA) via Microsoft Planetary Computer; JRC Global Surface Water; Copernicus DEM","method":"ChatGeo v3: Otsu threshold on VV dB; minus JRC permanent water and slope > 5 deg; unusual = water not present in most of the previous 3 years (same season)","added":"2026-10-10T03:24+07:00"},"features":[{"type":"Feature","properties":{"kind":"flood","area_km2":0.191,"conf":"low","date":"2026-10-02"},"geometry":{"type":"Polygon","coordinates":[[[98.8655,8.3474],[98.866,8.3469],[98.8658,8.3461],[98.8666,8.3447],[98.8658,8.345],[98.8649,8.3442],[98.8649,8.3425],[98.8655,8.3425],[98.8658,8.3434],[98.8663,8.3434],[98.8669,8.3425],[98.866,8.3417],[98.8663,8.3406],[98.8655,8.3406],[98.8652,8.3396],[98.8644,8.3396],[98.8641,8.3382],[98.8649,8.3382],[98.8652,8.3393],[98.866,8.3393],[98.8658,8.3387],[98.8671,8.3393],[98.8671,8.3401],[98.8666,8.3404],[98.8669,8.3412],[98.8693,8.3415],[98.8693,8.3426],[98.8674,8.3425],[98.8679,8.3434],[98.869,8.3434],[98.869,8.3439],[98.8674,8.3442],[98.8674,8.3447],[98.8679,8.3444],[98.8679,8.345],[98.8671,8.345],[98.8671,8.3472],[98.8666,8.3469],[98.8663,8.3474],[98.8655,8.3474]],[[98.8655,8.3442],[98.8669,8.3442],[98.8669,8.3436],[98.866,8.3439],[98.8655,8.3434],[98.8655,8.3442]],[[98.8666,8.3431],[98.8669,8.3434],[98.8669,8.3431],[98.8666,8.3431]],[[98.8663,8.3415],[98.8666,8.3417],[98.8666,8.3415],[98.8663,8.3415]],[[98.866,8.3393],[98.8666,8.3398],[98.8666,8.3393],[98.866,8.3393]]]}},{"type":"Feature","properties":{"kind":"flood","area_km2":0.082,"conf":"low","date":"2026-10-02"},"geometry":{"type":"Polygon","coordinates":[[[98.8647,8.3474],[98.8636,8.3469],[98.8633,8.3458],[98.8625,8.3453],[98.8628,8.3442],[98.8633,8.3442],[98.863,8.3434],[98.8639,8.3434],[98.8644,8.345],[98.8652,8.345],[98.8658,8.3455],[98.8652,8.3461],[98.8652,8.3472],[98.8647,8.3474]],[[98.8636,8.345],[98.8639,8.3453],[98.8639,8.345],[98.8636,8.345]]]}},{"type":"Feature","properties":{"kind":"seasonal","area_km2":0.442,"date":"2026-10-02"},"geometry":{"type":"Polygon","coordinates":[[[98.9778,8.2462],[98.9775,8.2454],[98.9758,8.2457],[98.9761,8.2449],[98.9756,8.2449],[98.9756,8.2452],[98.9753,8.2452],[98.9753,8.2454],[98.9748,8.2454],[98.9748,8.2457],[98.9729,8.2454],[98.9718,8.2435],[98.9753,8.2438],[98.9758,8.2422],[98.9775,8.2422],[98.9778,8.2392],[98.9783,8.2392],[98.9788,8.2373],[98.978,8.2365],[98.9788,8.2357],[98.9794,8.2357],[98.9805,8.2367],[98.981,8.2367],[98.981,8.2376],[98.9818,8.2373],[98.9824,8.2384],[98.9816,8.2392],[98.9816,8.2419],[98.9808,8.2427],[98.9808,8.2435],[98.9799,8.2438],[98.9799,8.2433],[98.9788,8.2433],[98.9788,8.2438],[98.978,8.2438],[98.9778,8.2443],[98.9786,8.2446],[98.9778,8.2446],[98.9778,8.2452],[98.9783,8.2449],[98.9778,8.2462]],[[98.9748,8.2452],[98.9753,8.2452],[98.9753,8.2449],[98.9748,8.2446],[98.9748,8.2452]],[[98.9729,8.2446],[98.9734,8.2449],[98.9734,8.2446],[98.9729,8.2446]],[[98.9734,8.2441],[98.9737,8.2446],[98.9739,8.2441],[98.9734,8.2441]],[[98.9758,8.2443],[98.9761,8.2446],[98.9761,8.2443],[98.9758,8.2443]],[[98.9753,8.2441],[98.9758,8.2443],[98.9758,8.2441],[98.9753,8.2441]],[[98.9731,8.2438],[98.9734,8.2441],[98.9734,8.2438],[98.9731,8.2438]],[[98.9778,8.2435],[98.978,8.2438],[98.978,8.2435],[98.9778,8.2435]],[[98.9794,8.2427],[98.9797,8.243],[98.9797,8.2427],[98.9794,8.2427]],[[98.9786,8.2414],[98.9791,8.2424],[98.9791,8.2411],[98.9786,8.2414]],[[98.9805,8.2416],[98.9808,8.2419],[98.9808,8.2416],[98.9805,8.2416]],[[98.9802,8.2411],[98.9805,8.2414],[98.9805,8.2411],[98.9802,8.2411]],[[98.9802,8.2405],[98.9805,8.2408],[98.9805,8.2405],[98.9802,8.2405]],[[98.9788,8.2405],[98.9797,8.2403],[98.9797,8.2395],[98.9805,8.2389],[98.981,8.2376],[98.9802,8.2378],[98.9802,8.2386],[98.9794,8.2392],[98.9788,8.2405]],[[98.9799,8.2403],[98.9802,8.2405],[98.9802,8.2403],[98.9799,8.2403]]]}},{"type":"Feature","properties":{"kind":"seasonal","area_km2":0.221,"date":"2026-10-02"},"geometry":{"type":"Polygon","coordinates":[[[98.8308,8.5189],[98.8308,8.5176],[98.8292,8.517],[98.8284,8.5159],[98.8267,8.5167],[98.8267,8.5178],[98.8262,8.5184],[98.8243,8.5181],[98.824,8.5167],[98.8254,8.5162],[98.8265,8.5146],[98.8281,8.5146],[98.8286,8.5154],[98.8319,8.5146],[98.8322,8.5159],[98.8316,8.5165],[98.8316,8.5176],[98.8324,8.5178],[98.8324,8.5184],[98.8308,8.5189]],[[98.8295,8.5157],[98.8297,8.5159],[98.8297,8.5157],[98.8295,8.5157]]]}},{"type":"Feature","properties":{"kind":"seasonal","area_km2":0.126,"date":"2026-10-07"},"geometry":{"type":"Polygon","coordinates":[[[98.2476,8.4452],[98.2476,8.4433],[98.2465,8.4425],[98.2466,8.4417],[98.2479,8.4414],[98.2485,8.4401],[98.2493,8.4398],[98.249,8.4423],[98.2509,8.4428],[98.2509,8.4433],[98.2504,8.4433],[98.2495,8.445],[98.2493,8.4444],[98.2482,8.4444],[98.2482,8.4452],[98.2476,8.4452]]]}},{"type":"Feature","properties":{"kind":"seasonal","area_km2":0.109,"date":"2026-10-02"},"geometry":{"type":"Polygon","coordinates":[[[98.6881,8.9999],[98.6881,8.9967],[98.6876,8.9967],[98.6868,8.9953],[98.6868,8.9937],[98.6857,8.9929],[98.6851,8.991],[98.6829,8.991],[98.6829,8.9904],[98.6857,8.9904],[98.6859,8.9921],[98.6876,8.9929],[98.687,8.994],[98.6879,8.9951],[98.6884,8.9972],[98.6889,8.9975],[98.6889,8.9999],[98.6881,8.9999]]]}},{"type":"Feature","properties":{"kind":"seasonal","area_km2":0.106,"date":"2026-10-02"},"geometry":{"type":"Polygon","coordinates":[[[98.8139,8.6009],[98.8136,8.6003],[98.8117,8.6003],[98.8117,8.5992],[98.8125,8.5995],[98.8131,8.599],[98.8131,8.5995],[98.8136,8.5995],[98.8144,8.5987],[98.8144,8.5976],[98.8136,8.5987],[98.8136,8.5981],[98.8125,8.5979],[98.8125,8.5973],[98.8131,8.5968],[98.815,8.5968],[98.8155,8.5973],[98.8158,8.599],[98.8152,8.599],[98.8144,8.6009],[98.8139,8.6009]],[[98.8136,8.5995],[98.8139,8.5998],[98.8139,8.5995],[98.8136,8.5995]],[[98.8136,8.5973],[98.8139,8.5976],[98.8139,8.5973],[98.8136,8.5973]]]}},{"type":"Feature","properties":{"kind":"seasonal","area_km2":0.105,"date":"2026-10-07"},"geometry":{"type":"Polygon","coordinates":[[[98.3035,8.1108],[98.3025,8.107],[98.3025,8.1062],[98.303,8.1059],[98.3044,8.1062],[98.3049,8.1081],[98.3049,8.1108],[98.3035,8.1108]]]}}]}
