{"type":"FeatureCollection","properties":{"v":3,"id":"t98_7","name":"ภูเก็ต · กระบี่ · พังงา","aoi":[98.234,7.751,99.0,8.0],"date":"2026-10-07","dates":["2026-10-07","2026-10-02"],"baseline_years":3,"has_seasonal":true,"totals":{"flood_high":0.0,"flood_low":0.0,"seasonal":0.7},"provinces":[{"name":"ภูเก็ต","zone":"th-s","flood_high":0.0,"flood_low":0.0,"seasonal":0.7}],"scenes":{"2026-10-07":1,"2026-10-02":1},"baseline_dates":["2025-10-05","2024-10-05","2023-10-10"],"threshold_db":-15.0,"auto":true,"source":"Sentinel-1 RTC (Copernicus/ESA) via Microsoft Planetary Computer; JRC Global Surface Water; Copernicus DEM","method":"ChatGeo v3: Otsu threshold on VV dB; minus JRC permanent water and slope > 5 deg; unusual = water not present in most of the previous 3 years (same season)","added":"2026-10-10T03:24+07:00"},"features":[{"type":"Feature","properties":{"kind":"seasonal","area_km2":0.427,"date":"2026-10-07"},"geometry":{"type":"Polygon","coordinates":[[[98.3283,7.9708],[98.3269,7.9694],[98.3253,7.9689],[98.3256,7.9675],[98.3275,7.9673],[98.3275,7.9635],[98.3283,7.9635],[98.3291,7.9643],[98.3291,7.9659],[98.3296,7.9659],[98.3299,7.9643],[98.3318,7.9646],[98.3324,7.9638],[98.3332,7.9638],[98.3337,7.9651],[98.3337,7.9667],[98.3332,7.967],[98.3332,7.9676],[98.3326,7.9676],[98.3326,7.9681],[98.3321,7.9681],[98.3296,7.9708],[98.3283,7.9708]],[[98.3302,7.9684],[98.3305,7.9689],[98.3305,7.9684],[98.3302,7.9684]],[[98.3299,7.9673],[98.3307,7.9673],[98.331,7.9665],[98.3299,7.9665],[98.3299,7.9673]]]}},{"type":"Feature","properties":{"kind":"seasonal","area_km2":0.148,"date":"2026-10-07"},"geometry":{"type":"Polygon","coordinates":[[[98.3249,7.862],[98.3241,7.8604],[98.3233,7.8604],[98.3236,7.8595],[98.3244,7.8598],[98.3241,7.8587],[98.3233,7.8587],[98.3225,7.8576],[98.3236,7.8574],[98.3241,7.8582],[98.3247,7.8582],[98.3257,7.8568],[98.3266,7.8568],[98.3263,7.8601],[98.3271,7.8601],[98.3271,7.8612],[98.3263,7.862],[98.3249,7.862]],[[98.3241,7.8601],[98.3244,7.8604],[98.3244,7.8601],[98.3241,7.8601]]]}},{"type":"Feature","properties":{"kind":"seasonal","area_km2":0.121,"date":"2026-10-07"},"geometry":{"type":"Polygon","coordinates":[[[98.4098,7.8779],[98.409,7.877],[98.4071,7.8765],[98.4065,7.8757],[98.4057,7.8757],[98.4052,7.8749],[98.4044,7.8749],[98.403,7.8732],[98.4011,7.8724],[98.4011,7.8719],[98.4006,7.8719],[98.3992,7.8705],[98.3992,7.8694],[98.4003,7.8697],[98.4003,7.8702],[98.4008,7.8702],[98.4006,7.8708],[98.4011,7.8708],[98.4011,7.8716],[98.4033,7.8727],[98.4044,7.8738],[98.4044,7.8743],[98.4054,7.8743],[98.406,7.8754],[98.4071,7.8751],[98.4074,7.8757],[98.409,7.8762],[98.4101,7.8773],[98.4112,7.8773],[98.4109,7.8779],[98.4098,7.8779]]]}}]}
