{"type":"FeatureCollection","properties":{"v":3,"id":"t98_18","name":"เชียงใหม่ · ลำพูน · แม่ฮ่องสอน","aoi":[98.0,18.0,99.0,19.0],"date":"2026-10-09","dates":["2026-10-09","2026-10-02"],"baseline_years":3,"has_seasonal":true,"totals":{"flood_high":0.0,"flood_low":0.3,"seasonal":5.6},"provinces":[{"name":"เชียงใหม่","zone":"th-n","flood_high":0.0,"flood_low":0.3,"seasonal":4.4},{"name":"ลำพูน","zone":"th-n","flood_high":0.0,"flood_low":0.1,"seasonal":1.2}],"scenes":{"2026-10-09":2,"2026-10-02":2},"baseline_dates":["2025-10-09","2024-10-09","2023-10-08"],"threshold_db":-15.0,"auto":true,"source":"Sentinel-1 RTC (Copernicus/ESA) via Microsoft Planetary Computer; JRC Global Surface Water; Copernicus DEM","method":"ChatGeo v3: Otsu threshold on VV dB; minus JRC permanent water and slope > 5 deg; unusual = water not present in most of the previous 3 years (same season)","added":"2026-10-10T16:37+07:00"},"features":[{"type":"Feature","properties":{"kind":"flood","area_km2":0.121,"conf":"low","date":"2026-10-09"},"geometry":{"type":"Polygon","coordinates":[[[98.6376,18.0055],[98.6376,18.0041],[98.6365,18.0041],[98.6368,18.003],[98.6359,18.0028],[98.6359,18.0014],[98.6374,18.0014],[98.6374,18.0006],[98.6382,18.0006],[98.6382,17.9995],[98.6396,17.9995],[98.6402,18.0017],[98.6379,18.002],[98.6385,18.0055],[98.6376,18.0055]]]}},{"type":"Feature","properties":{"kind":"flood","area_km2":0.086,"conf":"low","date":"2026-10-09"},"geometry":{"type":"Polygon","coordinates":[[[98.6263,18.0076],[98.6254,18.0057],[98.626,18.0057],[98.626,18.0049],[98.6266,18.0049],[98.6266,18.0041],[98.6272,18.0041],[98.6272,18.0028],[98.6266,18.0025],[98.628,18.0025],[98.6286,18.0028],[98.6286,18.0033],[98.6277,18.0036],[98.6277,18.0049],[98.6283,18.006],[98.6271,18.0063],[98.6271,18.0076],[98.6263,18.0076]]]}},{"type":"Feature","properties":{"kind":"flood","area_km2":0.067,"conf":"low","date":"2026-10-09"},"geometry":{"type":"Polygon","coordinates":[[[98.8674,18.047],[98.8666,18.0467],[98.8672,18.0451],[98.866,18.0448],[98.8657,18.044],[98.8677,18.044],[98.8677,18.0454],[98.8694,18.0456],[98.8694,18.0465],[98.8674,18.047]],[[98.8677,18.0462],[98.868,18.0465],[98.868,18.0462],[98.8677,18.0462]]]}},{"type":"Feature","properties":{"kind":"flood","area_km2":0.052,"conf":"low","date":"2026-10-09"},"geometry":{"type":"Polygon","coordinates":[[[98.6368,18.0101],[98.6356,18.0093],[98.6348,18.0093],[98.6354,18.0098],[98.6339,18.0098],[98.6342,18.0082],[98.6348,18.0082],[98.6348,18.0066],[98.6359,18.0074],[98.6359,18.0079],[98.6351,18.0082],[98.6356,18.0082],[98.6359,18.009],[98.6365,18.009],[98.6373,18.0098],[98.6368,18.0101]]]}},{"type":"Feature","properties":{"kind":"seasonal","area_km2":2.334,"date":"2026-10-09"},"geometry":{"type":"Polygon","coordinates":[[[98.6319,18.0158],[98.6311,18.0152],[98.6283,18.0155],[98.628,18.0147],[98.626,18.0144],[98.6257,18.0117],[98.626,18.0109],[98.6266,18.0109],[98.626,18.0082],[98.6263,18.0076],[98.6271,18.0076],[98.6271,18.0063],[98.6283,18.006],[98.6277,18.0049],[98.6277,18.0036],[98.6283,18.0036],[98.6286,18.0028],[98.6266,18.0025],[98.6272,18.0028],[98.6272,18.0041],[98.6266,18.0041],[98.6266,18.0049],[98.626,18.0049],[98.626,18.0057],[98.6254,18.006],[98.6249,18.0055],[98.6252,18.003],[98.6243,18.003],[98.624,18.0036],[98.6212,18.0036],[98.6206,18.003],[98.6178,18.0035],[98.6175,18.0027],[98.6158,18.0027],[98.6155,18.0049],[98.6141,18.0049],[98.6144,18.0035],[98.6138,18.0035],[98.6138,18.0044],[98.6133,18.0044],[98.613,18.0049],[98.6121,18.0049],[98.6124,18.0033],[98.6133,18.003],[98.6153,18.0011],[98.6155,17.9995],[98.6181,17.9995],[98.6184,18.0003],[98.6192,18.0003],[98.6195,17.9995],[98.6249,17.9995],[98.6257,18.0019],[98.6263,18.0009],[98.6263,17.9995],[98.6294,17.9995],[98.6294,18.0],[98.6308,18.0001],[98.6308,18.0017],[98.632,18.0014],[98.632,17.9995],[98.6334,17.9995],[98.6334,18.0009],[98.634,18.0009],[98.6342,18.002],[98.6348,18.0022],[98.634,18.0028],[98.6348,18.0036],[98.6337,18.0036],[98.6337,18.003],[98.6331,18.003],[98.632,18.0055],[98.6334,18.0044],[98.6348,18.0041],[98.6348,18.0047],[98.6334,18.0049],[98.6334,18.0055],[98.6348,18.0055],[98.6348,18.0049],[98.6357,18.0049],[98.6357,18.0058],[98.6362,18.0063],[98.6362,18.0079],[98.6368,18.0082],[98.6373,18.0082],[98.6379,18.0066],[98.6371,18.0066],[98.6371,18.006],[98.6362,18.0052],[98.6362,18.0041],[98.6376,18.0041],[98.6376,18.0055],[98.6385,18.0055],[98.6379,18.002],[98.6402,18.0017],[98.6396,17.9995],[98.6405,17.9995],[98.6408,18.0012],[98.6393,18.0033],[98.6393,18.0063],[98.6402,18.0066],[98.6402,18.0074],[98.639,18.0074],[98.6393,18.0115],[98.6388,18.0125],[98.6376,18.0125],[98.6376,18.0136],[98.6362,18.015],[98.6351,18.015],[98.6342,18.0158],[98.6319,18.0158]],[[98.6302,18.0136],[98.6305,18.0139],[98.6305,18.0136],[98.6302,18.0136]],[[98.6311,18.0139],[98.6334,18.0128],[98.6337,18.0112],[98.6317,18.0125],[98.6311,18.0139]],[[98.6305,18.0133],[98.6308,18.0136],[98.6308,18.0133],[98.6305,18.0133]],[[98.6297,18.0128],[98.6303,18.0125],[98.6303,18.012],[98.6297,18.012],[98.6297,18.0128]],[[98.6348,18.0123],[98.6354,18.0128],[98.6354,18.0123],[98.6348,18.0123]],[[98.6354,18.0112],[98.6359,18.0117],[98.6359,18.0112],[98.6354,18.0112]],[[98.6266,18.0103],[98.6271,18.0101],[98.6271,18.0095],[98.6266,18.0098],[98.6266,18.0103]],[[98.6339,18.0098],[98.6373,18.0098],[98.6365,18.009],[98.6359,18.009],[98.6359,18.0074],[98.6348,18.0066],[98.6348,18.0082],[98.6342,18.0082],[98.6339,18.0098]],[[98.6297,18.0098],[98.6303,18.0098],[98.6303,18.0093],[98.6314,18.0093],[98.6314,18.0087],[98.6305,18.0085],[98.6297,18.0098]],[[98.6271,18.0093],[98.6274,18.0095],[98.6274,18.0093],[98.6271,18.0093]],[[98.6288,18.0079],[98.6303,18.0076],[98.6303,18.006],[98.6297,18.006],[98.6297,18.0071],[98.6291,18.0071],[98.6288,18.0079]],[[98.6308,18.0071],[98.6311,18.0074],[98.6311,18.0071],[98.6308,18.0071]],[[98.6314,18.006],[98.6317,18.0063],[98.6317,18.006],[98.6314,18.006]],[[98.6317,18.0055],[98.632,18.006],[98.632,18.0055],[98.6317,18.0055]],[[98.6331,18.0055],[98.6334,18.0057],[98.6334,18.0055],[98.6331,18.0055]],[[98.6388,18.0047],[98.6391,18.0058],[98.6391,18.0047],[98.6388,18.0047]],[[98.6314,18.0041],[98.632,18.0041],[98.632,18.0036],[98.6317,18.0036],[98.6314,18.0041]],[[98.6155,18.0014],[98.6158,18.0022],[98.6158,18.0014],[98.6155,18.0014]],[[98.6274,18.0011],[98.628,18.0011],[98.628,18.0006],[98.6277,18.0006],[98.6274,18.0011]]]}},{"type":"Feature","properties":{"kind":"seasonal","area_km2":0.436,"date":"2026-10-09"},"geometry":{"type":"Polygon","coordinates":[[[98.6079,18.0136],[98.6073,18.0127],[98.6064,18.0127],[98.6059,18.0117],[98.6033,18.0122],[98.6039,18.0106],[98.6028,18.0103],[98.6025,18.0108],[98.6008,18.0108],[98.6002,18.01],[98.6022,18.0095],[98.6022,18.0089],[98.6036,18.0089],[98.605,18.0095],[98.6141,18.0095],[98.6141,18.0101],[98.6155,18.0103],[98.6144,18.0111],[98.6144,18.0117],[98.6138,18.0117],[98.6127,18.0128],[98.6093,18.0128],[98.6084,18.0136],[98.6079,18.0136]],[[98.6031,18.01],[98.6033,18.0103],[98.6033,18.01],[98.6031,18.01]],[[98.6073,18.01],[98.6076,18.0103],[98.6076,18.01],[98.6073,18.01]],[[98.6033,18.0098],[98.6036,18.01],[98.6036,18.0098],[98.6033,18.0098]]]}},{"type":"Feature","properties":{"kind":"seasonal","area_km2":0.32,"date":"2026-10-09"},"geometry":{"type":"Polygon","coordinates":[[[98.7779,18.6453],[98.7771,18.6445],[98.7771,18.6437],[98.7751,18.6432],[98.7754,18.641],[98.7748,18.6407],[98.7748,18.6402],[98.7757,18.6396],[98.7757,18.6383],[98.7768,18.638],[98.7771,18.6372],[98.7791,18.6372],[98.7794,18.6377],[98.778,18.6383],[98.778,18.6394],[98.7785,18.6396],[98.778,18.6396],[98.778,18.6402],[98.7777,18.6402],[98.7777,18.6407],[98.7788,18.6405],[98.7791,18.6396],[98.7799,18.6394],[98.7797,18.6386],[98.7799,18.638],[98.7811,18.6391],[98.7811,18.6402],[98.7817,18.6405],[98.7817,18.6421],[98.7799,18.6424],[98.7799,18.6415],[98.7794,18.6413],[98.7782,18.6434],[98.7785,18.6453],[98.7779,18.6453]],[[98.7802,18.6413],[98.7805,18.6418],[98.7805,18.6413],[98.7802,18.6413]],[[98.7799,18.641],[98.7802,18.6413],[98.7802,18.641],[98.7799,18.641]],[[98.7774,18.6396],[98.7777,18.6402],[98.7777,18.6396],[98.7774,18.6396]],[[98.7799,18.6394],[98.7802,18.6402],[98.7802,18.6394],[98.7799,18.6394]],[[98.7771,18.6394],[98.7774,18.6396],[98.7774,18.6394],[98.7771,18.6394]]]}},{"type":"Feature","properties":{"kind":"seasonal","area_km2":0.302,"date":"2026-10-09"},"geometry":{"type":"Polygon","coordinates":[[[98.917,18.1991],[98.9173,18.1967],[98.9167,18.1945],[98.9161,18.194],[98.9153,18.194],[98.9153,18.1915],[98.917,18.1907],[98.9173,18.1902],[98.9187,18.1902],[98.9195,18.1905],[98.9195,18.1918],[98.9207,18.1921],[98.9209,18.1934],[98.9226,18.1937],[98.9212,18.194],[98.9209,18.1945],[98.9195,18.1943],[98.9192,18.1948],[98.9181,18.1948],[98.9178,18.1956],[98.919,18.1978],[98.9175,18.1991],[98.917,18.1991]],[[98.9181,18.1934],[98.9184,18.1937],[98.9184,18.1934],[98.9181,18.1934]],[[98.9178,18.1929],[98.9181,18.1932],[98.9181,18.1929],[98.9178,18.1929]]]}},{"type":"Feature","properties":{"kind":"seasonal","area_km2":0.293,"date":"2026-10-09"},"geometry":{"type":"Polygon","coordinates":[[[98.9575,18.3583],[98.9561,18.357],[98.9549,18.357],[98.9549,18.3559],[98.9555,18.3553],[98.9572,18.3551],[98.9572,18.3526],[98.9561,18.3513],[98.9558,18.3496],[98.9584,18.3496],[98.9584,18.3469],[98.9595,18.3467],[98.9612,18.3475],[98.9612,18.3505],[98.9606,18.3507],[98.9606,18.3513],[98.9615,18.3521],[98.9629,18.3521],[98.9629,18.3529],[98.9615,18.3534],[98.9615,18.3545],[98.9609,18.3545],[98.9609,18.3521],[98.9601,18.3518],[98.9609,18.348],[98.9592,18.348],[98.9592,18.3499],[98.9598,18.3499],[98.9598,18.3505],[98.9586,18.3507],[98.9572,18.3502],[98.9572,18.3507],[98.9584,18.3507],[98.9584,18.3513],[98.9572,18.3513],[98.9572,18.3518],[98.9578,18.3518],[98.9578,18.3537],[98.9586,18.3537],[98.9586,18.3553],[98.9584,18.3559],[98.9575,18.3559],[98.9569,18.3564],[98.9569,18.357],[98.9584,18.3575],[98.9592,18.357],[98.9598,18.3572],[98.9584,18.3583],[98.9575,18.3583]],[[98.9566,18.3562],[98.9569,18.3564],[98.9569,18.3562],[98.9566,18.3562]]]}},{"type":"Feature","properties":{"kind":"seasonal","area_km2":0.252,"date":"2026-10-09"},"geometry":{"type":"Polygon","coordinates":[[[98.6121,18.0334],[98.6121,18.0326],[98.6141,18.0317],[98.6146,18.0301],[98.6155,18.0293],[98.6149,18.022],[98.6144,18.0217],[98.6144,18.0209],[98.6121,18.019],[98.6121,18.0182],[98.613,18.0182],[98.6155,18.0204],[98.6155,18.0212],[98.6161,18.0217],[98.6161,18.025],[98.6163,18.0263],[98.6169,18.0269],[98.6169,18.0288],[98.6166,18.0309],[98.6155,18.032],[98.6149,18.0315],[98.6149,18.032],[98.6135,18.0334],[98.6121,18.0334]]]}},{"type":"Feature","properties":{"kind":"seasonal","area_km2":0.229,"date":"2026-10-09"},"geometry":{"type":"Polygon","coordinates":[[[98.5908,18.0263],[98.5903,18.0257],[98.5903,18.0244],[98.5883,18.023],[98.5883,18.0222],[98.5908,18.0219],[98.5917,18.0225],[98.5917,18.0244],[98.5911,18.0246],[98.5911,18.0252],[98.5925,18.0249],[98.5925,18.023],[98.5937,18.023],[98.5954,18.0238],[98.5959,18.0238],[98.5959,18.023],[98.5971,18.023],[98.5971,18.0244],[98.5962,18.0247],[98.5962,18.0252],[98.5942,18.026],[98.5931,18.0257],[98.5925,18.0263],[98.5908,18.0263]]]}},{"type":"Feature","properties":{"kind":"seasonal","area_km2":0.197,"date":"2026-10-09"},"geometry":{"type":"Polygon","coordinates":[[[98.582,18.0273],[98.582,18.0233],[98.5826,18.0208],[98.5823,18.0181],[98.5832,18.0181],[98.5838,18.02],[98.5849,18.0214],[98.5849,18.0222],[98.5838,18.0222],[98.5835,18.023],[98.5843,18.0246],[98.5843,18.026],[98.5849,18.0263],[98.5849,18.0273],[98.582,18.0273]]]}},{"type":"Feature","properties":{"kind":"seasonal","area_km2":0.155,"date":"2026-10-09"},"geometry":{"type":"Polygon","coordinates":[[[98.8123,18.4694],[98.8123,18.4678],[98.8109,18.4675],[98.8103,18.467],[98.8103,18.4632],[98.8123,18.4632],[98.8123,18.4637],[98.8128,18.4637],[98.8131,18.4643],[98.8128,18.467],[98.8134,18.4672],[98.8134,18.4678],[98.8128,18.4678],[98.8128,18.468],[98.8137,18.4683],[98.8137,18.4689],[98.8131,18.4694],[98.8123,18.4694]],[[98.8126,18.4675],[98.8128,18.4678],[98.8128,18.4675],[98.8126,18.4675]]]}},{"type":"Feature","properties":{"kind":"seasonal","area_km2":0.151,"date":"2026-10-09"},"geometry":{"type":"Polygon","coordinates":[[[98.746,18.5333],[98.7463,18.532],[98.7474,18.5317],[98.7485,18.5306],[98.7502,18.5303],[98.7502,18.5312],[98.7508,18.5312],[98.7511,18.5317],[98.7545,18.5314],[98.7551,18.5309],[98.7556,18.5312],[98.7556,18.5306],[98.7562,18.5309],[98.7562,18.532],[98.7548,18.5314],[98.7534,18.5317],[98.7534,18.5322],[98.7514,18.5322],[98.7508,18.5331],[98.7488,18.5328],[98.7485,18.5333],[98.746,18.5333]]]}},{"type":"Feature","properties":{"kind":"seasonal","area_km2":0.138,"date":"2026-10-09"},"geometry":{"type":"Polygon","coordinates":[[[98.7441,18.4861],[98.7418,18.4842],[98.7418,18.4834],[98.7409,18.4831],[98.7409,18.4821],[98.7426,18.4818],[98.7429,18.4823],[98.7446,18.4829],[98.7455,18.4837],[98.7458,18.4853],[98.7441,18.4861]]]}},{"type":"Feature","properties":{"kind":"seasonal","area_km2":0.127,"date":"2026-10-09"},"geometry":{"type":"Polygon","coordinates":[[[98.8298,18.0228],[98.8298,18.022],[98.8292,18.022],[98.8283,18.0209],[98.8281,18.0177],[98.8286,18.0177],[98.8286,18.0188],[98.8295,18.019],[98.8295,18.0199],[98.8306,18.0196],[98.8303,18.0188],[98.8295,18.0185],[98.8295,18.0177],[98.8286,18.0174],[98.8289,18.0163],[98.8303,18.0163],[98.8303,18.018],[98.8309,18.0188],[98.8312,18.0212],[98.8303,18.0217],[98.8306,18.0228],[98.8298,18.0228]],[[98.8298,18.0209],[98.8303,18.0212],[98.8303,18.0209],[98.8298,18.0209]]]}},{"type":"Feature","properties":{"kind":"seasonal","area_km2":0.125,"date":"2026-10-09"},"geometry":{"type":"Polygon","coordinates":[[[98.9325,18.2908],[98.9325,18.2903],[98.9317,18.2897],[98.9306,18.2878],[98.9306,18.2865],[98.9314,18.2862],[98.932,18.2851],[98.9331,18.2851],[98.9331,18.2875],[98.934,18.2886],[98.934,18.2903],[98.9334,18.2908],[98.9325,18.2908]],[[98.9328,18.2889],[98.9331,18.2892],[98.9331,18.2889],[98.9328,18.2889]],[[98.9317,18.2889],[98.9328,18.2889],[98.9328,18.2881],[98.932,18.2881],[98.9314,18.2873],[98.9317,18.2889]]]}},{"type":"Feature","properties":{"kind":"seasonal","area_km2":0.122,"date":"2026-10-09"},"geometry":{"type":"Polygon","coordinates":[[[98.6464,18.2927],[98.6464,18.2921],[98.647,18.2921],[98.6473,18.2916],[98.6473,18.2905],[98.6484,18.2897],[98.6493,18.288],[98.6501,18.2878],[98.6507,18.2862],[98.6512,18.2862],[98.6521,18.2826],[98.653,18.2824],[98.653,18.2837],[98.6521,18.2862],[98.6515,18.2862],[98.6512,18.2875],[98.6504,18.288],[98.649,18.2908],[98.647,18.2927],[98.6464,18.2927]]]}},{"type":"Feature","properties":{"kind":"seasonal","area_km2":0.121,"date":"2026-10-09"},"geometry":{"type":"Polygon","coordinates":[[[98.599,18.0314],[98.5985,18.0309],[98.5973,18.0309],[98.5971,18.0295],[98.5982,18.0295],[98.5985,18.0287],[98.5996,18.0279],[98.6005,18.0279],[98.6005,18.0285],[98.6016,18.0285],[98.6016,18.0301],[98.601,18.0312],[98.6005,18.0309],[98.599,18.0314]]]}},{"type":"Feature","properties":{"kind":"seasonal","area_km2":0.117,"date":"2026-10-09"},"geometry":{"type":"Polygon","coordinates":[[[98.9295,18.1408],[98.9289,18.1395],[98.9289,18.1371],[98.93,18.1368],[98.9298,18.1373],[98.9303,18.1379],[98.9317,18.1379],[98.932,18.1373],[98.9329,18.1373],[98.9332,18.1381],[98.932,18.1387],[98.9323,18.14],[98.9312,18.1395],[98.9312,18.1408],[98.9295,18.1408]],[[98.93,18.1384],[98.9306,18.1387],[98.9306,18.1384],[98.93,18.1384]]]}},{"type":"Feature","properties":{"kind":"seasonal","area_km2":0.115,"date":"2026-10-09"},"geometry":{"type":"Polygon","coordinates":[[[98.5948,18.0295],[98.5948,18.0287],[98.5965,18.0285],[98.5965,18.0279],[98.5971,18.0279],[98.6002,18.0247],[98.6019,18.0241],[98.6019,18.0249],[98.6007,18.0258],[98.6007,18.0266],[98.6002,18.0266],[98.5965,18.0295],[98.5948,18.0295]]]}},{"type":"Feature","properties":{"kind":"seasonal","area_km2":0.107,"date":"2026-10-09"},"geometry":{"type":"Polygon","coordinates":[[[98.814,18.4651],[98.8137,18.4632],[98.8123,18.4621],[98.8103,18.4621],[98.8097,18.4626],[98.8072,18.4632],[98.8066,18.4632],[98.8066,18.4623],[98.8103,18.4613],[98.8137,18.4613],[98.8148,18.4634],[98.8148,18.4651],[98.814,18.4651]],[[98.8094,18.4618],[98.8103,18.4621],[98.8103,18.4618],[98.8094,18.4618]],[[98.8106,18.4615],[98.8109,18.4618],[98.8109,18.4615],[98.8106,18.4615]]]}}]}
