{"type":"FeatureCollection","properties":{"v":3,"id":"t99_7","name":"ตรัง · พัทลุง · กระบี่","aoi":[99.0,7.0,100.0,8.0],"date":"2026-10-08","dates":["2026-10-08","2026-10-07","2026-10-02"],"baseline_years":3,"has_seasonal":true,"totals":{"flood_high":0.0,"flood_low":0.0,"seasonal":2.2},"provinces":[{"name":"ตรัง","zone":"th-s","flood_high":0.0,"flood_low":0.0,"seasonal":1.2},{"name":"พัทลุง","zone":"th-s","flood_high":0.0,"flood_low":0.0,"seasonal":0.5},{"name":"กระบี่","zone":"th-s","flood_high":0.0,"flood_low":0.0,"seasonal":0.5}],"scenes":{"2026-10-08":1,"2026-10-07":2,"2026-10-02":2},"baseline_dates":["2025-10-06","2024-10-05","2023-10-10"],"threshold_db":-15.0,"auto":true,"source":"Sentinel-1 RTC (Copernicus/ESA) via Microsoft Planetary Computer; JRC Global Surface Water; Copernicus DEM","method":"ChatGeo v3: Otsu threshold on VV dB; minus JRC permanent water and slope > 5 deg; unusual = water not present in most of the previous 3 years (same season)","added":"2026-10-10T03:24+07:00"},"features":[{"type":"Feature","properties":{"kind":"seasonal","area_km2":0.541,"date":"2026-10-02"},"geometry":{"type":"Polygon","coordinates":[[[99.6988,7.9653],[99.698,7.9645],[99.6969,7.9645],[99.6977,7.9585],[99.6969,7.9585],[99.6964,7.958],[99.6964,7.9564],[99.6969,7.9561],[99.698,7.9539],[99.6988,7.9534],[99.6988,7.9518],[99.7005,7.9518],[99.701,7.9523],[99.7013,7.9545],[99.7018,7.9547],[99.7018,7.9583],[99.701,7.9585],[99.701,7.9594],[99.6999,7.961],[99.6999,7.9626],[99.6994,7.9629],[99.6994,7.9634],[99.6999,7.9637],[99.6997,7.9653],[99.6988,7.9653]],[[99.6991,7.9629],[99.6997,7.9623],[99.6994,7.9618],[99.6991,7.9618],[99.6991,7.9629]],[[99.6991,7.9607],[99.6994,7.9613],[99.6994,7.9607],[99.6991,7.9607]],[[99.6988,7.9604],[99.6991,7.9607],[99.6991,7.9604],[99.6988,7.9604]],[[99.7007,7.9564],[99.701,7.9569],[99.701,7.9564],[99.7007,7.9564]]]}},{"type":"Feature","properties":{"kind":"seasonal","area_km2":0.221,"date":"2026-10-02"},"geometry":{"type":"Polygon","coordinates":[[[99.285,7.7881],[99.2847,7.7864],[99.2836,7.7859],[99.2833,7.7851],[99.2825,7.7851],[99.2828,7.7832],[99.2833,7.7826],[99.2844,7.7829],[99.2833,7.7835],[99.2833,7.784],[99.2839,7.784],[99.2842,7.7854],[99.2852,7.7848],[99.2847,7.7837],[99.285,7.7829],[99.2855,7.7829],[99.2863,7.7837],[99.2866,7.7851],[99.2871,7.7851],[99.2869,7.784],[99.2871,7.7832],[99.2877,7.7832],[99.2874,7.784],[99.288,7.7843],[99.288,7.7851],[99.291,7.7867],[99.2907,7.7873],[99.2893,7.7873],[99.2891,7.7878],[99.2885,7.7878],[99.2877,7.787],[99.2858,7.787],[99.2852,7.7864],[99.2852,7.787],[99.2863,7.7875],[99.2855,7.7875],[99.2855,7.7881],[99.285,7.7881]],[[99.2888,7.787],[99.2891,7.7873],[99.2891,7.787],[99.2888,7.787]],[[99.2882,7.7862],[99.2885,7.7864],[99.2885,7.7862],[99.2882,7.7862]],[[99.285,7.7856],[99.2852,7.7859],[99.2852,7.7856],[99.285,7.7856]],[[99.2847,7.7854],[99.285,7.7856],[99.285,7.7854],[99.2847,7.7854]],[[99.2871,7.7851],[99.2874,7.7854],[99.2874,7.7851],[99.2871,7.7851]],[[99.2858,7.7851],[99.2863,7.7851],[99.2863,7.7848],[99.2855,7.7845],[99.2858,7.7851]]]}},{"type":"Feature","properties":{"kind":"seasonal","area_km2":0.17,"date":"2026-10-02"},"geometry":{"type":"Polygon","coordinates":[[[99.8022,7.7643],[99.8027,7.7622],[99.8041,7.7611],[99.8041,7.7605],[99.8054,7.7605],[99.8057,7.76],[99.8076,7.76],[99.8073,7.7595],[99.8081,7.7592],[99.8081,7.7567],[99.8073,7.7567],[99.8062,7.7557],[99.8062,7.7548],[99.807,7.7543],[99.807,7.7532],[99.8073,7.754],[99.8076,7.7532],[99.8081,7.7532],[99.8081,7.7562],[99.8079,7.7562],[99.8079,7.7565],[99.8087,7.7565],[99.8084,7.7592],[99.8092,7.7589],[99.809,7.76],[99.8084,7.7605],[99.8068,7.7605],[99.8051,7.7614],[99.8051,7.7619],[99.8046,7.7619],[99.8046,7.7624],[99.8041,7.7624],[99.8041,7.763],[99.8035,7.7633],[99.8032,7.7643],[99.8022,7.7643]],[[99.8081,7.7595],[99.8084,7.7597],[99.8084,7.7595],[99.8081,7.7595]],[[99.8076,7.7554],[99.8079,7.7562],[99.8079,7.7554],[99.8076,7.7554]],[[99.8068,7.7554],[99.8073,7.7554],[99.8073,7.7551],[99.8065,7.7548],[99.8068,7.7554]]]}},{"type":"Feature","properties":{"kind":"seasonal","area_km2":0.159,"date":"2026-10-02"},"geometry":{"type":"Polygon","coordinates":[[[99.6027,7.7441],[99.6024,7.7422],[99.6016,7.7419],[99.6011,7.7424],[99.6011,7.7405],[99.5997,7.7403],[99.5992,7.7397],[99.5992,7.7386],[99.6,7.7381],[99.6003,7.7373],[99.6022,7.7375],[99.603,7.7392],[99.6035,7.7427],[99.6027,7.7441]],[[99.6008,7.7403],[99.6016,7.74],[99.6016,7.7381],[99.6011,7.7384],[99.6008,7.7403]],[[99.6016,7.74],[99.6022,7.7403],[99.6022,7.74],[99.6016,7.74]],[[99.6022,7.7397],[99.6024,7.74],[99.6024,7.7397],[99.6022,7.7397]],[[99.6024,7.7394],[99.6027,7.7397],[99.6027,7.7394],[99.6024,7.7394]]]}},{"type":"Feature","properties":{"kind":"seasonal","area_km2":0.159,"date":"2026-10-02"},"geometry":{"type":"Polygon","coordinates":[[[99.3776,7.3367],[99.3776,7.3359],[99.3785,7.3354],[99.3793,7.3337],[99.3798,7.3337],[99.3806,7.3329],[99.3812,7.3313],[99.3823,7.3305],[99.3828,7.3294],[99.3839,7.3288],[99.3839,7.3278],[99.3847,7.3272],[99.385,7.3264],[99.3855,7.3264],[99.3863,7.3242],[99.3869,7.3242],[99.3869,7.3234],[99.388,7.3226],[99.3888,7.3202],[99.3896,7.3196],[99.3901,7.3185],[99.3904,7.3191],[99.3888,7.3212],[99.3888,7.3223],[99.3882,7.3226],[99.388,7.3237],[99.3869,7.3248],[99.3863,7.3267],[99.385,7.3278],[99.3839,7.3297],[99.3825,7.3307],[99.3825,7.3313],[99.382,7.3313],[99.382,7.3318],[99.3776,7.3367]]]}},{"type":"Feature","properties":{"kind":"seasonal","area_km2":0.147,"date":"2026-10-02"},"geometry":{"type":"Polygon","coordinates":[[[99.0583,7.9724],[99.0581,7.97],[99.0586,7.9678],[99.0586,7.9716],[99.0594,7.9716],[99.06,7.9694],[99.0611,7.9684],[99.0611,7.9627],[99.0597,7.9624],[99.0594,7.9632],[99.0594,7.9618],[99.0613,7.9616],[99.0619,7.9637],[99.0619,7.9673],[99.0613,7.9681],[99.0611,7.9703],[99.06,7.9724],[99.0583,7.9724]]]}},{"type":"Feature","properties":{"kind":"seasonal","area_km2":0.138,"date":"2026-10-02"},"geometry":{"type":"Polygon","coordinates":[[[99.6152,7.7459],[99.6139,7.7446],[99.6139,7.7438],[99.6128,7.7427],[99.6125,7.7416],[99.6117,7.7408],[99.6109,7.7408],[99.6106,7.7392],[99.6114,7.7392],[99.6122,7.7402],[99.613,7.7402],[99.613,7.7408],[99.6144,7.7416],[99.6144,7.7424],[99.6136,7.7424],[99.6136,7.7432],[99.6139,7.7427],[99.6144,7.7427],[99.6149,7.743],[99.6158,7.7446],[99.6171,7.7446],[99.6166,7.7451],[99.6166,7.7459],[99.6152,7.7459]],[[99.6144,7.7432],[99.6147,7.7435],[99.6147,7.7432],[99.6144,7.7432]],[[99.6136,7.7419],[99.6139,7.7421],[99.6139,7.7419],[99.6136,7.7419]]]}},{"type":"Feature","properties":{"kind":"seasonal","area_km2":0.133,"date":"2026-10-02"},"geometry":{"type":"Polygon","coordinates":[[[99.9959,7.3065],[99.9956,7.3046],[99.9964,7.3043],[99.9967,7.3032],[99.9986,7.3029],[99.9989,7.3024],[100.0008,7.3018],[100.0008,7.3037],[100.0002,7.3037],[100.0,7.3043],[99.9978,7.304],[99.9978,7.3062],[99.9959,7.3065]]]}},{"type":"Feature","properties":{"kind":"seasonal","area_km2":0.117,"date":"2026-10-02"},"geometry":{"type":"Polygon","coordinates":[[[99.8201,7.7586],[99.8193,7.7575],[99.8182,7.7573],[99.8179,7.7567],[99.8157,7.7556],[99.8138,7.7556],[99.813,7.7565],[99.8111,7.7567],[99.8109,7.7573],[99.8103,7.7573],[99.8103,7.7567],[99.8098,7.7567],[99.8095,7.7562],[99.8117,7.7559],[99.8136,7.754],[99.8147,7.754],[99.8147,7.7546],[99.8141,7.7546],[99.8141,7.7554],[99.816,7.7543],[99.8157,7.7551],[99.8171,7.7556],[99.8182,7.7567],[99.819,7.7567],[99.819,7.7573],[99.8201,7.7575],[99.8201,7.7586]]]}},{"type":"Feature","properties":{"kind":"seasonal","area_km2":0.115,"date":"2026-10-02"},"geometry":{"type":"Polygon","coordinates":[[[99.106,7.9396],[99.1035,7.9382],[99.1008,7.9382],[99.0956,7.9369],[99.0951,7.9363],[99.0945,7.9344],[99.0929,7.9331],[99.0926,7.9323],[99.0921,7.9323],[99.0921,7.9317],[99.0913,7.9309],[99.0929,7.9317],[99.094,7.9336],[99.0951,7.9342],[99.0956,7.9363],[99.0978,7.9366],[99.0978,7.9371],[99.1043,7.938],[99.1057,7.939],[99.1068,7.939],[99.1068,7.9396],[99.106,7.9396]]]}},{"type":"Feature","properties":{"kind":"seasonal","area_km2":0.111,"date":"2026-10-02"},"geometry":{"type":"Polygon","coordinates":[[[99.559,7.6339],[99.5577,7.632],[99.5552,7.6315],[99.555,7.6307],[99.5539,7.631],[99.5539,7.6304],[99.553,7.6304],[99.5525,7.6288],[99.5533,7.6288],[99.553,7.6299],[99.5541,7.6304],[99.5552,7.6299],[99.5555,7.6304],[99.5577,7.631],[99.5579,7.6315],[99.5604,7.6318],[99.5604,7.6337],[99.559,7.6339]]]}},{"type":"Feature","properties":{"kind":"seasonal","area_km2":0.108,"date":"2026-10-02"},"geometry":{"type":"Polygon","coordinates":[[[99.9984,7.3192],[99.9981,7.3187],[99.9962,7.3179],[99.9959,7.3171],[99.9973,7.3168],[99.9986,7.3176],[99.9986,7.316],[99.9997,7.316],[99.9997,7.3151],[100.0008,7.3151],[100.0008,7.3165],[100.0003,7.3168],[99.9992,7.3192],[99.9984,7.3192]]]}},{"type":"Feature","properties":{"kind":"seasonal","area_km2":0.1,"date":"2026-10-02"},"geometry":{"type":"Polygon","coordinates":[[[99.5872,7.5691],[99.587,7.568],[99.5856,7.5677],[99.5853,7.5666],[99.5848,7.5663],[99.5848,7.565],[99.5856,7.565],[99.5856,7.5655],[99.5861,7.5658],[99.5875,7.5658],[99.5875,7.5666],[99.5883,7.5666],[99.5886,7.569],[99.5872,7.5691]],[[99.5859,7.5674],[99.5861,7.5677],[99.5861,7.5674],[99.5859,7.5674]],[[99.5861,7.5669],[99.5864,7.5674],[99.5864,7.5669],[99.5861,7.5669]],[[99.5859,7.5666],[99.5861,7.5669],[99.5861,7.5666],[99.5859,7.5666]],[[99.5867,7.5663],[99.587,7.5666],[99.587,7.5663],[99.5867,7.5663]],[[99.587,7.5661],[99.5872,7.5663],[99.5872,7.5661],[99.587,7.5661]]]}}]}
