{"type":"FeatureCollection","properties":{"v":3,"id":"t99_8","name":"นครศรีธรรมราช · กระบี่ · สุราษฎร์ธานี","aoi":[99.0,8.0,100.0,9.0],"date":"2026-10-02","dates":["2026-10-02"],"baseline_years":3,"has_seasonal":true,"totals":{"flood_high":0.0,"flood_low":0.9,"seasonal":5.6},"provinces":[{"name":"นครศรีธรรมราช","zone":"th-s","flood_high":0.0,"flood_low":0.8,"seasonal":2.4},{"name":"สุราษฎร์ธานี","zone":"th-s","flood_high":0.0,"flood_low":0.1,"seasonal":3.2}],"scenes":{"2026-10-02":1},"baseline_dates":["2025-09-30","2024-10-05","2023-09-29"],"threshold_db":-15.0,"auto":true,"source":"Sentinel-1 RTC (Copernicus/ESA) via Microsoft Planetary Computer; JRC Global Surface Water; Copernicus DEM","method":"ChatGeo v3: Otsu threshold on VV dB; minus JRC permanent water and slope > 5 deg; unusual = water not present in most of the previous 3 years (same season)","added":"2026-10-07T18:42+07:00"},"features":[{"type":"Feature","properties":{"kind":"flood","area_km2":0.517,"conf":"low","date":"2026-10-02"},"geometry":{"type":"Polygon","coordinates":[[[99.3966,8.1901],[99.3964,8.1891],[99.3972,8.1882],[99.3958,8.1877],[99.3961,8.1885],[99.3945,8.1885],[99.3937,8.1893],[99.3928,8.1885],[99.3931,8.1877],[99.3923,8.1877],[99.3923,8.1872],[99.3945,8.1874],[99.3945,8.188],[99.395,8.1877],[99.395,8.1872],[99.3928,8.1872],[99.3931,8.1866],[99.3956,8.1869],[99.3958,8.1874],[99.3964,8.1874],[99.3958,8.1863],[99.3939,8.1863],[99.3936,8.1858],[99.3945,8.185],[99.3936,8.1839],[99.3942,8.1834],[99.3942,8.1825],[99.3926,8.1823],[99.3928,8.1839],[99.3939,8.1847],[99.3936,8.1853],[99.3931,8.1853],[99.3931,8.1861],[99.3926,8.1853],[99.3915,8.1853],[99.3912,8.1842],[99.392,8.1839],[99.3917,8.1823],[99.3923,8.182],[99.3917,8.182],[99.3917,8.1812],[99.3928,8.1809],[99.3928,8.182],[99.3936,8.1815],[99.3934,8.1806],[99.392,8.1806],[99.392,8.1801],[99.3928,8.1801],[99.3931,8.1793],[99.3947,8.1796],[99.3953,8.179],[99.3964,8.179],[99.3964,8.1771],[99.3972,8.1768],[99.398,8.1771],[99.398,8.1777],[99.3985,8.1777],[99.3988,8.1782],[99.3985,8.1798],[99.3975,8.1798],[99.3977,8.1793],[99.3969,8.1793],[99.3969,8.1804],[99.3975,8.1804],[99.3972,8.1812],[99.3964,8.1812],[99.3961,8.1801],[99.3947,8.1804],[99.3953,8.1806],[99.3947,8.1815],[99.395,8.1825],[99.3955,8.1825],[99.3964,8.1815],[99.3972,8.1815],[99.3972,8.182],[99.3983,8.1823],[99.3983,8.1828],[99.3977,8.1831],[99.3977,8.1847],[99.3969,8.1858],[99.3969,8.1866],[99.3975,8.1866],[99.3975,8.1872],[99.398,8.1874],[99.3975,8.1885],[99.3977,8.1901],[99.3966,8.1901]],[[99.3953,8.188],[99.3956,8.1882],[99.3956,8.188],[99.3953,8.188]],[[99.3934,8.1877],[99.3942,8.188],[99.3942,8.1877],[99.3934,8.1877]],[[99.3966,8.1866],[99.3969,8.1869],[99.3969,8.1866],[99.3966,8.1866]],[[99.3928,8.185],[99.3931,8.1853],[99.3931,8.185],[99.3928,8.185]],[[99.3923,8.185],[99.3928,8.185],[99.3928,8.1847],[99.3923,8.1844],[99.3923,8.185]],[[99.3945,8.1839],[99.3947,8.1842],[99.3947,8.1839],[99.3945,8.1839]],[[99.392,8.1831],[99.3923,8.1834],[99.3923,8.1831],[99.392,8.1831]],[[99.3958,8.1823],[99.3961,8.1825],[99.3961,8.1823],[99.3958,8.1823]],[[99.3945,8.1812],[99.3947,8.1815],[99.3947,8.1812],[99.3945,8.1812]],[[99.3942,8.1801],[99.3947,8.1804],[99.3947,8.1801],[99.3942,8.1801]],[[99.3977,8.179],[99.398,8.1793],[99.398,8.179],[99.3977,8.179]],[[99.3969,8.1785],[99.3972,8.179],[99.3972,8.1785],[99.3969,8.1785]],[[99.3975,8.1787],[99.3977,8.179],[99.3977,8.1787],[99.3975,8.1787]],[[99.3969,8.1777],[99.3972,8.1782],[99.3972,8.1777],[99.3969,8.1777]],[[99.3966,8.1771],[99.3969,8.1774],[99.3969,8.1771],[99.3966,8.1771]]]}},{"type":"Feature","properties":{"kind":"flood","area_km2":0.119,"conf":"low","date":"2026-10-02"},"geometry":{"type":"Polygon","coordinates":[[[99.2227,8.3422],[99.2227,8.3417],[99.2222,8.3417],[99.2221,8.3409],[99.2235,8.3409],[99.2238,8.3398],[99.2238,8.3382],[99.2235,8.3371],[99.223,8.3371],[99.223,8.3357],[99.2238,8.3357],[99.2238,8.3371],[99.2246,8.3371],[99.2251,8.3382],[99.226,8.3382],[99.2262,8.3393],[99.2243,8.3412],[99.2238,8.3412],[99.2235,8.3422],[99.2227,8.3422]]]}},{"type":"Feature","properties":{"kind":"flood","area_km2":0.11,"conf":"low","date":"2026-10-02"},"geometry":{"type":"Polygon","coordinates":[[[99.3996,8.1972],[99.3999,8.1961],[99.4007,8.1953],[99.4013,8.1956],[99.4013,8.1939],[99.3996,8.1939],[99.3999,8.1918],[99.3994,8.192],[99.3994,8.1915],[99.4002,8.1907],[99.4002,8.1912],[99.401,8.191],[99.401,8.1918],[99.4007,8.1918],[99.4007,8.192],[99.4016,8.1929],[99.4013,8.1934],[99.4021,8.1934],[99.4021,8.1947],[99.4032,8.1958],[99.4018,8.1961],[99.4018,8.1964],[99.4016,8.1964],[99.4016,8.1966],[99.3996,8.1972]],[[99.401,8.1964],[99.4016,8.1964],[99.4016,8.1958],[99.401,8.1958],[99.401,8.1964]],[[99.4021,8.1953],[99.4024,8.1956],[99.4024,8.1953],[99.4021,8.1953]],[[99.4005,8.1915],[99.4007,8.1918],[99.4007,8.1915],[99.4005,8.1915]],[[99.3999,8.1912],[99.4002,8.1915],[99.4002,8.1912],[99.3999,8.1912]]]}},{"type":"Feature","properties":{"kind":"flood","area_km2":0.081,"conf":"low","date":"2026-10-02"},"geometry":{"type":"Polygon","coordinates":[[[99.9901,8.5299],[99.9901,8.5291],[99.9893,8.5277],[99.9893,8.5264],[99.9904,8.5264],[99.9904,8.5269],[99.9912,8.5269],[99.9923,8.5277],[99.9923,8.5294],[99.9915,8.5294],[99.9915,8.5291],[99.9912,8.5291],[99.9912,8.5288],[99.9909,8.5288],[99.9909,8.5299],[99.9901,8.5299]],[[99.9907,8.5285],[99.9909,8.5288],[99.9909,8.5285],[99.9907,8.5285]]]}},{"type":"Feature","properties":{"kind":"flood","area_km2":0.069,"conf":"low","date":"2026-10-02"},"geometry":{"type":"Polygon","coordinates":[[[99.3986,8.2013],[99.3988,8.2007],[99.398,8.2007],[99.3983,8.1991],[99.4024,8.1991],[99.4032,8.1985],[99.4032,8.1996],[99.4005,8.1996],[99.3999,8.2007],[99.3986,8.2013]]]}},{"type":"Feature","properties":{"kind":"seasonal","area_km2":1.918,"date":"2026-10-02"},"geometry":{"type":"Polygon","coordinates":[[[99.2274,8.9482],[99.2233,8.9476],[99.2233,8.9441],[99.2247,8.9433],[99.225,8.9408],[99.2236,8.9389],[99.2217,8.9381],[99.2206,8.9371],[99.22,8.9338],[99.2195,8.9335],[99.2192,8.9322],[99.2181,8.9311],[99.2181,8.9297],[99.217,8.9292],[99.217,8.9281],[99.2187,8.9276],[99.2209,8.9259],[99.2217,8.9259],[99.2222,8.9251],[99.2252,8.9238],[99.2255,8.9232],[99.2263,8.9232],[99.2266,8.9238],[99.2271,8.9305],[99.2277,8.9316],[99.2282,8.9376],[99.2288,8.9379],[99.2285,8.9392],[99.2296,8.9455],[99.2296,8.9465],[99.2291,8.9471],[99.2285,8.9471],[99.2274,8.9482]],[[99.2189,8.93],[99.2195,8.93],[99.2195,8.9295],[99.2206,8.9297],[99.2214,8.9289],[99.22,8.9284],[99.2198,8.9292],[99.2189,8.9292],[99.2189,8.93]],[[99.2255,8.9297],[99.226,8.9297],[99.226,8.9292],[99.2255,8.9292],[99.2255,8.9297]]]}},{"type":"Feature","properties":{"kind":"seasonal","area_km2":0.783,"date":"2026-10-02"},"geometry":{"type":"Polygon","coordinates":[[[99.2738,8.9785],[99.2716,8.9761],[99.2716,8.9755],[99.2703,8.9753],[99.27,8.9745],[99.2689,8.9745],[99.2689,8.9739],[99.2678,8.9731],[99.2673,8.972],[99.2659,8.972],[99.2659,8.9715],[99.2654,8.9712],[99.2635,8.9709],[99.2613,8.9709],[99.2607,8.9715],[99.2599,8.9715],[99.2596,8.9701],[99.2605,8.9701],[99.2618,8.9685],[99.2645,8.9677],[99.2662,8.9693],[99.2684,8.969],[99.2706,8.9709],[99.2719,8.9712],[99.2752,8.9731],[99.276,8.9731],[99.2768,8.9739],[99.2763,8.9774],[99.2755,8.9785],[99.2738,8.9785]],[[99.2635,8.9693],[99.2637,8.9696],[99.2637,8.9693],[99.2635,8.9693]],[[99.2621,8.969],[99.2624,8.9693],[99.2624,8.969],[99.2621,8.969]],[[99.2624,8.9688],[99.2626,8.969],[99.2626,8.9688],[99.2624,8.9688]],[[99.2632,8.9688],[99.2637,8.969],[99.2637,8.9688],[99.2632,8.9688]]]}},{"type":"Feature","properties":{"kind":"seasonal","area_km2":0.387,"date":"2026-10-02"},"geometry":{"type":"Polygon","coordinates":[[[99.9524,8.4763],[99.9477,8.4763],[99.948,8.4695],[99.9504,8.4692],[99.9507,8.47],[99.9513,8.47],[99.9515,8.4695],[99.9526,8.4695],[99.9524,8.4763]]]}},{"type":"Feature","properties":{"kind":"seasonal","area_km2":0.364,"date":"2026-10-02"},"geometry":{"type":"Polygon","coordinates":[[[99.9523,8.4649],[99.9513,8.4641],[99.9499,8.4641],[99.9493,8.463],[99.9477,8.463],[99.948,8.4608],[99.9488,8.4603],[99.9496,8.4586],[99.9529,8.4586],[99.9534,8.4592],[99.9545,8.4592],[99.954,8.4641],[99.9534,8.4649],[99.9523,8.4649]],[[99.9502,8.4633],[99.951,8.4627],[99.951,8.4614],[99.9504,8.4611],[99.9499,8.4614],[99.9502,8.4633]]]}},{"type":"Feature","properties":{"kind":"seasonal","area_km2":0.345,"date":"2026-10-02"},"geometry":{"type":"Polygon","coordinates":[[[99.5904,8.6167],[99.5901,8.6159],[99.5888,8.6157],[99.5888,8.6148],[99.5877,8.6148],[99.5874,8.6143],[99.5874,8.6132],[99.5879,8.6132],[99.5877,8.6138],[99.5885,8.6138],[99.5882,8.6113],[99.5887,8.6097],[99.5874,8.6091],[99.5879,8.6075],[99.5874,8.607],[99.5863,8.607],[99.5863,8.6053],[99.5852,8.6048],[99.5852,8.6037],[99.5863,8.6032],[99.5876,8.6032],[99.5874,8.6043],[99.5868,8.6045],[99.5874,8.6045],[99.5874,8.6053],[99.5882,8.6051],[99.5885,8.6064],[99.589,8.607],[99.5887,8.6081],[99.5879,8.6089],[99.5887,8.6086],[99.5893,8.6091],[99.5901,8.6091],[99.5898,8.6097],[99.5904,8.6097],[99.5907,8.6102],[99.5907,8.6113],[99.5901,8.6116],[99.5904,8.6121],[99.5887,8.6121],[99.589,8.6138],[99.5898,8.6138],[99.5901,8.6148],[99.5907,8.6154],[99.5915,8.6154],[99.5915,8.6162],[99.592,8.6162],[99.5926,8.6148],[99.5934,8.6146],[99.5947,8.6146],[99.595,8.6151],[99.5956,8.6148],[99.5958,8.6154],[99.5964,8.6154],[99.5964,8.6167],[99.5956,8.6167],[99.5956,8.6162],[99.5937,8.6156],[99.5928,8.6156],[99.5923,8.6167],[99.5904,8.6167]],[[99.5885,8.6119],[99.5887,8.6121],[99.5887,8.6119],[99.5885,8.6119]],[[99.5868,8.6059],[99.5874,8.6059],[99.5874,8.6053],[99.5868,8.6053],[99.5868,8.6059]]]}},{"type":"Feature","properties":{"kind":"seasonal","area_km2":0.283,"date":"2026-10-02"},"geometry":{"type":"Polygon","coordinates":[[[99.6032,8.624],[99.6008,8.6238],[99.6008,8.6232],[99.5999,8.6227],[99.5999,8.6219],[99.5994,8.6208],[99.5988,8.6208],[99.5983,8.6194],[99.5972,8.6189],[99.5978,8.6186],[99.5983,8.6173],[99.5988,8.6189],[99.5997,8.6186],[99.6002,8.6189],[99.6002,8.6194],[99.601,8.6194],[99.601,8.62],[99.6016,8.62],[99.6018,8.6213],[99.6013,8.6216],[99.6013,8.6221],[99.6027,8.6224],[99.6029,8.6216],[99.6035,8.6216],[99.6035,8.6205],[99.6029,8.6205],[99.6035,8.6194],[99.6048,8.6205],[99.6065,8.6205],[99.6065,8.6211],[99.6048,8.6211],[99.6051,8.6216],[99.6059,8.6216],[99.6062,8.6232],[99.6048,8.6232],[99.6032,8.624]],[[99.6051,8.6221],[99.6057,8.6227],[99.6059,8.6221],[99.6051,8.6221]]]}},{"type":"Feature","properties":{"kind":"seasonal","area_km2":0.254,"date":"2026-10-02"},"geometry":{"type":"Polygon","coordinates":[[[99.9143,8.6346],[99.914,8.6305],[99.9159,8.6299],[99.9165,8.6288],[99.9187,8.6288],[99.919,8.6324],[99.917,8.6326],[99.9165,8.6345],[99.9143,8.6346]]]}},{"type":"Feature","properties":{"kind":"seasonal","area_km2":0.231,"date":"2026-10-02"},"geometry":{"type":"Polygon","coordinates":[[[99.6482,8.1206],[99.6479,8.119],[99.6466,8.1187],[99.6465,8.1176],[99.6474,8.1171],[99.6474,8.116],[99.6482,8.116],[99.6485,8.1155],[99.6509,8.116],[99.6517,8.1168],[99.6515,8.1203],[99.6482,8.1206]]]}},{"type":"Feature","properties":{"kind":"seasonal","area_km2":0.223,"date":"2026-10-02"},"geometry":{"type":"Polygon","coordinates":[[[99.1767,8.3743],[99.1767,8.3737],[99.1761,8.3735],[99.1761,8.3702],[99.1772,8.3702],[99.1778,8.3697],[99.1791,8.3697],[99.1794,8.3691],[99.1802,8.3691],[99.1807,8.3729],[99.1788,8.374],[99.1767,8.3743]],[[99.1799,8.3721],[99.1805,8.3724],[99.1805,8.3721],[99.1799,8.3721]],[[99.1802,8.3716],[99.1805,8.3718],[99.1805,8.3716],[99.1802,8.3716]],[[99.1767,8.371],[99.1769,8.3713],[99.1769,8.371],[99.1767,8.371]]]}},{"type":"Feature","properties":{"kind":"seasonal","area_km2":0.165,"date":"2026-10-02"},"geometry":{"type":"Polygon","coordinates":[[[99.3324,8.1821],[99.3318,8.1812],[99.3305,8.1815],[99.3296,8.1807],[99.3294,8.1796],[99.3285,8.1793],[99.3288,8.1777],[99.3291,8.1791],[99.3299,8.1793],[99.3302,8.1802],[99.3315,8.1802],[99.3326,8.1799],[99.3324,8.1785],[99.3329,8.178],[99.3318,8.1772],[99.3302,8.1774],[99.3302,8.1769],[99.3321,8.1766],[99.3321,8.1772],[99.3329,8.1774],[99.3348,8.1774],[99.3351,8.1788],[99.3345,8.1791],[99.3345,8.1799],[99.3329,8.1799],[99.3332,8.1821],[99.3324,8.1821]]]}},{"type":"Feature","properties":{"kind":"seasonal","area_km2":0.14,"date":"2026-10-02"},"geometry":{"type":"Polygon","coordinates":[[[99.2445,8.8478],[99.2435,8.8467],[99.2435,8.8461],[99.244,8.8461],[99.244,8.8453],[99.2435,8.845],[99.2437,8.8442],[99.2429,8.844],[99.2426,8.8418],[99.2415,8.8407],[99.2404,8.8407],[99.2407,8.8402],[99.2418,8.8402],[99.2421,8.841],[99.2434,8.8418],[99.2437,8.8429],[99.2451,8.8429],[99.2456,8.8434],[99.2454,8.8478],[99.2445,8.8478]]]}},{"type":"Feature","properties":{"kind":"seasonal","area_km2":0.137,"date":"2026-10-02"},"geometry":{"type":"Polygon","coordinates":[[[99.3928,8.2013],[99.3923,8.201],[99.3923,8.1999],[99.3915,8.1996],[99.3915,8.1986],[99.3923,8.1991],[99.3931,8.1977],[99.3937,8.198],[99.3937,8.1967],[99.3931,8.1969],[99.3931,8.1958],[99.3928,8.1953],[99.3923,8.1953],[99.3926,8.1942],[99.3931,8.1945],[99.3931,8.195],[99.3934,8.1945],[99.3939,8.1945],[99.3945,8.195],[99.3942,8.1958],[99.395,8.1956],[99.3956,8.1964],[99.3964,8.1967],[99.3953,8.1969],[99.3961,8.1975],[99.3947,8.1975],[99.3942,8.198],[99.3945,8.1991],[99.3931,8.1991],[99.3937,8.1996],[99.3937,8.2007],[99.3928,8.2013]],[[99.3926,8.1988],[99.3928,8.1991],[99.3928,8.1988],[99.3926,8.1988]],[[99.3945,8.1972],[99.395,8.1972],[99.395,8.1964],[99.3945,8.1967],[99.3945,8.1972]],[[99.3942,8.1964],[99.3945,8.1967],[99.3945,8.1964],[99.3942,8.1964]],[[99.3934,8.1956],[99.3937,8.1958],[99.3937,8.1956],[99.3934,8.1956]],[[99.3926,8.1948],[99.3928,8.195],[99.3928,8.1948],[99.3926,8.1948]]]}},{"type":"Feature","properties":{"kind":"seasonal","area_km2":0.121,"date":"2026-10-02"},"geometry":{"type":"Polygon","coordinates":[[[99.1753,8.8703],[99.1736,8.8698],[99.1736,8.8671],[99.1739,8.8657],[99.1747,8.8649],[99.1747,8.8638],[99.1755,8.8638],[99.1755,8.8698],[99.1753,8.8703]]]}},{"type":"Feature","properties":{"kind":"seasonal","area_km2":0.116,"date":"2026-10-02"},"geometry":{"type":"Polygon","coordinates":[[[99.9168,8.201],[99.916,8.1999],[99.916,8.1988],[99.9166,8.1988],[99.9193,8.1966],[99.9201,8.1966],[99.9201,8.1974],[99.9193,8.1977],[99.9198,8.198],[99.9198,8.1985],[99.9193,8.1982],[99.9198,8.1993],[99.9182,8.2001],[99.9177,8.201],[99.9168,8.201]]]}},{"type":"Feature","properties":{"kind":"seasonal","area_km2":0.112,"date":"2026-10-02"},"geometry":{"type":"Polygon","coordinates":[[[99.9899,8.006],[99.9896,8.0054],[99.9891,8.0054],[99.9891,8.0044],[99.9896,8.0038],[99.9915,8.0041],[99.9915,8.0035],[99.9907,8.0035],[99.9913,8.0022],[99.9932,8.0024],[99.9932,8.0046],[99.9921,8.0043],[99.9913,8.006],[99.9899,8.006]]]}}]}
