{"type":"FeatureCollection","properties":{"v":3,"id":"t99_18","name":"ลำปาง · ลำพูน · แพร่","aoi":[99.0,18.0,100.0,19.0],"date":"2026-10-09","dates":["2026-10-09"],"baseline_years":3,"has_seasonal":true,"totals":{"flood_high":0.0,"flood_low":0.3,"seasonal":17.5},"provinces":[{"name":"ลำพูน","zone":"th-n","flood_high":0.0,"flood_low":0.2,"seasonal":0.7},{"name":"เชียงใหม่","zone":"th-n","flood_high":0.0,"flood_low":0.1,"seasonal":4.3},{"name":"ลำปาง","zone":"th-n","flood_high":0.0,"flood_low":0.0,"seasonal":12.5}],"scenes":{"2026-10-09":2},"baseline_dates":["2025-10-07","2024-10-09","2023-10-10"],"threshold_db":-15.0,"auto":true,"source":"Sentinel-1 RTC (Copernicus/ESA) via Microsoft Planetary Computer; JRC Global Surface Water; Copernicus DEM","method":"ChatGeo v3: Otsu threshold on VV dB; minus JRC permanent water and slope > 5 deg; unusual = water not present in most of the previous 3 years (same season)","added":"2026-10-10T16:37+07:00"},"features":[{"type":"Feature","properties":{"kind":"flood","area_km2":0.158,"conf":"low","date":"2026-10-09"},"geometry":{"type":"Polygon","coordinates":[[[99.1551,18.5839],[99.1542,18.5822],[99.1522,18.582],[99.1525,18.5803],[99.1539,18.5803],[99.1548,18.5814],[99.1576,18.5814],[99.1576,18.5795],[99.1568,18.5795],[99.1562,18.579],[99.1573,18.579],[99.1585,18.5798],[99.1593,18.5798],[99.1593,18.5814],[99.1588,18.582],[99.1573,18.582],[99.1573,18.5825],[99.1562,18.5825],[99.1562,18.5836],[99.1568,18.5839],[99.1551,18.5839]]]}},{"type":"Feature","properties":{"kind":"flood","area_km2":0.059,"conf":"low","date":"2026-10-09"},"geometry":{"type":"Polygon","coordinates":[[[99.2714,18.8136],[99.2714,18.8123],[99.2709,18.8118],[99.2709,18.8104],[99.2729,18.8107],[99.2729,18.8112],[99.2734,18.8112],[99.2734,18.812],[99.2729,18.812],[99.2723,18.8136],[99.2714,18.8136]]]}},{"type":"Feature","properties":{"kind":"flood","area_km2":0.056,"conf":"low","date":"2026-10-09"},"geometry":{"type":"Polygon","coordinates":[[[99.0904,18.832],[99.0895,18.8314],[99.0901,18.8312],[99.0901,18.8293],[99.0895,18.829],[99.0898,18.8279],[99.0909,18.8282],[99.0906,18.8295],[99.0915,18.8309],[99.0915,18.832],[99.0904,18.832]],[[99.0898,18.8282],[99.0901,18.8285],[99.0901,18.8282],[99.0898,18.8282]]]}},{"type":"Feature","properties":{"kind":"seasonal","area_km2":7.625,"date":"2026-10-09"},"geometry":{"type":"Polygon","coordinates":[[[99.6602,18.858],[99.6605,18.8561],[99.6611,18.8558],[99.6608,18.8552],[99.6614,18.8552],[99.6619,18.8536],[99.6625,18.8533],[99.6619,18.8504],[99.6616,18.8498],[99.6602,18.8498],[99.6602,18.8487],[99.6608,18.8487],[99.6616,18.8479],[99.6636,18.8479],[99.6639,18.8474],[99.6648,18.8474],[99.665,18.8463],[99.6627,18.8447],[99.6627,18.8438],[99.6613,18.8436],[99.6616,18.8425],[99.661,18.8422],[99.661,18.8406],[99.6616,18.8401],[99.6616,18.8387],[99.6599,18.8384],[99.6602,18.8379],[99.6584,18.8363],[99.6584,18.8355],[99.6607,18.8344],[99.661,18.8338],[99.6599,18.8327],[99.659,18.833],[99.6584,18.8314],[99.6573,18.8319],[99.6573,18.8314],[99.6579,18.8311],[99.6579,18.8303],[99.6573,18.83],[99.6578,18.8284],[99.6573,18.8262],[99.6575,18.8252],[99.6584,18.8246],[99.6573,18.823],[99.6564,18.823],[99.6556,18.8241],[99.6555,18.8235],[99.6547,18.8227],[99.6533,18.823],[99.653,18.8222],[99.6504,18.8225],[99.6504,18.8238],[99.6484,18.8233],[99.6479,18.8228],[99.6467,18.8228],[99.6467,18.8244],[99.6473,18.8249],[99.6481,18.8246],[99.6484,18.8252],[99.649,18.8252],[99.6487,18.8263],[99.6476,18.8263],[99.6473,18.8268],[99.6473,18.8274],[99.6484,18.8279],[99.6487,18.829],[99.647,18.829],[99.647,18.8282],[99.6459,18.8274],[99.645,18.8276],[99.645,18.8263],[99.6442,18.8263],[99.643,18.8285],[99.6433,18.829],[99.6422,18.829],[99.6419,18.8312],[99.6391,18.8312],[99.6391,18.8331],[99.6402,18.8342],[99.6399,18.8347],[99.6414,18.8355],[99.6405,18.8361],[99.6402,18.8355],[99.6391,18.8353],[99.6382,18.8339],[99.6371,18.8339],[99.6365,18.835],[99.6385,18.8374],[99.6377,18.8385],[99.638,18.8399],[99.6374,18.8401],[99.6374,18.8407],[99.6368,18.8407],[99.6365,18.8401],[99.6362,18.8377],[99.6357,18.8372],[99.6351,18.8385],[99.634,18.8385],[99.6342,18.8369],[99.6334,18.8364],[99.6334,18.8358],[99.6342,18.8355],[99.6345,18.8345],[99.6337,18.8339],[99.6337,18.8331],[99.6331,18.8326],[99.6334,18.832],[99.6328,18.832],[99.6325,18.8312],[99.6314,18.8304],[99.6308,18.8307],[99.6308,18.8312],[99.6294,18.8309],[99.6297,18.829],[99.6288,18.8288],[99.6282,18.828],[99.6274,18.8285],[99.6277,18.8296],[99.6268,18.8296],[99.6262,18.8307],[99.6257,18.8307],[99.6257,18.8301],[99.6248,18.8299],[99.6242,18.8288],[99.6231,18.8285],[99.6223,18.8296],[99.6228,18.831],[99.6217,18.831],[99.6223,18.8321],[99.6223,18.8337],[99.622,18.8342],[99.6214,18.8342],[99.6208,18.8315],[99.62,18.831],[99.62,18.8304],[99.6206,18.8302],[99.6205,18.8283],[99.6211,18.828],[99.6211,18.8272],[99.6217,18.8274],[99.624,18.8264],[99.6242,18.8245],[99.6231,18.8242],[99.6231,18.8234],[99.6237,18.8234],[99.6237,18.8228],[99.6251,18.8215],[99.6262,18.8215],[99.6259,18.8198],[99.6236,18.8201],[99.6228,18.8196],[99.6245,18.819],[99.6245,18.8177],[99.6251,18.8174],[99.6268,18.8182],[99.6273,18.8179],[99.6273,18.8169],[99.6268,18.8166],[99.6268,18.816],[99.6251,18.8155],[99.6248,18.8142],[99.6259,18.8144],[99.6273,18.8136],[99.6273,18.8128],[99.6279,18.8131],[99.6287,18.8125],[99.6287,18.8117],[99.6276,18.8109],[99.6279,18.8087],[99.629,18.8087],[99.629,18.8098],[99.6296,18.8098],[99.6307,18.8109],[99.6322,18.8106],[99.6327,18.8117],[99.635,18.8117],[99.6353,18.8111],[99.6359,18.8111],[99.6361,18.8117],[99.6373,18.8114],[99.6381,18.813],[99.6387,18.8125],[99.6398,18.8125],[99.6399,18.8138],[99.6407,18.8141],[99.6413,18.813],[99.6413,18.8117],[99.6421,18.8111],[99.6424,18.8098],[99.6441,18.8092],[99.6458,18.8078],[99.6467,18.8078],[99.6464,18.8089],[99.6475,18.8095],[99.6472,18.8106],[99.6467,18.8108],[99.6467,18.8122],[99.6475,18.8141],[99.649,18.8141],[99.6495,18.8127],[99.6507,18.813],[99.6512,18.8119],[99.6518,18.8119],[99.6521,18.8124],[99.6532,18.8119],[99.6532,18.8127],[99.6521,18.8135],[99.6521,18.8141],[99.6507,18.8138],[99.6504,18.8143],[99.651,18.8149],[99.6527,18.8143],[99.6527,18.8154],[99.6547,18.8157],[99.6547,18.8162],[99.6552,18.8162],[99.6555,18.8157],[99.6567,18.8157],[99.6564,18.817],[99.6575,18.8173],[99.6575,18.8178],[99.6567,18.8184],[99.6552,18.8178],[99.6547,18.8189],[99.6535,18.8184],[99.6533,18.8198],[99.6538,18.8203],[99.6544,18.8203],[99.6547,18.8197],[99.6552,18.8197],[99.6553,18.8203],[99.6561,18.8203],[99.6561,18.8195],[99.6567,18.8195],[99.6567,18.8203],[99.6572,18.8203],[99.6581,18.8211],[99.6581,18.8195],[99.6587,18.8189],[99.6604,18.8189],[99.6604,18.8195],[99.6595,18.8197],[99.6595,18.8205],[99.6601,18.8214],[99.6607,18.8211],[99.6607,18.8222],[99.6612,18.8222],[99.6618,18.8213],[99.6612,18.8195],[99.6626,18.8192],[99.6624,18.8203],[99.6632,18.8211],[99.6641,18.8208],[99.6644,18.8222],[99.6632,18.8224],[99.6624,18.8235],[99.663,18.8235],[99.6635,18.8246],[99.6655,18.8246],[99.6655,18.8251],[99.6624,18.8251],[99.6624,18.826],[99.6615,18.8268],[99.6604,18.8262],[99.6604,18.8287],[99.6596,18.8292],[99.6596,18.8298],[99.6613,18.8306],[99.6613,18.8311],[99.6601,18.8311],[99.6607,18.8322],[99.6641,18.8335],[99.6641,18.8344],[99.665,18.8343],[99.6656,18.8352],[99.6661,18.8349],[99.6661,18.836],[99.6676,18.8365],[99.6681,18.8373],[99.6664,18.8376],[99.6653,18.8368],[99.6622,18.8373],[99.6627,18.8382],[99.6627,18.8392],[99.6639,18.8395],[99.6639,18.84],[99.6627,18.8406],[99.6627,18.8417],[99.6636,18.8422],[99.6642,18.8419],[99.6642,18.8428],[99.6636,18.8428],[99.6633,18.8436],[99.6656,18.8452],[99.6659,18.8471],[99.6665,18.8476],[99.6656,18.8476],[99.6648,18.8487],[99.6625,18.849],[99.6625,18.8498],[99.6636,18.8512],[99.6628,18.8547],[99.6634,18.855],[99.6631,18.856],[99.6639,18.8566],[99.6639,18.8577],[99.6631,18.8577],[99.6628,18.856],[99.6619,18.8558],[99.6617,18.8566],[99.6608,18.8571],[99.6608,18.858],[99.6602,18.858]],[[99.6621,18.8352],[99.6624,18.8357],[99.6624,18.8352],[99.6621,18.8352]],[[99.6416,18.8255],[99.6425,18.8249],[99.6422,18.8241],[99.6413,18.8244],[99.6416,18.8255]],[[99.6382,18.8209],[99.6396,18.8209],[99.6407,18.8198],[99.6396,18.8198],[99.639,18.819],[99.6376,18.819],[99.6373,18.8195],[99.6382,18.8209]],[[99.6456,18.8187],[99.6473,18.8184],[99.6473,18.8173],[99.6478,18.8168],[99.6478,18.8157],[99.6473,18.8152],[99.6458,18.8152],[99.6453,18.8157],[99.6456,18.8168],[99.6441,18.8168],[99.6441,18.8173],[99.6447,18.8173],[99.6456,18.8187]],[[99.633,18.8139],[99.6336,18.8139],[99.6336,18.8136],[99.6333,18.8136],[99.6333,18.8133],[99.633,18.8133],[99.633,18.8139]],[[99.6322,18.8133],[99.633,18.8133],[99.6327,18.8125],[99.6322,18.8125],[99.6322,18.8133]]]}},{"type":"Feature","properties":{"kind":"seasonal","area_km2":0.774,"date":"2026-10-09"},"geometry":{"type":"Polygon","coordinates":[[[99.0987,18.9643],[99.0984,18.9635],[99.099,18.9635],[99.1004,18.9621],[99.1004,18.961],[99.101,18.9608],[99.1015,18.9572],[99.105,18.9578],[99.1058,18.957],[99.1058,18.9559],[99.1072,18.9553],[99.1078,18.9545],[99.1092,18.9545],[99.1098,18.9551],[99.1112,18.9548],[99.1118,18.9543],[99.1115,18.9507],[99.1098,18.9513],[99.1095,18.9521],[99.1084,18.9515],[99.1081,18.9499],[99.1087,18.9497],[99.1087,18.9491],[99.1072,18.9467],[99.1075,18.9453],[99.1067,18.9448],[99.1067,18.9431],[99.1081,18.9429],[99.1084,18.9423],[99.1095,18.9423],[99.1104,18.9434],[99.1126,18.9431],[99.1121,18.9434],[99.1121,18.9453],[99.1107,18.9453],[99.1104,18.944],[99.1104,18.9478],[99.1107,18.9472],[99.1112,18.9472],[99.1115,18.948],[99.1124,18.948],[99.1121,18.9551],[99.1109,18.9562],[99.1095,18.9559],[99.1087,18.957],[99.1087,18.9578],[99.1075,18.9583],[99.107,18.9591],[99.1035,18.9591],[99.1024,18.9602],[99.1027,18.9619],[99.1021,18.9624],[99.1007,18.9627],[99.0996,18.9643],[99.0987,18.9643]],[[99.1095,18.9491],[99.1098,18.9494],[99.1098,18.9491],[99.1095,18.9491]],[[99.1098,18.9486],[99.1104,18.9486],[99.1104,18.948],[99.1098,18.948],[99.1098,18.9486]]]}},{"type":"Feature","properties":{"kind":"seasonal","area_km2":0.644,"date":"2026-10-09"},"geometry":{"type":"Polygon","coordinates":[[[99.6161,18.7071],[99.6164,18.7055],[99.6153,18.7036],[99.6152,18.7019],[99.6169,18.6987],[99.6172,18.6992],[99.6178,18.6992],[99.6192,18.6976],[99.6195,18.696],[99.6189,18.6954],[99.6206,18.696],[99.6203,18.697],[99.6209,18.6973],[99.6209,18.6992],[99.6218,18.6992],[99.6221,18.7],[99.6235,18.7011],[99.6252,18.7006],[99.6258,18.7011],[99.6278,18.7014],[99.6286,18.7011],[99.6292,18.7],[99.6298,18.7003],[99.6295,18.7014],[99.6303,18.7019],[99.6295,18.703],[99.6303,18.7035],[99.63,18.7041],[99.6306,18.7046],[99.6298,18.7049],[99.6298,18.7041],[99.6289,18.7038],[99.6286,18.7024],[99.6278,18.7016],[99.6269,18.7016],[99.6263,18.7027],[99.6252,18.7022],[99.6238,18.7022],[99.6229,18.7027],[99.6212,18.7025],[99.6207,18.703],[99.6212,18.7046],[99.6195,18.7044],[99.6198,18.7068],[99.6181,18.7063],[99.6178,18.7068],[99.6161,18.7071]],[[99.6181,18.7049],[99.6195,18.7044],[99.6198,18.7036],[99.6175,18.703],[99.6181,18.7049]],[[99.6195,18.7025],[99.6201,18.7025],[99.6204,18.7019],[99.6192,18.7017],[99.6195,18.7025]]]}},{"type":"Feature","properties":{"kind":"seasonal","area_km2":0.611,"date":"2026-10-09"},"geometry":{"type":"Polygon","coordinates":[[[99.2073,18.2666],[99.2073,18.266],[99.2059,18.266],[99.2059,18.2649],[99.2064,18.2647],[99.2059,18.262],[99.2047,18.262],[99.2044,18.2625],[99.2039,18.2625],[99.2036,18.2614],[99.203,18.2614],[99.2027,18.2622],[99.2019,18.2622],[99.2016,18.2614],[99.2007,18.2614],[99.2005,18.2628],[99.1996,18.2628],[99.1979,18.2609],[99.1954,18.2603],[99.1945,18.2587],[99.1934,18.259],[99.1928,18.2582],[99.1919,18.2579],[99.1922,18.2565],[99.1945,18.2568],[99.1959,18.2593],[99.1968,18.2601],[99.1982,18.2603],[99.1985,18.2609],[99.201,18.2606],[99.2033,18.2587],[99.2036,18.2579],[99.203,18.2576],[99.203,18.2571],[99.2041,18.2571],[99.2044,18.2563],[99.2036,18.2555],[99.203,18.2555],[99.2033,18.2546],[99.2027,18.2544],[99.2027,18.2538],[99.2016,18.2536],[99.2019,18.2525],[99.201,18.2517],[99.2013,18.2498],[99.2004,18.2492],[99.2004,18.2481],[99.2016,18.2481],[99.2022,18.2487],[99.2022,18.2506],[99.2027,18.2508],[99.2027,18.2519],[99.2033,18.2527],[99.2044,18.253],[99.205,18.2541],[99.2053,18.2576],[99.2044,18.2579],[99.2053,18.2579],[99.2053,18.259],[99.2047,18.259],[99.2044,18.2595],[99.2053,18.2595],[99.2053,18.2611],[99.207,18.2614],[99.2073,18.263],[99.2081,18.2628],[99.2084,18.2609],[99.209,18.2611],[99.209,18.2625],[99.2081,18.2633],[99.2084,18.2663],[99.2073,18.2666]]]}},{"type":"Feature","properties":{"kind":"seasonal","area_km2":0.556,"date":"2026-10-09"},"geometry":{"type":"Polygon","coordinates":[[[99.1426,18.9697],[99.1426,18.9681],[99.1434,18.9673],[99.1434,18.9667],[99.1443,18.9664],[99.144,18.9651],[99.1429,18.9643],[99.1414,18.9664],[99.1397,18.9667],[99.1386,18.9659],[99.1377,18.9659],[99.1377,18.9648],[99.1369,18.964],[99.134,18.9637],[99.1329,18.9632],[99.1337,18.9621],[99.1329,18.9591],[99.1337,18.9583],[99.1337,18.9597],[99.134,18.9605],[99.1346,18.9605],[99.1349,18.9624],[99.1363,18.9626],[99.1372,18.9637],[99.138,18.9637],[99.1377,18.9624],[99.1372,18.9624],[99.1369,18.9613],[99.136,18.9607],[99.136,18.9589],[99.1366,18.9586],[99.1372,18.9591],[99.1372,18.9583],[99.1377,18.9583],[99.1377,18.9578],[99.1386,18.9578],[99.1386,18.9567],[99.1403,18.9575],[99.1403,18.9588],[99.1392,18.9594],[99.1392,18.9586],[99.1383,18.9586],[99.1383,18.9591],[99.1374,18.9597],[99.1374,18.9605],[99.1389,18.9618],[99.1403,18.9618],[99.1417,18.9626],[99.1443,18.9626],[99.1443,18.9637],[99.1451,18.964],[99.1451,18.9651],[99.146,18.9659],[99.146,18.967],[99.1443,18.9675],[99.144,18.9686],[99.1434,18.9689],[99.1434,18.9697],[99.1426,18.9697]],[[99.1394,18.9648],[99.1403,18.9648],[99.1403,18.9635],[99.1392,18.9629],[99.1389,18.964],[99.1394,18.9648]]]}},{"type":"Feature","properties":{"kind":"seasonal","area_km2":0.499,"date":"2026-10-09"},"geometry":{"type":"Polygon","coordinates":[[[99.1731,18.98],[99.1728,18.9786],[99.1719,18.9778],[99.1719,18.977],[99.1699,18.9737],[99.1699,18.9721],[99.1694,18.9718],[99.1694,18.971],[99.1685,18.9705],[99.1665,18.971],[99.1657,18.9721],[99.1642,18.9727],[99.1628,18.9743],[99.1623,18.974],[99.162,18.9746],[99.1608,18.9748],[99.1591,18.9765],[99.1583,18.9765],[99.158,18.9756],[99.1563,18.9751],[99.1563,18.9737],[99.1546,18.9716],[99.1523,18.9716],[99.1523,18.971],[99.1557,18.9713],[99.156,18.9719],[99.1566,18.9718],[99.1566,18.9724],[99.1574,18.9727],[99.1574,18.9743],[99.1586,18.9746],[99.1591,18.9737],[99.16,18.9737],[99.1611,18.9727],[99.1611,18.9721],[99.1625,18.9727],[99.1634,18.9718],[99.1645,18.9718],[99.1654,18.9699],[99.1654,18.9689],[99.166,18.9678],[99.1665,18.9678],[99.1665,18.9686],[99.1674,18.9694],[99.1697,18.9694],[99.1705,18.9702],[99.1708,18.9735],[99.1714,18.9743],[99.1725,18.974],[99.1725,18.9745],[99.1719,18.9748],[99.1722,18.9762],[99.1737,18.9767],[99.1737,18.9775],[99.1728,18.9775],[99.1728,18.9781],[99.1745,18.9786],[99.1742,18.98],[99.1731,18.98]]]}},{"type":"Feature","properties":{"kind":"seasonal","area_km2":0.481,"date":"2026-10-09"},"geometry":{"type":"Polygon","coordinates":[[[99.1144,18.9727],[99.1144,18.9713],[99.1149,18.9711],[99.1152,18.9689],[99.1164,18.9689],[99.1189,18.9673],[99.1192,18.9648],[99.1218,18.9635],[99.1218,18.9629],[99.1223,18.9627],[99.1226,18.9608],[99.1232,18.9613],[99.1235,18.9605],[99.1246,18.9602],[99.1246,18.9597],[99.1261,18.9597],[99.1269,18.9589],[99.1269,18.9564],[99.128,18.9559],[99.1286,18.9548],[99.1283,18.9532],[99.1292,18.9521],[99.1297,18.9502],[99.1306,18.9499],[99.13,18.9488],[99.1312,18.9488],[99.1317,18.948],[99.1326,18.948],[99.1329,18.9472],[99.1349,18.9464],[99.1349,18.9469],[99.1357,18.9477],[99.136,18.9515],[99.1354,18.9515],[99.1352,18.9485],[99.1346,18.9477],[99.1335,18.948],[99.1326,18.9491],[99.1315,18.9496],[99.1315,18.9504],[99.13,18.9515],[99.1297,18.9529],[99.1292,18.9532],[99.1286,18.9564],[99.1278,18.9567],[99.1272,18.9575],[99.1275,18.9594],[99.1263,18.9599],[99.1261,18.961],[99.1252,18.961],[99.1235,18.9632],[99.1229,18.9632],[99.1224,18.9656],[99.1212,18.9656],[99.1198,18.9681],[99.1186,18.9684],[99.1175,18.97],[99.1158,18.9708],[99.1158,18.9724],[99.1144,18.9727]]]}},{"type":"Feature","properties":{"kind":"seasonal","area_km2":0.402,"date":"2026-10-09"},"geometry":{"type":"Polygon","coordinates":[[[99.1067,18.9402],[99.1055,18.9391],[99.1055,18.9385],[99.1067,18.938],[99.1067,18.9366],[99.1078,18.9358],[99.1084,18.9334],[99.1112,18.9331],[99.1121,18.9323],[99.1124,18.9312],[99.1138,18.9296],[99.1141,18.9274],[99.118,18.9242],[99.1198,18.9242],[99.1206,18.925],[99.1218,18.925],[99.1226,18.9261],[99.1218,18.9261],[99.1206,18.9252],[99.1195,18.9255],[99.1183,18.9269],[99.1175,18.9269],[99.1178,18.9285],[99.1158,18.9288],[99.1158,18.9296],[99.1146,18.9299],[99.1146,18.9307],[99.1138,18.9312],[99.1138,18.9318],[99.1132,18.9318],[99.1129,18.9328],[99.1115,18.9334],[99.1115,18.9339],[99.1098,18.9342],[99.1098,18.9347],[99.1104,18.9345],[99.1112,18.9347],[99.1101,18.935],[99.1089,18.9361],[99.1089,18.9366],[99.1075,18.9372],[99.1072,18.9402],[99.1067,18.9402]],[[99.1172,18.9266],[99.1175,18.9269],[99.1175,18.9266],[99.1172,18.9266]],[[99.1166,18.9263],[99.1172,18.9266],[99.1172,18.9263],[99.1166,18.9263]]]}},{"type":"Feature","properties":{"kind":"seasonal","area_km2":0.374,"date":"2026-10-09"},"geometry":{"type":"Polygon","coordinates":[[[99.7581,18.3861],[99.7578,18.3853],[99.7567,18.385],[99.7561,18.3842],[99.7538,18.3831],[99.7541,18.3818],[99.7527,18.3818],[99.7527,18.3799],[99.7518,18.3793],[99.7515,18.3764],[99.7524,18.3766],[99.7524,18.378],[99.7532,18.3783],[99.753,18.3788],[99.7524,18.3788],[99.7524,18.3793],[99.753,18.3793],[99.753,18.3802],[99.7535,18.3804],[99.7538,18.3799],[99.7544,18.3799],[99.7547,18.3829],[99.7567,18.3831],[99.757,18.3845],[99.7575,18.3845],[99.7578,18.3839],[99.7581,18.385],[99.7587,18.385],[99.7592,18.3834],[99.7601,18.3834],[99.7601,18.3823],[99.7595,18.382],[99.7606,18.382],[99.7606,18.3809],[99.7601,18.3815],[99.7592,18.3815],[99.7589,18.382],[99.7578,18.382],[99.7575,18.3812],[99.7586,18.3809],[99.7581,18.3799],[99.7584,18.379],[99.7606,18.3793],[99.7615,18.3788],[99.7626,18.3796],[99.7626,18.3785],[99.7635,18.3782],[99.764,18.3771],[99.764,18.3777],[99.7646,18.3779],[99.7646,18.379],[99.7669,18.3793],[99.7669,18.3798],[99.7674,18.3798],[99.7675,18.3812],[99.7686,18.3801],[99.7683,18.382],[99.7666,18.382],[99.7669,18.3806],[99.766,18.3798],[99.7652,18.3801],[99.7652,18.3809],[99.7638,18.3809],[99.7638,18.3793],[99.7632,18.3793],[99.7629,18.3801],[99.7612,18.3804],[99.7609,18.3834],[99.7595,18.3845],[99.7592,18.3858],[99.7581,18.3861]],[[99.7595,18.3809],[99.7603,18.3807],[99.7603,18.3799],[99.7589,18.3796],[99.7586,18.3801],[99.7595,18.3809]],[[99.7646,18.3793],[99.7649,18.3801],[99.7649,18.3793],[99.7646,18.3793]]]}},{"type":"Feature","properties":{"kind":"seasonal","area_km2":0.327,"date":"2026-10-09"},"geometry":{"type":"Polygon","coordinates":[[[99.1132,18.9429],[99.1146,18.941],[99.1146,18.9396],[99.1138,18.9385],[99.1138,18.9377],[99.1132,18.9374],[99.1135,18.9355],[99.1121,18.935],[99.1115,18.9342],[99.1149,18.9339],[99.1152,18.9342],[99.1146,18.9353],[99.1149,18.9369],[99.1155,18.9366],[99.1152,18.9353],[99.1158,18.9339],[99.1163,18.9339],[99.1163,18.9334],[99.1166,18.9339],[99.1172,18.9339],[99.1172,18.9334],[99.1186,18.9334],[99.1186,18.9355],[99.1198,18.9361],[99.1206,18.9358],[99.1206,18.9374],[99.1195,18.938],[99.1198,18.9399],[99.1189,18.9402],[99.1189,18.9383],[99.12,18.9369],[99.1195,18.9364],[99.1183,18.9364],[99.1175,18.9355],[99.1161,18.9377],[99.1161,18.9391],[99.1178,18.9393],[99.1181,18.9399],[99.1166,18.9396],[99.1166,18.9404],[99.1158,18.9404],[99.1152,18.9399],[99.1146,18.9421],[99.1141,18.9421],[99.1141,18.9426],[99.1132,18.9429]]]}},{"type":"Feature","properties":{"kind":"seasonal","area_km2":0.308,"date":"2026-10-09"},"geometry":{"type":"Polygon","coordinates":[[[99.1419,18.5188],[99.1414,18.5174],[99.1402,18.5172],[99.1394,18.5164],[99.1416,18.5166],[99.1419,18.5174],[99.1425,18.5174],[99.1425,18.5153],[99.1399,18.5147],[99.1396,18.5126],[99.1388,18.5126],[99.1388,18.512],[99.1368,18.512],[99.1374,18.5112],[99.1405,18.5115],[99.1405,18.5134],[99.1416,18.5139],[99.1422,18.5147],[99.1422,18.5142],[99.1433,18.5136],[99.1425,18.5104],[99.1448,18.5109],[99.145,18.5131],[99.1459,18.5134],[99.1459,18.5161],[99.1442,18.5161],[99.1439,18.5172],[99.1428,18.518],[99.1428,18.5188],[99.1419,18.5188]]]}},{"type":"Feature","properties":{"kind":"seasonal","area_km2":0.308,"date":"2026-10-09"},"geometry":{"type":"Polygon","coordinates":[[[99.1346,18.1956],[99.134,18.195],[99.1349,18.1948],[99.1351,18.1931],[99.1363,18.1915],[99.136,18.1907],[99.138,18.1904],[99.1383,18.1899],[99.1388,18.1899],[99.1397,18.1877],[99.1408,18.188],[99.1414,18.1872],[99.1453,18.1874],[99.1456,18.1883],[99.1451,18.1888],[99.1417,18.1896],[99.1408,18.1907],[99.1408,18.1918],[99.1394,18.1923],[99.1388,18.1915],[99.1383,18.1915],[99.1374,18.1923],[99.1374,18.1931],[99.1357,18.1945],[99.1354,18.1956],[99.1346,18.1956]]]}},{"type":"Feature","properties":{"kind":"seasonal","area_km2":0.291,"date":"2026-10-09"},"geometry":{"type":"Polygon","coordinates":[[[99.1363,18.9515],[99.1363,18.9507],[99.1369,18.9502],[99.1369,18.9461],[99.1363,18.9453],[99.1352,18.945],[99.1352,18.9445],[99.1357,18.9434],[99.138,18.9431],[99.1383,18.9404],[99.1377,18.9399],[99.1369,18.9399],[99.1369,18.9385],[99.1357,18.9388],[99.1363,18.9377],[99.1371,18.9377],[99.1397,18.9396],[99.1397,18.941],[99.1389,18.9426],[99.1394,18.9448],[99.1383,18.9466],[99.1386,18.9488],[99.1383,18.9496],[99.1363,18.9515]]]}},{"type":"Feature","properties":{"kind":"seasonal","area_km2":0.275,"date":"2026-10-09"},"geometry":{"type":"Polygon","coordinates":[[[99.1255,18.954],[99.1255,18.9513],[99.1263,18.9505],[99.1255,18.9499],[99.1249,18.9488],[99.124,18.9488],[99.124,18.9483],[99.1246,18.9483],[99.1249,18.9475],[99.1232,18.9472],[99.1229,18.9467],[99.1186,18.9467],[99.1172,18.9483],[99.1161,18.9488],[99.1161,18.9494],[99.1149,18.9505],[99.1138,18.951],[99.1149,18.9488],[99.1155,18.9488],[99.1155,18.9477],[99.1149,18.9477],[99.1146,18.9472],[99.1155,18.945],[99.1172,18.945],[99.1172,18.9461],[99.1178,18.9467],[99.1186,18.9461],[99.1223,18.9461],[99.1232,18.9448],[99.1243,18.9448],[99.1243,18.9461],[99.1255,18.9472],[99.1252,18.9483],[99.1266,18.9486],[99.1266,18.9529],[99.126,18.954],[99.1255,18.954]],[[99.1172,18.9467],[99.1175,18.9469],[99.1175,18.9467],[99.1172,18.9467]]]}},{"type":"Feature","properties":{"kind":"seasonal","area_km2":0.265,"date":"2026-10-09"},"geometry":{"type":"Polygon","coordinates":[[[99.4959,18.0516],[99.4956,18.051],[99.4947,18.051],[99.4945,18.0499],[99.4908,18.0505],[99.4908,18.0497],[99.4916,18.0499],[99.4913,18.0489],[99.4916,18.0494],[99.493,18.0494],[99.493,18.0489],[99.4933,18.0494],[99.4939,18.0494],[99.4939,18.0486],[99.495,18.0488],[99.495,18.0494],[99.4959,18.0494],[99.4959,18.0467],[99.4964,18.0467],[99.497,18.0459],[99.4978,18.0459],[99.4984,18.0467],[99.4984,18.0478],[99.499,18.0478],[99.4996,18.0486],[99.4996,18.0496],[99.499,18.0497],[99.499,18.0505],[99.4998,18.0507],[99.4998,18.0515],[99.4959,18.0516]]]}},{"type":"Feature","properties":{"kind":"seasonal","area_km2":0.25,"date":"2026-10-09"},"geometry":{"type":"Polygon","coordinates":[[[99.1548,18.5814],[99.1539,18.5803],[99.1528,18.5803],[99.1525,18.5787],[99.1519,18.5782],[99.1519,18.5776],[99.1525,18.5773],[99.1519,18.5771],[99.1519,18.5763],[99.1533,18.5763],[99.1536,18.5771],[99.1545,18.5771],[99.1562,18.5763],[99.1568,18.5754],[99.1579,18.5754],[99.1579,18.5771],[99.1559,18.5771],[99.1556,18.5776],[99.1559,18.579],[99.1576,18.5795],[99.1576,18.5814],[99.1548,18.5814]],[[99.1548,18.5784],[99.1553,18.5787],[99.1553,18.5784],[99.1548,18.5784]]]}},{"type":"Feature","properties":{"kind":"seasonal","area_km2":0.235,"date":"2026-10-09"},"geometry":{"type":"Polygon","coordinates":[[[99.3529,18.4326],[99.3524,18.4315],[99.3515,18.4309],[99.3518,18.429],[99.3512,18.4288],[99.3512,18.4277],[99.3506,18.4274],[99.3506,18.4266],[99.3521,18.4269],[99.3526,18.4263],[99.3523,18.425],[99.3529,18.425],[99.3543,18.4266],[99.3546,18.4285],[99.3555,18.4296],[99.3555,18.4307],[99.3549,18.4309],[99.3546,18.432],[99.3541,18.432],[99.3541,18.4326],[99.3529,18.4326]],[[99.3529,18.4274],[99.3541,18.4274],[99.3541,18.4269],[99.3529,18.4266],[99.3529,18.4274]]]}},{"type":"Feature","properties":{"kind":"seasonal","area_km2":0.231,"date":"2026-10-09"},"geometry":{"type":"Polygon","coordinates":[[[99.8302,18.3695],[99.8302,18.369],[99.8287,18.369],[99.8287,18.3679],[99.8293,18.3676],[99.8299,18.3655],[99.8298,18.3633],[99.829,18.3611],[99.8295,18.3614],[99.8298,18.3603],[99.8298,18.3619],[99.8304,18.3619],[99.8307,18.3625],[99.8307,18.3668],[99.8313,18.3663],[99.833,18.366],[99.8327,18.3646],[99.8316,18.3646],[99.8315,18.3638],[99.833,18.3641],[99.8338,18.3617],[99.8344,18.3619],[99.8344,18.3627],[99.8333,18.3641],[99.8341,18.3657],[99.8341,18.3668],[99.833,18.3679],[99.8319,18.3679],[99.8313,18.3684],[99.8313,18.3695],[99.8302,18.3695]]]}},{"type":"Feature","properties":{"kind":"seasonal","area_km2":0.221,"date":"2026-10-09"},"geometry":{"type":"Polygon","coordinates":[[[99.8321,18.3519],[99.8318,18.3508],[99.8306,18.3495],[99.8306,18.3487],[99.8312,18.3486],[99.8315,18.3478],[99.8326,18.3481],[99.832,18.347],[99.8326,18.347],[99.8329,18.3454],[99.8343,18.3457],[99.8349,18.3438],[99.8363,18.344],[99.8363,18.3448],[99.8371,18.3454],[99.8369,18.3467],[99.8363,18.3473],[99.834,18.347],[99.8346,18.3486],[99.832,18.3495],[99.8321,18.3503],[99.8329,18.3503],[99.8332,18.3516],[99.8321,18.3519]]]}},{"type":"Feature","properties":{"kind":"seasonal","area_km2":0.214,"date":"2026-10-09"},"geometry":{"type":"Polygon","coordinates":[[[99.7037,18.2654],[99.7036,18.264],[99.7022,18.2643],[99.7011,18.2632],[99.7011,18.2627],[99.7005,18.2627],[99.6997,18.2619],[99.6985,18.2619],[99.6985,18.2611],[99.6991,18.2611],[99.7011,18.2592],[99.7025,18.2594],[99.7028,18.261],[99.7054,18.2637],[99.7054,18.2646],[99.7045,18.2646],[99.7045,18.2654],[99.7037,18.2654]]]}},{"type":"Feature","properties":{"kind":"seasonal","area_km2":0.209,"date":"2026-10-09"},"geometry":{"type":"Polygon","coordinates":[[[99.3997,18.1293],[99.3994,18.1288],[99.4019,18.1288],[99.4019,18.1282],[99.4025,18.128],[99.4019,18.1269],[99.4028,18.1266],[99.4028,18.1258],[99.4019,18.1258],[99.4014,18.1272],[99.4,18.1272],[99.4,18.1258],[99.4008,18.1253],[99.4008,18.1239],[99.4025,18.1234],[99.4028,18.1223],[99.4042,18.1223],[99.4042,18.1269],[99.4031,18.128],[99.4031,18.1291],[99.3997,18.1293]]]}},{"type":"Feature","properties":{"kind":"seasonal","area_km2":0.185,"date":"2026-10-09"},"geometry":{"type":"Polygon","coordinates":[[[99.436,18.2683],[99.4357,18.2667],[99.4363,18.2665],[99.4363,18.264],[99.4372,18.264],[99.4374,18.2645],[99.4389,18.2643],[99.4392,18.2659],[99.4426,18.2654],[99.4426,18.2664],[99.4417,18.2673],[99.4403,18.2673],[99.4397,18.2667],[99.4392,18.2675],[99.438,18.2681],[99.436,18.2683]]]}},{"type":"Feature","properties":{"kind":"seasonal","area_km2":0.183,"date":"2026-10-09"},"geometry":{"type":"Polygon","coordinates":[[[99.2205,18.8576],[99.2197,18.8566],[99.2185,18.8566],[99.2191,18.8549],[99.2197,18.8549],[99.22,18.8555],[99.22,18.8547],[99.2194,18.8547],[99.2194,18.8538],[99.2188,18.8533],[99.2197,18.8533],[99.2208,18.8522],[99.2217,18.8522],[99.2222,18.8525],[99.2222,18.853],[99.2228,18.853],[99.2231,18.8522],[99.2217,18.8519],[99.2219,18.8511],[99.2208,18.8506],[99.2217,18.8503],[99.2234,18.8519],[99.2245,18.8519],[99.2245,18.8533],[99.2239,18.8536],[99.2239,18.8547],[99.2219,18.8544],[99.2219,18.8538],[99.2211,18.8536],[99.2205,18.8557],[99.2211,18.8574],[99.2205,18.8576]],[[99.2231,18.8525],[99.2234,18.8528],[99.2234,18.8525],[99.2231,18.8525]]]}},{"type":"Feature","properties":{"kind":"seasonal","area_km2":0.181,"date":"2026-10-09"},"geometry":{"type":"Polygon","coordinates":[[[99.2738,18.3381],[99.273,18.3373],[99.2718,18.3375],[99.2724,18.3364],[99.2715,18.3362],[99.2718,18.3356],[99.2712,18.3354],[99.2712,18.3345],[99.2718,18.334],[99.2712,18.3337],[99.2712,18.3332],[99.2724,18.3332],[99.2735,18.331],[99.2755,18.3307],[99.2758,18.3302],[99.2752,18.3297],[99.2761,18.3297],[99.2763,18.3302],[99.2772,18.3302],[99.2775,18.331],[99.2783,18.3313],[99.2783,18.3318],[99.2781,18.3324],[99.2766,18.3318],[99.2761,18.3321],[99.2761,18.3326],[99.2746,18.3321],[99.2735,18.3329],[99.2724,18.3359],[99.2732,18.3362],[99.2735,18.3373],[99.2741,18.3372],[99.2738,18.3381]]]}},{"type":"Feature","properties":{"kind":"seasonal","area_km2":0.155,"date":"2026-10-09"},"geometry":{"type":"Polygon","coordinates":[[[99.0018,18.9234],[99.0018,18.9204],[99.0021,18.9228],[99.0035,18.9228],[99.0038,18.9223],[99.0044,18.9223],[99.0049,18.9193],[99.0064,18.9193],[99.0064,18.9199],[99.0069,18.9204],[99.0084,18.9207],[99.0086,18.9215],[99.0092,18.9215],[99.0092,18.9204],[99.0101,18.9204],[99.0101,18.9226],[99.0086,18.922],[99.0081,18.922],[99.0078,18.9226],[99.0064,18.9226],[99.0049,18.9218],[99.0044,18.9234],[99.0018,18.9234]],[[99.0052,18.9209],[99.0058,18.9209],[99.0058,18.9201],[99.0052,18.9204],[99.0052,18.9209]]]}},{"type":"Feature","properties":{"kind":"seasonal","area_km2":0.148,"date":"2026-10-09"},"geometry":{"type":"Polygon","coordinates":[[[99.4565,18.0571],[99.4559,18.0563],[99.4548,18.056],[99.4548,18.0541],[99.4553,18.0541],[99.4562,18.0533],[99.4562,18.0525],[99.4579,18.0525],[99.4585,18.0533],[99.4585,18.0557],[99.4573,18.0571],[99.4565,18.0571]]]}},{"type":"Feature","properties":{"kind":"seasonal","area_km2":0.147,"date":"2026-10-09"},"geometry":{"type":"Polygon","coordinates":[[[99.2235,18.3042],[99.2229,18.3021],[99.2258,18.3013],[99.2249,18.2996],[99.2249,18.2988],[99.2258,18.2988],[99.2263,18.2999],[99.2272,18.2999],[99.2272,18.3007],[99.2266,18.301],[99.2272,18.304],[99.2252,18.3037],[99.2249,18.3042],[99.2235,18.3042]]]}},{"type":"Feature","properties":{"kind":"seasonal","area_km2":0.146,"date":"2026-10-09"},"geometry":{"type":"Polygon","coordinates":[[[99.7289,18.3922],[99.7283,18.3914],[99.7275,18.3914],[99.7272,18.3895],[99.7266,18.3895],[99.7263,18.3884],[99.7272,18.3884],[99.7272,18.3889],[99.7277,18.3892],[99.7289,18.3892],[99.7289,18.3906],[99.7297,18.3903],[99.7303,18.3911],[99.7294,18.3887],[99.7303,18.3881],[99.7303,18.3868],[99.7294,18.3868],[99.7291,18.3859],[99.7303,18.3857],[99.7308,18.3859],[99.7308,18.3878],[99.7303,18.3889],[99.7314,18.3922],[99.7289,18.3922]]]}},{"type":"Feature","properties":{"kind":"seasonal","area_km2":0.145,"date":"2026-10-09"},"geometry":{"type":"Polygon","coordinates":[[[99.0055,18.9337],[99.0035,18.9331],[99.0012,18.9331],[99.0021,18.9326],[99.0024,18.9302],[99.0035,18.9299],[99.0032,18.9323],[99.0038,18.9323],[99.0044,18.9312],[99.0049,18.9312],[99.0047,18.9299],[99.0052,18.9299],[99.0072,18.9321],[99.0072,18.9331],[99.0058,18.9331],[99.0055,18.9337]]]}},{"type":"Feature","properties":{"kind":"seasonal","area_km2":0.141,"date":"2026-10-09"},"geometry":{"type":"Polygon","coordinates":[[[99.6474,18.7783],[99.646,18.778],[99.6448,18.7767],[99.644,18.7775],[99.6431,18.7775],[99.6426,18.777],[99.6426,18.7753],[99.644,18.7742],[99.644,18.7737],[99.6451,18.7737],[99.6454,18.775],[99.6471,18.7748],[99.6471,18.7756],[99.646,18.7761],[99.646,18.7767],[99.6474,18.7775],[99.6474,18.7783]]]}},{"type":"Feature","properties":{"kind":"seasonal","area_km2":0.133,"date":"2026-10-09"},"geometry":{"type":"Polygon","coordinates":[[[99.2703,18.8136],[99.2677,18.8115],[99.266,18.8118],[99.2652,18.8101],[99.2666,18.8107],[99.2669,18.8101],[99.268,18.8099],[99.268,18.8107],[99.2694,18.8112],[99.27,18.8104],[99.2697,18.8093],[99.2706,18.8093],[99.2714,18.8136],[99.2703,18.8136]]]}},{"type":"Feature","properties":{"kind":"seasonal","area_km2":0.131,"date":"2026-10-09"},"geometry":{"type":"Polygon","coordinates":[[[99.2391,18.3248],[99.2389,18.3243],[99.2366,18.3243],[99.2366,18.3235],[99.2383,18.3232],[99.2386,18.3227],[99.2397,18.3227],[99.2408,18.3213],[99.2425,18.3213],[99.2428,18.3237],[99.2403,18.3237],[99.2397,18.3248],[99.2391,18.3248]]]}},{"type":"Feature","properties":{"kind":"seasonal","area_km2":0.128,"date":"2026-10-09"},"geometry":{"type":"Polygon","coordinates":[[[99.2479,18.1209],[99.2479,18.1187],[99.2485,18.1185],[99.2485,18.1177],[99.2474,18.1168],[99.2451,18.1168],[99.2451,18.116],[99.2479,18.116],[99.2491,18.1147],[99.2499,18.1147],[99.2494,18.1168],[99.2505,18.1182],[99.2494,18.1187],[99.2494,18.1193],[99.2482,18.1204],[99.2485,18.1209],[99.2479,18.1209]]]}},{"type":"Feature","properties":{"kind":"seasonal","area_km2":0.116,"date":"2026-10-09"},"geometry":{"type":"Polygon","coordinates":[[[99.2189,18.2912],[99.2184,18.2901],[99.2164,18.2904],[99.2155,18.2891],[99.2155,18.2882],[99.2161,18.2882],[99.2167,18.2893],[99.2192,18.2888],[99.2195,18.288],[99.2204,18.288],[99.2206,18.2888],[99.2215,18.2888],[99.2215,18.2896],[99.2198,18.2912],[99.2189,18.2912]]]}},{"type":"Feature","properties":{"kind":"seasonal","area_km2":0.107,"date":"2026-10-09"},"geometry":{"type":"Polygon","coordinates":[[[99.9017,18.3079],[99.9005,18.306],[99.8994,18.3066],[99.8994,18.3052],[99.9,18.3047],[99.9008,18.3047],[99.9008,18.3052],[99.9017,18.3058],[99.9022,18.3047],[99.9034,18.3041],[99.9028,18.3047],[99.9031,18.3063],[99.9042,18.3063],[99.9042,18.3055],[99.9054,18.3057],[99.9042,18.3066],[99.9042,18.3071],[99.9022,18.3074],[99.9022,18.3079],[99.9017,18.3079]]]}},{"type":"Feature","properties":{"kind":"seasonal","area_km2":0.106,"date":"2026-10-09"},"geometry":{"type":"Polygon","coordinates":[[[99.0786,18.7178],[99.0783,18.7124],[99.0798,18.7122],[99.0803,18.713],[99.0803,18.7159],[99.0798,18.7162],[99.0798,18.7176],[99.0786,18.7178]]]}},{"type":"Feature","properties":{"kind":"seasonal","area_km2":0.104,"date":"2026-10-09"},"geometry":{"type":"Polygon","coordinates":[[[99.1864,18.618],[99.1864,18.6172],[99.1858,18.6166],[99.1875,18.6172],[99.1875,18.6161],[99.1881,18.6161],[99.1886,18.615],[99.1886,18.6139],[99.1872,18.6139],[99.1864,18.6134],[99.1864,18.6128],[99.1867,18.6123],[99.1884,18.612],[99.1889,18.6109],[99.1898,18.6109],[99.1898,18.6099],[99.1892,18.6096],[99.1895,18.609],[99.1903,18.609],[99.1901,18.6112],[99.1889,18.6118],[99.1886,18.6128],[99.1881,18.6128],[99.1881,18.6137],[99.1892,18.6136],[99.1889,18.6155],[99.1878,18.6166],[99.1881,18.6177],[99.1864,18.618]],[[99.1875,18.6172],[99.1878,18.6174],[99.1878,18.6172],[99.1875,18.6172]]]}},{"type":"Feature","properties":{"kind":"seasonal","area_km2":0.103,"date":"2026-10-09"},"geometry":{"type":"Polygon","coordinates":[[[99.8367,18.3646],[99.8366,18.36],[99.8361,18.3597],[99.8361,18.3592],[99.8366,18.3592],[99.8375,18.357],[99.838,18.3565],[99.8386,18.357],[99.8389,18.3565],[99.8392,18.3576],[99.8375,18.3578],[99.8375,18.36],[99.8381,18.3614],[99.8375,18.3624],[99.8378,18.3646],[99.8367,18.3646]]]}}]}
