{"type":"FeatureCollection","properties":{"v":3,"id":"t99_17","name":"สุโขทัย · ลำพูน · ลำปาง","aoi":[99.0,17.0,100.0,18.0],"date":"2026-10-09","dates":["2026-10-09"],"baseline_years":3,"has_seasonal":true,"totals":{"flood_high":0.0,"flood_low":2.2,"seasonal":51.8},"provinces":[{"name":"สุโขทัย","zone":"th-c","flood_high":0.0,"flood_low":1.6,"seasonal":27.4},{"name":"ตาก","zone":"th-w","flood_high":0.0,"flood_low":0.3,"seasonal":8.2},{"name":"อุตรดิตถ์","zone":"th-n","flood_high":0.0,"flood_low":0.1,"seasonal":3.1},{"name":"พิษณุโลก","zone":"th-c","flood_high":0.0,"flood_low":0.1,"seasonal":0.0},{"name":"ลำปาง","zone":"th-n","flood_high":0.0,"flood_low":0.0,"seasonal":12.4},{"name":"ลำพูน","zone":"th-n","flood_high":0.0,"flood_low":0.0,"seasonal":0.5},{"name":"แพร่","zone":"th-n","flood_high":0.0,"flood_low":0.0,"seasonal":0.3}],"scenes":{"2026-10-09":1},"baseline_dates":["2025-10-07","2024-10-09","2023-10-10"],"threshold_db":-15.0,"auto":true,"source":"Sentinel-1 RTC (Copernicus/ESA) via Microsoft Planetary Computer; JRC Global Surface Water; Copernicus DEM","method":"ChatGeo v3: Otsu threshold on VV dB; minus JRC permanent water and slope > 5 deg; unusual = water not present in most of the previous 3 years (same season)","added":"2026-10-10T16:37+07:00"},"features":[{"type":"Feature","properties":{"kind":"flood","area_km2":0.221,"conf":"low","date":"2026-10-09"},"geometry":{"type":"Polygon","coordinates":[[[99.5783,17.5115],[99.578,17.5098],[99.5797,17.509],[99.5797,17.5079],[99.5809,17.5068],[99.5814,17.5068],[99.5817,17.5055],[99.582,17.5063],[99.5834,17.5063],[99.5834,17.5058],[99.584,17.5057],[99.5837,17.5104],[99.5831,17.5109],[99.58,17.5106],[99.5795,17.5109],[99.5795,17.5115],[99.5783,17.5115]],[[99.5809,17.5104],[99.5817,17.5104],[99.5817,17.5087],[99.5809,17.5087],[99.5809,17.5104]]]}},{"type":"Feature","properties":{"kind":"flood","area_km2":0.16,"conf":"low","date":"2026-10-09"},"geometry":{"type":"Polygon","coordinates":[[[99.1996,17.1993],[99.199,17.1979],[99.2004,17.1979],[99.2001,17.196],[99.2007,17.1957],[99.2007,17.1952],[99.2015,17.1952],[99.201,17.1949],[99.2015,17.1944],[99.201,17.1944],[99.201,17.1938],[99.2004,17.1936],[99.1987,17.1936],[99.199,17.1922],[99.1979,17.1911],[99.1973,17.1914],[99.1973,17.193],[99.1967,17.193],[99.197,17.1909],[99.1984,17.1909],[99.1993,17.1919],[99.2007,17.1919],[99.2007,17.1933],[99.2038,17.1936],[99.2041,17.1941],[99.2041,17.1944],[99.2032,17.1944],[99.2024,17.1947],[99.2035,17.1952],[99.2015,17.1957],[99.2013,17.1982],[99.2004,17.1987],[99.2004,17.1993],[99.1996,17.1993]],[[99.2027,17.1941],[99.2032,17.1944],[99.2032,17.1941],[99.2027,17.1941]]]}},{"type":"Feature","properties":{"kind":"flood","area_km2":0.149,"conf":"low","date":"2026-10-09"},"geometry":{"type":"Polygon","coordinates":[[[99.5837,17.5052],[99.5837,17.5044],[99.5828,17.5044],[99.5828,17.5028],[99.5811,17.503],[99.5811,17.5022],[99.5822,17.502],[99.5822,17.5006],[99.5817,17.5003],[99.5817,17.4995],[99.5828,17.4998],[99.5828,17.5011],[99.5834,17.5017],[99.5851,17.5017],[99.5856,17.5022],[99.5865,17.5014],[99.5865,17.5028],[99.5871,17.503],[99.5888,17.503],[99.589,17.5019],[99.5896,17.5019],[99.589,17.5033],[99.5902,17.5041],[99.589,17.5041],[99.5882,17.5036],[99.5859,17.5038],[99.5854,17.5033],[99.5845,17.5033],[99.5837,17.5052]],[[99.5834,17.5033],[99.5845,17.5033],[99.5845,17.502],[99.5834,17.502],[99.5834,17.5033]]]}},{"type":"Feature","properties":{"kind":"flood","area_km2":0.143,"conf":"low","date":"2026-10-09"},"geometry":{"type":"Polygon","coordinates":[[[99.7024,17.2095],[99.6993,17.2095],[99.6993,17.2085],[99.6984,17.2082],[99.6984,17.2071],[99.6993,17.2071],[99.6995,17.2076],[99.7024,17.2079],[99.7024,17.2071],[99.7009,17.2074],[99.7009,17.2055],[99.7026,17.2052],[99.7032,17.2082],[99.7024,17.2082],[99.7024,17.2095]]]}},{"type":"Feature","properties":{"kind":"flood","area_km2":0.139,"conf":"low","date":"2026-10-09"},"geometry":{"type":"Polygon","coordinates":[[[99.9843,17.537],[99.9834,17.5362],[99.9834,17.5356],[99.984,17.5354],[99.9848,17.5321],[99.9871,17.5321],[99.9876,17.5337],[99.9865,17.5337],[99.9868,17.5362],[99.9857,17.5359],[99.9848,17.5362],[99.9848,17.5367],[99.9843,17.537]]]}},{"type":"Feature","properties":{"kind":"flood","area_km2":0.133,"conf":"low","date":"2026-10-09"},"geometry":{"type":"Polygon","coordinates":[[[99.7641,17.6117],[99.7638,17.6109],[99.7644,17.6112],[99.7644,17.6093],[99.7633,17.609],[99.7636,17.6098],[99.763,17.6103],[99.7624,17.6095],[99.7624,17.6085],[99.7613,17.6087],[99.7621,17.6068],[99.761,17.6074],[99.7607,17.6063],[99.7613,17.6066],[99.7621,17.6063],[99.7607,17.6052],[99.7633,17.6052],[99.7633,17.6079],[99.765,17.609],[99.7647,17.6095],[99.7655,17.6098],[99.7655,17.6112],[99.765,17.6117],[99.7641,17.6117]],[[99.7618,17.6057],[99.7621,17.606],[99.7621,17.6057],[99.7618,17.6057]]]}},{"type":"Feature","properties":{"kind":"flood","area_km2":0.128,"conf":"low","date":"2026-10-09"},"geometry":{"type":"Polygon","coordinates":[[[99.9163,17.1081],[99.9166,17.1062],[99.9152,17.1062],[99.9146,17.1056],[99.914,17.1032],[99.9151,17.1029],[99.9163,17.1018],[99.9171,17.1018],[99.9171,17.1043],[99.9166,17.1043],[99.9166,17.1059],[99.9174,17.1062],[99.9174,17.107],[99.9171,17.1078],[99.9163,17.1081]]]}},{"type":"Feature","properties":{"kind":"flood","area_km2":0.108,"conf":"low","date":"2026-10-09"},"geometry":{"type":"Polygon","coordinates":[[[99.7142,17.1425],[99.7142,17.142],[99.7134,17.142],[99.7134,17.1412],[99.7148,17.1412],[99.7148,17.1406],[99.7134,17.1406],[99.7128,17.139],[99.7137,17.1374],[99.7151,17.1374],[99.7148,17.1398],[99.7151,17.1403],[99.7156,17.1403],[99.7156,17.142],[99.7154,17.1425],[99.7142,17.1425]],[[99.7137,17.139],[99.7139,17.1395],[99.7139,17.139],[99.7137,17.139]]]}},{"type":"Feature","properties":{"kind":"flood","area_km2":0.09,"conf":"low","date":"2026-10-09"},"geometry":{"type":"Polygon","coordinates":[[[99.8856,17.0046],[99.8856,17.0038],[99.8845,17.0035],[99.8856,17.003],[99.8856,17.0019],[99.8859,17.0025],[99.8865,17.0025],[99.8867,17.0008],[99.8901,17.0008],[99.8901,16.9997],[99.8912,17.0],[99.8912,16.9986],[99.8921,16.9986],[99.8921,17.0],[99.8915,17.0],[99.8915,17.0005],[99.8904,17.0005],[99.8904,17.0011],[99.8882,17.0016],[99.8879,17.0022],[99.8873,17.0022],[99.8873,17.003],[99.8859,17.003],[99.8859,17.0044],[99.8865,17.0046],[99.8856,17.0046]]]}},{"type":"Feature","properties":{"kind":"flood","area_km2":0.086,"conf":"low","date":"2026-10-09"},"geometry":{"type":"Polygon","coordinates":[[[99.8733,17.0792],[99.8727,17.0787],[99.873,17.0771],[99.8753,17.0771],[99.8758,17.0779],[99.877,17.0776],[99.877,17.079],[99.875,17.0787],[99.875,17.0792],[99.8733,17.0792]]]}},{"type":"Feature","properties":{"kind":"flood","area_km2":0.083,"conf":"low","date":"2026-10-09"},"geometry":{"type":"Polygon","coordinates":[[[99.7548,17.0529],[99.7545,17.0496],[99.7562,17.0493],[99.7562,17.0515],[99.7567,17.0515],[99.757,17.0529],[99.7562,17.0529],[99.7562,17.0523],[99.7559,17.0529],[99.7548,17.0529]]]}},{"type":"Feature","properties":{"kind":"flood","area_km2":0.08,"conf":"low","date":"2026-10-09"},"geometry":{"type":"Polygon","coordinates":[[[99.9041,17.0314],[99.9035,17.0298],[99.9049,17.0298],[99.9049,17.0287],[99.9074,17.0287],[99.9075,17.0303],[99.9041,17.0314]]]}},{"type":"Feature","properties":{"kind":"flood","area_km2":0.076,"conf":"low","date":"2026-10-09"},"geometry":{"type":"Polygon","coordinates":[[[99.2007,17.1887],[99.2007,17.1879],[99.1996,17.1879],[99.1979,17.1863],[99.1979,17.1846],[99.199,17.1849],[99.199,17.186],[99.1996,17.1865],[99.2004,17.1862],[99.2004,17.1871],[99.2024,17.1876],[99.2024,17.1884],[99.2007,17.1887]]]}},{"type":"Feature","properties":{"kind":"flood","area_km2":0.071,"conf":"low","date":"2026-10-09"},"geometry":{"type":"Polygon","coordinates":[[[99.7288,17.3404],[99.7283,17.3393],[99.7263,17.3391],[99.726,17.338],[99.7277,17.338],[99.728,17.3372],[99.7288,17.3372],[99.7297,17.3396],[99.7297,17.3404],[99.7288,17.3404]]]}},{"type":"Feature","properties":{"kind":"flood","area_km2":0.071,"conf":"low","date":"2026-10-09"},"geometry":{"type":"Polygon","coordinates":[[[99.9012,17.0298],[99.901,17.0292],[99.8984,17.0295],[99.8984,17.0287],[99.8993,17.0284],[99.8993,17.0276],[99.9021,17.0279],[99.9024,17.0295],[99.9012,17.0298]]]}},{"type":"Feature","properties":{"kind":"flood","area_km2":0.066,"conf":"low","date":"2026-10-09"},"geometry":{"type":"Polygon","coordinates":[[[99.9706,17.085],[99.9706,17.0815],[99.9711,17.0812],[99.9711,17.0807],[99.972,17.0807],[99.972,17.085],[99.9706,17.085]]]}},{"type":"Feature","properties":{"kind":"flood","area_km2":0.059,"conf":"low","date":"2026-10-09"},"geometry":{"type":"Polygon","coordinates":[[[99.7999,17.0692],[99.7994,17.0687],[99.7991,17.066],[99.8008,17.066],[99.8005,17.0673],[99.8014,17.0676],[99.8011,17.069],[99.7999,17.0692]]]}},{"type":"Feature","properties":{"kind":"flood","area_km2":0.059,"conf":"low","date":"2026-10-09"},"geometry":{"type":"Polygon","coordinates":[[[99.7607,17.0618],[99.7604,17.0596],[99.7633,17.0594],[99.7633,17.0607],[99.7624,17.0607],[99.7619,17.0618],[99.7607,17.0618]]]}},{"type":"Feature","properties":{"kind":"flood","area_km2":0.059,"conf":"low","date":"2026-10-09"},"geometry":{"type":"Polygon","coordinates":[[[99.9009,17.0113],[99.9006,17.0108],[99.8983,17.0111],[99.8983,17.0097],[99.9006,17.0097],[99.9012,17.0103],[99.9012,17.0094],[99.902,17.0094],[99.9023,17.0111],[99.9009,17.0113]]]}},{"type":"Feature","properties":{"kind":"flood","area_km2":0.058,"conf":"low","date":"2026-10-09"},"geometry":{"type":"Polygon","coordinates":[[[99.1202,17.0613],[99.1196,17.0599],[99.1202,17.0591],[99.1216,17.0591],[99.1219,17.058],[99.1225,17.0602],[99.1222,17.0608],[99.121,17.0608],[99.121,17.0613],[99.1202,17.0613]]]}},{"type":"Feature","properties":{"kind":"flood","area_km2":0.055,"conf":"low","date":"2026-10-09"},"geometry":{"type":"Polygon","coordinates":[[[99.9765,17.0799],[99.9765,17.0788],[99.9756,17.0788],[99.9756,17.078],[99.9787,17.078],[99.9787,17.0796],[99.9765,17.0799]]]}},{"type":"Feature","properties":{"kind":"flood","area_km2":0.053,"conf":"low","date":"2026-10-09"},"geometry":{"type":"Polygon","coordinates":[[[99.7607,17.0501],[99.7604,17.0474],[99.7618,17.0472],[99.7621,17.0499],[99.7607,17.0501]]]}},{"type":"Feature","properties":{"kind":"flood","area_km2":0.051,"conf":"low","date":"2026-10-09"},"geometry":{"type":"Polygon","coordinates":[[[99.9058,17.0336],[99.9055,17.0319],[99.906,17.0314],[99.9077,17.0314],[99.9077,17.0333],[99.9058,17.0336]]]}},{"type":"Feature","properties":{"kind":"seasonal","area_km2":7.52,"date":"2026-10-09"},"geometry":{"type":"Polygon","coordinates":[[[99.3946,17.3579],[99.3946,17.3568],[99.394,17.3565],[99.394,17.3541],[99.3946,17.3538],[99.3946,17.3527],[99.3934,17.3517],[99.3934,17.3508],[99.3954,17.35],[99.3951,17.3481],[99.3968,17.3481],[99.3979,17.3492],[99.3982,17.3476],[99.3974,17.347],[99.3974,17.3459],[99.3968,17.3451],[99.394,17.3449],[99.3943,17.343],[99.3937,17.3422],[99.3926,17.3419],[99.3926,17.3411],[99.3937,17.3411],[99.394,17.3416],[99.3962,17.3416],[99.3965,17.3422],[99.3979,17.3416],[99.3979,17.3405],[99.3971,17.3405],[99.3976,17.3386],[99.3971,17.3386],[99.3965,17.337],[99.3959,17.337],[99.3954,17.3378],[99.394,17.3378],[99.394,17.3354],[99.3934,17.3351],[99.3934,17.3343],[99.3957,17.3335],[99.3959,17.3324],[99.3951,17.3319],[99.3954,17.3302],[99.3937,17.3297],[99.3937,17.3289],[99.3942,17.3289],[99.3951,17.3281],[99.3951,17.3253],[99.3973,17.3253],[99.3979,17.3259],[99.399,17.3253],[99.3993,17.3243],[99.3985,17.3232],[99.3973,17.3229],[99.3973,17.3221],[99.4001,17.3218],[99.4013,17.3207],[99.4013,17.3196],[99.399,17.3196],[99.3984,17.3194],[99.3984,17.3186],[99.3987,17.3177],[99.3996,17.3177],[99.4004,17.3169],[99.401,17.3169],[99.401,17.3164],[99.4021,17.3161],[99.4021,17.3156],[99.4013,17.3153],[99.3996,17.3156],[99.3996,17.3131],[99.399,17.3131],[99.3984,17.3121],[99.3976,17.3118],[99.3976,17.311],[99.4004,17.3104],[99.4013,17.3112],[99.4015,17.3099],[99.4024,17.3091],[99.4029,17.3091],[99.4035,17.311],[99.4041,17.3115],[99.4049,17.3115],[99.4058,17.3107],[99.4058,17.3093],[99.4066,17.308],[99.4063,17.3063],[99.4075,17.3061],[99.4072,17.3044],[99.4077,17.3036],[99.4086,17.3034],[99.4089,17.3009],[99.4097,17.3009],[99.4103,17.3066],[99.4114,17.3069],[99.4139,17.3055],[99.4142,17.3033],[99.4148,17.3028],[99.4148,17.3009],[99.4159,17.3006],[99.4156,17.2976],[99.4173,17.2974],[99.4176,17.2982],[99.4184,17.2982],[99.4187,17.2995],[99.4196,17.2995],[99.4201,17.2984],[99.4213,17.2984],[99.4215,17.2976],[99.4221,17.2976],[99.4227,17.2984],[99.4244,17.2982],[99.4244,17.2987],[99.4249,17.2987],[99.4258,17.2995],[99.4252,17.3014],[99.4241,17.302],[99.4241,17.306],[99.4235,17.3068],[99.4241,17.3101],[99.4252,17.3106],[99.425,17.3131],[99.4241,17.3134],[99.4241,17.3125],[99.4247,17.3125],[99.4247,17.3115],[99.4241,17.3115],[99.4238,17.3106],[99.423,17.3104],[99.423,17.3093],[99.4236,17.309],[99.4236,17.3085],[99.4227,17.3077],[99.423,17.3063],[99.4221,17.3063],[99.4221,17.305],[99.423,17.3047],[99.4221,17.3041],[99.4221,17.3033],[99.4233,17.3033],[99.4233,17.3028],[99.4227,17.3028],[99.4224,17.3022],[99.423,17.3017],[99.423,17.3009],[99.4221,17.3009],[99.4218,17.3014],[99.4207,17.3017],[99.4207,17.3028],[99.4201,17.3022],[99.4204,17.3009],[99.4199,17.3009],[99.4193,17.302],[99.4187,17.302],[99.4185,17.3009],[99.4179,17.3009],[99.4179,17.3014],[99.4173,17.3014],[99.4179,17.3017],[99.4176,17.3033],[99.419,17.3031],[99.4193,17.3039],[99.4199,17.3039],[99.4199,17.305],[99.4182,17.305],[99.4182,17.3058],[99.4176,17.3058],[99.4176,17.3074],[99.419,17.3074],[99.4193,17.3082],[99.4162,17.3082],[99.4162,17.305],[99.4154,17.3058],[99.4151,17.3071],[99.4128,17.3069],[99.41,17.3074],[99.41,17.308],[99.4083,17.3074],[99.408,17.309],[99.4069,17.3091],[99.4069,17.3099],[99.4089,17.3101],[99.4089,17.3118],[99.4094,17.3118],[99.4097,17.3126],[99.4114,17.3126],[99.4114,17.3134],[99.4106,17.3137],[99.4111,17.3137],[99.4114,17.3145],[99.4123,17.3145],[99.4123,17.3161],[99.4111,17.3169],[99.41,17.3169],[99.4092,17.3158],[99.4089,17.3134],[99.4083,17.3134],[99.4083,17.3126],[99.4066,17.3123],[99.4066,17.3118],[99.4063,17.3128],[99.4035,17.3131],[99.4052,17.3139],[99.4063,17.3139],[99.4066,17.3147],[99.4058,17.315],[99.4058,17.3158],[99.4052,17.3158],[99.4052,17.3166],[99.4044,17.3169],[99.4044,17.3177],[99.4021,17.3183],[99.403,17.3191],[99.4044,17.3191],[99.4044,17.3196],[99.403,17.3202],[99.4027,17.321],[99.4013,17.3218],[99.4027,17.3221],[99.403,17.3215],[99.4041,17.3213],[99.4047,17.3218],[99.4047,17.3229],[99.403,17.3229],[99.403,17.3234],[99.4024,17.3237],[99.4035,17.3245],[99.4035,17.3261],[99.4021,17.3261],[99.4013,17.3256],[99.3999,17.3259],[99.3993,17.328],[99.3988,17.328],[99.3982,17.3289],[99.4016,17.3291],[99.4007,17.3299],[99.4005,17.331],[99.3996,17.331],[99.3996,17.3316],[99.3985,17.3324],[99.399,17.3327],[99.3999,17.3321],[99.4019,17.3321],[99.4019,17.3335],[99.401,17.3335],[99.4007,17.3346],[99.3999,17.3346],[99.3996,17.3354],[99.401,17.3356],[99.4013,17.3351],[99.4024,17.3354],[99.4027,17.3348],[99.4041,17.3348],[99.4044,17.3364],[99.405,17.3364],[99.4053,17.3373],[99.4064,17.3378],[99.4067,17.3394],[99.4061,17.34],[99.407,17.34],[99.4067,17.3375],[99.4075,17.3375],[99.4075,17.3364],[99.4064,17.3364],[99.4064,17.3356],[99.4089,17.3351],[99.4095,17.334],[99.4086,17.3332],[99.4086,17.331],[99.4081,17.3305],[99.4084,17.3291],[99.4069,17.3294],[99.4067,17.3278],[99.4081,17.3275],[99.4098,17.3286],[99.4098,17.3294],[99.4103,17.3294],[99.4103,17.3321],[99.4112,17.3326],[99.4112,17.334],[99.4123,17.3334],[99.4129,17.3351],[99.4143,17.3353],[99.4137,17.3356],[99.4137,17.3362],[99.4143,17.3362],[99.4146,17.3367],[99.4151,17.3343],[99.4146,17.3343],[99.4143,17.3329],[99.4157,17.3315],[99.4171,17.3318],[99.4171,17.331],[99.4148,17.3307],[99.4148,17.3296],[99.416,17.3291],[99.416,17.3283],[99.4154,17.3283],[99.4154,17.3277],[99.416,17.3272],[99.4174,17.3272],[99.4171,17.3264],[99.4165,17.3264],[99.4165,17.325],[99.4177,17.325],[99.4179,17.3242],[99.4174,17.3231],[99.4185,17.3226],[99.4191,17.3204],[99.4196,17.3199],[99.4196,17.3188],[99.4213,17.3193],[99.4222,17.3182],[99.4236,17.3182],[99.4233,17.3209],[99.4227,17.3218],[99.4222,17.3258],[99.4216,17.3269],[99.4196,17.3264],[99.4196,17.3256],[99.4205,17.3248],[99.4205,17.3223],[99.4219,17.3212],[99.4205,17.3207],[99.4199,17.3212],[99.4199,17.3223],[99.4193,17.3226],[99.4193,17.3231],[99.4185,17.3234],[99.4182,17.3275],[99.4185,17.3286],[99.4194,17.3294],[99.4194,17.3302],[99.4188,17.3304],[99.4188,17.3323],[99.4194,17.3326],[99.4191,17.3332],[99.4197,17.3337],[99.4185,17.3334],[99.4177,17.3345],[99.4177,17.3378],[99.4171,17.3391],[99.4166,17.3391],[99.4177,17.3394],[99.4177,17.3402],[99.416,17.3402],[99.4157,17.3397],[99.412,17.3397],[99.4115,17.3402],[99.4121,17.3419],[99.4129,17.3421],[99.4129,17.3432],[99.4121,17.3438],[99.4121,17.3446],[99.4149,17.3456],[99.4152,17.3478],[99.4143,17.3478],[99.4138,17.3473],[99.4126,17.3475],[99.4121,17.3481],[99.4124,17.35],[99.4115,17.3503],[99.4115,17.3513],[99.4104,17.3513],[99.4095,17.3497],[99.4084,17.3503],[99.4084,17.3532],[99.4093,17.3543],[99.4101,17.3543],[99.4104,17.3549],[99.4101,17.3562],[99.4093,17.3565],[99.409,17.3573],[99.4081,17.3573],[99.4076,17.3562],[99.4059,17.3565],[99.4059,17.3554],[99.4064,17.3549],[99.4056,17.3546],[99.4056,17.3535],[99.4064,17.3533],[99.4064,17.3524],[99.4059,17.3519],[99.405,17.3519],[99.405,17.3508],[99.4042,17.3505],[99.4042,17.3514],[99.4025,17.3522],[99.4019,17.3546],[99.4011,17.3546],[99.4013,17.3535],[99.4008,17.353],[99.3997,17.353],[99.3988,17.3544],[99.3988,17.3552],[99.3968,17.3552],[99.3968,17.3557],[99.3957,17.3565],[99.3957,17.3579],[99.3946,17.3579]],[[99.4005,17.3489],[99.4013,17.3489],[99.4013,17.3487],[99.4005,17.3481],[99.4005,17.3489]],[[99.4078,17.3459],[99.4081,17.3462],[99.4081,17.3459],[99.4078,17.3459]],[[99.4081,17.3451],[99.4084,17.3457],[99.4084,17.3451],[99.4081,17.3451]],[[99.4087,17.3451],[99.409,17.3454],[99.409,17.3451],[99.4087,17.3451]],[[99.3996,17.3432],[99.4025,17.3427],[99.4025,17.3421],[99.4005,17.3421],[99.3996,17.3427],[99.3996,17.3432]],[[99.4033,17.3419],[99.4039,17.3413],[99.4036,17.3402],[99.403,17.3413],[99.4033,17.3419]],[[99.4055,17.3389],[99.4061,17.3392],[99.4061,17.3389],[99.4055,17.3389]],[[99.4022,17.3375],[99.4024,17.3383],[99.4024,17.3375],[99.4022,17.3375]],[[99.4024,17.3375],[99.4033,17.3373],[99.4036,17.3356],[99.4024,17.3362],[99.4024,17.3375]],[[99.3996,17.3356],[99.3999,17.3359],[99.3999,17.3356],[99.3996,17.3356]],[[99.4171,17.3294],[99.4182,17.3291],[99.4182,17.3286],[99.4177,17.3286],[99.4171,17.3294]],[[99.4205,17.3256],[99.4216,17.3256],[99.4216,17.3247],[99.4208,17.325],[99.4205,17.3256]],[[99.4216,17.3245],[99.4219,17.3247],[99.4219,17.3245],[99.4216,17.3245]],[[99.4213,17.3242],[99.4219,17.3242],[99.4219,17.3234],[99.4213,17.3234],[99.4213,17.3242]],[[99.4106,17.3166],[99.4114,17.3161],[99.4114,17.3153],[99.4103,17.3145],[99.4097,17.315],[99.4097,17.3158],[99.4106,17.3166]],[[99.4041,17.312],[99.4044,17.3123],[99.4044,17.312],[99.4041,17.312]],[[99.4035,17.3118],[99.4041,17.312],[99.4041,17.3118],[99.4035,17.3118]],[[99.423,17.3058],[99.4233,17.3063],[99.4233,17.3058],[99.423,17.3058]]]}},{"type":"Feature","properties":{"kind":"seasonal","area_km2":5.856,"date":"2026-10-09"},"geometry":{"type":"Polygon","coordinates":[[[99.8033,17.0641],[99.7988,17.0627],[99.7931,17.0587],[99.7931,17.0527],[99.7954,17.0522],[99.7951,17.0503],[99.7931,17.0481],[99.7922,17.0484],[99.7923,17.0489],[99.7917,17.0489],[99.7917,17.0495],[99.7903,17.0508],[99.7903,17.0519],[99.7909,17.0525],[99.7925,17.0527],[99.7926,17.0582],[99.7895,17.0582],[99.7883,17.059],[99.7872,17.059],[99.7864,17.0595],[99.7799,17.0596],[99.7793,17.059],[99.7785,17.059],[99.7765,17.0563],[99.7768,17.0528],[99.7773,17.0525],[99.7776,17.0514],[99.7793,17.0501],[99.7793,17.0495],[99.7798,17.0495],[99.7798,17.049],[99.781,17.0487],[99.7832,17.0468],[99.7838,17.0468],[99.7843,17.046],[99.7849,17.046],[99.7855,17.0452],[99.786,17.0452],[99.786,17.0446],[99.7866,17.0446],[99.788,17.043],[99.7886,17.043],[99.79,17.0414],[99.7905,17.0414],[99.7905,17.0408],[99.7919,17.0403],[99.7933,17.0389],[99.7945,17.0386],[99.795,17.0378],[99.7959,17.0378],[99.7961,17.0373],[99.797,17.0373],[99.7976,17.0367],[99.7998,17.0367],[99.8021,17.0381],[99.8026,17.0405],[99.8032,17.041],[99.8032,17.0432],[99.8038,17.0443],[99.8044,17.0484],[99.8049,17.0492],[99.8049,17.0508],[99.8055,17.0513],[99.8061,17.0546],[99.8067,17.0551],[99.8067,17.0562],[99.8081,17.0592],[99.8081,17.0614],[99.8075,17.0624],[99.807,17.0624],[99.807,17.063],[99.8064,17.063],[99.8056,17.0638],[99.8033,17.0641]],[[99.7951,17.059],[99.796,17.059],[99.796,17.0587],[99.7951,17.0584],[99.7951,17.059]],[[99.7945,17.0484],[99.7948,17.0487],[99.7948,17.0484],[99.7945,17.0484]],[[99.7993,17.0465],[99.7996,17.047],[99.7996,17.0465],[99.7993,17.0465]]]}},{"type":"Feature","properties":{"kind":"seasonal","area_km2":2.258,"date":"2026-10-09"},"geometry":{"type":"Polygon","coordinates":[[[99.3536,17.1809],[99.3536,17.1774],[99.3544,17.1771],[99.3547,17.1755],[99.3538,17.1746],[99.3516,17.1752],[99.3496,17.1749],[99.3496,17.1738],[99.3505,17.1738],[99.3519,17.173],[99.3507,17.1722],[99.3507,17.1711],[99.3544,17.1709],[99.355,17.1714],[99.3558,17.1714],[99.3561,17.1703],[99.3569,17.1695],[99.3578,17.1695],[99.3578,17.17],[99.3586,17.1708],[99.3595,17.1706],[99.3592,17.1687],[99.3586,17.1681],[99.3581,17.1681],[99.3572,17.1689],[99.3561,17.1689],[99.3555,17.1684],[99.3555,17.1676],[99.3561,17.1676],[99.3564,17.1668],[99.3544,17.1665],[99.3544,17.1657],[99.3535,17.1649],[99.3535,17.1643],[99.3552,17.1638],[99.3547,17.1633],[99.355,17.1622],[99.3558,17.1622],[99.3566,17.163],[99.3569,17.1619],[99.3581,17.1619],[99.3592,17.1627],[99.3617,17.1627],[99.3626,17.1635],[99.3626,17.1641],[99.3634,17.1649],[99.364,17.1649],[99.3648,17.1668],[99.3665,17.1668],[99.3665,17.1673],[99.3671,17.1676],[99.3674,17.1692],[99.3668,17.1695],[99.3668,17.17],[99.3682,17.1711],[99.3688,17.1722],[99.3691,17.1749],[99.3674,17.1752],[99.3657,17.1741],[99.3651,17.176],[99.3634,17.1763],[99.3629,17.1768],[99.3634,17.1779],[99.3632,17.1792],[99.3615,17.179],[99.3612,17.1798],[99.3603,17.1798],[99.3572,17.1774],[99.3567,17.1787],[99.3561,17.1787],[99.3561,17.1793],[99.3556,17.1793],[99.3544,17.1809],[99.3536,17.1809]],[[99.3654,17.1684],[99.366,17.1684],[99.366,17.1678],[99.3654,17.1678],[99.3654,17.1684]]]}},{"type":"Feature","properties":{"kind":"seasonal","area_km2":1.619,"date":"2026-10-09"},"geometry":{"type":"Polygon","coordinates":[[[99.7099,17.4004],[99.7093,17.3999],[99.7085,17.3999],[99.7082,17.3993],[99.707,17.3993],[99.7053,17.3977],[99.7045,17.3977],[99.7034,17.3966],[99.7034,17.3955],[99.705,17.3936],[99.7059,17.3912],[99.7084,17.3885],[99.7104,17.3885],[99.7127,17.3898],[99.7135,17.3898],[99.7138,17.3906],[99.724,17.3914],[99.7248,17.3919],[99.7248,17.3968],[99.724,17.3966],[99.724,17.3936],[99.7234,17.393],[99.7166,17.3933],[99.7164,17.3977],[99.7169,17.3985],[99.7189,17.3982],[99.7189,17.399],[99.7169,17.3993],[99.7147,17.4004],[99.7121,17.4004],[99.7118,17.3999],[99.7099,17.4004]],[[99.711,17.3985],[99.7116,17.3985],[99.7116,17.3977],[99.711,17.398],[99.711,17.3985]],[[99.711,17.3966],[99.7115,17.3969],[99.7115,17.3966],[99.711,17.3966]]]}},{"type":"Feature","properties":{"kind":"seasonal","area_km2":1.602,"date":"2026-10-09"},"geometry":{"type":"Polygon","coordinates":[[[99.9953,17.5323],[99.9953,17.5312],[99.997,17.5307],[99.9975,17.5236],[99.9963,17.5236],[99.9958,17.5244],[99.9918,17.5245],[99.9918,17.525],[99.9927,17.525],[99.9927,17.5258],[99.991,17.5275],[99.991,17.528],[99.9899,17.528],[99.9899,17.5275],[99.9893,17.5275],[99.9867,17.5253],[99.9867,17.5242],[99.9884,17.5226],[99.9896,17.5226],[99.9898,17.5231],[99.9904,17.5231],[99.9904,17.5237],[99.9913,17.5239],[99.9915,17.5226],[99.9958,17.5228],[99.9975,17.5215],[99.9977,17.5158],[99.998,17.5147],[99.9991,17.5133],[99.9991,17.512],[99.9971,17.5093],[99.9963,17.5093],[99.996,17.5087],[99.9951,17.5087],[99.9949,17.5082],[99.994,17.5082],[99.992,17.5071],[99.9926,17.5055],[99.994,17.5055],[99.9954,17.5066],[99.9965,17.5065],[99.9988,17.5082],[99.9997,17.5082],[99.9999,17.5087],[100.0008,17.5087],[100.0011,17.5092],[100.0028,17.5098],[100.0028,17.519],[100.0009,17.522],[99.9998,17.5317],[99.9953,17.5323]]]}},{"type":"Feature","properties":{"kind":"seasonal","area_km2":1.578,"date":"2026-10-09"},"geometry":{"type":"Polygon","coordinates":[[[99.0972,17.2305],[99.0938,17.2303],[99.0932,17.2294],[99.0924,17.2294],[99.0901,17.2284],[99.0876,17.2262],[99.087,17.2262],[99.0862,17.2251],[99.0847,17.2246],[99.0847,17.224],[99.0833,17.2235],[99.0831,17.2227],[99.0822,17.2221],[99.0822,17.221],[99.0816,17.2208],[99.0819,17.2194],[99.0845,17.2186],[99.0847,17.2181],[99.0859,17.2178],[99.0862,17.2172],[99.087,17.2172],[99.0873,17.2167],[99.0898,17.2167],[99.0904,17.2172],[99.0912,17.2172],[99.0924,17.2183],[99.0932,17.2183],[99.0932,17.22],[99.0907,17.2202],[99.0898,17.221],[99.0895,17.2221],[99.0907,17.2246],[99.0915,17.2248],[99.0921,17.2256],[99.0929,17.2256],[99.0946,17.2251],[99.0958,17.224],[99.0958,17.2251],[99.098,17.2278],[99.0989,17.2278],[99.0989,17.2273],[99.0977,17.2273],[99.0977,17.2265],[99.0969,17.2259],[99.0972,17.2254],[99.0986,17.2267],[99.0986,17.2262],[99.0972,17.2251],[99.0969,17.224],[99.0963,17.2237],[99.0963,17.2213],[99.0958,17.2213],[99.0958,17.2208],[99.0943,17.2208],[99.0941,17.2197],[99.0946,17.2189],[99.0997,17.2194],[99.1008,17.221],[99.1005,17.2224],[99.1011,17.2221],[99.1014,17.2227],[99.102,17.2256],[99.1017,17.2262],[99.1011,17.2262],[99.1011,17.2267],[99.1006,17.2267],[99.1006,17.2273],[99.1,17.2273],[99.1,17.2278],[99.0994,17.2278],[99.0994,17.2284],[99.0983,17.2294],[99.0977,17.2294],[99.0972,17.2305]],[[99.0986,17.2267],[99.0989,17.227],[99.0989,17.2267],[99.0986,17.2267]],[[99.0991,17.2267],[99.0997,17.2267],[99.1,17.2259],[99.1011,17.2256],[99.1011,17.2248],[99.1003,17.2237],[99.0991,17.2237],[99.0983,17.2246],[99.0974,17.2246],[99.0977,17.2254],[99.0986,17.2254],[99.0991,17.2267]],[[99.0969,17.224],[99.0989,17.2232],[99.0991,17.2221],[99.0983,17.2218],[99.0977,17.2224],[99.0969,17.2224],[99.0969,17.224]],[[99.1008,17.2232],[99.1011,17.2235],[99.1011,17.2232],[99.1008,17.2232]],[[99.0853,17.2213],[99.0856,17.2216],[99.0856,17.2213],[99.0853,17.2213]],[[99.1,17.2213],[99.1003,17.2216],[99.1003,17.2213],[99.1,17.2213]],[[99.0991,17.221],[99.0994,17.2213],[99.0994,17.221],[99.0991,17.221]],[[99.0845,17.2194],[99.0847,17.2197],[99.0847,17.2194],[99.0845,17.2194]]]}},{"type":"Feature","properties":{"kind":"seasonal","area_km2":1.517,"date":"2026-10-09"},"geometry":{"type":"Polygon","coordinates":[[[99.7283,17.1368],[99.7275,17.1343],[99.7275,17.1327],[99.7269,17.1322],[99.7252,17.1322],[99.7243,17.1303],[99.7224,17.1303],[99.7207,17.1297],[99.7207,17.1276],[99.7212,17.1259],[99.7218,17.1257],[99.7229,17.1186],[99.724,17.1186],[99.7246,17.1194],[99.7249,17.1246],[99.726,17.1254],[99.7277,17.1286],[99.7297,17.1303],[99.7342,17.1297],[99.7353,17.1291],[99.7415,17.1294],[99.7497,17.1288],[99.7494,17.1305],[99.7478,17.1324],[99.7421,17.1324],[99.7362,17.1335],[99.7354,17.1324],[99.7328,17.1324],[99.7325,17.1313],[99.7317,17.1308],[99.7314,17.1313],[99.7306,17.1313],[99.7297,17.1322],[99.7303,17.1332],[99.7303,17.1359],[99.7292,17.1368],[99.7283,17.1368]],[[99.7241,17.1267],[99.7243,17.127],[99.7243,17.1267],[99.7241,17.1267]]]}},{"type":"Feature","properties":{"kind":"seasonal","area_km2":1.32,"date":"2026-10-09"},"geometry":{"type":"Polygon","coordinates":[[[99.8894,17.0179],[99.8893,17.0168],[99.8899,17.0168],[99.8899,17.0163],[99.8879,17.0163],[99.8877,17.0168],[99.8857,17.0155],[99.8857,17.0147],[99.8879,17.0136],[99.8893,17.0136],[99.8896,17.013],[99.889,17.0114],[99.8885,17.0114],[99.8882,17.0128],[99.8868,17.0128],[99.8865,17.0122],[99.8871,17.0119],[99.8871,17.0098],[99.889,17.0095],[99.889,17.009],[99.8882,17.0087],[99.8879,17.0071],[99.8862,17.0071],[99.8868,17.0046],[99.8859,17.0044],[99.8859,17.003],[99.8873,17.003],[99.8873,17.0022],[99.8896,17.0011],[99.8904,17.0011],[99.8904,17.0005],[99.8915,17.0005],[99.8918,17.0011],[99.8938,17.0011],[99.8938,17.0005],[99.8932,17.0005],[99.8932,16.9997],[99.8943,16.9994],[99.8946,16.9978],[99.9003,16.9978],[99.9003,16.9986],[99.8994,16.9989],[99.8991,17.0008],[99.9005,17.0008],[99.9006,17.0021],[99.8986,17.0024],[99.8986,17.0032],[99.8994,17.0038],[99.8992,17.0048],[99.8997,17.0051],[99.8997,17.0057],[99.8975,17.0057],[99.8975,17.0062],[99.8966,17.0062],[99.8955,17.0049],[99.8955,17.004],[99.8961,17.004],[99.8958,17.0032],[99.8955,17.0032],[99.8955,17.0038],[99.8941,17.0038],[99.8941,17.0046],[99.8949,17.0046],[99.8949,17.0051],[99.8927,17.0049],[99.893,17.0035],[99.8921,17.003],[99.8924,17.0024],[99.8915,17.0022],[99.891,17.003],[99.891,17.0041],[99.8904,17.0043],[99.8901,17.0062],[99.8893,17.0071],[99.8885,17.0071],[99.889,17.0076],[99.8899,17.0076],[99.8899,17.0092],[99.8907,17.0098],[99.8907,17.0106],[99.8902,17.0106],[99.8905,17.0127],[99.8921,17.0122],[99.8927,17.0125],[99.8927,17.0133],[99.8916,17.0135],[99.8916,17.0141],[99.8933,17.0141],[99.8933,17.0146],[99.8947,17.0146],[99.8944,17.0171],[99.8922,17.0173],[99.8919,17.0179],[99.8894,17.0179]],[[99.8916,17.0163],[99.8922,17.0165],[99.8922,17.0163],[99.8916,17.0163]],[[99.8896,17.0138],[99.8899,17.0144],[99.8899,17.0138],[99.8896,17.0138]],[[99.8884,17.0041],[99.8896,17.0038],[99.8896,17.0033],[99.8884,17.0033],[99.8884,17.0041]],[[99.8941,17.0032],[99.8955,17.0032],[99.8955,17.0024],[99.8946,17.0021],[99.8941,17.0032]],[[99.8958,17.0016],[99.8963,17.0016],[99.8966,17.0008],[99.896,17.0008],[99.8958,17.0016]],[[99.8983,17.0016],[99.8989,17.0016],[99.8991,17.0008],[99.8983,17.0008],[99.8983,17.0016]]]}},{"type":"Feature","properties":{"kind":"seasonal","area_km2":1.265,"date":"2026-10-09"},"geometry":{"type":"Polygon","coordinates":[[[99.3784,17.9829],[99.3784,17.9794],[99.3775,17.9789],[99.3781,17.9775],[99.3775,17.977],[99.3769,17.9773],[99.3767,17.9762],[99.3761,17.9759],[99.3761,17.974],[99.3755,17.9743],[99.3755,17.9737],[99.3761,17.9735],[99.3744,17.9727],[99.3738,17.9721],[99.3738,17.9713],[99.3749,17.9705],[99.3752,17.9721],[99.3775,17.9721],[99.3775,17.9726],[99.3781,17.9726],[99.3781,17.9748],[99.3778,17.9754],[99.3767,17.9756],[99.3781,17.9756],[99.3786,17.9773],[99.3792,17.9773],[99.3789,17.9759],[99.3792,17.9751],[99.3798,17.9751],[99.3792,17.9745],[99.3803,17.9745],[99.3803,17.974],[99.3812,17.9743],[99.3812,17.9748],[99.3818,17.9745],[99.3815,17.9721],[99.382,17.9718],[99.382,17.9713],[99.384,17.9716],[99.3849,17.9726],[99.3849,17.974],[99.3871,17.974],[99.3871,17.9718],[99.3869,17.9707],[99.3863,17.9707],[99.3863,17.9699],[99.3868,17.9699],[99.3868,17.9694],[99.3871,17.9696],[99.3883,17.9694],[99.3874,17.9694],[99.3868,17.9686],[99.3868,17.9677],[99.3874,17.9672],[99.3874,17.9667],[99.3868,17.9664],[99.386,17.9664],[99.3854,17.968],[99.3849,17.968],[99.3849,17.965],[99.3863,17.9648],[99.3866,17.9653],[99.3871,17.9653],[99.3874,17.9648],[99.3883,17.9648],[99.3888,17.9672],[99.3905,17.9675],[99.3911,17.9667],[99.3911,17.9677],[99.3905,17.9683],[99.3891,17.9686],[99.3894,17.9691],[99.3908,17.9688],[99.3911,17.9699],[99.3905,17.9705],[99.3891,17.9702],[99.3883,17.971],[99.3886,17.9724],[99.388,17.9726],[99.388,17.9734],[99.3886,17.974],[99.39,17.9737],[99.3903,17.9761],[99.3908,17.9767],[99.3931,17.9767],[99.3934,17.978],[99.392,17.9794],[99.39,17.9794],[99.3897,17.9799],[99.3889,17.9799],[99.3883,17.9805],[99.3877,17.9799],[99.3877,17.9791],[99.3869,17.9786],[99.3869,17.9772],[99.3863,17.977],[99.3863,17.9764],[99.3854,17.9762],[99.3852,17.9753],[99.3837,17.9753],[99.3837,17.9778],[99.3823,17.9781],[99.3815,17.98],[99.3804,17.9808],[99.3801,17.9821],[99.3792,17.9829],[99.3784,17.9829]],[[99.388,17.9797],[99.3883,17.9799],[99.3883,17.9797],[99.388,17.9797]],[[99.3829,17.9759],[99.3832,17.9762],[99.3832,17.9759],[99.3829,17.9759]],[[99.3832,17.9753],[99.3835,17.9759],[99.3835,17.9753],[99.3832,17.9753]],[[99.3835,17.9751],[99.3837,17.9753],[99.3837,17.9751],[99.3835,17.9751]],[[99.3815,17.9748],[99.3818,17.9751],[99.3818,17.9748],[99.3815,17.9748]],[[99.3829,17.9743],[99.3832,17.9745],[99.3832,17.9743],[99.3829,17.9743]],[[99.3826,17.974],[99.3829,17.9743],[99.3829,17.974],[99.3826,17.974]],[[99.3832,17.974],[99.3835,17.9743],[99.3835,17.974],[99.3832,17.974]],[[99.3829,17.9735],[99.3832,17.9737],[99.3832,17.9734],[99.3829,17.9735]],[[99.3835,17.9734],[99.3837,17.9737],[99.3837,17.9734],[99.3835,17.9734]]]}},{"type":"Feature","properties":{"kind":"seasonal","area_km2":1.263,"date":"2026-10-09"},"geometry":{"type":"Polygon","coordinates":[[[99.199,17.1979],[99.1976,17.1971],[99.1965,17.1971],[99.1962,17.1966],[99.195,17.1966],[99.195,17.1949],[99.1942,17.1949],[99.1939,17.1936],[99.1928,17.1936],[99.1922,17.192],[99.1911,17.1917],[99.1911,17.1911],[99.1908,17.1911],[99.1908,17.1914],[99.19,17.1914],[99.19,17.192],[99.1911,17.192],[99.1917,17.1922],[99.1917,17.1928],[99.1897,17.1922],[99.1891,17.1933],[99.188,17.1939],[99.1877,17.1947],[99.1869,17.1947],[99.1869,17.1933],[99.1877,17.193],[99.1874,17.192],[99.1869,17.192],[99.1869,17.1911],[99.1877,17.1906],[99.1874,17.1901],[99.188,17.1901],[99.188,17.1892],[99.1877,17.1892],[99.1877,17.1898],[99.1863,17.1903],[99.1869,17.1898],[99.1863,17.1892],[99.1863,17.1868],[99.1877,17.1857],[99.1877,17.1852],[99.1914,17.1857],[99.1911,17.1849],[99.1925,17.1852],[99.1925,17.1841],[99.1933,17.1841],[99.1939,17.1835],[99.1964,17.1835],[99.1967,17.1846],[99.1979,17.1846],[99.1979,17.1863],[99.1996,17.1879],[99.2007,17.1879],[99.2007,17.189],[99.2004,17.189],[99.2001,17.1895],[99.2001,17.19],[99.2007,17.19],[99.2007,17.1919],[99.2001,17.1919],[99.1998,17.1914],[99.1993,17.1919],[99.1984,17.1909],[99.197,17.1909],[99.197,17.1925],[99.1967,17.193],[99.1962,17.193],[99.1965,17.1941],[99.1976,17.1944],[99.1979,17.1949],[99.197,17.1952],[99.197,17.1955],[99.1967,17.1955],[99.1967,17.1957],[99.1982,17.1955],[99.1984,17.1949],[99.2007,17.1952],[99.2007,17.1957],[99.2001,17.196],[99.2004,17.1979],[99.199,17.1979]],[[99.199,17.1966],[99.1993,17.1968],[99.1993,17.1966],[99.199,17.1966]],[[99.1996,17.1966],[99.1998,17.1968],[99.1998,17.1966],[99.1996,17.1966]],[[99.1965,17.196],[99.1967,17.1963],[99.1967,17.196],[99.1965,17.196]],[[99.1962,17.1957],[99.1965,17.196],[99.1965,17.1957],[99.1962,17.1957]],[[99.1965,17.1952],[99.1967,17.1955],[99.1967,17.1952],[99.1965,17.1952]],[[99.1953,17.1952],[99.1959,17.1952],[99.1962,17.1947],[99.1956,17.1944],[99.1953,17.1952]],[[99.1945,17.1936],[99.1948,17.1938],[99.1948,17.1936],[99.1945,17.1936]],[[99.1953,17.1933],[99.1956,17.1938],[99.1956,17.1933],[99.1953,17.1933]],[[99.1934,17.1933],[99.1939,17.1933],[99.1942,17.1925],[99.1934,17.1928],[99.1934,17.1933]],[[99.1948,17.1925],[99.1953,17.1933],[99.1953,17.1925],[99.1948,17.1925]],[[99.1925,17.192],[99.1928,17.1922],[99.1928,17.192],[99.1925,17.192]],[[99.195,17.1914],[99.1953,17.1919],[99.1953,17.1914],[99.195,17.1914]],[[99.1953,17.1911],[99.1959,17.1917],[99.1959,17.1911],[99.1953,17.1911]],[[99.1874,17.1914],[99.188,17.1914],[99.188,17.1911],[99.1874,17.1909],[99.1874,17.1914]],[[99.1922,17.1911],[99.1925,17.1914],[99.1925,17.1911],[99.1922,17.1911]],[[99.1948,17.1911],[99.195,17.1914],[99.195,17.1911],[99.1948,17.1911]],[[99.1902,17.1911],[99.1908,17.1909],[99.1922,17.1911],[99.1922,17.1895],[99.1917,17.1892],[99.1919,17.1909],[99.1908,17.1901],[99.1908,17.1906],[99.1905,17.1906],[99.1902,17.1911]],[[99.1925,17.1911],[99.1931,17.1911],[99.1928,17.1903],[99.1925,17.1903],[99.1925,17.1911]],[[99.1993,17.1909],[99.1996,17.1911],[99.1996,17.1909],[99.1993,17.1909]],[[99.1987,17.1906],[99.1993,17.1909],[99.1993,17.1906],[99.1987,17.1906]],[[99.19,17.1906],[99.1905,17.1906],[99.1905,17.1903],[99.1902,17.1901],[99.1897,17.1901],[99.19,17.1906]],[[99.1987,17.19],[99.1993,17.1903],[99.1993,17.19],[99.1987,17.19]],[[99.1888,17.1898],[99.1891,17.1901],[99.1891,17.1898],[99.1888,17.1898]],[[99.1894,17.1898],[99.1897,17.1901],[99.1897,17.1898],[99.1894,17.1898]],[[99.1945,17.1898],[99.1948,17.1901],[99.1948,17.1898],[99.1945,17.1898]],[[99.1979,17.1895],[99.1984,17.19],[99.1984,17.1895],[99.1979,17.1895]],[[99.1891,17.1895],[99.1894,17.1898],[99.1894,17.1895],[99.1891,17.1895]],[[99.1888,17.1892],[99.1891,17.1895],[99.1891,17.1892],[99.1888,17.1892]],[[99.1984,17.1895],[99.1993,17.1895],[99.1996,17.189],[99.199,17.189],[99.1984,17.1895]],[[99.1871,17.1887],[99.1877,17.1892],[99.1877,17.1887],[99.1871,17.1887]],[[99.1866,17.1887],[99.1869,17.189],[99.1869,17.1887],[99.1866,17.1887]],[[99.1922,17.1887],[99.1925,17.189],[99.1925,17.1887],[99.1922,17.1887]],[[99.1962,17.189],[99.197,17.189],[99.197,17.1882],[99.1965,17.1882],[99.1962,17.189]],[[99.1973,17.1887],[99.1979,17.189],[99.1979,17.1887],[99.1973,17.1887]],[[99.2001,17.1887],[99.2004,17.189],[99.2004,17.1887],[99.2001,17.1887]],[[99.1919,17.1882],[99.1922,17.1887],[99.1922,17.1882],[99.1919,17.1882]],[[99.1981,17.1884],[99.1984,17.1887],[99.1984,17.1884],[99.1981,17.1884]],[[99.1925,17.1882],[99.1928,17.1884],[99.1928,17.1882],[99.1925,17.1882]],[[99.1976,17.1881],[99.1979,17.1884],[99.1979,17.1881],[99.1976,17.1881]],[[99.1919,17.1879],[99.1925,17.1879],[99.1919,17.1868],[99.1922,17.1857],[99.1914,17.1863],[99.1919,17.1879]],[[99.1939,17.1873],[99.1942,17.1879],[99.1942,17.1873],[99.1939,17.1873]],[[99.1959,17.1876],[99.1962,17.1871],[99.1959,17.1871],[99.1959,17.1868],[99.1953,17.1868],[99.1953,17.1865],[99.195,17.1865],[99.195,17.1871],[99.1956,17.1871],[99.1959,17.1876]],[[99.1981,17.1871],[99.1984,17.1873],[99.1984,17.1871],[99.1981,17.1871]],[[99.1888,17.1865],[99.1891,17.1868],[99.1891,17.1865],[99.1888,17.1865]],[[99.1936,17.1868],[99.1942,17.1865],[99.1925,17.1857],[99.1925,17.186],[99.1936,17.1868]],[[99.1886,17.1863],[99.1888,17.1865],[99.1888,17.1863],[99.1886,17.1863]],[[99.1945,17.1863],[99.195,17.1865],[99.195,17.1863],[99.1945,17.1863]],[[99.1883,17.186],[99.1886,17.1863],[99.1885,17.186],[99.1883,17.186]],[[99.1942,17.1844],[99.1945,17.1846],[99.1945,17.1844],[99.1942,17.1844]]]}},{"type":"Feature","properties":{"kind":"seasonal","area_km2":1.257,"date":"2026-10-09"},"geometry":{"type":"Polygon","coordinates":[[[99.7824,17.0417],[99.7815,17.04],[99.7815,17.0389],[99.7801,17.0387],[99.7801,17.0379],[99.7809,17.0379],[99.7815,17.0376],[99.7815,17.0371],[99.7826,17.0368],[99.7826,17.0343],[99.7837,17.0341],[99.7837,17.0335],[99.7829,17.0332],[99.7829,17.0324],[99.7834,17.0324],[99.7837,17.0319],[99.7837,17.0308],[99.782,17.0305],[99.782,17.0297],[99.7826,17.0292],[99.782,17.0289],[99.782,17.0278],[99.7829,17.0278],[99.7831,17.0286],[99.784,17.0265],[99.7851,17.0267],[99.7848,17.03],[99.7854,17.03],[99.7854,17.0294],[99.7862,17.0294],[99.786,17.0313],[99.7871,17.0324],[99.7891,17.0321],[99.7885,17.0311],[99.7888,17.0278],[99.7902,17.0281],[99.7905,17.0305],[99.7902,17.0311],[99.7896,17.0311],[99.7902,17.0321],[99.7925,17.0313],[99.7922,17.0308],[99.791,17.0308],[99.791,17.0289],[99.7916,17.0286],[99.7927,17.0286],[99.7927,17.0291],[99.7919,17.0289],[99.7919,17.0297],[99.7927,17.0297],[99.7933,17.0313],[99.7958,17.0318],[99.7958,17.0329],[99.7953,17.0332],[99.7964,17.0329],[99.7964,17.031],[99.7987,17.0307],[99.7987,17.0316],[99.7981,17.0316],[99.7978,17.0324],[99.7989,17.0324],[99.7989,17.0332],[99.7978,17.0332],[99.797,17.0343],[99.7961,17.034],[99.795,17.034],[99.795,17.0348],[99.7928,17.0365],[99.7911,17.0365],[99.7905,17.0373],[99.7894,17.0373],[99.788,17.0381],[99.7868,17.0381],[99.7866,17.037],[99.7854,17.0368],[99.7863,17.0373],[99.7863,17.0384],[99.7846,17.0389],[99.7849,17.0403],[99.784,17.0408],[99.7838,17.0417],[99.7824,17.0417]],[[99.784,17.0376],[99.7843,17.0379],[99.7843,17.0376],[99.784,17.0376]],[[99.7905,17.0354],[99.7908,17.0357],[99.7908,17.0354],[99.7905,17.0354]],[[99.7874,17.0354],[99.7882,17.0354],[99.7891,17.0338],[99.7871,17.0335],[99.7871,17.034],[99.7877,17.034],[99.7874,17.0354]],[[99.7902,17.0351],[99.7905,17.0354],[99.7905,17.0351],[99.7902,17.0351]],[[99.7899,17.0348],[99.7902,17.0351],[99.7902,17.0348],[99.7899,17.0348]],[[99.7905,17.0348],[99.7908,17.0351],[99.7908,17.0348],[99.7905,17.0348]],[[99.7854,17.0346],[99.786,17.0341],[99.7857,17.0335],[99.7851,17.0338],[99.7854,17.0346]],[[99.7925,17.0346],[99.793,17.0346],[99.793,17.0338],[99.7925,17.0338],[99.7925,17.0346]],[[99.7947,17.0335],[99.795,17.034],[99.795,17.0335],[99.7947,17.0335]],[[99.7916,17.0335],[99.7919,17.0338],[99.7919,17.0335],[99.7916,17.0335]],[[99.7922,17.0335],[99.7925,17.0338],[99.7925,17.0335],[99.7922,17.0335]]]}},{"type":"Feature","properties":{"kind":"seasonal","area_km2":1.202,"date":"2026-10-09"},"geometry":{"type":"Polygon","coordinates":[[[99.0726,17.2715],[99.0723,17.2699],[99.0695,17.2699],[99.0687,17.269],[99.0681,17.2661],[99.0675,17.2658],[99.0675,17.2647],[99.0687,17.2647],[99.069,17.2601],[99.0681,17.2612],[99.0661,17.2612],[99.0661,17.2601],[99.0675,17.2587],[99.0684,17.2587],[99.0698,17.2596],[99.0704,17.2587],[99.0704,17.2568],[99.0743,17.2541],[99.0743,17.253],[99.0738,17.2528],[99.0738,17.2522],[99.0721,17.2509],[99.0709,17.2506],[99.0712,17.2479],[99.0738,17.2479],[99.074,17.2484],[99.0766,17.2495],[99.0771,17.2501],[99.0774,17.2517],[99.0794,17.2528],[99.0794,17.2547],[99.0786,17.2555],[99.078,17.2555],[99.078,17.256],[99.0757,17.256],[99.0752,17.2571],[99.0715,17.2574],[99.0715,17.2587],[99.0732,17.2593],[99.0726,17.2617],[99.0726,17.2644],[99.0729,17.2677],[99.0738,17.2693],[99.0738,17.2715],[99.0726,17.2715]],[[99.0698,17.2674],[99.0704,17.2685],[99.0704,17.2671],[99.0698,17.2674]],[[99.0695,17.2663],[99.0701,17.2669],[99.0701,17.2663],[99.0695,17.2663]],[[99.0709,17.2625],[99.0715,17.2628],[99.0715,17.2625],[99.0709,17.2625]]]}},{"type":"Feature","properties":{"kind":"seasonal","area_km2":0.983,"date":"2026-10-09"},"geometry":{"type":"Polygon","coordinates":[[[99.9911,17.5394],[99.9851,17.5389],[99.9834,17.5391],[99.9817,17.537],[99.9811,17.5346],[99.98,17.5337],[99.9797,17.5321],[99.9783,17.5305],[99.9783,17.5294],[99.9772,17.5283],[99.9771,17.527],[99.978,17.5264],[99.978,17.5259],[99.9786,17.5259],[99.9786,17.5253],[99.9791,17.5253],[99.9791,17.5248],[99.9797,17.5248],[99.9797,17.5243],[99.9811,17.5237],[99.9814,17.5226],[99.9825,17.5226],[99.9831,17.5232],[99.9831,17.5242],[99.9814,17.5245],[99.9811,17.5256],[99.98,17.5267],[99.9794,17.5267],[99.9786,17.5275],[99.9786,17.5281],[99.9794,17.5297],[99.98,17.5299],[99.9803,17.531],[99.9834,17.531],[99.9831,17.5335],[99.9837,17.534],[99.9837,17.5348],[99.9828,17.5356],[99.9834,17.5356],[99.9834,17.5362],[99.9846,17.537],[99.9843,17.5381],[99.986,17.5383],[99.9868,17.5378],[99.9868,17.537],[99.9862,17.5364],[99.9868,17.5362],[99.9865,17.5337],[99.9876,17.5337],[99.9879,17.5342],[99.9905,17.5342],[99.9913,17.5348],[99.9916,17.5356],[99.9953,17.5356],[99.9953,17.5329],[99.9961,17.5328],[99.9964,17.5391],[99.9911,17.5394]],[[99.9877,17.5353],[99.9879,17.5359],[99.9879,17.5353],[99.9877,17.5353]]]}},{"type":"Feature","properties":{"kind":"seasonal","area_km2":0.74,"date":"2026-10-09"},"geometry":{"type":"Polygon","coordinates":[[[99.9054,17.017],[99.906,17.0135],[99.9054,17.0132],[99.9051,17.0119],[99.9045,17.0121],[99.9048,17.0135],[99.9034,17.0135],[99.9034,17.013],[99.9015,17.013],[99.9015,17.0146],[99.8995,17.0149],[99.8992,17.0143],[99.8981,17.0151],[99.8981,17.0157],[99.8972,17.0157],[99.8978,17.0138],[99.8984,17.0138],[99.8984,17.0132],[99.8978,17.0133],[99.8978,17.0119],[99.8969,17.0119],[99.8969,17.0127],[99.8955,17.0124],[99.895,17.0127],[99.895,17.0135],[99.8941,17.0135],[99.8941,17.013],[99.8933,17.0125],[99.8933,17.0114],[99.895,17.0108],[99.8952,17.0097],[99.8944,17.0089],[99.8938,17.0089],[99.8938,17.0081],[99.8961,17.0078],[99.8964,17.0092],[99.8983,17.0086],[99.8983,17.0111],[99.9006,17.0108],[99.9012,17.0119],[99.9017,17.0119],[99.9017,17.0111],[99.9043,17.0111],[99.9043,17.01],[99.9028,17.0097],[99.9031,17.0083],[99.904,17.0083],[99.9043,17.0092],[99.9062,17.0091],[99.9065,17.0086],[99.9079,17.0089],[99.9076,17.0124],[99.9088,17.0124],[99.9091,17.014],[99.9082,17.0154],[99.9071,17.0157],[99.9068,17.017],[99.9054,17.017]],[[99.9051,17.011],[99.9054,17.0113],[99.9054,17.011],[99.9051,17.011]]]}},{"type":"Feature","properties":{"kind":"seasonal","area_km2":0.713,"date":"2026-10-09"},"geometry":{"type":"Polygon","coordinates":[[[99.0636,17.3512],[99.0645,17.3447],[99.065,17.3442],[99.0662,17.3439],[99.0676,17.3425],[99.0704,17.3428],[99.0721,17.3398],[99.0758,17.3398],[99.0758,17.3412],[99.0749,17.342],[99.0749,17.3428],[99.0732,17.3447],[99.0727,17.3447],[99.0721,17.3463],[99.0701,17.3482],[99.0701,17.3488],[99.0696,17.3488],[99.0693,17.3493],[99.0656,17.3496],[99.065,17.3509],[99.0636,17.3512]],[[99.0676,17.3482],[99.0681,17.3482],[99.0681,17.3477],[99.0676,17.3477],[99.0676,17.3482]],[[99.0673,17.3471],[99.0679,17.3466],[99.0693,17.3466],[99.0693,17.3461],[99.0676,17.3452],[99.0676,17.3463],[99.0667,17.3466],[99.0673,17.3471]],[[99.0653,17.3466],[99.0662,17.3466],[99.0662,17.3463],[99.0656,17.3461],[99.0653,17.3466]],[[99.0696,17.3455],[99.0698,17.3458],[99.0698,17.3455],[99.0696,17.3455]],[[99.0707,17.345],[99.071,17.3452],[99.071,17.345],[99.0707,17.345]],[[99.0715,17.3442],[99.0721,17.3444],[99.0721,17.3442],[99.0715,17.3442]]]}},{"type":"Feature","properties":{"kind":"seasonal","area_km2":0.671,"date":"2026-10-09"},"geometry":{"type":"Polygon","coordinates":[[[99.5888,17.503],[99.5865,17.5028],[99.5865,17.5014],[99.589,17.5006],[99.5885,17.5003],[99.5882,17.499],[99.5873,17.4987],[99.5873,17.4976],[99.5879,17.4976],[99.5893,17.4952],[99.5901,17.4952],[99.5907,17.4946],[99.5915,17.4927],[99.5927,17.4924],[99.593,17.4919],[99.5941,17.4919],[99.5944,17.4924],[99.5944,17.4957],[99.5949,17.4957],[99.5952,17.4951],[99.5966,17.4951],[99.5975,17.4957],[99.5975,17.4946],[99.5986,17.494],[99.5989,17.4927],[99.5995,17.4927],[99.6006,17.4916],[99.6006,17.4908],[99.6017,17.4908],[99.6023,17.4913],[99.6023,17.4919],[99.6017,17.4921],[99.6009,17.4919],[99.6009,17.493],[99.6023,17.493],[99.6023,17.4935],[99.6029,17.4938],[99.6026,17.4943],[99.6034,17.4951],[99.6046,17.4951],[99.6051,17.4948],[99.6051,17.4943],[99.6062,17.4943],[99.6046,17.4957],[99.6046,17.4965],[99.6034,17.4965],[99.6029,17.4951],[99.6012,17.4951],[99.6014,17.4935],[99.6003,17.4938],[99.6003,17.4946],[99.5995,17.4949],[99.5992,17.4957],[99.5983,17.4957],[99.5975,17.4968],[99.5938,17.4965],[99.5938,17.4979],[99.5947,17.4989],[99.5947,17.5011],[99.5941,17.5014],[99.5933,17.5014],[99.5933,17.4989],[99.5927,17.4984],[99.5918,17.4984],[99.5918,17.4979],[99.5907,17.4976],[99.5896,17.4984],[99.5902,17.499],[99.5899,17.5],[99.5904,17.5],[99.5904,17.5014],[99.589,17.5019],[99.5888,17.503]],[[99.5924,17.4973],[99.5927,17.4965],[99.5933,17.4965],[99.5927,17.4954],[99.5935,17.4957],[99.5935,17.4951],[99.593,17.4951],[99.5935,17.4946],[99.593,17.4935],[99.5924,17.4935],[99.5924,17.4949],[99.5921,17.4949],[99.5921,17.4954],[99.5918,17.4954],[99.5913,17.4962],[99.5918,17.497],[99.5924,17.4968],[99.5924,17.4973]],[[99.5916,17.4952],[99.5918,17.4954],[99.5918,17.4952],[99.5916,17.4952]],[[99.5935,17.4941],[99.5941,17.4941],[99.5941,17.4935],[99.5935,17.4935],[99.5935,17.4941]],[[99.6003,17.493],[99.6006,17.4932],[99.6006,17.493],[99.6003,17.493]]]}},{"type":"Feature","properties":{"kind":"seasonal","area_km2":0.553,"date":"2026-10-09"},"geometry":{"type":"Polygon","coordinates":[[[99.7872,17.3833],[99.786,17.3819],[99.786,17.3803],[99.7866,17.38],[99.7866,17.3792],[99.7877,17.3773],[99.7877,17.376],[99.7863,17.3754],[99.7829,17.3757],[99.7823,17.376],[99.7812,17.3782],[99.7798,17.3782],[99.7793,17.3779],[99.7792,17.3752],[99.7798,17.3744],[99.7809,17.3738],[99.7857,17.3738],[99.79,17.3741],[99.7911,17.3749],[99.7911,17.3787],[99.7894,17.3784],[99.7891,17.379],[99.7886,17.379],[99.7889,17.3803],[99.7903,17.3806],[99.7903,17.3814],[99.7894,17.3819],[99.7892,17.3827],[99.7872,17.3833]],[[99.788,17.3781],[99.7891,17.3776],[99.7903,17.3779],[99.7905,17.3773],[99.7891,17.3773],[99.7891,17.3765],[99.7886,17.3765],[99.788,17.3781]]]}},{"type":"Feature","properties":{"kind":"seasonal","area_km2":0.537,"date":"2026-10-09"},"geometry":{"type":"Polygon","coordinates":[[[99.0626,17.5074],[99.0623,17.5061],[99.0617,17.5061],[99.0617,17.5055],[99.0611,17.5055],[99.0611,17.505],[99.0606,17.505],[99.0606,17.5044],[99.06,17.5042],[99.0594,17.5017],[99.0572,17.5012],[99.056,17.5025],[99.0546,17.5028],[99.0532,17.5023],[99.0527,17.5028],[99.0518,17.5012],[99.0495,17.5006],[99.0524,17.5006],[99.0527,17.5001],[99.0532,17.5001],[99.0532,17.5006],[99.0538,17.5006],[99.0541,17.5012],[99.0563,17.5014],[99.0563,17.5006],[99.0577,17.4998],[99.0594,17.5001],[99.0597,17.5006],[99.0609,17.5009],[99.0609,17.5014],[99.062,17.5025],[99.0631,17.5017],[99.0631,17.5009],[99.0642,17.5009],[99.0662,17.499],[99.0668,17.499],[99.0674,17.4995],[99.0674,17.5004],[99.0668,17.5004],[99.0668,17.5009],[99.0679,17.5006],[99.0682,17.5014],[99.0676,17.5025],[99.0662,17.5023],[99.0659,17.5044],[99.0645,17.505],[99.0634,17.5071],[99.0626,17.5074]]]}},{"type":"Feature","properties":{"kind":"seasonal","area_km2":0.529,"date":"2026-10-09"},"geometry":{"type":"Polygon","coordinates":[[[99.3822,17.2329],[99.3819,17.2313],[99.3827,17.231],[99.3833,17.2299],[99.3819,17.2302],[99.3813,17.2296],[99.3813,17.228],[99.3819,17.2286],[99.3816,17.2294],[99.3825,17.2283],[99.3819,17.228],[99.3819,17.2272],[99.381,17.2269],[99.3819,17.2256],[99.381,17.2256],[99.3805,17.2242],[99.381,17.224],[99.3807,17.2221],[99.3816,17.2215],[99.3807,17.2212],[99.3807,17.2191],[99.3813,17.2185],[99.3827,17.2185],[99.3836,17.218],[99.3867,17.2174],[99.3864,17.2188],[99.3858,17.2182],[99.385,17.2183],[99.3847,17.2191],[99.3838,17.2193],[99.3841,17.2215],[99.385,17.2229],[99.3847,17.2229],[99.3847,17.2231],[99.3844,17.2231],[99.3844,17.2234],[99.3836,17.2237],[99.3836,17.2245],[99.3847,17.2253],[99.3847,17.2272],[99.3856,17.2283],[99.3853,17.2291],[99.3858,17.2296],[99.3853,17.2296],[99.3853,17.2294],[99.385,17.2294],[99.385,17.2318],[99.3833,17.2324],[99.383,17.2329],[99.3822,17.2329]],[[99.3833,17.2315],[99.3836,17.2318],[99.3836,17.2315],[99.3833,17.2315]],[[99.3822,17.2313],[99.3825,17.2315],[99.3825,17.2313],[99.3822,17.2313]],[[99.3822,17.2296],[99.3825,17.2299],[99.3825,17.2296],[99.3822,17.2296]],[[99.3847,17.2291],[99.385,17.2294],[99.385,17.2291],[99.3847,17.2291]],[[99.3836,17.2288],[99.3839,17.2291],[99.3839,17.2288],[99.3836,17.2288]],[[99.3836,17.2283],[99.3839,17.2277],[99.3836,17.2275],[99.383,17.2275],[99.3836,17.2283]],[[99.3824,17.2272],[99.383,17.2275],[99.383,17.2272],[99.3824,17.2272]],[[99.3822,17.2269],[99.3824,17.2272],[99.3824,17.2269],[99.3822,17.2269]],[[99.3827,17.2253],[99.383,17.2258],[99.3833,17.2253],[99.3827,17.2253]],[[99.3819,17.2253],[99.3824,17.2256],[99.3824,17.2253],[99.3819,17.2253]],[[99.3824,17.225],[99.3827,17.2253],[99.3827,17.225],[99.3824,17.225]],[[99.3827,17.2248],[99.383,17.225],[99.383,17.2248],[99.3827,17.2248]],[[99.3816,17.2245],[99.3819,17.2248],[99.3819,17.2245],[99.3816,17.2245]],[[99.3813,17.2242],[99.3816,17.2245],[99.3816,17.2242],[99.3813,17.2242]],[[99.3841,17.2229],[99.3844,17.2231],[99.3844,17.2229],[99.3841,17.2229]],[[99.3822,17.2223],[99.3824,17.2229],[99.3824,17.2223],[99.3822,17.2223]],[[99.3833,17.2212],[99.3836,17.2215],[99.3836,17.2212],[99.3833,17.2212]],[[99.3819,17.2207],[99.3824,17.2204],[99.3822,17.2196],[99.3816,17.2196],[99.3819,17.2207]],[[99.383,17.2191],[99.3833,17.2193],[99.3833,17.2191],[99.383,17.2191]],[[99.3827,17.2188],[99.383,17.2191],[99.383,17.2188],[99.3827,17.2188]]]}},{"type":"Feature","properties":{"kind":"seasonal","area_km2":0.528,"date":"2026-10-09"},"geometry":{"type":"Polygon","coordinates":[[[99.1753,17.1757],[99.1756,17.173],[99.175,17.1714],[99.173,17.1703],[99.173,17.1689],[99.1722,17.1689],[99.1719,17.1684],[99.1702,17.1684],[99.1688,17.167],[99.1688,17.1654],[99.1693,17.1649],[99.1702,17.1649],[99.1699,17.1662],[99.1693,17.1654],[99.1696,17.167],[99.1708,17.1676],[99.1708,17.1681],[99.1716,17.1681],[99.1719,17.1676],[99.1719,17.1681],[99.1736,17.1684],[99.1733,17.1667],[99.1727,17.1667],[99.1725,17.1673],[99.1719,17.1673],[99.1716,17.1668],[99.1719,17.1632],[99.171,17.1638],[99.171,17.1619],[99.1724,17.1621],[99.1727,17.1616],[99.1736,17.1616],[99.175,17.16],[99.1747,17.1586],[99.1758,17.1586],[99.1758,17.1597],[99.1764,17.16],[99.1764,17.1621],[99.173,17.1638],[99.1741,17.1659],[99.1753,17.1665],[99.1753,17.1684],[99.1747,17.1692],[99.1756,17.1692],[99.1767,17.1681],[99.1781,17.1678],[99.1781,17.1689],[99.1775,17.1692],[99.1778,17.1705],[99.177,17.1711],[99.1775,17.1727],[99.1764,17.1733],[99.1761,17.1743],[99.1767,17.1757],[99.1753,17.1757]],[[99.1719,17.1632],[99.1724,17.1632],[99.1724,17.1627],[99.1719,17.1627],[99.1719,17.1632]],[[99.1724,17.1624],[99.1727,17.1627],[99.1727,17.1624],[99.1724,17.1624]]]}},{"type":"Feature","properties":{"kind":"seasonal","area_km2":0.523,"date":"2026-10-09"},"geometry":{"type":"Polygon","coordinates":[[[99.0913,17.3829],[99.0902,17.3818],[99.0871,17.3821],[99.0868,17.3808],[99.0874,17.3805],[99.0874,17.38],[99.0868,17.38],[99.0868,17.3791],[99.0899,17.3781],[99.0907,17.3781],[99.091,17.3791],[99.0922,17.3791],[99.0922,17.3778],[99.093,17.3778],[99.0936,17.377],[99.0958,17.3762],[99.0967,17.3753],[99.0967,17.3748],[99.0978,17.3743],[99.0978,17.3737],[99.0992,17.3734],[99.0995,17.3748],[99.0989,17.3748],[99.0989,17.3756],[99.0981,17.3764],[99.0981,17.377],[99.0961,17.3783],[99.095,17.3816],[99.093,17.3816],[99.0922,17.3824],[99.0922,17.3829],[99.0913,17.3829]]]}},{"type":"Feature","properties":{"kind":"seasonal","area_km2":0.497,"date":"2026-10-09"},"geometry":{"type":"Polygon","coordinates":[[[99.7826,17.1089],[99.7804,17.1086],[99.7804,17.1059],[99.782,17.104],[99.782,17.1029],[99.7812,17.1038],[99.7804,17.1038],[99.7781,17.103],[99.7767,17.103],[99.7767,17.1021],[99.777,17.1013],[99.7789,17.1011],[99.7789,17.1],[99.7801,17.1],[99.7801,17.0981],[99.7815,17.0981],[99.782,17.0975],[99.782,17.097],[99.7815,17.097],[99.7814,17.0935],[99.7809,17.0935],[99.7809,17.0926],[99.7823,17.0924],[99.7826,17.094],[99.7834,17.094],[99.7831,17.0953],[99.7837,17.0959],[99.7837,17.0967],[99.7823,17.0964],[99.7823,17.097],[99.7831,17.097],[99.7834,17.0986],[99.7823,17.0983],[99.782,17.0997],[99.7809,17.0997],[99.7809,17.1002],[99.7818,17.1002],[99.7818,17.1013],[99.7826,17.1019],[99.7826,17.1024],[99.7835,17.1024],[99.7838,17.1067],[99.7823,17.1078],[99.7826,17.1089]],[[99.782,17.1027],[99.7823,17.1029],[99.7823,17.1027],[99.782,17.1027]],[[99.7792,17.1019],[99.7798,17.1019],[99.7801,17.1011],[99.7792,17.1011],[99.7792,17.1019]]]}},{"type":"Feature","properties":{"kind":"seasonal","area_km2":0.472,"date":"2026-10-09"},"geometry":{"type":"Polygon","coordinates":[[[99.8511,17.274],[99.8508,17.2719],[99.8513,17.2675],[99.8575,17.2675],[99.8578,17.2718],[99.8573,17.2737],[99.8544,17.2737],[99.8544,17.2716],[99.855,17.271],[99.855,17.27],[99.8541,17.2697],[99.8539,17.2738],[99.8511,17.274]]]}},{"type":"Feature","properties":{"kind":"seasonal","area_km2":0.441,"date":"2026-10-09"},"geometry":{"type":"Polygon","coordinates":[[[99.8568,17.659],[99.8546,17.6591],[99.8545,17.6582],[99.8557,17.6571],[99.8557,17.6561],[99.8537,17.6553],[99.854,17.6536],[99.8528,17.6523],[99.8542,17.6525],[99.8565,17.6504],[99.8565,17.6498],[99.8579,17.6487],[99.8579,17.6471],[99.8604,17.6468],[99.8604,17.6474],[99.8596,17.6474],[99.8587,17.6485],[99.8593,17.6517],[99.8579,17.652],[99.8573,17.6528],[99.8574,17.6555],[99.8591,17.6547],[99.8591,17.6558],[99.8599,17.6566],[99.8599,17.6571],[99.8594,17.6577],[99.8577,17.6571],[99.8565,17.6582],[99.8568,17.659]]]}},{"type":"Feature","properties":{"kind":"seasonal","area_km2":0.403,"date":"2026-10-09"},"geometry":{"type":"Polygon","coordinates":[[[99.7908,17.1037],[99.7905,17.1002],[99.7911,17.0997],[99.7913,17.0975],[99.7925,17.0975],[99.7925,17.0969],[99.7916,17.0969],[99.7916,17.0961],[99.7933,17.0961],[99.7933,17.0977],[99.7967,17.098],[99.7967,17.1026],[99.7942,17.1034],[99.7908,17.1037]],[[99.7944,17.1015],[99.7956,17.1015],[99.7956,17.101],[99.7944,17.1005],[99.7944,17.1015]]]}},{"type":"Feature","properties":{"kind":"seasonal","area_km2":0.394,"date":"2026-10-09"},"geometry":{"type":"Polygon","coordinates":[[[99.7927,17.1531],[99.7932,17.1512],[99.7924,17.1506],[99.7924,17.1501],[99.7887,17.1498],[99.7887,17.149],[99.7893,17.1487],[99.789,17.1479],[99.7862,17.1482],[99.7856,17.1469],[99.7839,17.1466],[99.7839,17.1458],[99.7856,17.1458],[99.7873,17.1466],[99.7879,17.1452],[99.7901,17.1455],[99.7901,17.1441],[99.7921,17.1441],[99.7924,17.1452],[99.7915,17.1452],[99.791,17.146],[99.7918,17.1468],[99.7918,17.1479],[99.7941,17.1482],[99.7938,17.1498],[99.7947,17.1509],[99.7947,17.1522],[99.7941,17.1525],[99.7941,17.1531],[99.7927,17.1531]]]}},{"type":"Feature","properties":{"kind":"seasonal","area_km2":0.388,"date":"2026-10-09"},"geometry":{"type":"Polygon","coordinates":[[[99.0151,17.3575],[99.0148,17.3564],[99.0156,17.3556],[99.0156,17.3539],[99.0142,17.3534],[99.0131,17.3537],[99.0125,17.3531],[99.0105,17.3526],[99.0105,17.3515],[99.0117,17.3507],[99.0114,17.3488],[99.012,17.3488],[99.0125,17.3477],[99.0139,17.348],[99.0145,17.3461],[99.0156,17.3461],[99.0151,17.348],[99.0159,17.3488],[99.0165,17.3485],[99.0165,17.3499],[99.0168,17.3504],[99.0179,17.3504],[99.0179,17.3512],[99.0176,17.3518],[99.0162,17.3518],[99.0165,17.3504],[99.0156,17.3501],[99.0153,17.3493],[99.0136,17.3499],[99.0151,17.3501],[99.0151,17.3507],[99.0142,17.3507],[99.0142,17.3515],[99.0136,17.3515],[99.0134,17.352],[99.0145,17.3523],[99.0145,17.3529],[99.0156,17.3529],[99.0156,17.352],[99.0165,17.352],[99.0165,17.3531],[99.0173,17.3531],[99.0173,17.3537],[99.0165,17.3539],[99.017,17.3542],[99.017,17.3553],[99.0165,17.3553],[99.0165,17.3558],[99.0201,17.3556],[99.0187,17.3566],[99.0176,17.3566],[99.0173,17.3561],[99.0168,17.3561],[99.0159,17.3569],[99.0159,17.3575],[99.0151,17.3575]],[[99.0117,17.3512],[99.012,17.3518],[99.012,17.3512],[99.0117,17.3512]],[[99.0128,17.3507],[99.0131,17.3512],[99.0131,17.3507],[99.0128,17.3507]],[[99.0153,17.3488],[99.0156,17.3491],[99.0156,17.3488],[99.0153,17.3488]]]}},{"type":"Feature","properties":{"kind":"seasonal","area_km2":0.353,"date":"2026-10-09"},"geometry":{"type":"Polygon","coordinates":[[[99.9166,17.0058],[99.9161,17.0053],[99.9161,17.0023],[99.9166,17.002],[99.9166,17.0015],[99.9146,17.0021],[99.9144,17.0004],[99.9172,17.0001],[99.9175,17.0007],[99.9174,16.9988],[99.9189,16.9988],[99.9191,16.9982],[99.9225,16.999],[99.9225,17.0004],[99.9234,17.0004],[99.9234,17.0026],[99.922,17.0026],[99.922,17.0034],[99.9214,17.0034],[99.9214,17.0028],[99.9208,17.0031],[99.9208,17.002],[99.9203,17.0018],[99.9197,17.0001],[99.9191,16.9996],[99.9183,16.9996],[99.9183,17.0007],[99.9194,17.0012],[99.9194,17.002],[99.9189,17.002],[99.9186,17.0031],[99.918,17.0034],[99.918,17.0053],[99.9166,17.0058]]]}},{"type":"Feature","properties":{"kind":"seasonal","area_km2":0.347,"date":"2026-10-09"},"geometry":{"type":"Polygon","coordinates":[[[99.9478,17.2584],[99.9472,17.2571],[99.9464,17.2571],[99.9458,17.2563],[99.9455,17.2525],[99.9461,17.2511],[99.948,17.2508],[99.9483,17.2514],[99.9494,17.2514],[99.9497,17.2519],[99.9526,17.2524],[99.9537,17.253],[99.9537,17.2535],[99.9545,17.2535],[99.9551,17.2568],[99.954,17.2565],[99.9534,17.2538],[99.9486,17.2541],[99.9483,17.2554],[99.9472,17.2563],[99.9472,17.2568],[99.9478,17.2562],[99.9486,17.2562],[99.9486,17.2584],[99.9478,17.2584]],[[99.9464,17.2546],[99.9469,17.2546],[99.9469,17.2541],[99.9464,17.2541],[99.9464,17.2546]],[[99.9514,17.253],[99.9517,17.2532],[99.9517,17.253],[99.9514,17.253]]]}},{"type":"Feature","properties":{"kind":"seasonal","area_km2":0.331,"date":"2026-10-09"},"geometry":{"type":"Polygon","coordinates":[[[99.0428,17.5025],[99.0416,17.5017],[99.0414,17.5004],[99.0405,17.4996],[99.0405,17.4987],[99.0394,17.4996],[99.0382,17.4996],[99.0368,17.5009],[99.0357,17.5009],[99.0351,17.5015],[99.0343,17.5015],[99.0343,17.5009],[99.0337,17.5012],[99.0334,17.4996],[99.0368,17.499],[99.0371,17.4985],[99.0365,17.4982],[99.0374,17.4974],[99.0394,17.4974],[99.0397,17.4968],[99.0402,17.4968],[99.0408,17.4977],[99.0428,17.4974],[99.0433,17.5001],[99.0447,17.5006],[99.0467,17.5004],[99.0459,17.5012],[99.045,17.5012],[99.0447,17.5017],[99.0439,17.5017],[99.0428,17.5025]]]}},{"type":"Feature","properties":{"kind":"seasonal","area_km2":0.331,"date":"2026-10-09"},"geometry":{"type":"Polygon","coordinates":[[[99.9102,17.0067],[99.9101,17.0045],[99.9107,17.0037],[99.9104,17.0015],[99.911,17.0015],[99.9113,17.001],[99.9087,17.001],[99.9084,16.9996],[99.9096,16.9994],[99.9096,16.9999],[99.9101,16.9999],[99.9104,16.9994],[99.9098,16.9991],[99.9098,16.9986],[99.9107,16.9977],[99.9157,16.9977],[99.916,16.9983],[99.9166,16.9983],[99.9166,16.9991],[99.9129,16.9994],[99.913,17.0023],[99.9124,17.0029],[99.913,17.0056],[99.9124,17.0061],[99.911,17.0059],[99.911,17.0067],[99.9102,17.0067]],[[99.9121,17.0002],[99.9124,17.0004],[99.9124,17.0002],[99.9121,17.0002]]]}},{"type":"Feature","properties":{"kind":"seasonal","area_km2":0.328,"date":"2026-10-09"},"geometry":{"type":"Polygon","coordinates":[[[99.3746,17.1296],[99.3744,17.1291],[99.3738,17.1291],[99.3738,17.1277],[99.3746,17.1274],[99.3749,17.1266],[99.3727,17.1261],[99.3729,17.1247],[99.3738,17.1247],[99.3738,17.1242],[99.3729,17.1242],[99.3729,17.1231],[99.3746,17.1223],[99.3743,17.1209],[99.3749,17.1206],[99.3777,17.1209],[99.3777,17.1231],[99.3772,17.1242],[99.3766,17.1242],[99.3769,17.1253],[99.3755,17.1258],[99.3758,17.1272],[99.3746,17.1282],[99.3775,17.1288],[99.3777,17.1282],[99.3789,17.128],[99.3791,17.1271],[99.3783,17.1266],[99.3783,17.1255],[99.3794,17.1263],[99.3794,17.1282],[99.3783,17.1285],[99.3775,17.1296],[99.3746,17.1296]],[[99.3766,17.1234],[99.3769,17.1236],[99.3769,17.1234],[99.3766,17.1234]]]}},{"type":"Feature","properties":{"kind":"seasonal","area_km2":0.313,"date":"2026-10-09"},"geometry":{"type":"Polygon","coordinates":[[[99.478,17.1831],[99.4774,17.1825],[99.4774,17.1814],[99.4763,17.1801],[99.4749,17.1801],[99.4746,17.1796],[99.4729,17.1798],[99.4723,17.1793],[99.4723,17.1785],[99.4737,17.1779],[99.4754,17.1779],[99.4757,17.1771],[99.4768,17.1771],[99.4777,17.176],[99.4777,17.1752],[99.4783,17.1749],[99.4783,17.1741],[99.4794,17.1738],[99.4797,17.1744],[99.4791,17.1752],[99.4791,17.1763],[99.478,17.1774],[99.4771,17.1774],[99.4769,17.179],[99.4785,17.1787],[99.4788,17.1795],[99.48,17.1793],[99.4805,17.1804],[99.4811,17.1798],[99.4817,17.1803],[99.4822,17.1793],[99.4822,17.1812],[99.48,17.1812],[99.478,17.1831]],[[99.4802,17.1804],[99.4805,17.1809],[99.4805,17.1804],[99.4802,17.1804]],[[99.48,17.1801],[99.4802,17.1804],[99.4802,17.1801],[99.48,17.1801]]]}},{"type":"Feature","properties":{"kind":"seasonal","area_km2":0.303,"date":"2026-10-09"},"geometry":{"type":"Polygon","coordinates":[[[99.7795,17.0259],[99.7795,17.0238],[99.7783,17.0235],[99.7783,17.0216],[99.7766,17.0219],[99.7758,17.0208],[99.7758,17.0194],[99.7778,17.0197],[99.7778,17.0192],[99.7783,17.0189],[99.778,17.0181],[99.7761,17.0178],[99.7761,17.017],[99.7769,17.017],[99.7772,17.0159],[99.7783,17.0159],[99.7789,17.0165],[99.7789,17.0173],[99.7808,17.0173],[99.7808,17.0186],[99.7794,17.0183],[99.7794,17.0211],[99.7806,17.023],[99.7817,17.0229],[99.7817,17.0248],[99.7806,17.0251],[99.7803,17.0259],[99.7795,17.0259]]]}},{"type":"Feature","properties":{"kind":"seasonal","area_km2":0.275,"date":"2026-10-09"},"geometry":{"type":"Polygon","coordinates":[[[99.885,17.8129],[99.8847,17.8124],[99.8842,17.8124],[99.8841,17.8113],[99.8824,17.811],[99.8813,17.8116],[99.8807,17.8105],[99.8827,17.8091],[99.8841,17.8091],[99.8841,17.8061],[99.8853,17.8059],[99.8855,17.8053],[99.8884,17.8053],[99.8895,17.8045],[99.8895,17.804],[99.8915,17.8037],[99.8915,17.8042],[99.8884,17.8075],[99.8875,17.8075],[99.8872,17.8069],[99.8855,17.807],[99.8858,17.8075],[99.8858,17.8097],[99.8856,17.8097],[99.8853,17.8099],[99.8856,17.8129],[99.885,17.8129]],[[99.8847,17.8097],[99.885,17.8102],[99.885,17.8097],[99.8847,17.8097]],[[99.8841,17.8097],[99.8844,17.8099],[99.8844,17.8097],[99.8841,17.8097]],[[99.885,17.808],[99.8856,17.8097],[99.8855,17.8078],[99.885,17.808]],[[99.885,17.8067],[99.8853,17.8075],[99.8855,17.8067],[99.885,17.8067]],[[99.8858,17.8064],[99.8861,17.8067],[99.8861,17.8064],[99.8858,17.8064]]]}},{"type":"Feature","properties":{"kind":"seasonal","area_km2":0.246,"date":"2026-10-09"},"geometry":{"type":"Polygon","coordinates":[[[99.7841,17.1319],[99.7822,17.1309],[99.7824,17.1295],[99.7855,17.13],[99.7869,17.1287],[99.7878,17.1287],[99.7884,17.1279],[99.7898,17.1279],[99.79,17.1273],[99.792,17.127],[99.7923,17.1297],[99.7909,17.1298],[99.7901,17.1306],[99.787,17.13],[99.7861,17.1314],[99.7853,17.1314],[99.7853,17.1319],[99.7841,17.1319]]]}},{"type":"Feature","properties":{"kind":"seasonal","area_km2":0.242,"date":"2026-10-09"},"geometry":{"type":"Polygon","coordinates":[[[99.0436,17.2937],[99.043,17.2926],[99.0413,17.2926],[99.0419,17.291],[99.0416,17.2899],[99.0424,17.2897],[99.0438,17.2872],[99.0455,17.2872],[99.047,17.2886],[99.047,17.2891],[99.0475,17.2891],[99.0478,17.291],[99.0475,17.2916],[99.0467,17.2916],[99.0464,17.291],[99.0453,17.2913],[99.0453,17.2918],[99.045,17.2918],[99.0438,17.2929],[99.0436,17.2937]],[[99.043,17.2916],[99.0436,17.2929],[99.0441,17.2913],[99.043,17.2916]],[[99.0447,17.2916],[99.045,17.2918],[99.045,17.2916],[99.0447,17.2916]],[[99.0422,17.2913],[99.0427,17.2916],[99.0427,17.2913],[99.0422,17.2913]],[[99.045,17.291],[99.0453,17.2913],[99.0453,17.291],[99.045,17.291]],[[99.0427,17.2907],[99.043,17.291],[99.043,17.2907],[99.0427,17.2907]],[[99.0427,17.2902],[99.043,17.2905],[99.043,17.2902],[99.0427,17.2902]],[[99.0467,17.2902],[99.047,17.2905],[99.047,17.2902],[99.0467,17.2902]],[[99.0441,17.2902],[99.0444,17.2897],[99.0433,17.2894],[99.0433,17.2897],[99.0441,17.2902]],[[99.0458,17.2899],[99.0461,17.2902],[99.0461,17.2899],[99.0458,17.2899]],[[99.0453,17.2894],[99.0455,17.2897],[99.0455,17.2894],[99.0453,17.2894]],[[99.0467,17.2891],[99.047,17.2894],[99.047,17.2891],[99.0467,17.2891]],[[99.0436,17.2888],[99.0438,17.2891],[99.0438,17.2888],[99.0436,17.2888]],[[99.0441,17.2891],[99.045,17.2891],[99.0444,17.2886],[99.0455,17.2883],[99.0441,17.2883],[99.0441,17.2891]],[[99.0455,17.2888],[99.0458,17.2891],[99.0458,17.2888],[99.0455,17.2888]],[[99.0461,17.2888],[99.0464,17.2891],[99.0464,17.2888],[99.0461,17.2888]]]}},{"type":"Feature","properties":{"kind":"seasonal","area_km2":0.241,"date":"2026-10-09"},"geometry":{"type":"Polygon","coordinates":[[[99.0154,17.8062],[99.0145,17.8057],[99.0137,17.806],[99.0134,17.8052],[99.0103,17.8044],[99.0103,17.8033],[99.0109,17.8027],[99.0103,17.8025],[99.0103,17.8014],[99.0114,17.8003],[99.0123,17.8003],[99.0125,17.8011],[99.0137,17.8011],[99.0154,17.8033],[99.0168,17.8038],[99.0174,17.8057],[99.0154,17.8062]],[[99.0154,17.806],[99.0159,17.8054],[99.0154,17.8052],[99.0154,17.8044],[99.0148,17.8044],[99.0148,17.8054],[99.0154,17.806]],[[99.0162,17.8052],[99.0165,17.8054],[99.0165,17.8052],[99.0162,17.8052]],[[99.0125,17.803],[99.0137,17.8027],[99.014,17.8016],[99.0111,17.8019],[99.0111,17.8025],[99.0123,17.8025],[99.0125,17.803]]]}},{"type":"Feature","properties":{"kind":"seasonal","area_km2":0.238,"date":"2026-10-09"},"geometry":{"type":"Polygon","coordinates":[[[99.9736,17.4454],[99.9733,17.4381],[99.9741,17.4367],[99.9753,17.4367],[99.9761,17.4378],[99.9761,17.441],[99.975,17.4421],[99.975,17.4427],[99.9759,17.4432],[99.9759,17.4448],[99.9736,17.4454]]]}},{"type":"Feature","properties":{"kind":"seasonal","area_km2":0.234,"date":"2026-10-09"},"geometry":{"type":"Polygon","coordinates":[[[99.965,17.4717],[99.9639,17.4704],[99.9638,17.4696],[99.9647,17.4693],[99.9644,17.4674],[99.9689,17.4663],[99.9695,17.4671],[99.9695,17.4687],[99.9667,17.4714],[99.965,17.4717]]]}},{"type":"Feature","properties":{"kind":"seasonal","area_km2":0.234,"date":"2026-10-09"},"geometry":{"type":"Polygon","coordinates":[[[99.9505,17.3538],[99.9469,17.3539],[99.9466,17.3533],[99.9454,17.3531],[99.9463,17.349],[99.9488,17.349],[99.9497,17.3501],[99.9505,17.3538]]]}},{"type":"Feature","properties":{"kind":"seasonal","area_km2":0.234,"date":"2026-10-09"},"geometry":{"type":"Polygon","coordinates":[[[99.7877,17.11],[99.7871,17.1073],[99.7885,17.1073],[99.788,17.104],[99.7902,17.1037],[99.7905,17.1043],[99.7911,17.1043],[99.7914,17.1056],[99.7925,17.1056],[99.7928,17.1075],[99.7897,17.1073],[99.7894,17.1081],[99.7908,17.1089],[99.7908,17.1097],[99.7877,17.11]]]}},{"type":"Feature","properties":{"kind":"seasonal","area_km2":0.228,"date":"2026-10-09"},"geometry":{"type":"Polygon","coordinates":[[[99.7745,17.1266],[99.7734,17.1263],[99.7734,17.1258],[99.7723,17.1249],[99.7703,17.1252],[99.77,17.1239],[99.7692,17.1241],[99.7694,17.125],[99.7686,17.125],[99.7686,17.1239],[99.7692,17.1239],[99.7692,17.1233],[99.7677,17.1233],[99.7675,17.122],[99.7708,17.1222],[99.7742,17.1233],[99.7762,17.1233],[99.7762,17.1241],[99.7751,17.1247],[99.7751,17.126],[99.7745,17.1266]]]}},{"type":"Feature","properties":{"kind":"seasonal","area_km2":0.226,"date":"2026-10-09"},"geometry":{"type":"Polygon","coordinates":[[[99.7986,17.1438],[99.7986,17.1427],[99.7977,17.1419],[99.7972,17.1419],[99.7972,17.1411],[99.7966,17.1408],[99.7966,17.14],[99.7974,17.1395],[99.7957,17.1387],[99.7957,17.1379],[99.7969,17.1381],[99.7974,17.1373],[99.7991,17.1373],[99.7991,17.1387],[99.8008,17.1387],[99.8008,17.1381],[99.8017,17.1381],[99.8017,17.1392],[99.8,17.14],[99.8003,17.1435],[99.7986,17.1438]]]}},{"type":"Feature","properties":{"kind":"seasonal","area_km2":0.226,"date":"2026-10-09"},"geometry":{"type":"Polygon","coordinates":[[[99.9046,17.0845],[99.9043,17.084],[99.9029,17.0837],[99.9018,17.081],[99.8998,17.0786],[99.9001,17.0772],[99.9012,17.0775],[99.9015,17.0786],[99.9032,17.0807],[99.9029,17.0816],[99.9035,17.0821],[99.9035,17.0829],[99.904,17.0829],[99.9038,17.0826],[99.904,17.0821],[99.9043,17.0835],[99.9049,17.0834],[99.9049,17.0821],[99.9063,17.081],[99.9069,17.081],[99.9071,17.0815],[99.9066,17.0818],[99.9069,17.0824],[99.9057,17.0824],[99.9057,17.0829],[99.9066,17.0834],[99.9069,17.0829],[99.9102,17.0829],[99.9105,17.0821],[99.91,17.0821],[99.91,17.0807],[99.9111,17.0821],[99.9111,17.0834],[99.9091,17.0834],[99.9046,17.0845]]]}},{"type":"Feature","properties":{"kind":"seasonal","area_km2":0.224,"date":"2026-10-09"},"geometry":{"type":"Polygon","coordinates":[[[99.0454,17.7436],[99.0442,17.742],[99.0445,17.7395],[99.0457,17.7382],[99.0479,17.7374],[99.0479,17.7385],[99.0468,17.739],[99.0468,17.7406],[99.0476,17.7412],[99.0476,17.7422],[99.0485,17.7425],[99.0485,17.7395],[99.0493,17.7395],[99.0499,17.7417],[99.0493,17.7422],[99.0493,17.7431],[99.0454,17.7436]]]}},{"type":"Feature","properties":{"kind":"seasonal","area_km2":0.222,"date":"2026-10-09"},"geometry":{"type":"Polygon","coordinates":[[[99.8018,17.0313],[99.7989,17.0253],[99.7989,17.0245],[99.8,17.0237],[99.8012,17.024],[99.8012,17.0245],[99.8023,17.0253],[99.8032,17.0272],[99.8032,17.0305],[99.8026,17.0307],[99.8026,17.0313],[99.8018,17.0313]]]}},{"type":"Feature","properties":{"kind":"seasonal","area_km2":0.221,"date":"2026-10-09"},"geometry":{"type":"Polygon","coordinates":[[[99.9868,17.5291],[99.9853,17.5278],[99.9811,17.5278],[99.9811,17.527],[99.9825,17.5259],[99.9825,17.5253],[99.9836,17.5242],[99.9845,17.5242],[99.9859,17.5256],[99.9865,17.5256],[99.9876,17.5269],[99.9885,17.5272],[99.9885,17.5285],[99.9879,17.5291],[99.9868,17.5291]]]}},{"type":"Feature","properties":{"kind":"seasonal","area_km2":0.219,"date":"2026-10-09"},"geometry":{"type":"Polygon","coordinates":[[[99.7938,17.092],[99.7902,17.0918],[99.7902,17.091],[99.791,17.0907],[99.791,17.088],[99.7961,17.0882],[99.7961,17.0891],[99.7955,17.0893],[99.7958,17.092],[99.7941,17.092],[99.7944,17.091],[99.7938,17.0899],[99.7927,17.0902],[99.7927,17.091],[99.7938,17.0912],[99.7938,17.092]]]}},{"type":"Feature","properties":{"kind":"seasonal","area_km2":0.218,"date":"2026-10-09"},"geometry":{"type":"Polygon","coordinates":[[[99.9076,17.0075],[99.907,17.004],[99.9054,17.0043],[99.9053,17.0029],[99.9048,17.0024],[99.9053,17.0021],[99.9051,17.0005],[99.9059,17.0002],[99.9059,16.9994],[99.9076,16.9996],[99.9076,17.0015],[99.9084,17.0024],[99.9082,17.004],[99.909,17.0043],[99.9087,17.0064],[99.9093,17.0067],[99.9093,17.0075],[99.9076,17.0075]]]}},{"type":"Feature","properties":{"kind":"seasonal","area_km2":0.216,"date":"2026-10-09"},"geometry":{"type":"Polygon","coordinates":[[[99.6065,17.4916],[99.6068,17.4908],[99.6054,17.49],[99.6054,17.4889],[99.6074,17.4886],[99.6073,17.4851],[99.6068,17.4848],[99.6068,17.4834],[99.6076,17.4826],[99.6071,17.4821],[99.6073,17.4805],[99.6065,17.4799],[99.6065,17.4786],[99.6076,17.4786],[99.6079,17.4791],[99.6099,17.4791],[99.611,17.4807],[99.6121,17.4804],[99.6121,17.4815],[99.6116,17.4815],[99.6119,17.481],[99.6099,17.481],[99.6102,17.4815],[99.6099,17.4824],[99.6096,17.481],[99.609,17.4805],[99.6082,17.481],[99.6085,17.4832],[99.6079,17.4837],[99.6079,17.4886],[99.6076,17.4891],[99.6059,17.4894],[99.6068,17.4905],[99.6074,17.4905],[99.6074,17.4916],[99.6065,17.4916]]]}},{"type":"Feature","properties":{"kind":"seasonal","area_km2":0.213,"date":"2026-10-09"},"geometry":{"type":"Polygon","coordinates":[[[99.0715,17.3387],[99.071,17.3379],[99.071,17.3363],[99.0721,17.336],[99.0721,17.3349],[99.0732,17.3344],[99.0763,17.3341],[99.076,17.3379],[99.0744,17.3379],[99.0735,17.3385],[99.0715,17.3387]]]}},{"type":"Feature","properties":{"kind":"seasonal","area_km2":0.211,"date":"2026-10-09"},"geometry":{"type":"Polygon","coordinates":[[[99.7912,17.53],[99.7906,17.5294],[99.7906,17.5281],[99.7912,17.5275],[99.7934,17.5264],[99.794,17.5267],[99.794,17.5275],[99.7949,17.5275],[99.7949,17.5264],[99.7968,17.5262],[99.7977,17.5256],[99.7985,17.5259],[99.7983,17.5272],[99.7977,17.5272],[99.7971,17.5281],[99.7966,17.5281],[99.7946,17.5297],[99.7912,17.53]]]}},{"type":"Feature","properties":{"kind":"seasonal","area_km2":0.211,"date":"2026-10-09"},"geometry":{"type":"Polygon","coordinates":[[[99.1175,17.6666],[99.1172,17.6658],[99.1189,17.6641],[99.1192,17.663],[99.1197,17.6628],[99.1197,17.662],[99.1223,17.662],[99.1223,17.6603],[99.1229,17.6603],[99.1234,17.6592],[99.126,17.6592],[99.1243,17.6595],[99.1248,17.6598],[99.1248,17.6603],[99.1245,17.6609],[99.124,17.6609],[99.1243,17.6617],[99.124,17.6622],[99.1234,17.6622],[99.1234,17.6628],[99.1245,17.6625],[99.1245,17.663],[99.1214,17.6633],[99.1209,17.6639],[99.1212,17.6652],[99.1192,17.6652],[99.118,17.6666],[99.1175,17.6666]]]}},{"type":"Feature","properties":{"kind":"seasonal","area_km2":0.211,"date":"2026-10-09"},"geometry":{"type":"Polygon","coordinates":[[[99.461,17.1435],[99.4607,17.1422],[99.4615,17.1422],[99.4615,17.1416],[99.4604,17.1414],[99.4601,17.1405],[99.4587,17.1405],[99.4581,17.137],[99.459,17.1365],[99.4595,17.1365],[99.4595,17.137],[99.4593,17.1376],[99.4587,17.1376],[99.4587,17.1384],[99.4593,17.1384],[99.4598,17.1395],[99.4604,17.1395],[99.4604,17.1389],[99.4615,17.1389],[99.4618,17.1394],[99.4646,17.1389],[99.4632,17.1381],[99.4635,17.1373],[99.4652,17.1386],[99.4652,17.1394],[99.4658,17.1397],[99.4658,17.1408],[99.4629,17.1405],[99.4627,17.1419],[99.4618,17.1422],[99.4621,17.1432],[99.461,17.1435]],[[99.461,17.1397],[99.4612,17.1405],[99.4612,17.1397],[99.461,17.1397]],[[99.4595,17.1395],[99.4598,17.1397],[99.4598,17.1395],[99.4595,17.1395]],[[99.4604,17.1395],[99.461,17.1397],[99.461,17.1395],[99.4604,17.1395]]]}},{"type":"Feature","properties":{"kind":"seasonal","area_km2":0.21,"date":"2026-10-09"},"geometry":{"type":"Polygon","coordinates":[[[99.1544,17.1443],[99.1541,17.1429],[99.1544,17.1418],[99.1566,17.1415],[99.1566,17.141],[99.1572,17.141],[99.1578,17.1421],[99.1586,17.1421],[99.1586,17.1415],[99.16,17.1399],[99.1611,17.1399],[99.1617,17.1394],[99.162,17.138],[99.1634,17.1383],[99.1631,17.1405],[99.1637,17.141],[99.1645,17.141],[99.1645,17.1421],[99.1628,17.1424],[99.1623,17.1413],[99.1609,17.141],[99.1606,17.1415],[99.1595,17.1418],[99.16,17.1424],[99.16,17.1432],[99.1589,17.1426],[99.1583,17.1437],[99.1575,17.1429],[99.1569,17.1432],[99.1566,17.1426],[99.1544,17.1424],[99.1544,17.1443]]]}},{"type":"Feature","properties":{"kind":"seasonal","area_km2":0.207,"date":"2026-10-09"},"geometry":{"type":"Polygon","coordinates":[[[99.7793,17.1181],[99.7793,17.1171],[99.7759,17.1176],[99.7756,17.1163],[99.7742,17.116],[99.7739,17.1141],[99.7745,17.1141],[99.7745,17.1127],[99.7756,17.1127],[99.7762,17.1133],[99.7759,17.1144],[99.7776,17.1143],[99.7776,17.1154],[99.7782,17.1162],[99.7787,17.1162],[99.779,17.1157],[99.7784,17.1152],[99.7784,17.1143],[99.7798,17.1146],[99.7804,17.1179],[99.7793,17.1181]]]}},{"type":"Feature","properties":{"kind":"seasonal","area_km2":0.207,"date":"2026-10-09"},"geometry":{"type":"Polygon","coordinates":[[[99.8117,17.0405],[99.8117,17.0383],[99.8091,17.0383],[99.8091,17.0388],[99.8069,17.0386],[99.8069,17.0356],[99.808,17.0356],[99.8085,17.0367],[99.81,17.0367],[99.81,17.0375],[99.8108,17.0367],[99.8122,17.0367],[99.8136,17.038],[99.8145,17.038],[99.8139,17.0399],[99.8117,17.0405]]]}},{"type":"Feature","properties":{"kind":"seasonal","area_km2":0.203,"date":"2026-10-09"},"geometry":{"type":"Polygon","coordinates":[[[99.7521,17.1538],[99.7504,17.1538],[99.7507,17.1516],[99.7512,17.1513],[99.7512,17.1505],[99.7507,17.1505],[99.7507,17.1494],[99.7546,17.1483],[99.7543,17.15],[99.7552,17.15],[99.7552,17.1513],[99.7557,17.151],[99.7554,17.15],[99.7563,17.15],[99.7566,17.1518],[99.7557,17.1521],[99.7557,17.1527],[99.7549,17.1527],[99.7538,17.1521],[99.7538,17.1516],[99.7526,17.1505],[99.7521,17.1511],[99.7521,17.1538]]]}},{"type":"Feature","properties":{"kind":"seasonal","area_km2":0.201,"date":"2026-10-09"},"geometry":{"type":"Polygon","coordinates":[[[99.3852,17.2147],[99.3852,17.2126],[99.3858,17.212],[99.3847,17.2107],[99.3847,17.2093],[99.3872,17.2093],[99.3889,17.2107],[99.3889,17.2131],[99.3872,17.2136],[99.3869,17.2147],[99.3852,17.2147]]]}},{"type":"Feature","properties":{"kind":"seasonal","area_km2":0.194,"date":"2026-10-09"},"geometry":{"type":"Polygon","coordinates":[[[99.1146,17.1101],[99.1129,17.1096],[99.112,17.1088],[99.1129,17.1085],[99.1126,17.1069],[99.1132,17.1063],[99.1106,17.1066],[99.1104,17.1071],[99.1104,17.1088],[99.1109,17.1096],[99.1118,17.1098],[99.1101,17.1098],[99.1098,17.1069],[99.1106,17.106],[99.1132,17.1058],[99.1137,17.1052],[99.1151,17.1058],[99.1154,17.1071],[99.1149,17.1074],[99.1149,17.1082],[99.1166,17.109],[99.1166,17.1101],[99.1146,17.1101]]]}},{"type":"Feature","properties":{"kind":"seasonal","area_km2":0.191,"date":"2026-10-09"},"geometry":{"type":"Polygon","coordinates":[[[99.2153,17.1374],[99.2147,17.1361],[99.2147,17.135],[99.2159,17.1344],[99.2153,17.1323],[99.2164,17.1323],[99.2175,17.1331],[99.2175,17.1339],[99.2187,17.1339],[99.2192,17.1369],[99.2184,17.1374],[99.2153,17.1374]]]}},{"type":"Feature","properties":{"kind":"seasonal","area_km2":0.189,"date":"2026-10-09"},"geometry":{"type":"Polygon","coordinates":[[[99.1349,17.4908],[99.1332,17.49],[99.1329,17.4895],[99.1298,17.4895],[99.1298,17.4884],[99.1312,17.4879],[99.1329,17.4879],[99.1332,17.4884],[99.134,17.4884],[99.1355,17.4895],[99.1366,17.4895],[99.1371,17.4892],[99.1374,17.4879],[99.1388,17.4878],[99.1386,17.4908],[99.1349,17.4908]]]}},{"type":"Feature","properties":{"kind":"seasonal","area_km2":0.187,"date":"2026-10-09"},"geometry":{"type":"Polygon","coordinates":[[[99.8662,17.0768],[99.8659,17.0755],[99.8665,17.0749],[99.8668,17.0711],[99.8682,17.0709],[99.8682,17.0725],[99.8693,17.0728],[99.8693,17.0736],[99.8705,17.0747],[99.8705,17.0755],[99.8676,17.0768],[99.8662,17.0768]]]}},{"type":"Feature","properties":{"kind":"seasonal","area_km2":0.184,"date":"2026-10-09"},"geometry":{"type":"Polygon","coordinates":[[[99.1009,17.3737],[99.0992,17.3734],[99.0995,17.3721],[99.1001,17.3721],[99.1001,17.3715],[99.1006,17.3715],[99.1006,17.371],[99.1012,17.371],[99.1015,17.3705],[99.1029,17.3702],[99.104,17.3683],[99.1049,17.3677],[99.1049,17.3672],[99.106,17.3672],[99.106,17.3696],[99.1046,17.3702],[99.1032,17.3724],[99.1009,17.3732],[99.1009,17.3737]]]}},{"type":"Feature","properties":{"kind":"seasonal","area_km2":0.182,"date":"2026-10-09"},"geometry":{"type":"Polygon","coordinates":[[[99.5178,17.3996],[99.5178,17.3986],[99.5184,17.3983],[99.5187,17.3969],[99.5195,17.3961],[99.52,17.392],[99.5161,17.3918],[99.5155,17.3926],[99.5147,17.3926],[99.515,17.3904],[99.5158,17.3904],[99.5172,17.3915],[99.5189,17.3915],[99.5195,17.391],[99.5203,17.3915],[99.5203,17.3929],[99.5209,17.3928],[99.5206,17.3939],[99.5217,17.3937],[99.5212,17.3958],[99.5201,17.3972],[99.5195,17.3988],[99.5187,17.3996],[99.5178,17.3996]]]}},{"type":"Feature","properties":{"kind":"seasonal","area_km2":0.176,"date":"2026-10-09"},"geometry":{"type":"Polygon","coordinates":[[[99.1075,17.0662],[99.1075,17.0656],[99.1067,17.0648],[99.1061,17.0648],[99.1058,17.064],[99.105,17.064],[99.1041,17.0632],[99.1038,17.0621],[99.1053,17.0624],[99.1053,17.0629],[99.1055,17.0624],[99.1069,17.0627],[99.1069,17.0637],[99.1075,17.0646],[99.1078,17.0618],[99.105,17.0616],[99.1047,17.061],[99.1041,17.061],[99.1041,17.0605],[99.1053,17.0605],[99.1055,17.061],[99.1072,17.0613],[99.1095,17.061],[99.1095,17.0624],[99.1084,17.0624],[99.1086,17.0637],[99.1095,17.064],[99.1095,17.0651],[99.1086,17.0662],[99.1075,17.0662]],[[99.1064,17.0635],[99.1067,17.0637],[99.1067,17.0635],[99.1064,17.0635]],[[99.1055,17.0635],[99.1064,17.0635],[99.1064,17.0632],[99.1055,17.0629],[99.1055,17.0635]]]}},{"type":"Feature","properties":{"kind":"seasonal","area_km2":0.175,"date":"2026-10-09"},"geometry":{"type":"Polygon","coordinates":[[[99.8601,17.088],[99.8604,17.0853],[99.8618,17.0842],[99.864,17.0842],[99.8643,17.0853],[99.8654,17.0861],[99.8654,17.0869],[99.8646,17.0874],[99.8601,17.088]]]}},{"type":"Feature","properties":{"kind":"seasonal","area_km2":0.172,"date":"2026-10-09"},"geometry":{"type":"Polygon","coordinates":[[[99.1536,17.2053],[99.153,17.2031],[99.1533,17.2015],[99.155,17.2017],[99.1558,17.2009],[99.1567,17.2009],[99.157,17.2017],[99.1584,17.2017],[99.1581,17.2028],[99.1572,17.2028],[99.157,17.2039],[99.1564,17.2039],[99.1556,17.2053],[99.1536,17.2053]]]}},{"type":"Feature","properties":{"kind":"seasonal","area_km2":0.166,"date":"2026-10-09"},"geometry":{"type":"Polygon","coordinates":[[[99.01,17.3811],[99.0097,17.38],[99.0072,17.3797],[99.0072,17.3789],[99.0088,17.3786],[99.0105,17.3794],[99.0105,17.3781],[99.0103,17.3775],[99.0097,17.3775],[99.0094,17.3756],[99.0111,17.3751],[99.0111,17.3775],[99.0131,17.3775],[99.0134,17.3797],[99.012,17.3797],[99.0108,17.3811],[99.01,17.3811]]]}},{"type":"Feature","properties":{"kind":"seasonal","area_km2":0.164,"date":"2026-10-09"},"geometry":{"type":"Polygon","coordinates":[[[99.1703,17.5678],[99.1686,17.5659],[99.1686,17.5648],[99.1694,17.5638],[99.1717,17.5635],[99.1731,17.5643],[99.1731,17.5656],[99.172,17.5673],[99.1703,17.5678]]]}},{"type":"Feature","properties":{"kind":"seasonal","area_km2":0.163,"date":"2026-10-09"},"geometry":{"type":"Polygon","coordinates":[[[99.7935,17.4177],[99.7941,17.4134],[99.7947,17.4128],[99.7955,17.4128],[99.7955,17.4144],[99.7966,17.4142],[99.7972,17.4128],[99.7963,17.4128],[99.7963,17.4115],[99.7966,17.4109],[99.7983,17.4109],[99.7975,17.415],[99.7952,17.4163],[99.7952,17.4177],[99.7935,17.4177]],[[99.7941,17.4161],[99.7949,17.4163],[99.7949,17.4161],[99.7941,17.4161]],[[99.7949,17.4147],[99.7955,17.4153],[99.7955,17.4144],[99.7949,17.4147]]]}},{"type":"Feature","properties":{"kind":"seasonal","area_km2":0.161,"date":"2026-10-09"},"geometry":{"type":"Polygon","coordinates":[[[99.3443,17.0299],[99.3446,17.0285],[99.3457,17.0285],[99.346,17.0277],[99.346,17.0217],[99.3451,17.0214],[99.3445,17.0223],[99.3431,17.0225],[99.3431,17.0217],[99.3426,17.0212],[99.3412,17.0209],[99.3412,17.0198],[99.3434,17.0198],[99.344,17.0193],[99.3448,17.0193],[99.3443,17.0201],[99.3426,17.0204],[99.3437,17.0209],[99.3434,17.0223],[99.3454,17.0212],[99.3454,17.0206],[99.3457,17.0212],[99.3462,17.0212],[99.3468,17.0223],[99.3468,17.0247],[99.3462,17.0263],[99.3474,17.0269],[99.3474,17.0288],[99.3465,17.0288],[99.3451,17.0299],[99.3443,17.0299]],[[99.3423,17.0204],[99.3426,17.0206],[99.3426,17.0204],[99.3423,17.0204]]]}},{"type":"Feature","properties":{"kind":"seasonal","area_km2":0.159,"date":"2026-10-09"},"geometry":{"type":"Polygon","coordinates":[[[99.0767,17.4548],[99.0761,17.4537],[99.0752,17.4537],[99.0755,17.4513],[99.0767,17.451],[99.0778,17.4518],[99.0781,17.4507],[99.0786,17.4507],[99.0786,17.4502],[99.0795,17.4502],[99.0795,17.4515],[99.0789,17.4521],[99.08,17.4526],[99.0806,17.4518],[99.0806,17.4507],[99.08,17.4505],[99.0809,17.4505],[99.0812,17.4518],[99.0806,17.4521],[99.0806,17.4526],[99.0792,17.4532],[99.0792,17.4537],[99.0778,17.4537],[99.0778,17.4543],[99.0767,17.4548]],[[99.0786,17.4521],[99.0789,17.4524],[99.0789,17.4521],[99.0786,17.4521]]]}},{"type":"Feature","properties":{"kind":"seasonal","area_km2":0.158,"date":"2026-10-09"},"geometry":{"type":"Polygon","coordinates":[[[99.7993,17.1072],[99.7964,17.107],[99.7964,17.1034],[99.7976,17.1034],[99.7981,17.1045],[99.7984,17.1034],[99.8009,17.1034],[99.8015,17.104],[99.8015,17.1048],[99.7998,17.1048],[99.7998,17.1061],[99.7993,17.1064],[99.7993,17.1072]]]}},{"type":"Feature","properties":{"kind":"seasonal","area_km2":0.157,"date":"2026-10-09"},"geometry":{"type":"Polygon","coordinates":[[[99.6958,17.5553],[99.6952,17.5547],[99.6949,17.5531],[99.6929,17.5531],[99.6918,17.552],[99.6921,17.551],[99.6932,17.551],[99.6938,17.5518],[99.696,17.552],[99.6963,17.5528],[99.6969,17.5523],[99.698,17.5523],[99.6992,17.5528],[99.698,17.5536],[99.698,17.5553],[99.6958,17.5553]],[[99.6966,17.5537],[99.6969,17.5542],[99.6972,17.5536],[99.6966,17.5537]],[[99.6972,17.5534],[99.6977,17.5534],[99.698,17.5526],[99.6972,17.5528],[99.6972,17.5534]]]}},{"type":"Feature","properties":{"kind":"seasonal","area_km2":0.155,"date":"2026-10-09"},"geometry":{"type":"Polygon","coordinates":[[[99.3587,17.0759],[99.3579,17.0754],[99.3579,17.074],[99.359,17.0732],[99.3584,17.0721],[99.3584,17.0697],[99.3601,17.0697],[99.3607,17.0705],[99.3607,17.0716],[99.3613,17.0719],[99.3613,17.0729],[99.3599,17.0746],[99.3599,17.0757],[99.3587,17.0759]]]}},{"type":"Feature","properties":{"kind":"seasonal","area_km2":0.154,"date":"2026-10-09"},"geometry":{"type":"Polygon","coordinates":[[[99.7984,17.1029],[99.7978,17.1021],[99.7978,17.0988],[99.7984,17.0983],[99.8015,17.0985],[99.8012,17.1012],[99.8006,17.1015],[99.8007,17.1021],[99.7992,17.1029],[99.7984,17.1029]]]}},{"type":"Feature","properties":{"kind":"seasonal","area_km2":0.153,"date":"2026-10-09"},"geometry":{"type":"Polygon","coordinates":[[[99.0311,17.2634],[99.0311,17.262],[99.0297,17.2617],[99.0297,17.2604],[99.0311,17.259],[99.034,17.259],[99.034,17.2615],[99.0331,17.2617],[99.0328,17.2634],[99.0311,17.2634]]]}},{"type":"Feature","properties":{"kind":"seasonal","area_km2":0.151,"date":"2026-10-09"},"geometry":{"type":"Polygon","coordinates":[[[99.0184,17.1725],[99.0181,17.1706],[99.019,17.1706],[99.0201,17.1698],[99.0201,17.1693],[99.019,17.1682],[99.019,17.1674],[99.0204,17.1674],[99.0221,17.1693],[99.0224,17.1712],[99.021,17.1722],[99.0198,17.172],[99.0184,17.1725]]]}},{"type":"Feature","properties":{"kind":"seasonal","area_km2":0.15,"date":"2026-10-09"},"geometry":{"type":"Polygon","coordinates":[[[99.7658,17.0512],[99.7646,17.0499],[99.7641,17.0499],[99.7641,17.049],[99.7649,17.0477],[99.7672,17.0482],[99.7677,17.0488],[99.7677,17.0504],[99.7686,17.0498],[99.7683,17.0485],[99.7694,17.0482],[99.7694,17.0509],[99.7658,17.0512]]]}},{"type":"Feature","properties":{"kind":"seasonal","area_km2":0.149,"date":"2026-10-09"},"geometry":{"type":"Polygon","coordinates":[[[99.7784,17.0997],[99.7784,17.0989],[99.7772,17.0989],[99.7772,17.0984],[99.7755,17.0978],[99.775,17.0959],[99.7769,17.0954],[99.7769,17.0959],[99.7775,17.0959],[99.7778,17.0965],[99.7778,17.0948],[99.7781,17.0943],[99.7789,17.0943],[99.7795,17.0964],[99.7792,17.0973],[99.7781,17.0973],[99.7778,17.0981],[99.7789,17.0981],[99.7795,17.0997],[99.7784,17.0997]]]}},{"type":"Feature","properties":{"kind":"seasonal","area_km2":0.148,"date":"2026-10-09"},"geometry":{"type":"Polygon","coordinates":[[[99.7997,17.1479],[99.7992,17.1473],[99.7991,17.1465],[99.8,17.1457],[99.8011,17.1454],[99.802,17.1454],[99.8025,17.146],[99.8028,17.1452],[99.8022,17.1449],[99.8022,17.1438],[99.8037,17.1438],[99.8037,17.1452],[99.8048,17.146],[99.8048,17.1468],[99.8042,17.1473],[99.7997,17.1479]]]}},{"type":"Feature","properties":{"kind":"seasonal","area_km2":0.146,"date":"2026-10-09"},"geometry":{"type":"Polygon","coordinates":[[[99.8874,17.0789],[99.8874,17.0784],[99.8865,17.0784],[99.8857,17.0773],[99.8857,17.0759],[99.8862,17.0749],[99.8857,17.0727],[99.8857,17.0702],[99.8859,17.0713],[99.8876,17.0716],[99.8874,17.0781],[99.8896,17.0778],[99.8896,17.0789],[99.8874,17.0789]],[[99.8865,17.0721],[99.8868,17.0724],[99.8868,17.0721],[99.8865,17.0721]],[[99.8862,17.0719],[99.8865,17.0721],[99.8865,17.0719],[99.8862,17.0719]],[[99.8868,17.0719],[99.8871,17.0721],[99.8871,17.0719],[99.8868,17.0719]]]}},{"type":"Feature","properties":{"kind":"seasonal","area_km2":0.143,"date":"2026-10-09"},"geometry":{"type":"Polygon","coordinates":[[[99.9842,17.5202],[99.9847,17.5188],[99.9853,17.5188],[99.9853,17.5183],[99.9859,17.5183],[99.9859,17.5177],[99.9864,17.5177],[99.9864,17.5172],[99.987,17.5172],[99.987,17.5166],[99.9875,17.5164],[99.9875,17.5155],[99.9884,17.5147],[99.9884,17.5139],[99.9889,17.5136],[99.9895,17.5117],[99.9901,17.5112],[99.9909,17.5112],[99.9906,17.5128],[99.9901,17.5131],[99.9884,17.5172],[99.987,17.5183],[99.987,17.5188],[99.9859,17.5193],[99.9856,17.5202],[99.9842,17.5202]]]}},{"type":"Feature","properties":{"kind":"seasonal","area_km2":0.136,"date":"2026-10-09"},"geometry":{"type":"Polygon","coordinates":[[[99.8967,17.3134],[99.8964,17.311],[99.8975,17.3096],[99.9012,17.3099],[99.9012,17.311],[99.8987,17.3115],[99.8984,17.3134],[99.8967,17.3134]]]}},{"type":"Feature","properties":{"kind":"seasonal","area_km2":0.135,"date":"2026-10-09"},"geometry":{"type":"Polygon","coordinates":[[[99.1153,17.3184],[99.1147,17.3176],[99.1133,17.3176],[99.113,17.3181],[99.1122,17.3181],[99.1122,17.3165],[99.1127,17.3151],[99.1147,17.3149],[99.1147,17.3143],[99.1133,17.3143],[99.1133,17.3135],[99.1164,17.314],[99.1158,17.3146],[99.1158,17.3151],[99.1164,17.3154],[99.1156,17.3154],[99.1153,17.3159],[99.1153,17.3178],[99.1158,17.3181],[99.1153,17.3184]],[[99.1144,17.3165],[99.1147,17.3168],[99.1147,17.3165],[99.1144,17.3165]]]}},{"type":"Feature","properties":{"kind":"seasonal","area_km2":0.131,"date":"2026-10-09"},"geometry":{"type":"Polygon","coordinates":[[[99.9111,17.0224],[99.9108,17.0216],[99.9097,17.0216],[99.9094,17.0202],[99.9099,17.0202],[99.9099,17.0183],[99.9105,17.017],[99.9119,17.017],[99.9119,17.0175],[99.9125,17.0175],[99.9125,17.0194],[99.9111,17.02],[99.9108,17.0213],[99.9136,17.0213],[99.9136,17.0221],[99.9111,17.0224]]]}},{"type":"Feature","properties":{"kind":"seasonal","area_km2":0.131,"date":"2026-10-09"},"geometry":{"type":"Polygon","coordinates":[[[99.0419,17.3672],[99.0413,17.3632],[99.0419,17.3626],[99.0447,17.3626],[99.0444,17.3656],[99.0436,17.3659],[99.0427,17.3672],[99.0419,17.3672]],[[99.0436,17.3637],[99.0439,17.364],[99.0439,17.3637],[99.0436,17.3637]]]}},{"type":"Feature","properties":{"kind":"seasonal","area_km2":0.13,"date":"2026-10-09"},"geometry":{"type":"Polygon","coordinates":[[[99.7057,17.5596],[99.7054,17.558],[99.7045,17.5571],[99.704,17.5572],[99.704,17.5561],[99.7031,17.555],[99.704,17.555],[99.7043,17.5555],[99.7048,17.5555],[99.7048,17.5563],[99.7057,17.5566],[99.7065,17.5523],[99.7057,17.5523],[99.7056,17.5512],[99.7042,17.5504],[99.7056,17.5506],[99.7062,17.5517],[99.7073,17.552],[99.7071,17.5542],[99.7062,17.555],[99.7065,17.5596],[99.7057,17.5596]]]}},{"type":"Feature","properties":{"kind":"seasonal","area_km2":0.13,"date":"2026-10-09"},"geometry":{"type":"Polygon","coordinates":[[[99.116,17.1888],[99.1141,17.1885],[99.1132,17.1877],[99.1132,17.1839],[99.1141,17.1836],[99.1141,17.1831],[99.1149,17.1831],[99.1155,17.1836],[99.1149,17.1869],[99.1158,17.1871],[99.116,17.1888]]]}},{"type":"Feature","properties":{"kind":"seasonal","area_km2":0.129,"date":"2026-10-09"},"geometry":{"type":"Polygon","coordinates":[[[99.4917,17.243],[99.4914,17.2413],[99.4928,17.2408],[99.4931,17.24],[99.4939,17.2394],[99.4939,17.2378],[99.4951,17.2375],[99.4956,17.2383],[99.4962,17.2383],[99.4962,17.2394],[99.4951,17.2402],[99.4951,17.2408],[99.4931,17.2427],[99.4917,17.243]]]}},{"type":"Feature","properties":{"kind":"seasonal","area_km2":0.129,"date":"2026-10-09"},"geometry":{"type":"Polygon","coordinates":[[[99.6776,17.0043],[99.6734,17.0038],[99.674,17.0014],[99.6751,17.0014],[99.6759,17.0019],[99.6779,17.0014],[99.6779,17.0038],[99.6776,17.0043]]]}},{"type":"Feature","properties":{"kind":"seasonal","area_km2":0.128,"date":"2026-10-09"},"geometry":{"type":"Polygon","coordinates":[[[99.7838,17.1271],[99.7838,17.1265],[99.7824,17.1268],[99.7824,17.126],[99.7827,17.1252],[99.7838,17.1252],[99.7847,17.1241],[99.7838,17.1235],[99.7838,17.1225],[99.7844,17.1219],[99.7855,17.1219],[99.7861,17.1222],[99.7861,17.1252],[99.7852,17.1257],[99.785,17.1271],[99.7838,17.1271]]]}},{"type":"Feature","properties":{"kind":"seasonal","area_km2":0.127,"date":"2026-10-09"},"geometry":{"type":"Polygon","coordinates":[[[99.7008,17.5501],[99.7003,17.5496],[99.7005,17.5485],[99.6997,17.5485],[99.6997,17.5479],[99.7025,17.5485],[99.7028,17.5474],[99.7017,17.5474],[99.7022,17.5469],[99.7019,17.5447],[99.7034,17.5444],[99.7036,17.546],[99.7045,17.5468],[99.7045,17.5474],[99.7034,17.5479],[99.7028,17.5498],[99.7008,17.5501]],[[99.7014,17.5498],[99.702,17.5498],[99.7017,17.5488],[99.7011,17.549],[99.7014,17.5498]]]}},{"type":"Feature","properties":{"kind":"seasonal","area_km2":0.127,"date":"2026-10-09"},"geometry":{"type":"Polygon","coordinates":[[[99.7723,17.0628],[99.772,17.0607],[99.7737,17.0607],[99.7743,17.0601],[99.7737,17.058],[99.7742,17.0574],[99.7751,17.0574],[99.7751,17.0585],[99.7757,17.059],[99.7754,17.062],[99.7743,17.062],[99.7737,17.0628],[99.7723,17.0628]]]}},{"type":"Feature","properties":{"kind":"seasonal","area_km2":0.127,"date":"2026-10-09"},"geometry":{"type":"Polygon","coordinates":[[[99.1822,17.0352],[99.1805,17.0349],[99.1808,17.0336],[99.1802,17.0333],[99.1802,17.0322],[99.1813,17.0317],[99.1813,17.0306],[99.183,17.0306],[99.1833,17.0339],[99.1822,17.0352]]]}},{"type":"Feature","properties":{"kind":"seasonal","area_km2":0.124,"date":"2026-10-09"},"geometry":{"type":"Polygon","coordinates":[[[99.4064,17.9504],[99.4055,17.9501],[99.4055,17.9485],[99.4063,17.9468],[99.4078,17.9468],[99.4095,17.9476],[99.4092,17.9501],[99.4086,17.9498],[99.4064,17.9504]]]}},{"type":"Feature","properties":{"kind":"seasonal","area_km2":0.124,"date":"2026-10-09"},"geometry":{"type":"Polygon","coordinates":[[[99.0718,17.2471],[99.0723,17.24],[99.0729,17.2395],[99.0743,17.2395],[99.0743,17.2403],[99.0737,17.2403],[99.0732,17.2411],[99.0732,17.2433],[99.0738,17.2438],[99.0735,17.2463],[99.0726,17.2471],[99.0718,17.2471]]]}},{"type":"Feature","properties":{"kind":"seasonal","area_km2":0.119,"date":"2026-10-09"},"geometry":{"type":"Polygon","coordinates":[[[99.1719,17.5328],[99.1708,17.5315],[99.1708,17.5301],[99.1722,17.5293],[99.1731,17.5293],[99.1739,17.5301],[99.1748,17.5326],[99.1719,17.5328]]]}},{"type":"Feature","properties":{"kind":"seasonal","area_km2":0.115,"date":"2026-10-09"},"geometry":{"type":"Polygon","coordinates":[[[99.3568,17.8273],[99.356,17.8268],[99.3548,17.8268],[99.3548,17.8255],[99.3554,17.8252],[99.3554,17.8246],[99.3545,17.8241],[99.3545,17.8233],[99.356,17.823],[99.3557,17.8206],[99.3568,17.8206],[99.3571,17.8225],[99.3582,17.8241],[99.3579,17.8249],[99.3577,17.8238],[99.356,17.8238],[99.3562,17.8257],[99.3557,17.8257],[99.3557,17.8265],[99.3579,17.8271],[99.3568,17.8273]],[[99.3557,17.8236],[99.356,17.8238],[99.356,17.8236],[99.3557,17.8236]]]}},{"type":"Feature","properties":{"kind":"seasonal","area_km2":0.112,"date":"2026-10-09"},"geometry":{"type":"Polygon","coordinates":[[[99.7686,17.0566],[99.7683,17.0555],[99.7675,17.0553],[99.7677,17.0542],[99.7669,17.0531],[99.7672,17.0515],[99.768,17.0515],[99.7686,17.0526],[99.7691,17.0526],[99.7694,17.0517],[99.7703,17.0517],[99.7703,17.0534],[99.7686,17.0536],[99.7686,17.0545],[99.7694,17.0547],[99.7694,17.0566],[99.7686,17.0566]]]}},{"type":"Feature","properties":{"kind":"seasonal","area_km2":0.108,"date":"2026-10-09"},"geometry":{"type":"Polygon","coordinates":[[[99.9643,17.4427],[99.9637,17.4424],[99.9637,17.4408],[99.9645,17.44],[99.9671,17.4397],[99.9679,17.4422],[99.966,17.4422],[99.9643,17.4427]]]}},{"type":"Feature","properties":{"kind":"seasonal","area_km2":0.106,"date":"2026-10-09"},"geometry":{"type":"Polygon","coordinates":[[[99.6877,17.5054],[99.6877,17.5035],[99.6865,17.5041],[99.6851,17.5041],[99.6854,17.5027],[99.686,17.5022],[99.6899,17.5019],[99.6899,17.5027],[99.6888,17.5038],[99.6888,17.5054],[99.6877,17.5054]],[[99.6877,17.5032],[99.6879,17.5035],[99.6879,17.5032],[99.6877,17.5032]]]}},{"type":"Feature","properties":{"kind":"seasonal","area_km2":0.105,"date":"2026-10-09"},"geometry":{"type":"Polygon","coordinates":[[[99.9896,17.522],[99.9896,17.521],[99.9904,17.5204],[99.9904,17.5199],[99.991,17.5199],[99.991,17.5193],[99.9932,17.5171],[99.9932,17.5166],[99.9946,17.5166],[99.9946,17.5174],[99.9912,17.5209],[99.9912,17.5215],[99.9907,17.522],[99.9896,17.522]]]}},{"type":"Feature","properties":{"kind":"seasonal","area_km2":0.105,"date":"2026-10-09"},"geometry":{"type":"Polygon","coordinates":[[[99.793,17.0216],[99.793,17.0207],[99.7941,17.0202],[99.7941,17.0188],[99.7933,17.0188],[99.7932,17.018],[99.7938,17.0175],[99.7947,17.0175],[99.7949,17.018],[99.7955,17.018],[99.7955,17.0194],[99.7964,17.0196],[99.7964,17.021],[99.7955,17.0215],[99.793,17.0216]]]}},{"type":"Feature","properties":{"kind":"seasonal","area_km2":0.101,"date":"2026-10-09"},"geometry":{"type":"Polygon","coordinates":[[[99.7976,17.1848],[99.7965,17.1815],[99.7973,17.1815],[99.7976,17.181],[99.7993,17.181],[99.7996,17.184],[99.799,17.1848],[99.7976,17.1848]]]}},{"type":"Feature","properties":{"kind":"seasonal","area_km2":0.1,"date":"2026-10-09"},"geometry":{"type":"Polygon","coordinates":[[[99.1877,17.9892],[99.188,17.9881],[99.1888,17.9884],[99.1888,17.9876],[99.1894,17.9876],[99.1888,17.987],[99.1894,17.9868],[99.1899,17.987],[99.1916,17.9865],[99.1919,17.987],[99.1928,17.987],[99.1928,17.9865],[99.1922,17.9865],[99.1922,17.9854],[99.1933,17.9854],[99.1942,17.9862],[99.1948,17.9862],[99.1948,17.9867],[99.1939,17.9867],[99.1931,17.9876],[99.1905,17.9876],[99.1905,17.9884],[99.19,17.9884],[99.1894,17.9892],[99.1877,17.9892]]]}},{"type":"Feature","properties":{"kind":"seasonal","area_km2":0.1,"date":"2026-10-09"},"geometry":{"type":"Polygon","coordinates":[[[99.2395,17.9636],[99.2395,17.9631],[99.2384,17.9623],[99.2384,17.9615],[99.2404,17.9617],[99.2429,17.9593],[99.2426,17.9588],[99.2435,17.9588],[99.2435,17.9598],[99.2426,17.9598],[99.2426,17.9607],[99.2435,17.9609],[99.2435,17.9617],[99.2429,17.962],[99.2426,17.9615],[99.2421,17.9615],[99.2415,17.9626],[99.2395,17.9636]]]}}]}
