{"type":"FeatureCollection","properties":{"v":3,"id":"t99_11","name":"ประจวบคีรีขันธ์ · ชุมพร","aoi":[99.0616,11.0,99.9143,12.0],"date":"2026-10-09","dates":["2026-10-09","2026-10-02"],"baseline_years":3,"has_seasonal":true,"totals":{"flood_high":0.0,"flood_low":0.1,"seasonal":0.2},"provinces":[{"name":"ประจวบคีรีขันธ์","zone":"th-w","flood_high":0.0,"flood_low":0.1,"seasonal":0.2}],"scenes":{"2026-10-09":1,"2026-10-02":1},"baseline_dates":["2025-10-07","2024-10-05","2023-10-11"],"threshold_db":-16.9,"auto":true,"source":"Sentinel-1 RTC (Copernicus/ESA) via Microsoft Planetary Computer; JRC Global Surface Water; Copernicus DEM","method":"ChatGeo v3: Otsu threshold on VV dB; minus JRC permanent water and slope > 5 deg; unusual = water not present in most of the previous 3 years (same season)","added":"2026-10-10T16:37+07:00"},"features":[{"type":"Feature","properties":{"kind":"flood","area_km2":0.091,"conf":"low","date":"2026-10-09"},"geometry":{"type":"Polygon","coordinates":[[[99.8181,11.8516],[99.8176,11.8508],[99.8176,11.8487],[99.8211,11.8484],[99.8211,11.8492],[99.8195,11.8506],[99.8195,11.8511],[99.8189,11.8511],[99.8189,11.8516],[99.8181,11.8516]],[[99.8184,11.85],[99.8189,11.8503],[99.8189,11.85],[99.8184,11.85]]]}},{"type":"Feature","properties":{"kind":"seasonal","area_km2":0.17,"date":"2026-10-02"},"geometry":{"type":"Polygon","coordinates":[[[99.4816,11.417],[99.4811,11.4164],[99.4811,11.4156],[99.4835,11.4143],[99.483,11.4135],[99.4833,11.4118],[99.4852,11.4113],[99.4857,11.4118],[99.4857,11.4137],[99.4863,11.414],[99.4863,11.4148],[99.4841,11.4151],[99.4833,11.4167],[99.4816,11.417]]]}}]}
