{"type":"FeatureCollection","properties":{"v":3,"id":"t99_9","name":"สุราษฎร์ธานี · ชุมพร · นครศรีธรรมราช","aoi":[99.0,9.0,100.0,10.0],"date":"2026-10-02","dates":["2026-10-02"],"baseline_years":3,"has_seasonal":true,"totals":{"flood_high":0.0,"flood_low":0.0,"seasonal":1.2},"provinces":[{"name":"สุราษฎร์ธานี","zone":"th-s","flood_high":0.0,"flood_low":0.0,"seasonal":1.2}],"scenes":{"2026-10-02":2},"baseline_dates":["2025-09-30","2024-10-05","2023-09-29"],"threshold_db":-15.8,"auto":true,"source":"Sentinel-1 RTC (Copernicus/ESA) via Microsoft Planetary Computer; JRC Global Surface Water; Copernicus DEM","method":"ChatGeo v3: Otsu threshold on VV dB; minus JRC permanent water and slope > 5 deg; unusual = water not present in most of the previous 3 years (same season)","added":"2026-10-07T18:42+07:00"},"features":[{"type":"Feature","properties":{"kind":"seasonal","area_km2":0.234,"date":"2026-10-02"},"geometry":{"type":"Polygon","coordinates":[[[99.102,9.2999],[99.1017,9.2994],[99.1001,9.2985],[99.0995,9.2958],[99.0998,9.295],[99.1014,9.2934],[99.1023,9.2934],[99.1023,9.2945],[99.1009,9.2956],[99.1009,9.2975],[99.1023,9.2985],[99.1036,9.2985],[99.1047,9.2975],[99.1047,9.2958],[99.1033,9.2945],[99.1033,9.2934],[99.1042,9.2934],[99.1058,9.2947],[99.1061,9.2961],[99.1055,9.2964],[99.1061,9.2964],[99.1061,9.2977],[99.1055,9.2977],[99.1055,9.2985],[99.1047,9.2994],[99.1036,9.2999],[99.102,9.2999]],[[99.105,9.2958],[99.1053,9.2961],[99.1053,9.2958],[99.105,9.2958]]]}},{"type":"Feature","properties":{"kind":"seasonal","area_km2":0.211,"date":"2026-10-02"},"geometry":{"type":"Polygon","coordinates":[[[99.329,9.0729],[99.3288,9.0716],[99.3282,9.0713],[99.3282,9.0697],[99.329,9.0683],[99.331,9.0688],[99.3312,9.0694],[99.3326,9.0697],[99.3329,9.0702],[99.3337,9.0702],[99.3331,9.0707],[99.3337,9.0713],[99.3334,9.0729],[99.331,9.0721],[99.3301,9.0721],[99.3299,9.0726],[99.3318,9.0729],[99.329,9.0729]],[[99.329,9.0721],[99.3293,9.0724],[99.3293,9.0721],[99.329,9.0721]],[[99.3288,9.0713],[99.329,9.0716],[99.329,9.0713],[99.3288,9.0713]],[[99.3315,9.0713],[99.3318,9.0716],[99.3318,9.0713],[99.3315,9.0713]],[[99.3326,9.0705],[99.3329,9.0707],[99.3329,9.0705],[99.3326,9.0705]]]}},{"type":"Feature","properties":{"kind":"seasonal","area_km2":0.149,"date":"2026-10-02"},"geometry":{"type":"Polygon","coordinates":[[[99.5518,9.2528],[99.5502,9.2523],[99.5485,9.2523],[99.5483,9.2512],[99.5589,9.2514],[99.5589,9.2523],[99.5575,9.2525],[99.5518,9.2523],[99.5518,9.2528]]]}},{"type":"Feature","properties":{"kind":"seasonal","area_km2":0.136,"date":"2026-10-02"},"geometry":{"type":"Polygon","coordinates":[[[99.66,9.2719],[99.6597,9.2714],[99.6584,9.2714],[99.6578,9.2708],[99.6578,9.27],[99.6627,9.2692],[99.6644,9.2694],[99.6644,9.2703],[99.663,9.2705],[99.6622,9.2716],[99.66,9.2719]]]}},{"type":"Feature","properties":{"kind":"seasonal","area_km2":0.123,"date":"2026-10-02"},"geometry":{"type":"Polygon","coordinates":[[[99.6218,9.2782],[99.6201,9.2763],[99.6201,9.2752],[99.619,9.2744],[99.619,9.2739],[99.6182,9.2731],[99.6177,9.2731],[99.6171,9.272],[99.6152,9.2712],[99.6152,9.2704],[99.6144,9.2695],[99.6133,9.2693],[99.6133,9.2687],[99.6147,9.269],[99.616,9.2709],[99.6177,9.2714],[99.6188,9.2728],[99.6199,9.2733],[99.6196,9.2744],[99.6201,9.2744],[99.622,9.2766],[99.6218,9.2782]]]}},{"type":"Feature","properties":{"kind":"seasonal","area_km2":0.106,"date":"2026-10-02"},"geometry":{"type":"Polygon","coordinates":[[[99.1423,9.136],[99.141,9.1357],[99.1407,9.1349],[99.1402,9.1349],[99.1402,9.1338],[99.1377,9.1314],[99.1369,9.1314],[99.1369,9.13],[99.138,9.13],[99.1382,9.1308],[99.1388,9.1308],[99.1388,9.1314],[99.1402,9.1319],[99.1404,9.133],[99.141,9.133],[99.1415,9.1346],[99.1421,9.1346],[99.1423,9.1352],[99.1423,9.136]]]}},{"type":"Feature","properties":{"kind":"seasonal","area_km2":0.104,"date":"2026-10-02"},"geometry":{"type":"Polygon","coordinates":[[[99.0645,9.044],[99.064,9.0435],[99.0642,9.04],[99.0661,9.0397],[99.0662,9.0435],[99.0645,9.044]]]}},{"type":"Feature","properties":{"kind":"seasonal","area_km2":0.1,"date":"2026-10-02"},"geometry":{"type":"Polygon","coordinates":[[[99.1066,9.2912],[99.1064,9.2907],[99.1053,9.2904],[99.1053,9.2893],[99.1058,9.2885],[99.1091,9.2893],[99.1088,9.2912],[99.1066,9.2912]]]}}]}
