{"type":"FeatureCollection","properties":{"v":3,"id":"t99_12","name":"เพชรบุรี · ประจวบคีรีขันธ์","aoi":[99.1171,12.0,100.0,13.0],"date":"2026-10-09","dates":["2026-10-09","2026-10-02"],"baseline_years":3,"has_seasonal":true,"totals":{"flood_high":5.3,"flood_low":11.9,"seasonal":11.4},"provinces":[{"name":"ประจวบคีรีขันธ์","zone":"th-w","flood_high":5.3,"flood_low":5.9,"seasonal":3.6},{"name":"เพชรบุรี","zone":"th-w","flood_high":0.0,"flood_low":6.0,"seasonal":7.8}],"scenes":{"2026-10-09":2,"2026-10-02":2},"baseline_dates":["2025-10-07","2024-10-09","2023-10-11"],"threshold_db":-15.0,"auto":true,"source":"Sentinel-1 RTC (Copernicus/ESA) via Microsoft Planetary Computer; JRC Global Surface Water; Copernicus DEM","method":"ChatGeo v3: Otsu threshold on VV dB; minus JRC permanent water and slope > 5 deg; unusual = water not present in most of the previous 3 years (same season)","added":"2026-10-10T16:37+07:00"},"features":[{"type":"Feature","properties":{"kind":"flood","area_km2":3.216,"conf":"high","date":"2026-10-09"},"geometry":{"type":"Polygon","coordinates":[[[99.7306,12.3955],[99.7304,12.395],[99.7298,12.395],[99.7298,12.3944],[99.7279,12.3942],[99.7279,12.3936],[99.727,12.3936],[99.7268,12.3928],[99.7257,12.3923],[99.7254,12.3909],[99.7259,12.3909],[99.7259,12.3896],[99.7251,12.388],[99.7237,12.388],[99.7234,12.3874],[99.7229,12.3874],[99.724,12.3893],[99.7234,12.3896],[99.7215,12.3871],[99.7201,12.3871],[99.7196,12.388],[99.7179,12.3877],[99.7176,12.3861],[99.7193,12.3855],[99.7198,12.385],[99.7198,12.3839],[99.719,12.3831],[99.7168,12.3828],[99.7165,12.382],[99.714,12.3823],[99.714,12.3815],[99.7154,12.3812],[99.7146,12.3812],[99.7146,12.3804],[99.7132,12.3801],[99.7138,12.3785],[99.7126,12.3774],[99.7121,12.3774],[99.7121,12.3763],[99.7132,12.3755],[99.7132,12.375],[99.714,12.375],[99.7148,12.3741],[99.7148,12.3736],[99.714,12.3733],[99.714,12.3722],[99.7154,12.3722],[99.7159,12.3714],[99.717,12.3714],[99.717,12.3709],[99.7187,12.3709],[99.719,12.3725],[99.7179,12.3728],[99.7173,12.3739],[99.7154,12.3741],[99.7154,12.3763],[99.716,12.3769],[99.7165,12.3769],[99.7171,12.3777],[99.7187,12.3779],[99.7182,12.376],[99.7215,12.376],[99.7226,12.3752],[99.7226,12.3747],[99.7234,12.3747],[99.7242,12.3736],[99.7251,12.3736],[99.7256,12.3747],[99.7273,12.3749],[99.7278,12.379],[99.7281,12.3795],[99.7289,12.379],[99.7292,12.3755],[99.7281,12.3757],[99.7281,12.3749],[99.727,12.3738],[99.727,12.373],[99.7284,12.3733],[99.7284,12.3728],[99.7275,12.3711],[99.727,12.3709],[99.7267,12.3681],[99.7259,12.3671],[99.7253,12.3671],[99.7253,12.366],[99.7259,12.3652],[99.7253,12.3646],[99.7247,12.3625],[99.7258,12.363],[99.7259,12.3638],[99.727,12.3654],[99.727,12.3668],[99.7275,12.3676],[99.7281,12.3676],[99.7284,12.3695],[99.7295,12.3695],[99.7297,12.3711],[99.7325,12.3717],[99.7336,12.3714],[99.7333,12.373],[99.7314,12.3733],[99.7309,12.3765],[99.7311,12.3771],[99.7317,12.3771],[99.7317,12.3782],[99.7344,12.3784],[99.7344,12.3792],[99.7339,12.3792],[99.7336,12.3798],[99.7328,12.3798],[99.7325,12.379],[99.7322,12.3806],[99.7333,12.3806],[99.7345,12.3814],[99.7345,12.3825],[99.735,12.3825],[99.735,12.3841],[99.7336,12.3844],[99.732,12.3858],[99.7317,12.389],[99.7306,12.389],[99.7303,12.3906],[99.7309,12.3906],[99.7312,12.3893],[99.732,12.3893],[99.732,12.3931],[99.7331,12.3939],[99.7331,12.3947],[99.7306,12.3955]],[[99.729,12.3896],[99.7292,12.3885],[99.7298,12.3885],[99.7298,12.3877],[99.7276,12.3882],[99.7279,12.3888],[99.729,12.3888],[99.729,12.3896]],[[99.7226,12.3871],[99.7229,12.3874],[99.7229,12.3871],[99.7226,12.3871]],[[99.7221,12.3871],[99.7223,12.3866],[99.7215,12.3863],[99.7207,12.3831],[99.7207,12.385],[99.7212,12.3866],[99.7221,12.3871]],[[99.7281,12.3852],[99.7287,12.3852],[99.7295,12.3844],[99.7295,12.3833],[99.7276,12.3836],[99.7281,12.3852]],[[99.7243,12.3847],[99.7245,12.385],[99.7245,12.3847],[99.7243,12.3847]],[[99.7259,12.385],[99.7267,12.385],[99.7267,12.3841],[99.7259,12.3839],[99.7265,12.3822],[99.7237,12.3825],[99.7237,12.3812],[99.7212,12.3814],[99.7209,12.3831],[99.7229,12.3828],[99.7226,12.3842],[99.7237,12.3847],[99.724,12.3839],[99.7256,12.3833],[99.7254,12.3844],[99.7259,12.385]],[[99.7312,12.3849],[99.7317,12.3849],[99.732,12.3844],[99.7312,12.3844],[99.7312,12.3849]],[[99.7309,12.3836],[99.7314,12.3836],[99.732,12.3806],[99.7314,12.3806],[99.7311,12.3798],[99.7303,12.3798],[99.7303,12.3803],[99.7292,12.3814],[99.7278,12.3817],[99.7278,12.3822],[99.7306,12.3814],[99.7309,12.3836]],[[99.7157,12.3807],[99.7165,12.3801],[99.7162,12.3796],[99.7151,12.3796],[99.7157,12.3807]],[[99.7298,12.3782],[99.73,12.3787],[99.73,12.3782],[99.7298,12.3782]],[[99.7303,12.3776],[99.7309,12.3779],[99.7309,12.3776],[99.7303,12.3776]],[[99.7259,12.3757],[99.7262,12.376],[99.7262,12.3757],[99.7259,12.3757]]]}},{"type":"Feature","properties":{"kind":"flood","area_km2":1.267,"conf":"high","date":"2026-10-09"},"geometry":{"type":"Polygon","coordinates":[[[99.739,12.4131],[99.7381,12.4123],[99.7376,12.4102],[99.7376,12.4077],[99.737,12.4074],[99.7365,12.4056],[99.7348,12.4039],[99.7342,12.4039],[99.7345,12.4028],[99.7337,12.4028],[99.7337,12.4034],[99.7323,12.4034],[99.7323,12.4045],[99.7312,12.4056],[99.7304,12.4056],[99.7301,12.4048],[99.729,12.4042],[99.7284,12.4026],[99.7276,12.4026],[99.7262,12.4015],[99.7251,12.4015],[99.7251,12.398],[99.7246,12.3958],[99.7251,12.3955],[99.7251,12.395],[99.7257,12.395],[99.7259,12.3931],[99.7279,12.3945],[99.7279,12.3953],[99.7293,12.3969],[99.7306,12.3969],[99.7306,12.3988],[99.7315,12.3996],[99.7326,12.3996],[99.7329,12.4001],[99.7351,12.4012],[99.7359,12.4012],[99.7364,12.402],[99.7403,12.4026],[99.7406,12.4045],[99.7434,12.4044],[99.7434,12.4053],[99.7428,12.4053],[99.7425,12.4063],[99.7431,12.4058],[99.7439,12.4058],[99.7442,12.405],[99.7453,12.4055],[99.7453,12.4063],[99.7445,12.4069],[99.7445,12.408],[99.7439,12.4085],[99.7428,12.4082],[99.7428,12.4074],[99.7406,12.4074],[99.74,12.4069],[99.7387,12.4069],[99.739,12.411],[99.7395,12.411],[99.7406,12.4121],[99.7406,12.4126],[99.7398,12.4123],[99.7398,12.4131],[99.739,12.4131]],[[99.7422,12.4047],[99.7425,12.405],[99.7425,12.4047],[99.7422,12.4047]],[[99.7348,12.4026],[99.7353,12.4026],[99.7353,12.402],[99.7348,12.402],[99.7348,12.4026]],[[99.7318,12.4015],[99.7331,12.4012],[99.7331,12.4009],[99.7318,12.401],[99.7318,12.4015]],[[99.7276,12.3972],[99.7284,12.3972],[99.7284,12.3966],[99.7273,12.3964],[99.7276,12.3972]]]}},{"type":"Feature","properties":{"kind":"flood","area_km2":0.809,"conf":"low","date":"2026-10-02"},"geometry":{"type":"Polygon","coordinates":[[[99.6705,12.0856],[99.67,12.0845],[99.6686,12.0845],[99.6675,12.0832],[99.6664,12.0829],[99.6655,12.0788],[99.665,12.0786],[99.6647,12.0772],[99.6647,12.0764],[99.6653,12.0764],[99.6655,12.0756],[99.6647,12.0742],[99.6636,12.074],[99.6636,12.0726],[99.6625,12.0723],[99.6625,12.0718],[99.6619,12.0718],[99.6606,12.0704],[99.6605,12.0683],[99.6617,12.0683],[99.6619,12.0691],[99.663,12.0696],[99.6633,12.0707],[99.6639,12.0707],[99.6639,12.0702],[99.6666,12.0699],[99.6666,12.0704],[99.6674,12.0712],[99.6685,12.0712],[99.6699,12.0704],[99.6741,12.071],[99.6732,12.0715],[99.6713,12.0712],[99.6708,12.0718],[99.6694,12.0718],[99.6691,12.0723],[99.6683,12.0721],[99.668,12.0729],[99.6686,12.0729],[99.6691,12.0745],[99.6677,12.0745],[99.668,12.0756],[99.6669,12.0761],[99.6677,12.0767],[99.6677,12.0775],[99.6683,12.0775],[99.6688,12.0783],[99.6702,12.0786],[99.6694,12.0788],[99.6702,12.0794],[99.6702,12.0799],[99.6688,12.0796],[99.6688,12.081],[99.67,12.0818],[99.67,12.0824],[99.6694,12.0826],[99.6719,12.0824],[99.6705,12.0856]],[[99.6691,12.0826],[99.6694,12.0832],[99.6694,12.0826],[99.6691,12.0826]]]}},{"type":"Feature","properties":{"kind":"flood","area_km2":0.724,"conf":"high","date":"2026-10-09"},"geometry":{"type":"Polygon","coordinates":[[[99.7428,12.4012],[99.74,12.3993],[99.7356,12.3993],[99.7356,12.3988],[99.7342,12.3985],[99.7326,12.3977],[99.7323,12.3972],[99.7337,12.3969],[99.7339,12.3961],[99.7353,12.3961],[99.7381,12.3952],[99.7386,12.3947],[99.7411,12.3944],[99.7417,12.3958],[99.7433,12.3955],[99.7442,12.396],[99.7453,12.396],[99.7494,12.3955],[99.7497,12.396],[99.7505,12.396],[99.7511,12.3968],[99.7527,12.3968],[99.7535,12.3974],[99.7535,12.3982],[99.7522,12.3982],[99.7513,12.3987],[99.7502,12.3985],[99.7497,12.399],[99.7494,12.3982],[99.7486,12.3982],[99.7486,12.3987],[99.7475,12.3987],[99.7458,12.3985],[99.7453,12.3979],[99.7422,12.3979],[99.7422,12.3996],[99.7433,12.4009],[99.7428,12.4012]],[[99.7472,12.3979],[99.7486,12.3979],[99.7486,12.3974],[99.7472,12.3974],[99.7472,12.3979]],[[99.7494,12.3976],[99.7511,12.3976],[99.7511,12.3974],[99.75,12.3974],[99.75,12.3968],[99.7491,12.3968],[99.7494,12.3976]]]}},{"type":"Feature","properties":{"kind":"flood","area_km2":0.643,"conf":"low","date":"2026-10-09"},"geometry":{"type":"Polygon","coordinates":[[[99.7542,12.4413],[99.7545,12.4381],[99.7537,12.4372],[99.7539,12.4359],[99.7531,12.4345],[99.7523,12.4345],[99.7517,12.4351],[99.7501,12.4351],[99.7501,12.4356],[99.7495,12.4356],[99.7495,12.4362],[99.749,12.4364],[99.7462,12.4365],[99.7459,12.4356],[99.7437,12.4359],[99.7432,12.4354],[99.7432,12.4359],[99.7421,12.4359],[99.7418,12.437],[99.7399,12.4373],[99.7382,12.437],[99.7382,12.4362],[99.7387,12.4359],[99.7387,12.4343],[99.7409,12.4327],[99.7415,12.4327],[99.7418,12.4321],[99.7426,12.4321],[99.744,12.4305],[99.7451,12.4305],[99.7443,12.431],[99.7443,12.4324],[99.7454,12.4324],[99.7456,12.4337],[99.7481,12.4335],[99.7479,12.4348],[99.7492,12.4354],[99.7492,12.434],[99.7506,12.4343],[99.7503,12.4321],[99.7498,12.4321],[99.749,12.4329],[99.7492,12.4316],[99.7517,12.4316],[99.7523,12.4324],[99.7517,12.4324],[99.7514,12.4335],[99.752,12.4335],[99.752,12.4329],[99.7528,12.4326],[99.7528,12.4332],[99.7548,12.4351],[99.7548,12.4372],[99.7561,12.4381],[99.7564,12.4399],[99.7545,12.44],[99.7542,12.4413]],[[99.7415,12.4356],[99.7421,12.4359],[99.7421,12.4356],[99.7415,12.4356]]]}},{"type":"Feature","properties":{"kind":"flood","area_km2":0.447,"conf":"low","date":"2026-10-09"},"geometry":{"type":"Polygon","coordinates":[[[99.6848,12.6083],[99.6856,12.6053],[99.6856,12.6032],[99.6865,12.6024],[99.6865,12.6005],[99.6856,12.5994],[99.6804,12.5994],[99.6804,12.5986],[99.6809,12.5983],[99.6807,12.5969],[99.6823,12.5972],[99.6829,12.5969],[99.6829,12.5961],[99.6837,12.5961],[99.6854,12.5977],[99.6862,12.5977],[99.6876,12.5991],[99.6876,12.5996],[99.6892,12.601],[99.6901,12.6032],[99.6901,12.604],[99.689,12.6045],[99.689,12.6053],[99.6881,12.6059],[99.687,12.6059],[99.6859,12.607],[99.6857,12.6081],[99.6848,12.6083]],[[99.6865,12.6048],[99.6868,12.6051],[99.6868,12.6048],[99.6865,12.6048]],[[99.6876,12.604],[99.6879,12.6043],[99.6879,12.604],[99.6876,12.604]],[[99.6873,12.6037],[99.6876,12.604],[99.6876,12.6037],[99.6873,12.6037]],[[99.6867,12.6034],[99.6873,12.6037],[99.6873,12.6034],[99.6867,12.6034]],[[99.6876,12.6034],[99.6884,12.6032],[99.6881,12.6021],[99.6873,12.6029],[99.6876,12.6034]]]}},{"type":"Feature","properties":{"kind":"flood","area_km2":0.418,"conf":"low","date":"2026-10-09"},"geometry":{"type":"Polygon","coordinates":[[[99.7825,12.4803],[99.7811,12.4792],[99.7789,12.4789],[99.7786,12.4779],[99.7778,12.4779],[99.7778,12.4771],[99.7789,12.4762],[99.7789,12.4749],[99.7778,12.4746],[99.7775,12.4738],[99.7764,12.4733],[99.7731,12.4735],[99.7731,12.4725],[99.7725,12.4722],[99.7725,12.4738],[99.7714,12.4741],[99.7711,12.4711],[99.7728,12.4711],[99.7728,12.47],[99.7739,12.4692],[99.7747,12.4692],[99.775,12.4708],[99.7742,12.4714],[99.7745,12.473],[99.7822,12.473],[99.7827,12.4735],[99.7825,12.4754],[99.7814,12.4754],[99.7814,12.4746],[99.7808,12.4746],[99.7805,12.4751],[99.7811,12.4751],[99.7811,12.4757],[99.78,12.4757],[99.7792,12.4773],[99.7808,12.4773],[99.7811,12.4779],[99.7822,12.4779],[99.7828,12.4787],[99.7844,12.4787],[99.7833,12.4803],[99.7825,12.4803]],[[99.7808,12.4787],[99.7811,12.4789],[99.7811,12.4787],[99.7808,12.4787]],[[99.7811,12.4784],[99.7814,12.4787],[99.7814,12.4784],[99.7811,12.4784]],[[99.7803,12.4779],[99.7806,12.4781],[99.7806,12.4779],[99.7803,12.4779]]]}},{"type":"Feature","properties":{"kind":"flood","area_km2":0.416,"conf":"low","date":"2026-10-02"},"geometry":{"type":"Polygon","coordinates":[[[99.6719,12.0932],[99.6719,12.091],[99.6703,12.0913],[99.67,12.0883],[99.6705,12.0881],[99.6708,12.087],[99.6711,12.0883],[99.6716,12.0883],[99.6716,12.0889],[99.6722,12.0889],[99.6722,12.0881],[99.6727,12.088],[99.6727,12.0891],[99.6741,12.0891],[99.6744,12.0875],[99.6733,12.0856],[99.6744,12.0848],[99.6744,12.0842],[99.6755,12.0853],[99.6771,12.0851],[99.6771,12.0856],[99.6785,12.0856],[99.6777,12.0864],[99.6774,12.088],[99.6766,12.0886],[99.6755,12.0905],[99.6749,12.0929],[99.6727,12.0927],[99.6727,12.0932],[99.6719,12.0932]],[[99.6725,12.0891],[99.6727,12.0894],[99.6727,12.0891],[99.6725,12.0891]]]}},{"type":"Feature","properties":{"kind":"flood","area_km2":0.404,"conf":"low","date":"2026-10-09"},"geometry":{"type":"Polygon","coordinates":[[[99.7756,12.4686],[99.7753,12.4673],[99.7758,12.4657],[99.7753,12.4646],[99.7753,12.4632],[99.7742,12.4621],[99.7742,12.4608],[99.7736,12.4605],[99.7736,12.46],[99.7717,12.4589],[99.7706,12.4575],[99.7705,12.4559],[99.7714,12.4548],[99.7714,12.4529],[99.7705,12.4513],[99.7703,12.4491],[99.7686,12.4486],[99.7683,12.4481],[99.7708,12.4486],[99.7708,12.4491],[99.7716,12.4497],[99.7719,12.4521],[99.7727,12.4527],[99.7728,12.4537],[99.7744,12.4556],[99.7744,12.4578],[99.7739,12.4581],[99.7739,12.4594],[99.7758,12.4619],[99.7764,12.4659],[99.778,12.4665],[99.7775,12.4678],[99.7761,12.4678],[99.7761,12.4684],[99.7756,12.4686]]]}},{"type":"Feature","properties":{"kind":"flood","area_km2":0.353,"conf":"low","date":"2026-10-09"},"geometry":{"type":"Polygon","coordinates":[[[99.589,12.9677],[99.589,12.9661],[99.5895,12.9658],[99.5895,12.9623],[99.5901,12.962],[99.5906,12.9599],[99.592,12.9598],[99.5926,12.9593],[99.5926,12.9569],[99.5934,12.9569],[99.5939,12.9574],[99.5939,12.9585],[99.5967,12.9588],[99.5967,12.9577],[99.5956,12.9577],[99.5956,12.9566],[99.5964,12.9563],[99.5961,12.955],[99.597,12.9555],[99.597,12.9566],[99.5992,12.9566],[99.5992,12.9574],[99.5998,12.9574],[99.5995,12.9579],[99.5978,12.9582],[99.5973,12.959],[99.5953,12.9596],[99.5953,12.9601],[99.5942,12.9604],[99.5928,12.9623],[99.5915,12.9626],[99.5915,12.9631],[99.5906,12.9637],[99.5909,12.9647],[99.5901,12.9653],[99.5898,12.9677],[99.589,12.9677]],[[99.5928,12.9579],[99.5931,12.9582],[99.5931,12.9579],[99.5928,12.9579]]]}},{"type":"Feature","properties":{"kind":"flood","area_km2":0.318,"conf":"low","date":"2026-10-09"},"geometry":{"type":"Polygon","coordinates":[[[99.6557,12.7714],[99.6551,12.7709],[99.654,12.7712],[99.654,12.7701],[99.6535,12.7693],[99.6526,12.7698],[99.6499,12.7698],[99.6496,12.7693],[99.6482,12.7693],[99.6482,12.7685],[99.6488,12.7677],[99.6502,12.7677],[99.6502,12.7687],[99.6507,12.7687],[99.651,12.7679],[99.6573,12.7682],[99.6584,12.7687],[99.6612,12.7684],[99.6612,12.7693],[99.6618,12.7695],[99.6615,12.7709],[99.6604,12.7706],[99.6601,12.7698],[99.6587,12.7698],[99.6587,12.7714],[99.6573,12.7709],[99.6571,12.7703],[99.6565,12.7706],[99.6565,12.7714],[99.6557,12.7714]]]}},{"type":"Feature","properties":{"kind":"flood","area_km2":0.306,"conf":"low","date":"2026-10-09"},"geometry":{"type":"Polygon","coordinates":[[[99.7589,12.447],[99.7592,12.4451],[99.7575,12.4451],[99.7573,12.4443],[99.7556,12.444],[99.7553,12.4454],[99.7542,12.4454],[99.754,12.4438],[99.7523,12.4438],[99.752,12.4446],[99.7512,12.4446],[99.7512,12.4435],[99.7523,12.4435],[99.7523,12.4429],[99.7509,12.4429],[99.7506,12.4416],[99.7528,12.4419],[99.7542,12.4413],[99.7556,12.4416],[99.7559,12.4421],[99.7575,12.4421],[99.7575,12.4429],[99.7595,12.4427],[99.7606,12.4448],[99.7622,12.4451],[99.7614,12.4451],[99.7611,12.4459],[99.7598,12.4465],[99.7598,12.447],[99.7589,12.447]],[[99.7537,12.4427],[99.7542,12.4429],[99.7542,12.4427],[99.7537,12.4427]]]}},{"type":"Feature","properties":{"kind":"flood","area_km2":0.266,"conf":"low","date":"2026-10-09"},"geometry":{"type":"Polygon","coordinates":[[[99.9829,12.9229],[99.9816,12.9226],[99.9816,12.9207],[99.9791,12.9207],[99.9785,12.9215],[99.9774,12.9215],[99.9769,12.9196],[99.9782,12.9199],[99.978,12.9183],[99.9788,12.9177],[99.9791,12.9169],[99.9815,12.9166],[99.9818,12.918],[99.9824,12.9183],[99.9824,12.9191],[99.9829,12.9196],[99.9829,12.9204],[99.9838,12.9204],[99.9835,12.9223],[99.9829,12.9229]],[[99.9791,12.9188],[99.9799,12.9191],[99.9799,12.9188],[99.9791,12.9188]]]}},{"type":"Feature","properties":{"kind":"flood","area_km2":0.266,"conf":"low","date":"2026-10-09"},"geometry":{"type":"Polygon","coordinates":[[[99.7514,12.4193],[99.7511,12.418],[99.7495,12.4177],[99.7492,12.4156],[99.7472,12.4137],[99.7481,12.4131],[99.7478,12.4099],[99.7497,12.4126],[99.7511,12.4128],[99.7511,12.4139],[99.7495,12.415],[99.75,12.4153],[99.75,12.4161],[99.7508,12.4166],[99.7511,12.415],[99.7519,12.415],[99.7522,12.4158],[99.7533,12.4158],[99.753,12.4177],[99.7544,12.4188],[99.7514,12.4193]]]}},{"type":"Feature","properties":{"kind":"flood","area_km2":0.233,"conf":"low","date":"2026-10-09"},"geometry":{"type":"Polygon","coordinates":[[[99.6368,12.9592],[99.6363,12.9581],[99.6349,12.9578],[99.6346,12.9573],[99.6371,12.9573],[99.6374,12.9551],[99.6365,12.9551],[99.6363,12.9546],[99.6332,12.9551],[99.6335,12.9541],[99.6349,12.9538],[99.6351,12.9519],[99.6368,12.9519],[99.6368,12.9524],[99.6374,12.9527],[99.6374,12.9549],[99.6382,12.9543],[99.6379,12.9535],[99.639,12.954],[99.6415,12.9538],[99.641,12.9549],[99.6396,12.9549],[99.6393,12.9554],[99.6382,12.9557],[99.6382,12.9565],[99.6387,12.9565],[99.6385,12.9581],[99.6379,12.9584],[99.6379,12.9592],[99.6368,12.9592]]]}},{"type":"Feature","properties":{"kind":"flood","area_km2":0.227,"conf":"low","date":"2026-10-02"},"geometry":{"type":"Polygon","coordinates":[[[99.5742,12.9225],[99.5739,12.9214],[99.5731,12.9206],[99.5717,12.9208],[99.5706,12.92],[99.5695,12.92],[99.5692,12.9195],[99.5681,12.9192],[99.5679,12.9176],[99.5692,12.9168],[99.5709,12.9176],[99.5709,12.9189],[99.5715,12.9189],[99.5715,12.9195],[99.5739,12.9192],[99.5739,12.9203],[99.5753,12.9203],[99.5762,12.9195],[99.5762,12.92],[99.577,12.9203],[99.5775,12.9211],[99.5786,12.9211],[99.5786,12.9216],[99.5781,12.9219],[99.5753,12.9216],[99.5751,12.9225],[99.5742,12.9225]]]}},{"type":"Feature","properties":{"kind":"flood","area_km2":0.224,"conf":"low","date":"2026-10-09"},"geometry":{"type":"Polygon","coordinates":[[[99.9498,12.3227],[99.947,12.3224],[99.9464,12.3197],[99.9459,12.3197],[99.9459,12.3205],[99.9451,12.3205],[99.9448,12.3186],[99.9467,12.3184],[99.9467,12.3195],[99.9475,12.3195],[99.9478,12.3181],[99.95,12.3181],[99.95,12.3186],[99.9514,12.3186],[99.9514,12.3181],[99.9528,12.3183],[99.9528,12.3192],[99.952,12.3192],[99.952,12.32],[99.9509,12.3197],[99.95,12.3208],[99.9489,12.3211],[99.9489,12.3216],[99.9498,12.3219],[99.9498,12.3227]],[[99.9517,12.3189],[99.952,12.3192],[99.952,12.3189],[99.9517,12.3189]]]}},{"type":"Feature","properties":{"kind":"flood","area_km2":0.223,"conf":"low","date":"2026-10-09"},"geometry":{"type":"Polygon","coordinates":[[[99.6767,12.766],[99.6767,12.7632],[99.6761,12.763],[99.6761,12.7608],[99.6747,12.7608],[99.6745,12.7616],[99.6745,12.7605],[99.675,12.7603],[99.6747,12.7586],[99.6769,12.7589],[99.6775,12.7581],[99.678,12.7581],[99.6783,12.7567],[99.6791,12.7567],[99.68,12.7581],[99.68,12.7592],[99.6786,12.7594],[99.6789,12.7608],[99.6778,12.7616],[99.6775,12.7646],[99.6767,12.766]]]}},{"type":"Feature","properties":{"kind":"flood","area_km2":0.215,"conf":"low","date":"2026-10-09"},"geometry":{"type":"Polygon","coordinates":[[[99.9088,12.2767],[99.9068,12.2759],[99.9068,12.2748],[99.9096,12.2748],[99.9104,12.274],[99.9104,12.2724],[99.9088,12.2716],[99.9093,12.2697],[99.9101,12.2697],[99.9121,12.271],[99.9121,12.2737],[99.9115,12.274],[99.9115,12.2754],[99.9104,12.2767],[99.9088,12.2767]]]}},{"type":"Feature","properties":{"kind":"flood","area_km2":0.214,"conf":"low","date":"2026-10-09"},"geometry":{"type":"Polygon","coordinates":[[[99.6247,12.9704],[99.6238,12.9698],[99.625,12.9698],[99.6249,12.9679],[99.623,12.9679],[99.623,12.9671],[99.6236,12.9674],[99.6233,12.9666],[99.6252,12.9668],[99.6252,12.9657],[99.6247,12.9655],[99.6249,12.9641],[99.626,12.9638],[99.626,12.9625],[99.6244,12.9622],[99.6255,12.9617],[99.6255,12.9603],[99.626,12.9598],[99.6255,12.9584],[99.6263,12.9584],[99.6263,12.9603],[99.6282,12.9603],[99.6282,12.9595],[99.6291,12.9595],[99.6291,12.96],[99.6305,12.9598],[99.6305,12.9603],[99.6285,12.9603],[99.6282,12.9608],[99.6271,12.9606],[99.6263,12.9617],[99.6277,12.9644],[99.6277,12.9652],[99.6252,12.9649],[99.6255,12.9657],[99.6269,12.9655],[99.6269,12.9663],[99.6258,12.9668],[99.6258,12.9703],[99.6247,12.9704]]]}},{"type":"Feature","properties":{"kind":"flood","area_km2":0.212,"conf":"low","date":"2026-10-02"},"geometry":{"type":"Polygon","coordinates":[[[99.5225,12.934],[99.5225,12.9307],[99.522,12.9307],[99.522,12.9299],[99.5247,12.9299],[99.525,12.9291],[99.5236,12.9291],[99.5236,12.9274],[99.5245,12.9274],[99.5245,12.9258],[99.5264,12.9255],[99.5269,12.9258],[99.5267,12.9269],[99.5264,12.9274],[99.5253,12.9274],[99.5253,12.928],[99.5258,12.9288],[99.5267,12.9288],[99.5267,12.9293],[99.5258,12.9299],[99.5256,12.9307],[99.5239,12.9302],[99.5239,12.9315],[99.5247,12.9315],[99.525,12.931],[99.5256,12.9329],[99.5253,12.9334],[99.5236,12.9329],[99.5236,12.9337],[99.5225,12.934]],[[99.5234,12.9302],[99.5236,12.9304],[99.5236,12.9302],[99.5234,12.9302]],[[99.5242,12.9277],[99.5245,12.928],[99.5245,12.9277],[99.5242,12.9277]]]}},{"type":"Feature","properties":{"kind":"flood","area_km2":0.209,"conf":"low","date":"2026-10-09"},"geometry":{"type":"Polygon","coordinates":[[[99.9747,12.9237],[99.9747,12.9221],[99.9741,12.9221],[99.9741,12.9232],[99.9733,12.9232],[99.9735,12.9202],[99.9722,12.9199],[99.9724,12.918],[99.9738,12.9177],[99.9738,12.9169],[99.9746,12.9169],[99.9746,12.9175],[99.9757,12.9175],[99.9757,12.9183],[99.9763,12.9188],[99.9766,12.9183],[99.9774,12.9183],[99.9774,12.9191],[99.9766,12.9191],[99.9763,12.9199],[99.9755,12.9199],[99.9752,12.9194],[99.9741,12.9196],[99.9741,12.9202],[99.9749,12.9207],[99.976,12.9204],[99.976,12.9213],[99.9755,12.9218],[99.9763,12.9221],[99.9763,12.9234],[99.9747,12.9237]],[[99.9744,12.9186],[99.9749,12.9186],[99.9746,12.9177],[99.9741,12.9177],[99.9744,12.9186]]]}},{"type":"Feature","properties":{"kind":"flood","area_km2":0.174,"conf":"low","date":"2026-10-09"},"geometry":{"type":"Polygon","coordinates":[[[99.8896,12.2312],[99.8899,12.2301],[99.8907,12.2301],[99.8912,12.2293],[99.8923,12.2293],[99.8923,12.2288],[99.8932,12.2288],[99.8937,12.2282],[99.8934,12.2271],[99.8948,12.2274],[99.8951,12.2269],[99.8959,12.2269],[99.8962,12.2296],[99.8957,12.2301],[99.8918,12.2312],[99.8896,12.2312]]]}},{"type":"Feature","properties":{"kind":"flood","area_km2":0.172,"conf":"low","date":"2026-10-09"},"geometry":{"type":"Polygon","coordinates":[[[99.6662,12.7698],[99.6656,12.7684],[99.664,12.7684],[99.6651,12.7676],[99.6645,12.7668],[99.6645,12.7657],[99.6656,12.7649],[99.6667,12.7627],[99.6692,12.7625],[99.6692,12.7633],[99.6687,12.7635],[99.6687,12.7654],[99.6701,12.7665],[99.6701,12.7671],[99.6695,12.7671],[99.6692,12.7662],[99.6678,12.766],[99.6676,12.7652],[99.6662,12.7652],[99.6659,12.7682],[99.667,12.769],[99.667,12.7695],[99.6662,12.7698]]]}},{"type":"Feature","properties":{"kind":"flood","area_km2":0.168,"conf":"low","date":"2026-10-09"},"geometry":{"type":"Polygon","coordinates":[[[99.9553,12.3232],[99.9553,12.3221],[99.9542,12.3219],[99.9558,12.3197],[99.9558,12.3181],[99.9553,12.3178],[99.9547,12.3154],[99.9539,12.3154],[99.9528,12.3143],[99.9555,12.3151],[99.9564,12.3135],[99.9564,12.3154],[99.9572,12.3162],[99.9572,12.3167],[99.9564,12.3167],[99.9564,12.3181],[99.9566,12.3191],[99.9572,12.3194],[99.9572,12.3205],[99.9564,12.3216],[99.9567,12.3227],[99.9553,12.3232]]]}},{"type":"Feature","properties":{"kind":"flood","area_km2":0.158,"conf":"low","date":"2026-10-02"},"geometry":{"type":"Polygon","coordinates":[[[99.5977,12.8885],[99.5968,12.8871],[99.5968,12.8858],[99.5963,12.885],[99.5968,12.885],[99.5971,12.8861],[99.5979,12.8863],[99.5979,12.8825],[99.5998,12.8822],[99.5998,12.8817],[99.601,12.8812],[99.6015,12.8793],[99.6048,12.8795],[99.604,12.8803],[99.6034,12.8798],[99.6015,12.8801],[99.6015,12.8809],[99.601,12.8814],[99.601,12.8844],[99.6001,12.8836],[99.5987,12.8836],[99.5988,12.8863],[99.5982,12.8882],[99.5977,12.8885]]]}},{"type":"Feature","properties":{"kind":"flood","area_km2":0.152,"conf":"low","date":"2026-10-09"},"geometry":{"type":"Polygon","coordinates":[[[99.9544,12.3129],[99.9522,12.3127],[99.9528,12.311],[99.9525,12.3091],[99.9533,12.3091],[99.953,12.3083],[99.9538,12.3083],[99.9539,12.3088],[99.955,12.3088],[99.9552,12.3069],[99.9552,12.3086],[99.9561,12.3097],[99.9563,12.3116],[99.9544,12.3116],[99.9544,12.3129]]]}},{"type":"Feature","properties":{"kind":"flood","area_km2":0.147,"conf":"low","date":"2026-10-02"},"geometry":{"type":"Polygon","coordinates":[[[99.5176,12.9337],[99.5173,12.9332],[99.5164,12.9332],[99.5156,12.9321],[99.5129,12.9326],[99.5129,12.9318],[99.514,12.9315],[99.5128,12.9299],[99.5145,12.9302],[99.5148,12.931],[99.5162,12.9313],[99.5176,12.9326],[99.5189,12.9323],[99.5189,12.9296],[99.5214,12.9299],[99.5211,12.9307],[99.5203,12.9307],[99.5198,12.9312],[99.5195,12.9331],[99.5176,12.9337]],[[99.5142,12.9307],[99.5145,12.931],[99.5145,12.9307],[99.5142,12.9307]]]}},{"type":"Feature","properties":{"kind":"flood","area_km2":0.145,"conf":"low","date":"2026-10-09"},"geometry":{"type":"Polygon","coordinates":[[[99.9029,12.3199],[99.9029,12.3193],[99.9017,12.3191],[99.9017,12.318],[99.9026,12.3169],[99.9023,12.3155],[99.9028,12.3153],[99.9028,12.3144],[99.9037,12.3144],[99.9045,12.3161],[99.905,12.3163],[99.9045,12.318],[99.9053,12.3182],[99.9053,12.3191],[99.9029,12.3199]]]}},{"type":"Feature","properties":{"kind":"flood","area_km2":0.144,"conf":"low","date":"2026-10-09"},"geometry":{"type":"Polygon","coordinates":[[[99.7812,12.4317],[99.7804,12.4315],[99.7804,12.4309],[99.779,12.4309],[99.7785,12.4315],[99.7754,12.4315],[99.7754,12.4307],[99.7741,12.4307],[99.7727,12.4296],[99.7727,12.428],[99.7741,12.4277],[99.7741,12.4293],[99.7746,12.4299],[99.7779,12.4299],[99.7785,12.4304],[99.7801,12.4304],[99.7804,12.4298],[99.7815,12.4298],[99.7812,12.4317]]]}},{"type":"Feature","properties":{"kind":"flood","area_km2":0.137,"conf":"low","date":"2026-10-09"},"geometry":{"type":"Polygon","coordinates":[[[99.9948,12.9125],[99.9942,12.9117],[99.9931,12.9114],[99.9931,12.9106],[99.9948,12.9103],[99.9948,12.9112],[99.9967,12.9111],[99.9976,12.9109],[99.9976,12.9101],[99.9967,12.9101],[99.9967,12.909],[99.9976,12.909],[99.9987,12.9098],[100.0,12.9095],[100.0,12.9103],[99.9995,12.9103],[99.9995,12.9114],[99.9989,12.912],[99.9959,12.912],[99.9956,12.9125],[99.9948,12.9125]]]}},{"type":"Feature","properties":{"kind":"flood","area_km2":0.128,"conf":"low","date":"2026-10-09"},"geometry":{"type":"Polygon","coordinates":[[[99.6288,12.9747],[99.6286,12.9736],[99.6277,12.9736],[99.6266,12.9744],[99.625,12.9741],[99.6239,12.9725],[99.6263,12.9722],[99.6266,12.9709],[99.6261,12.9706],[99.6274,12.9706],[99.6274,12.9717],[99.6286,12.972],[99.6286,12.9725],[99.6294,12.9733],[99.6294,12.9747],[99.6288,12.9747]]]}},{"type":"Feature","properties":{"kind":"flood","area_km2":0.115,"conf":"low","date":"2026-10-09"},"geometry":{"type":"Polygon","coordinates":[[[99.9983,12.9494],[99.998,12.9483],[99.9969,12.9478],[99.9969,12.947],[99.9977,12.9464],[99.9974,12.9442],[99.9991,12.944],[99.9994,12.9456],[99.9988,12.9461],[99.9996,12.9464],[99.9996,12.9478],[99.9985,12.9478],[99.9985,12.9483],[99.9994,12.9483],[99.9994,12.9491],[99.9983,12.9494]]]}},{"type":"Feature","properties":{"kind":"flood","area_km2":0.112,"conf":"low","date":"2026-10-02"},"geometry":{"type":"Polygon","coordinates":[[[99.6793,12.0742],[99.679,12.0737],[99.6782,12.0737],[99.6779,12.0728],[99.6796,12.0726],[99.6818,12.0731],[99.6821,12.0712],[99.6834,12.0715],[99.684,12.0704],[99.6854,12.0707],[99.6854,12.0712],[99.6848,12.0709],[99.6843,12.0728],[99.6832,12.072],[99.6823,12.0723],[99.6821,12.0742],[99.6793,12.0742]]]}},{"type":"Feature","properties":{"kind":"flood","area_km2":0.108,"conf":"low","date":"2026-10-09"},"geometry":{"type":"Polygon","coordinates":[[[99.9495,12.3154],[99.9495,12.3146],[99.9484,12.3148],[99.9483,12.3135],[99.9489,12.3135],[99.9489,12.3129],[99.9497,12.3129],[99.95,12.3116],[99.9508,12.3108],[99.9508,12.3097],[99.9516,12.3097],[99.9517,12.3116],[99.9511,12.3116],[99.9511,12.3129],[99.95,12.3132],[99.95,12.3143],[99.9514,12.314],[99.9519,12.3146],[99.9519,12.3154],[99.9495,12.3154]],[[99.9495,12.3143],[99.9497,12.3146],[99.9497,12.3143],[99.9495,12.3143]]]}},{"type":"Feature","properties":{"kind":"flood","area_km2":0.107,"conf":"low","date":"2026-10-09"},"geometry":{"type":"Polygon","coordinates":[[[99.9417,12.3032],[99.9414,12.3027],[99.9428,12.3026],[99.9428,12.3007],[99.9444,12.2991],[99.9469,12.2986],[99.9469,12.2994],[99.9461,12.2999],[99.9461,12.301],[99.9442,12.3013],[99.9436,12.3018],[99.9436,12.3032],[99.9417,12.3032]]]}},{"type":"Feature","properties":{"kind":"flood","area_km2":0.098,"conf":"low","date":"2026-10-09"},"geometry":{"type":"Polygon","coordinates":[[[99.6189,12.9744],[99.6189,12.9728],[99.6183,12.9725],[99.6186,12.9717],[99.6203,12.9717],[99.6214,12.9706],[99.6214,12.972],[99.6236,12.972],[99.6222,12.9725],[99.6211,12.9739],[99.6197,12.9739],[99.6194,12.9744],[99.6189,12.9744]]]}},{"type":"Feature","properties":{"kind":"flood","area_km2":0.095,"conf":"low","date":"2026-10-09"},"geometry":{"type":"Polygon","coordinates":[[[99.9487,12.3327],[99.949,12.3314],[99.9479,12.3317],[99.9481,12.3289],[99.9506,12.3289],[99.9503,12.3319],[99.9495,12.3327],[99.9487,12.3327]]]}},{"type":"Feature","properties":{"kind":"flood","area_km2":0.092,"conf":"low","date":"2026-10-09"},"geometry":{"type":"Polygon","coordinates":[[[99.958,12.9097],[99.9577,12.9064],[99.9597,12.9061],[99.9602,12.9067],[99.9602,12.9091],[99.9597,12.9097],[99.958,12.9097]]]}},{"type":"Feature","properties":{"kind":"flood","area_km2":0.092,"conf":"low","date":"2026-10-09"},"geometry":{"type":"Polygon","coordinates":[[[99.9505,12.3089],[99.9505,12.307],[99.9514,12.307],[99.9514,12.3078],[99.9516,12.3072],[99.9527,12.3072],[99.9527,12.3067],[99.9519,12.3067],[99.9522,12.3051],[99.953,12.3051],[99.953,12.3059],[99.9536,12.3053],[99.9544,12.3053],[99.9549,12.3069],[99.9536,12.307],[99.953,12.3072],[99.953,12.3083],[99.9516,12.3083],[99.9514,12.3089],[99.9505,12.3089]]]}},{"type":"Feature","properties":{"kind":"flood","area_km2":0.089,"conf":"low","date":"2026-10-09"},"geometry":{"type":"Polygon","coordinates":[[[99.8741,12.9631],[99.8741,12.9601],[99.875,12.9601],[99.875,12.9607],[99.8755,12.9607],[99.8752,12.9623],[99.8758,12.9623],[99.8761,12.9612],[99.878,12.9615],[99.878,12.9631],[99.8741,12.9631]]]}},{"type":"Feature","properties":{"kind":"flood","area_km2":0.086,"conf":"low","date":"2026-10-09"},"geometry":{"type":"Polygon","coordinates":[[[99.8848,12.9935],[99.8845,12.9929],[99.8831,12.9924],[99.8831,12.9908],[99.8847,12.9905],[99.8847,12.9897],[99.8856,12.9897],[99.8856,12.9908],[99.885,12.9916],[99.8856,12.9921],[99.8864,12.9921],[99.8864,12.9929],[99.8848,12.9935]]]}},{"type":"Feature","properties":{"kind":"flood","area_km2":0.086,"conf":"low","date":"2026-10-09"},"geometry":{"type":"Polygon","coordinates":[[[99.9962,12.9863],[99.9954,12.9857],[99.9954,12.9838],[99.9965,12.9833],[99.9959,12.9817],[99.9967,12.9817],[99.9973,12.9825],[99.9978,12.9825],[99.9978,12.9838],[99.997,12.9841],[99.9973,12.986],[99.9962,12.9863]]]}},{"type":"Feature","properties":{"kind":"flood","area_km2":0.085,"conf":"low","date":"2026-10-09"},"geometry":{"type":"Polygon","coordinates":[[[99.9524,12.3023],[99.9524,12.3004],[99.9522,12.2996],[99.9513,12.2996],[99.9513,12.2991],[99.953,12.2988],[99.9533,12.2994],[99.9538,12.2994],[99.9544,12.2985],[99.9555,12.2985],[99.9546,12.2988],[99.9546,12.3002],[99.9558,12.3002],[99.9558,12.3015],[99.9552,12.3012],[99.9552,12.3007],[99.9535,12.3007],[99.9535,12.3013],[99.953,12.3013],[99.9533,12.3023],[99.9524,12.3023]]]}},{"type":"Feature","properties":{"kind":"flood","area_km2":0.083,"conf":"low","date":"2026-10-09"},"geometry":{"type":"Polygon","coordinates":[[[99.9108,12.2385],[99.9108,12.2374],[99.9122,12.2374],[99.9122,12.2363],[99.9139,12.2363],[99.9153,12.2368],[99.9153,12.2379],[99.9147,12.2382],[99.9108,12.2385]]]}},{"type":"Feature","properties":{"kind":"flood","area_km2":0.081,"conf":"high","date":"2026-10-09"},"geometry":{"type":"Polygon","coordinates":[[[99.725,12.3622],[99.7231,12.3616],[99.7209,12.3616],[99.7209,12.3608],[99.7223,12.3603],[99.7231,12.3592],[99.7242,12.3592],[99.7239,12.3606],[99.725,12.3616],[99.725,12.3622]]]}},{"type":"Feature","properties":{"kind":"flood","area_km2":0.08,"conf":"low","date":"2026-10-09"},"geometry":{"type":"Polygon","coordinates":[[[99.9484,12.3279],[99.9484,12.3268],[99.9492,12.3262],[99.9492,12.3254],[99.9514,12.3257],[99.9523,12.3265],[99.9523,12.3273],[99.9506,12.327],[99.9506,12.3278],[99.9484,12.3279]]]}},{"type":"Feature","properties":{"kind":"flood","area_km2":0.079,"conf":"low","date":"2026-10-09"},"geometry":{"type":"Polygon","coordinates":[[[99.9822,12.9419],[99.9825,12.9391],[99.9847,12.9391],[99.9847,12.9399],[99.985,12.9394],[99.9863,12.9394],[99.9863,12.9402],[99.985,12.9402],[99.985,12.9408],[99.9836,12.9408],[99.983,12.9418],[99.9822,12.9419]]]}},{"type":"Feature","properties":{"kind":"flood","area_km2":0.079,"conf":"low","date":"2026-10-02"},"geometry":{"type":"Polygon","coordinates":[[[99.5595,12.8956],[99.5595,12.8948],[99.5609,12.8948],[99.5606,12.8932],[99.5617,12.8929],[99.5617,12.8921],[99.5625,12.8913],[99.5623,12.8888],[99.5636,12.8888],[99.5636,12.8916],[99.5628,12.8916],[99.5623,12.8929],[99.5614,12.8932],[99.5612,12.8951],[99.5595,12.8956]]]}},{"type":"Feature","properties":{"kind":"flood","area_km2":0.079,"conf":"low","date":"2026-10-09"},"geometry":{"type":"Polygon","coordinates":[[[99.6228,12.8741],[99.6228,12.8724],[99.6214,12.8724],[99.6214,12.8697],[99.6222,12.8697],[99.6228,12.8711],[99.6244,12.8722],[99.6244,12.8732],[99.6228,12.8741]]]}},{"type":"Feature","properties":{"kind":"flood","area_km2":0.077,"conf":"low","date":"2026-10-09"},"geometry":{"type":"Polygon","coordinates":[[[99.983,12.9934],[99.9829,12.9926],[99.9835,12.9923],[99.9835,12.9918],[99.9843,12.9915],[99.9851,12.9899],[99.9868,12.9901],[99.9868,12.9923],[99.986,12.9923],[99.986,12.9917],[99.9852,12.9915],[99.9843,12.9934],[99.983,12.9934]]]}},{"type":"Feature","properties":{"kind":"flood","area_km2":0.076,"conf":"low","date":"2026-10-09"},"geometry":{"type":"Polygon","coordinates":[[[99.9489,12.3029],[99.9478,12.3018],[99.9489,12.3015],[99.9489,12.3007],[99.9519,12.3007],[99.9519,12.3013],[99.9511,12.3018],[99.9505,12.3029],[99.9489,12.3029]]]}},{"type":"Feature","properties":{"kind":"flood","area_km2":0.076,"conf":"low","date":"2026-10-09"},"geometry":{"type":"Polygon","coordinates":[[[99.9089,12.2217],[99.9072,12.2206],[99.9072,12.2198],[99.9091,12.2198],[99.9097,12.2192],[99.9105,12.2192],[99.9105,12.2211],[99.91,12.2217],[99.9089,12.2217]]]}},{"type":"Feature","properties":{"kind":"flood","area_km2":0.076,"conf":"low","date":"2026-10-02"},"geometry":{"type":"Polygon","coordinates":[[[99.5549,12.9214],[99.5546,12.9198],[99.5538,12.9192],[99.5538,12.9184],[99.5551,12.9184],[99.5551,12.9173],[99.5565,12.9171],[99.5571,12.9176],[99.5571,12.9184],[99.556,12.9182],[99.5562,12.9192],[99.5554,12.9195],[99.5554,12.9214],[99.5549,12.9214]]]}},{"type":"Feature","properties":{"kind":"flood","area_km2":0.075,"conf":"low","date":"2026-10-09"},"geometry":{"type":"Polygon","coordinates":[[[99.9365,12.9217],[99.9365,12.92],[99.9359,12.9198],[99.9359,12.9187],[99.9381,12.9187],[99.9387,12.9217],[99.9379,12.9217],[99.9379,12.9209],[99.9373,12.9209],[99.9373,12.9217],[99.9365,12.9217]],[[99.9373,12.9198],[99.9376,12.92],[99.9376,12.9198],[99.9373,12.9198]]]}},{"type":"Feature","properties":{"kind":"flood","area_km2":0.074,"conf":"low","date":"2026-10-09"},"geometry":{"type":"Polygon","coordinates":[[[99.9613,12.9726],[99.961,12.972],[99.9602,12.972],[99.9602,12.9712],[99.9607,12.971],[99.9605,12.9699],[99.961,12.9699],[99.961,12.9691],[99.9624,12.9691],[99.9627,12.9709],[99.9621,12.971],[99.9621,12.9726],[99.9613,12.9726]]]}},{"type":"Feature","properties":{"kind":"flood","area_km2":0.072,"conf":"low","date":"2026-10-09"},"geometry":{"type":"Polygon","coordinates":[[[99.986,12.9313],[99.9857,12.9294],[99.9866,12.9285],[99.9863,12.9275],[99.9871,12.9275],[99.9877,12.928],[99.988,12.9302],[99.9874,12.9302],[99.9874,12.9313],[99.986,12.9313]]]}},{"type":"Feature","properties":{"kind":"flood","area_km2":0.072,"conf":"low","date":"2026-10-09"},"geometry":{"type":"Polygon","coordinates":[[[99.9547,12.9091],[99.9539,12.9081],[99.9539,12.9067],[99.9558,12.9061],[99.9555,12.9075],[99.9561,12.908],[99.9572,12.908],[99.9572,12.9091],[99.9547,12.9091]]]}},{"type":"Feature","properties":{"kind":"flood","area_km2":0.069,"conf":"low","date":"2026-10-09"},"geometry":{"type":"Polygon","coordinates":[[[100.0001,12.9236],[99.9995,12.9231],[99.9995,12.9214],[100.0009,12.9209],[100.0023,12.9212],[100.0018,12.9233],[100.0001,12.9236]]]}},{"type":"Feature","properties":{"kind":"flood","area_km2":0.069,"conf":"low","date":"2026-10-02"},"geometry":{"type":"Polygon","coordinates":[[[99.5921,12.8839],[99.5918,12.8834],[99.5913,12.8834],[99.5913,12.8823],[99.5924,12.882],[99.5918,12.8804],[99.5932,12.8801],[99.5938,12.8809],[99.5949,12.8812],[99.5954,12.8823],[99.5954,12.8836],[99.5951,12.8825],[99.594,12.882],[99.594,12.8814],[99.5929,12.8815],[99.5921,12.8839]]]}},{"type":"Feature","properties":{"kind":"flood","area_km2":0.069,"conf":"low","date":"2026-10-09"},"geometry":{"type":"Polygon","coordinates":[[[99.8982,12.3215],[99.8954,12.3215],[99.8954,12.3204],[99.8968,12.3191],[99.8979,12.3191],[99.8982,12.3215]]]}},{"type":"Feature","properties":{"kind":"flood","area_km2":0.068,"conf":"low","date":"2026-10-09"},"geometry":{"type":"Polygon","coordinates":[[[99.9745,12.9446],[99.9745,12.9438],[99.9739,12.9438],[99.9739,12.9427],[99.9731,12.9427],[99.9733,12.9405],[99.9744,12.9405],[99.9745,12.9422],[99.9756,12.9424],[99.9753,12.9446],[99.9745,12.9446]]]}},{"type":"Feature","properties":{"kind":"flood","area_km2":0.068,"conf":"low","date":"2026-10-02"},"geometry":{"type":"Polygon","coordinates":[[[99.6037,12.8893],[99.6026,12.8888],[99.601,12.8869],[99.601,12.8847],[99.6023,12.885],[99.6015,12.8855],[99.6015,12.8866],[99.6021,12.8866],[99.6029,12.8855],[99.6029,12.8874],[99.6048,12.8877],[99.6024,12.8877],[99.6029,12.8885],[99.6043,12.889],[99.6037,12.8893]]]}},{"type":"Feature","properties":{"kind":"flood","area_km2":0.068,"conf":"low","date":"2026-10-09"},"geometry":{"type":"Polygon","coordinates":[[[99.9881,12.9087],[99.9881,12.9077],[99.9876,12.9077],[99.9876,12.9068],[99.9881,12.906],[99.9892,12.906],[99.9895,12.9071],[99.9906,12.9079],[99.9906,12.9087],[99.9881,12.9087]]]}},{"type":"Feature","properties":{"kind":"flood","area_km2":0.068,"conf":"low","date":"2026-10-09"},"geometry":{"type":"Polygon","coordinates":[[[99.789,12.4407],[99.7887,12.4382],[99.7873,12.4382],[99.7873,12.4388],[99.7868,12.439],[99.786,12.4388],[99.7876,12.4366],[99.7887,12.4366],[99.7887,12.4377],[99.7898,12.438],[99.7898,12.439],[99.7893,12.4393],[99.789,12.4407]]]}},{"type":"Feature","properties":{"kind":"flood","area_km2":0.068,"conf":"low","date":"2026-10-09"},"geometry":{"type":"Polygon","coordinates":[[[99.9061,12.2925],[99.9058,12.2914],[99.9063,12.2911],[99.9069,12.2897],[99.9074,12.2897],[99.9077,12.2889],[99.9085,12.2889],[99.9085,12.29],[99.9077,12.29],[99.9077,12.2906],[99.9083,12.2908],[99.9083,12.2919],[99.9061,12.2925]]]}},{"type":"Feature","properties":{"kind":"flood","area_km2":0.067,"conf":"low","date":"2026-10-09"},"geometry":{"type":"Polygon","coordinates":[[[99.6479,12.8406],[99.6481,12.8387],[99.6487,12.8382],[99.6495,12.8382],[99.6501,12.8374],[99.6512,12.8374],[99.6514,12.839],[99.6498,12.8387],[99.6492,12.8393],[99.6492,12.8401],[99.6487,12.8406],[99.6479,12.8406]]]}},{"type":"Feature","properties":{"kind":"flood","area_km2":0.067,"conf":"low","date":"2026-10-09"},"geometry":{"type":"Polygon","coordinates":[[[99.75,12.5987],[99.7497,12.5981],[99.7486,12.5978],[99.7486,12.596],[99.7505,12.5959],[99.7503,12.597],[99.7508,12.597],[99.7511,12.5978],[99.7525,12.5978],[99.7525,12.5984],[99.7511,12.5981],[99.7508,12.5987],[99.75,12.5987]]]}},{"type":"Feature","properties":{"kind":"flood","area_km2":0.066,"conf":"low","date":"2026-10-09"},"geometry":{"type":"Polygon","coordinates":[[[99.9386,12.9556],[99.938,12.955],[99.938,12.9529],[99.9388,12.9529],[99.9391,12.9537],[99.9408,12.9539],[99.9408,12.9556],[99.9386,12.9556]]]}},{"type":"Feature","properties":{"kind":"flood","area_km2":0.066,"conf":"low","date":"2026-10-02"},"geometry":{"type":"Polygon","coordinates":[[[99.6561,12.6022],[99.6558,12.6008],[99.6564,12.6008],[99.6564,12.6003],[99.6558,12.6],[99.6599,12.6005],[99.66,12.6013],[99.6583,12.6016],[99.658,12.6011],[99.6575,12.6011],[99.6575,12.6019],[99.6561,12.6022]]]}},{"type":"Feature","properties":{"kind":"flood","area_km2":0.062,"conf":"low","date":"2026-10-09"},"geometry":{"type":"Polygon","coordinates":[[[99.9918,12.9185],[99.9918,12.9158],[99.9923,12.9152],[99.9932,12.9152],[99.994,12.9166],[99.994,12.9177],[99.9926,12.9179],[99.9926,12.9185],[99.9918,12.9185]]]}},{"type":"Feature","properties":{"kind":"flood","area_km2":0.062,"conf":"low","date":"2026-10-09"},"geometry":{"type":"Polygon","coordinates":[[[99.9021,12.258],[99.9024,12.2567],[99.9013,12.2564],[99.901,12.2559],[99.9035,12.2559],[99.9037,12.2569],[99.9051,12.2569],[99.9051,12.2577],[99.9046,12.258],[99.9021,12.258]]]}},{"type":"Feature","properties":{"kind":"flood","area_km2":0.061,"conf":"low","date":"2026-10-09"},"geometry":{"type":"Polygon","coordinates":[[[99.7713,12.4272],[99.7713,12.4266],[99.7707,12.4266],[99.7694,12.4242],[99.7666,12.4247],[99.7666,12.4239],[99.7707,12.4239],[99.7707,12.425],[99.7718,12.4258],[99.7718,12.4269],[99.7713,12.4272]]]}},{"type":"Feature","properties":{"kind":"flood","area_km2":0.06,"conf":"low","date":"2026-10-09"},"geometry":{"type":"Polygon","coordinates":[[[99.5972,12.9379],[99.5972,12.9341],[99.5978,12.9341],[99.5975,12.9327],[99.598,12.9322],[99.5991,12.9322],[99.5986,12.9341],[99.5978,12.9346],[99.598,12.9368],[99.5986,12.937],[99.598,12.937],[99.598,12.9379],[99.5972,12.9379]]]}},{"type":"Feature","properties":{"kind":"flood","area_km2":0.059,"conf":"low","date":"2026-10-02"},"geometry":{"type":"Polygon","coordinates":[[[99.5297,12.9272],[99.5297,12.9258],[99.5286,12.9255],[99.5286,12.925],[99.5297,12.9247],[99.5275,12.9242],[99.5278,12.9234],[99.5286,12.9234],[99.5292,12.9244],[99.5303,12.9244],[99.5314,12.9253],[99.5308,12.9255],[99.5308,12.9269],[99.5297,12.9272]],[[99.53,12.925],[99.5303,12.9253],[99.5303,12.925],[99.53,12.925]]]}},{"type":"Feature","properties":{"kind":"flood","area_km2":0.059,"conf":"low","date":"2026-10-09"},"geometry":{"type":"Polygon","coordinates":[[[99.8912,12.2263],[99.8907,12.2242],[99.8909,12.2231],[99.8918,12.2231],[99.8926,12.2233],[99.8926,12.2255],[99.8921,12.2263],[99.8912,12.2263]]]}},{"type":"Feature","properties":{"kind":"flood","area_km2":0.059,"conf":"low","date":"2026-10-09"},"geometry":{"type":"Polygon","coordinates":[[[99.984,12.9191],[99.9838,12.9169],[99.9857,12.9166],[99.9857,12.9172],[99.9862,12.9174],[99.986,12.9188],[99.984,12.9191]]]}},{"type":"Feature","properties":{"kind":"flood","area_km2":0.057,"conf":"low","date":"2026-10-09"},"geometry":{"type":"Polygon","coordinates":[[[99.5936,12.9474],[99.5936,12.9466],[99.5945,12.9457],[99.5964,12.9457],[99.597,12.9438],[99.5978,12.9436],[99.597,12.946],[99.5964,12.946],[99.5953,12.9471],[99.5936,12.9474]],[[99.5942,12.9463],[99.5945,12.9466],[99.5945,12.9463],[99.5942,12.9463]]]}},{"type":"Feature","properties":{"kind":"flood","area_km2":0.055,"conf":"low","date":"2026-10-09"},"geometry":{"type":"Polygon","coordinates":[[[99.8743,12.0324],[99.8738,12.0319],[99.8724,12.0319],[99.8724,12.0308],[99.874,12.0308],[99.874,12.0313],[99.8749,12.0313],[99.8757,12.0305],[99.8765,12.0305],[99.8763,12.0319],[99.8751,12.0319],[99.8751,12.0324],[99.8743,12.0324]]]}},{"type":"Feature","properties":{"kind":"flood","area_km2":0.054,"conf":"low","date":"2026-10-09"},"geometry":{"type":"Polygon","coordinates":[[[99.867,12.9691],[99.867,12.9678],[99.8675,12.9678],[99.8675,12.9669],[99.8683,12.9669],[99.8683,12.9675],[99.8695,12.9675],[99.8697,12.9688],[99.867,12.9691]]]}},{"type":"Feature","properties":{"kind":"flood","area_km2":0.054,"conf":"low","date":"2026-10-09"},"geometry":{"type":"Polygon","coordinates":[[[99.8716,12.9406],[99.8702,12.9404],[99.8699,12.9382],[99.8721,12.9376],[99.8721,12.9384],[99.8713,12.9384],[99.8713,12.939],[99.8718,12.939],[99.8718,12.9401],[99.8716,12.9406]]]}},{"type":"Feature","properties":{"kind":"flood","area_km2":0.053,"conf":"low","date":"2026-10-09"},"geometry":{"type":"Polygon","coordinates":[[[99.9445,12.9208],[99.9437,12.9206],[99.9434,12.9184],[99.9442,12.9184],[99.9442,12.9192],[99.9462,12.9192],[99.9462,12.9203],[99.9445,12.9208]]]}},{"type":"Feature","properties":{"kind":"flood","area_km2":0.053,"conf":"high","date":"2026-10-09"},"geometry":{"type":"Polygon","coordinates":[[[99.722,12.3673],[99.7223,12.3652],[99.7248,12.3657],[99.7248,12.3665],[99.7242,12.3671],[99.722,12.3673]]]}},{"type":"Feature","properties":{"kind":"flood","area_km2":0.052,"conf":"low","date":"2026-10-09"},"geometry":{"type":"Polygon","coordinates":[[[99.9108,12.2222],[99.9108,12.2211],[99.9113,12.2208],[99.9113,12.2203],[99.9122,12.2203],[99.9122,12.2189],[99.9133,12.2189],[99.913,12.2206],[99.9124,12.2206],[99.9127,12.2219],[99.9108,12.2222]]]}},{"type":"Feature","properties":{"kind":"flood","area_km2":0.051,"conf":"low","date":"2026-10-09"},"geometry":{"type":"Polygon","coordinates":[[[99.9943,12.9885],[99.9943,12.9868],[99.9951,12.9868],[99.9954,12.9874],[99.9979,12.9874],[99.9976,12.9884],[99.9943,12.9885]]]}},{"type":"Feature","properties":{"kind":"flood","area_km2":0.051,"conf":"low","date":"2026-10-09"},"geometry":{"type":"Polygon","coordinates":[[[99.9931,12.9676],[99.9936,12.9657],[99.9958,12.9662],[99.9958,12.9676],[99.9931,12.9676]]]}},{"type":"Feature","properties":{"kind":"flood","area_km2":0.05,"conf":"low","date":"2026-10-09"},"geometry":{"type":"Polygon","coordinates":[[[99.995,12.96],[99.9933,12.9597],[99.9933,12.9581],[99.9964,12.9583],[99.9964,12.9594],[99.995,12.9592],[99.995,12.96]]]}},{"type":"Feature","properties":{"kind":"flood","area_km2":0.05,"conf":"low","date":"2026-10-09"},"geometry":{"type":"Polygon","coordinates":[[[99.9862,12.9012],[99.9851,12.8993],[99.9851,12.8982],[99.9862,12.8982],[99.9873,12.9001],[99.9873,12.9011],[99.9862,12.9012]]]}},{"type":"Feature","properties":{"kind":"flood","area_km2":0.05,"conf":"low","date":"2026-10-09"},"geometry":{"type":"Polygon","coordinates":[[[99.7652,12.4226],[99.7649,12.4201],[99.7624,12.4196],[99.7652,12.4196],[99.7655,12.4201],[99.7666,12.4204],[99.7663,12.4226],[99.7652,12.4226]]]}},{"type":"Feature","properties":{"kind":"seasonal","area_km2":1.325,"date":"2026-10-02"},"geometry":{"type":"Polygon","coordinates":[[[99.5899,12.8934],[99.5896,12.8901],[99.5888,12.8901],[99.5883,12.892],[99.5863,12.892],[99.5858,12.8915],[99.5847,12.8915],[99.5844,12.892],[99.5844,12.8899],[99.5852,12.8899],[99.5847,12.8891],[99.5849,12.8874],[99.5844,12.8866],[99.5833,12.8866],[99.583,12.8885],[99.5822,12.8891],[99.5819,12.8899],[99.5805,12.8899],[99.5805,12.8904],[99.5789,12.8902],[99.5791,12.8896],[99.5786,12.8896],[99.5786,12.8883],[99.578,12.8877],[99.5777,12.8891],[99.5786,12.8902],[99.5786,12.8921],[99.5775,12.8921],[99.5769,12.891],[99.5758,12.891],[99.575,12.8899],[99.5744,12.8899],[99.5742,12.8904],[99.5736,12.8899],[99.5736,12.8891],[99.575,12.8891],[99.5761,12.8896],[99.5766,12.8904],[99.5775,12.8904],[99.5772,12.8896],[99.5764,12.8891],[99.5764,12.8883],[99.5755,12.888],[99.5755,12.8866],[99.5772,12.8869],[99.5772,12.8861],[99.5783,12.8861],[99.5791,12.888],[99.5813,12.8885],[99.5827,12.8874],[99.583,12.8847],[99.5846,12.8847],[99.5849,12.8858],[99.586,12.8861],[99.5858,12.8882],[99.5869,12.8891],[99.5871,12.8901],[99.5877,12.8901],[99.5883,12.8893],[99.5907,12.8891],[99.591,12.888],[99.5902,12.8877],[99.5902,12.8861],[99.5916,12.8858],[99.5916,12.8853],[99.5921,12.885],[99.5924,12.8825],[99.5929,12.8815],[99.594,12.8814],[99.594,12.882],[99.5951,12.8825],[99.5952,12.8836],[99.5963,12.8847],[99.5968,12.8858],[99.5968,12.8871],[99.5979,12.8885],[99.5988,12.8863],[99.5987,12.8836],[99.6001,12.8836],[99.601,12.8844],[99.601,12.8814],[99.6015,12.8809],[99.6015,12.8801],[99.6034,12.8798],[99.604,12.8803],[99.6048,12.8795],[99.6068,12.8798],[99.6068,12.8809],[99.6054,12.8803],[99.6054,12.8809],[99.6029,12.8809],[99.6018,12.8817],[99.6018,12.8825],[99.6021,12.882],[99.6026,12.882],[99.6026,12.8828],[99.6037,12.8833],[99.6037,12.8841],[99.6018,12.8836],[99.6037,12.8852],[99.6035,12.8869],[99.6059,12.8874],[99.6068,12.8882],[99.6065,12.8896],[99.6048,12.8901],[99.6048,12.8909],[99.6057,12.892],[99.6054,12.8931],[99.6051,12.8925],[99.6046,12.8925],[99.6046,12.8915],[99.6043,12.8923],[99.6032,12.8917],[99.6032,12.8898],[99.6021,12.8896],[99.6021,12.889],[99.6001,12.8879],[99.5999,12.8863],[99.5993,12.8871],[99.5993,12.8898],[99.5968,12.8896],[99.5957,12.8874],[99.5957,12.8863],[99.5952,12.8861],[99.5952,12.8852],[99.5946,12.885],[99.5943,12.8839],[99.5932,12.8839],[99.5935,12.885],[99.594,12.8852],[99.5935,12.8852],[99.5932,12.8861],[99.5921,12.8861],[99.5921,12.8874],[99.5927,12.8874],[99.5927,12.8885],[99.5921,12.8888],[99.5921,12.8904],[99.5916,12.8907],[99.5916,12.8912],[99.5921,12.8915],[99.5921,12.8934],[99.5899,12.8934]],[[99.6043,12.8896],[99.6054,12.8893],[99.6059,12.8885],[99.6048,12.8877],[99.6029,12.8874],[99.6029,12.8855],[99.6021,12.8847],[99.601,12.8847],[99.601,12.8869],[99.6026,12.8888],[99.6043,12.8896]]]}},{"type":"Feature","properties":{"kind":"seasonal","area_km2":1.271,"date":"2026-10-09"},"geometry":{"type":"Polygon","coordinates":[[[99.6621,12.7741],[99.6612,12.7736],[99.6609,12.7725],[99.6598,12.772],[99.6598,12.7714],[99.6587,12.7714],[99.6587,12.7698],[99.6601,12.7698],[99.6604,12.7706],[99.6615,12.7709],[99.6615,12.7698],[99.6626,12.7687],[99.6637,12.7684],[99.6656,12.7684],[99.6662,12.7698],[99.667,12.7695],[99.667,12.769],[99.6659,12.7682],[99.6662,12.7652],[99.6676,12.7652],[99.6678,12.766],[99.6692,12.7662],[99.6692,12.7668],[99.6701,12.7671],[99.6703,12.7679],[99.6714,12.7671],[99.6723,12.7671],[99.6728,12.7657],[99.6736,12.7652],[99.6736,12.7638],[99.6747,12.7616],[99.6747,12.7608],[99.6761,12.7608],[99.6761,12.763],[99.6767,12.7632],[99.6767,12.7665],[99.6748,12.7692],[99.6737,12.773],[99.6728,12.773],[99.6726,12.7736],[99.6715,12.7736],[99.6706,12.7741],[99.6698,12.7741],[99.6692,12.7736],[99.6654,12.7736],[99.6643,12.7741],[99.6621,12.7741]]]}},{"type":"Feature","properties":{"kind":"seasonal","area_km2":1.08,"date":"2026-10-02"},"geometry":{"type":"Polygon","coordinates":[[[99.5775,12.9211],[99.577,12.9203],[99.5762,12.92],[99.5762,12.9195],[99.5753,12.9203],[99.5739,12.9203],[99.5739,12.9192],[99.5715,12.9195],[99.5715,12.9189],[99.5709,12.9189],[99.5709,12.9176],[99.5692,12.917],[99.5684,12.9162],[99.5673,12.9162],[99.5673,12.9154],[99.5665,12.9154],[99.5659,12.9162],[99.5645,12.9165],[99.5645,12.9176],[99.5626,12.9176],[99.562,12.9171],[99.5615,12.9173],[99.5612,12.9165],[99.5598,12.9168],[99.5587,12.9157],[99.5587,12.9152],[99.5573,12.9149],[99.556,12.913],[99.5554,12.913],[99.5554,12.9135],[99.5565,12.9168],[99.5551,12.9173],[99.5551,12.9184],[99.5538,12.9184],[99.5537,12.916],[99.5526,12.9154],[99.5521,12.9122],[99.5526,12.9119],[99.5529,12.9146],[99.5537,12.9154],[99.5543,12.9149],[99.5551,12.9152],[99.5551,12.9119],[99.5565,12.9122],[99.559,12.9146],[99.5601,12.9149],[99.5601,12.9133],[99.5593,12.9119],[99.5598,12.9116],[99.5612,12.9138],[99.5609,12.9152],[99.5615,12.9149],[99.5612,12.9143],[99.562,12.9141],[99.562,12.9152],[99.5626,12.916],[99.5626,12.9152],[99.5656,12.9151],[99.5656,12.9143],[99.5665,12.9143],[99.5665,12.9127],[99.5651,12.913],[99.5642,12.9114],[99.5651,12.9114],[99.5653,12.9108],[99.567,12.9113],[99.567,12.9103],[99.5676,12.9094],[99.5698,12.9094],[99.5698,12.9089],[99.5692,12.9086],[99.5703,12.9086],[99.5706,12.9092],[99.5709,12.9086],[99.572,12.9086],[99.572,12.9094],[99.5712,12.9097],[99.5712,12.9103],[99.5709,12.9097],[99.5703,12.9097],[99.5703,12.9116],[99.5714,12.9119],[99.5709,12.9124],[99.5709,12.913],[99.5714,12.913],[99.5714,12.9151],[99.5706,12.9151],[99.5703,12.916],[99.572,12.9162],[99.572,12.9181],[99.5726,12.9173],[99.5745,12.9178],[99.5745,12.9184],[99.5753,12.9184],[99.5759,12.9176],[99.5767,12.9176],[99.5767,12.9181],[99.5781,12.9195],[99.5784,12.9184],[99.5797,12.9181],[99.5797,12.9165],[99.5803,12.9165],[99.5803,12.9173],[99.5811,12.9173],[99.582,12.9157],[99.5831,12.9159],[99.5833,12.9154],[99.5864,12.9154],[99.5875,12.9156],[99.5878,12.9162],[99.5894,12.9156],[99.5886,12.9167],[99.5825,12.9167],[99.5822,12.9178],[99.5811,12.9181],[99.5809,12.9195],[99.5792,12.9195],[99.5792,12.9205],[99.5786,12.9211],[99.5775,12.9211]],[[99.5781,12.9197],[99.5784,12.92],[99.5784,12.9197],[99.5781,12.9197]],[[99.562,12.916],[99.5623,12.9162],[99.5623,12.916],[99.562,12.916]],[[99.554,12.9157],[99.5543,12.916],[99.5543,12.9157],[99.554,12.9157]],[[99.5537,12.9154],[99.554,12.9157],[99.554,12.9154],[99.5537,12.9154]],[[99.5551,12.9152],[99.5554,12.9154],[99.5554,12.9152],[99.5551,12.9152]],[[99.5601,12.9152],[99.5609,12.9154],[99.5609,12.9152],[99.5601,12.9152]],[[99.5678,12.9146],[99.5701,12.9143],[99.5698,12.9124],[99.5692,12.9122],[99.5692,12.9105],[99.5687,12.9103],[99.5678,12.9105],[99.567,12.9122],[99.5678,12.9146]],[[99.5576,12.9138],[99.5579,12.9144],[99.5579,12.9138],[99.5576,12.9138]]]}},{"type":"Feature","properties":{"kind":"seasonal","area_km2":0.629,"date":"2026-10-09"},"geometry":{"type":"Polygon","coordinates":[[[99.7935,12.5744],[99.7933,12.573],[99.7941,12.5728],[99.7941,12.5719],[99.793,12.572],[99.793,12.573],[99.7911,12.573],[99.7908,12.5701],[99.793,12.5703],[99.7938,12.5698],[99.7938,12.5692],[99.7955,12.5692],[99.7957,12.5687],[99.7966,12.5687],[99.7974,12.5676],[99.7974,12.566],[99.8001,12.5665],[99.801,12.5676],[99.8015,12.5703],[99.8021,12.5706],[99.8021,12.5736],[99.7999,12.5733],[99.7996,12.5741],[99.7985,12.5741],[99.7982,12.5736],[99.7963,12.5736],[99.7963,12.5728],[99.7969,12.5722],[99.7982,12.5719],[99.7955,12.5717],[99.7955,12.5728],[99.7944,12.5736],[99.7944,12.5744],[99.7935,12.5744]],[[99.7963,12.569],[99.7966,12.5692],[99.7966,12.569],[99.7963,12.569]],[[99.7966,12.5687],[99.7971,12.569],[99.7971,12.5687],[99.7966,12.5687]]]}},{"type":"Feature","properties":{"kind":"seasonal","area_km2":0.622,"date":"2026-10-02"},"geometry":{"type":"Polygon","coordinates":[[[99.7344,12.1579],[99.7344,12.1571],[99.7327,12.1563],[99.7327,12.1549],[99.7338,12.1535],[99.7341,12.1511],[99.7335,12.1508],[99.7335,12.1495],[99.7322,12.1489],[99.7322,12.1479],[99.7366,12.1473],[99.7374,12.1468],[99.7396,12.1473],[99.7399,12.1484],[99.7393,12.1484],[99.7393,12.1492],[99.7399,12.15],[99.7399,12.1511],[99.7393,12.1519],[99.7393,12.153],[99.7382,12.1541],[99.7369,12.1544],[99.736,12.1552],[99.736,12.1563],[99.7352,12.1579],[99.7344,12.1579]]]}},{"type":"Feature","properties":{"kind":"seasonal","area_km2":0.5,"date":"2026-10-09"},"geometry":{"type":"Polygon","coordinates":[[[99.685,12.5861],[99.6853,12.5853],[99.6837,12.5842],[99.6837,12.5831],[99.6856,12.5828],[99.6864,12.5836],[99.6889,12.5836],[99.6895,12.5831],[99.6911,12.5831],[99.6917,12.5828],[99.6917,12.5823],[99.6928,12.5823],[99.6917,12.582],[99.6917,12.5798],[99.6925,12.5798],[99.693,12.5804],[99.6944,12.5804],[99.6947,12.5798],[99.6952,12.5798],[99.6966,12.5806],[99.6977,12.5806],[99.698,12.5814],[99.6991,12.582],[99.7002,12.582],[99.7002,12.5828],[99.6994,12.5839],[99.6977,12.5839],[99.6983,12.585],[99.6972,12.585],[99.6958,12.5839],[99.6933,12.5839],[99.6911,12.5842],[99.6906,12.5847],[99.6889,12.5847],[99.6875,12.5853],[99.6873,12.5858],[99.685,12.5861]],[[99.6966,12.5836],[99.6969,12.5839],[99.6969,12.5836],[99.6966,12.5836]],[[99.6955,12.5833],[99.698,12.5833],[99.6983,12.5825],[99.6958,12.5825],[99.6955,12.5833]],[[99.698,12.5833],[99.6983,12.5836],[99.6983,12.5833],[99.698,12.5833]],[[99.6964,12.582],[99.6966,12.5823],[99.6966,12.582],[99.6964,12.582]]]}},{"type":"Feature","properties":{"kind":"seasonal","area_km2":0.392,"date":"2026-10-09"},"geometry":{"type":"Polygon","coordinates":[[[99.9834,12.1596],[99.9828,12.1587],[99.9823,12.1587],[99.9825,12.1582],[99.982,12.1582],[99.982,12.1577],[99.9806,12.1585],[99.9792,12.1585],[99.9787,12.1574],[99.9781,12.1574],[99.9773,12.1563],[99.974,12.1563],[99.974,12.1555],[99.9751,12.1552],[99.9767,12.1558],[99.9784,12.1547],[99.98,12.1547],[99.98,12.1536],[99.9825,12.1533],[99.9836,12.1541],[99.9834,12.1552],[99.9847,12.1563],[99.985,12.1571],[99.9847,12.159],[99.9842,12.1595],[99.9834,12.1596]]]}},{"type":"Feature","properties":{"kind":"seasonal","area_km2":0.339,"date":"2026-10-02"},"geometry":{"type":"Polygon","coordinates":[[[99.5363,12.9255],[99.5363,12.9244],[99.5355,12.9236],[99.5352,12.9206],[99.5347,12.9201],[99.5347,12.9196],[99.5352,12.9196],[99.5366,12.9236],[99.5366,12.9212],[99.5352,12.9187],[99.5352,12.9179],[99.5347,12.9179],[99.5347,12.9158],[99.5352,12.9158],[99.5355,12.9149],[99.5372,12.9149],[99.5383,12.9157],[99.5391,12.9157],[99.5399,12.9166],[99.5399,12.9174],[99.5405,12.9179],[99.5394,12.9176],[99.5394,12.9201],[99.5399,12.9198],[99.5399,12.9193],[99.541,12.9187],[99.5416,12.919],[99.5416,12.9195],[99.5419,12.919],[99.5435,12.919],[99.5444,12.9198],[99.5441,12.9187],[99.5446,12.9187],[99.5446,12.9182],[99.5463,12.9176],[99.5463,12.9168],[99.5471,12.9174],[99.5471,12.9184],[99.5452,12.919],[99.5452,12.9212],[99.5444,12.9212],[99.5444,12.9206],[99.5432,12.9198],[99.541,12.9198],[99.5402,12.9209],[99.5394,12.9209],[99.5385,12.9206],[99.5385,12.9198],[99.5391,12.9193],[99.5385,12.9171],[99.5374,12.9163],[99.536,12.916],[99.5352,12.9174],[99.5358,12.9177],[99.5358,12.919],[99.5366,12.9195],[99.5374,12.9214],[99.5369,12.9236],[99.5377,12.9239],[99.5375,12.9255],[99.5369,12.9255],[99.5369,12.9239],[99.5363,12.9255]],[[99.5463,12.9176],[99.5468,12.9179],[99.5468,12.9176],[99.5463,12.9176]]]}},{"type":"Feature","properties":{"kind":"seasonal","area_km2":0.328,"date":"2026-10-09"},"geometry":{"type":"Polygon","coordinates":[[[99.8546,12.6523],[99.8548,12.6491],[99.8543,12.6472],[99.8537,12.6469],[99.8543,12.645],[99.854,12.6442],[99.8532,12.6439],[99.8531,12.6431],[99.8559,12.6431],[99.8556,12.6396],[99.8545,12.6388],[99.8551,12.6382],[99.8545,12.638],[99.8545,12.6371],[99.8556,12.6371],[99.8556,12.6366],[99.8551,12.6366],[99.8551,12.6358],[99.8556,12.6355],[99.8556,12.636],[99.8562,12.636],[99.8564,12.6366],[99.8562,12.6407],[99.857,12.6439],[99.8556,12.6439],[99.8554,12.6447],[99.8548,12.6447],[99.8548,12.6455],[99.8554,12.6453],[99.8556,12.6464],[99.8562,12.6466],[99.8573,12.6466],[99.8576,12.6461],[99.8576,12.6472],[99.857,12.648],[99.857,12.6507],[99.8565,12.651],[99.8565,12.652],[99.8554,12.6523],[99.8551,12.6504],[99.8551,12.6523],[99.8546,12.6523]],[[99.8556,12.6374],[99.8559,12.6388],[99.8559,12.6374],[99.8556,12.6374]],[[99.8551,12.6374],[99.8553,12.6377],[99.8553,12.6374],[99.8551,12.6374]]]}},{"type":"Feature","properties":{"kind":"seasonal","area_km2":0.277,"date":"2026-10-09"},"geometry":{"type":"Polygon","coordinates":[[[99.6263,12.9603],[99.6263,12.9584],[99.6246,12.9579],[99.6246,12.9573],[99.6255,12.9573],[99.6255,12.9562],[99.6233,12.9565],[99.6238,12.9554],[99.626,12.9554],[99.626,12.9565],[99.6266,12.9565],[99.6269,12.9571],[99.628,12.9565],[99.6277,12.9549],[99.628,12.9554],[99.6288,12.9554],[99.6291,12.9565],[99.628,12.9571],[99.6274,12.9581],[99.6277,12.959],[99.6285,12.9587],[99.6288,12.9579],[99.6296,12.9579],[99.6299,12.9587],[99.6307,12.9579],[99.6321,12.9579],[99.6316,12.9576],[99.6316,12.9568],[99.6338,12.9573],[99.634,12.9565],[99.6365,12.9562],[99.6363,12.9557],[99.6374,12.9551],[99.6371,12.9573],[99.6343,12.9573],[99.634,12.9579],[99.6332,12.9579],[99.6332,12.9584],[99.6313,12.9581],[99.6307,12.9587],[99.6307,12.9595],[99.6299,12.96],[99.6282,12.9595],[99.6282,12.9603],[99.6263,12.9603]],[[99.6271,12.9592],[99.6274,12.9595],[99.6274,12.9592],[99.6271,12.9592]]]}},{"type":"Feature","properties":{"kind":"seasonal","area_km2":0.257,"date":"2026-10-09"},"geometry":{"type":"Polygon","coordinates":[[[99.6056,12.8779],[99.6056,12.8765],[99.6065,12.876],[99.6065,12.8752],[99.6076,12.8752],[99.6076,12.876],[99.6095,12.8757],[99.6092,12.8727],[99.6117,12.8727],[99.6139,12.8741],[99.6148,12.8733],[99.615,12.8722],[99.6164,12.8722],[99.6164,12.8743],[99.6156,12.8743],[99.6153,12.8733],[99.6148,12.8738],[99.6148,12.8749],[99.6142,12.8749],[99.6139,12.8757],[99.6128,12.8754],[99.6126,12.876],[99.612,12.8749],[99.6123,12.8744],[99.6103,12.8744],[99.6106,12.8771],[99.609,12.8768],[99.6087,12.8773],[99.6081,12.8773],[99.6081,12.8768],[99.6073,12.8765],[99.6073,12.8776],[99.6056,12.8779]]]}},{"type":"Feature","properties":{"kind":"seasonal","area_km2":0.237,"date":"2026-10-09"},"geometry":{"type":"Polygon","coordinates":[[[99.5992,12.9574],[99.5992,12.9566],[99.597,12.9566],[99.597,12.9555],[99.5961,12.955],[99.5961,12.9517],[99.5978,12.9503],[99.5983,12.9493],[99.5989,12.9493],[99.5989,12.9503],[99.5981,12.9512],[99.5981,12.9522],[99.597,12.9525],[99.597,12.9539],[99.5986,12.9544],[99.5984,12.956],[99.5989,12.956],[99.5989,12.9552],[99.5995,12.9547],[99.5986,12.9541],[99.5989,12.9536],[99.6017,12.953],[99.6014,12.9566],[99.6,12.9574],[99.5992,12.9574]],[[99.6011,12.9547],[99.6014,12.9549],[99.6014,12.9547],[99.6011,12.9547]],[[99.6009,12.9544],[99.6011,12.9547],[99.6011,12.9544],[99.6009,12.9544]]]}},{"type":"Feature","properties":{"kind":"seasonal","area_km2":0.226,"date":"2026-10-09"},"geometry":{"type":"Polygon","coordinates":[[[99.6236,12.9725],[99.6236,12.972],[99.6214,12.972],[99.6216,12.9693],[99.6208,12.969],[99.6208,12.9679],[99.6216,12.9679],[99.6216,12.9674],[99.6227,12.9674],[99.623,12.9679],[99.6249,12.9679],[99.625,12.9698],[99.6238,12.9701],[99.6261,12.9703],[99.6261,12.9709],[99.6266,12.9709],[99.6263,12.9722],[99.6236,12.9725]]]}},{"type":"Feature","properties":{"kind":"seasonal","area_km2":0.225,"date":"2026-10-09"},"geometry":{"type":"Polygon","coordinates":[[[99.9273,12.2886],[99.9256,12.2883],[99.9256,12.2872],[99.9243,12.2872],[99.9237,12.2856],[99.9229,12.2856],[99.9226,12.2862],[99.9209,12.2862],[99.9209,12.2843],[99.9223,12.2843],[99.9229,12.2848],[99.9229,12.2843],[99.9265,12.284],[99.9267,12.2848],[99.9278,12.2856],[99.9284,12.2878],[99.9273,12.2881],[99.9273,12.2886]],[[99.9256,12.2867],[99.9262,12.287],[99.9262,12.2867],[99.9256,12.2867]]]}},{"type":"Feature","properties":{"kind":"seasonal","area_km2":0.217,"date":"2026-10-02"},"geometry":{"type":"Polygon","coordinates":[[[99.562,12.8978],[99.5617,12.8964],[99.5606,12.8964],[99.5609,12.8973],[99.5595,12.8973],[99.5595,12.8956],[99.5612,12.8951],[99.5614,12.8932],[99.5623,12.8929],[99.5628,12.8916],[99.5639,12.8916],[99.5642,12.8929],[99.565,12.8929],[99.5656,12.8915],[99.567,12.8915],[99.567,12.8921],[99.5675,12.8921],[99.5675,12.8932],[99.5659,12.8932],[99.5659,12.8945],[99.5648,12.8945],[99.5648,12.894],[99.5642,12.8943],[99.5634,12.8924],[99.5634,12.8943],[99.5625,12.8945],[99.562,12.8956],[99.5631,12.8959],[99.5631,12.8964],[99.5626,12.8964],[99.5623,12.8973],[99.5631,12.8975],[99.5637,12.897],[99.5637,12.8978],[99.562,12.8978]]]}},{"type":"Feature","properties":{"kind":"seasonal","area_km2":0.21,"date":"2026-10-09"},"geometry":{"type":"Polygon","coordinates":[[[99.7548,12.4359],[99.7545,12.4345],[99.7528,12.4332],[99.7528,12.4326],[99.7517,12.4316],[99.7498,12.4318],[99.7495,12.4313],[99.7484,12.4335],[99.7456,12.4337],[99.7454,12.4324],[99.7443,12.4324],[99.7443,12.431],[99.7456,12.4305],[99.7456,12.4299],[99.7462,12.4299],[99.7467,12.4291],[99.7465,12.4305],[99.7456,12.4308],[99.7462,12.431],[99.7462,12.4316],[99.7454,12.4318],[99.7473,12.4318],[99.7467,12.4324],[99.7484,12.4324],[99.7487,12.4313],[99.7495,12.431],[99.75,12.4299],[99.7512,12.4297],[99.7517,12.4313],[99.7534,12.4318],[99.7534,12.4332],[99.7539,12.4337],[99.7545,12.4334],[99.755,12.434],[99.755,12.4348],[99.7556,12.4348],[99.7556,12.434],[99.7564,12.4343],[99.7561,12.4353],[99.7548,12.4359]]]}},{"type":"Feature","properties":{"kind":"seasonal","area_km2":0.194,"date":"2026-10-09"},"geometry":{"type":"Polygon","coordinates":[[[99.7235,12.7108],[99.7221,12.7089],[99.7213,12.7089],[99.721,12.7081],[99.7199,12.7075],[99.7199,12.7062],[99.7207,12.7067],[99.7235,12.7067],[99.7243,12.7059],[99.7282,12.7059],[99.7296,12.7072],[99.7296,12.7094],[99.7282,12.7094],[99.7277,12.7099],[99.7235,12.7108]],[[99.7249,12.7099],[99.7254,12.7099],[99.7254,12.7091],[99.7257,12.7097],[99.7274,12.7097],[99.7274,12.7089],[99.729,12.7089],[99.729,12.708],[99.7282,12.7078],[99.7282,12.7072],[99.7276,12.7072],[99.7271,12.7064],[99.7254,12.7064],[99.7243,12.7072],[99.7227,12.7075],[99.721,12.7072],[99.721,12.7081],[99.7216,12.7078],[99.7224,12.7081],[99.7227,12.7089],[99.7249,12.7091],[99.7249,12.7099]]]}},{"type":"Feature","properties":{"kind":"seasonal","area_km2":0.18,"date":"2026-10-09"},"geometry":{"type":"Polygon","coordinates":[[[99.7825,12.4754],[99.7827,12.4735],[99.7814,12.4727],[99.7803,12.4727],[99.78,12.4732],[99.7783,12.4733],[99.7778,12.4727],[99.7745,12.473],[99.7742,12.4714],[99.775,12.4708],[99.7747,12.4692],[99.7753,12.4692],[99.7753,12.4697],[99.7758,12.47],[99.7764,12.4719],[99.7767,12.4703],[99.7778,12.47],[99.7783,12.4708],[99.7781,12.4722],[99.7789,12.4719],[99.7789,12.4724],[99.7797,12.4724],[99.78,12.4719],[99.7814,12.4719],[99.7819,12.4722],[99.7819,12.4727],[99.7833,12.473],[99.783,12.4751],[99.7825,12.4754]]]}},{"type":"Feature","properties":{"kind":"seasonal","area_km2":0.18,"date":"2026-10-02"},"geometry":{"type":"Polygon","coordinates":[[[99.6211,12.0594],[99.6211,12.0589],[99.62,12.0586],[99.6192,12.0575],[99.6186,12.0575],[99.6186,12.0556],[99.6192,12.0551],[99.6228,12.0553],[99.6233,12.0591],[99.6211,12.0594]],[[99.6217,12.0575],[99.6219,12.0578],[99.6219,12.0575],[99.6217,12.0575]],[[99.6206,12.0572],[99.6217,12.0575],[99.6217,12.0572],[99.6206,12.0572]]]}},{"type":"Feature","properties":{"kind":"seasonal","area_km2":0.163,"date":"2026-10-09"},"geometry":{"type":"Polygon","coordinates":[[[99.6295,12.889],[99.6289,12.8884],[99.6294,12.8879],[99.6294,12.8871],[99.63,12.8871],[99.63,12.886],[99.6281,12.886],[99.6267,12.8865],[99.6264,12.8846],[99.6272,12.8846],[99.6267,12.8844],[99.6272,12.8833],[99.6286,12.8833],[99.6314,12.8852],[99.6311,12.8871],[99.6306,12.8873],[99.6306,12.8881],[99.6295,12.889]]]}},{"type":"Feature","properties":{"kind":"seasonal","area_km2":0.163,"date":"2026-10-09"},"geometry":{"type":"Polygon","coordinates":[[[99.9033,12.1381],[99.9031,12.137],[99.9047,12.1368],[99.9036,12.1365],[99.9039,12.1346],[99.905,12.1346],[99.9053,12.1335],[99.9066,12.1338],[99.9075,12.1362],[99.908,12.1362],[99.908,12.137],[99.9086,12.1373],[99.9086,12.1381],[99.9069,12.1378],[99.9069,12.1365],[99.9061,12.1365],[99.9053,12.1373],[99.9053,12.1378],[99.9033,12.1381]],[[99.905,12.1365],[99.9053,12.1368],[99.9053,12.1365],[99.905,12.1365]]]}},{"type":"Feature","properties":{"kind":"seasonal","area_km2":0.162,"date":"2026-10-09"},"geometry":{"type":"Polygon","coordinates":[[[99.5972,12.9457],[99.5972,12.9446],[99.5978,12.9444],[99.5981,12.9433],[99.5975,12.9427],[99.5978,12.9406],[99.5989,12.9403],[99.5989,12.9389],[99.598,12.9381],[99.598,12.937],[99.5989,12.937],[99.5989,12.9381],[99.5994,12.9384],[99.5994,12.9406],[99.6,12.9406],[99.6003,12.9398],[99.6014,12.9392],[99.6014,12.94],[99.6025,12.9403],[99.6025,12.9414],[99.6019,12.9414],[99.6019,12.9408],[99.6005,12.9411],[99.6005,12.9425],[99.5992,12.9425],[99.5989,12.9414],[99.5989,12.9436],[99.5983,12.9441],[99.5986,12.9449],[99.5981,12.9457],[99.5972,12.9457]]]}},{"type":"Feature","properties":{"kind":"seasonal","area_km2":0.151,"date":"2026-10-09"},"geometry":{"type":"Polygon","coordinates":[[[99.9019,12.7664],[99.9019,12.7658],[99.9014,12.7658],[99.9014,12.7647],[99.9022,12.7623],[99.9038,12.762],[99.9052,12.7626],[99.9052,12.7631],[99.9058,12.7634],[99.9058,12.7645],[99.9041,12.765],[99.9044,12.7655],[99.9039,12.7655],[99.9039,12.7661],[99.9027,12.7658],[99.9025,12.7664],[99.9019,12.7664]],[[99.9041,12.7634],[99.905,12.7636],[99.905,12.7634],[99.9041,12.7634]]]}},{"type":"Feature","properties":{"kind":"seasonal","area_km2":0.15,"date":"2026-10-09"},"geometry":{"type":"Polygon","coordinates":[[[99.6314,12.9028],[99.6314,12.9009],[99.6303,12.9009],[99.6303,12.9001],[99.6311,12.8998],[99.6311,12.8974],[99.632,12.8971],[99.632,12.8965],[99.6314,12.8966],[99.6314,12.8949],[99.6308,12.8944],[99.6314,12.8914],[99.6303,12.8906],[99.6292,12.8909],[99.6295,12.8903],[99.6319,12.8903],[99.6325,12.8911],[99.6325,12.8944],[99.632,12.8949],[99.632,12.8957],[99.6328,12.8965],[99.6317,12.8987],[99.632,12.9012],[99.6314,12.9028]]]}},{"type":"Feature","properties":{"kind":"seasonal","area_km2":0.148,"date":"2026-10-09"},"geometry":{"type":"Polygon","coordinates":[[[99.7746,12.4326],[99.7749,12.4315],[99.7743,12.4309],[99.773,12.431],[99.7719,12.4299],[99.7718,12.428],[99.7705,12.4269],[99.7696,12.4269],[99.7696,12.4258],[99.7691,12.4258],[99.7694,12.425],[99.7669,12.4245],[99.7694,12.4242],[99.7707,12.4266],[99.7713,12.4266],[99.7713,12.4272],[99.7727,12.428],[99.7727,12.4296],[99.7741,12.4307],[99.7754,12.4307],[99.7754,12.4315],[99.7785,12.4315],[99.779,12.4309],[99.7804,12.4309],[99.7804,12.4317],[99.7796,12.4326],[99.7796,12.4317],[99.7763,12.4318],[99.7746,12.4326]]]}},{"type":"Feature","properties":{"kind":"seasonal","area_km2":0.148,"date":"2026-10-09"},"geometry":{"type":"Polygon","coordinates":[[[99.7484,12.4177],[99.7484,12.4166],[99.7478,12.4161],[99.747,12.4161],[99.747,12.4156],[99.7467,12.4161],[99.745,12.4164],[99.7448,12.4172],[99.7442,12.4172],[99.7445,12.4156],[99.7461,12.4139],[99.7467,12.4139],[99.747,12.4126],[99.7475,12.412],[99.7472,12.4088],[99.7481,12.4118],[99.7481,12.4131],[99.7472,12.4137],[99.7478,12.4139],[99.7478,12.4145],[99.7486,12.4147],[99.7495,12.4169],[99.7484,12.4177]]]}},{"type":"Feature","properties":{"kind":"seasonal","area_km2":0.142,"date":"2026-10-09"},"geometry":{"type":"Polygon","coordinates":[[[99.7741,12.4581],[99.7747,12.4562],[99.7739,12.4554],[99.7736,12.4543],[99.7728,12.4537],[99.7727,12.4527],[99.7719,12.4521],[99.7716,12.4497],[99.7708,12.4491],[99.7708,12.4486],[99.768,12.4481],[99.7678,12.4472],[99.7667,12.4467],[99.7664,12.4456],[99.7639,12.4448],[99.7669,12.4453],[99.7683,12.4475],[99.7702,12.4475],[99.7716,12.4483],[99.7725,12.4516],[99.7733,12.4524],[99.7733,12.4529],[99.7739,12.4529],[99.775,12.4554],[99.775,12.4578],[99.7741,12.4581]]]}},{"type":"Feature","properties":{"kind":"seasonal","area_km2":0.139,"date":"2026-10-09"},"geometry":{"type":"Polygon","coordinates":[[[99.76,12.6328],[99.7595,12.6315],[99.7586,12.6312],[99.7586,12.6287],[99.7595,12.6287],[99.7597,12.6293],[99.7625,12.629],[99.7633,12.6306],[99.7608,12.6298],[99.7603,12.6301],[99.7603,12.6306],[99.7614,12.6306],[99.7617,12.632],[99.7631,12.6314],[99.7631,12.6325],[99.76,12.6328]],[[99.7595,12.6304],[99.76,12.6304],[99.76,12.6298],[99.7595,12.6298],[99.7595,12.6304]],[[99.7608,12.6293],[99.7611,12.6296],[99.7611,12.6293],[99.7608,12.6293]]]}},{"type":"Feature","properties":{"kind":"seasonal","area_km2":0.129,"date":"2026-10-09"},"geometry":{"type":"Polygon","coordinates":[[[99.7292,12.9505],[99.7283,12.9495],[99.7253,12.9495],[99.7253,12.9487],[99.7264,12.9478],[99.7269,12.9462],[99.7294,12.9468],[99.7294,12.9476],[99.73,12.9478],[99.7297,12.9489],[99.7303,12.9492],[99.7303,12.9503],[99.7292,12.9505]],[[99.727,12.9487],[99.7294,12.9492],[99.7297,12.9484],[99.7283,12.9484],[99.7283,12.9478],[99.7275,12.9478],[99.7275,12.9484],[99.727,12.9487]]]}},{"type":"Feature","properties":{"kind":"seasonal","area_km2":0.126,"date":"2026-10-09"},"geometry":{"type":"Polygon","coordinates":[[[99.9087,12.1753],[99.9081,12.1747],[99.9081,12.1739],[99.9065,12.1734],[99.9065,12.1723],[99.9073,12.1723],[99.9073,12.1728],[99.9079,12.1728],[99.9079,12.172],[99.909,12.1715],[99.9087,12.1704],[99.9092,12.1701],[99.9095,12.1709],[99.9098,12.1701],[99.9098,12.1717],[99.9106,12.1731],[99.9106,12.1742],[99.9095,12.1753],[99.9087,12.1753]],[[99.9084,12.1742],[99.9087,12.1745],[99.9087,12.1742],[99.9084,12.1742]],[[99.9098,12.1736],[99.9101,12.1742],[99.9104,12.1736],[99.9098,12.1736]],[[99.9084,12.1726],[99.9087,12.1728],[99.9087,12.1726],[99.9084,12.1726]]]}},{"type":"Feature","properties":{"kind":"seasonal","area_km2":0.119,"date":"2026-10-02"},"geometry":{"type":"Polygon","coordinates":[[[99.543,12.9182],[99.5408,12.9171],[99.5408,12.9166],[99.5419,12.9163],[99.5419,12.9147],[99.5446,12.9147],[99.5446,12.9138],[99.5452,12.9138],[99.5441,12.916],[99.5427,12.9155],[99.5427,12.916],[99.5432,12.9163],[99.5452,12.916],[99.5446,12.9176],[99.543,12.9182]]]}},{"type":"Feature","properties":{"kind":"seasonal","area_km2":0.118,"date":"2026-10-02"},"geometry":{"type":"Polygon","coordinates":[[[99.5554,12.9013],[99.5559,12.9005],[99.5556,12.8965],[99.5573,12.8964],[99.5576,12.8975],[99.5592,12.8975],[99.5592,12.8989],[99.5581,12.9002],[99.5581,12.9013],[99.5579,12.9008],[99.5573,12.9008],[99.5576,12.9],[99.557,12.9],[99.5568,12.8989],[99.5562,12.8992],[99.5562,12.9013],[99.5554,12.9013]],[[99.5581,12.8992],[99.5584,12.8994],[99.5584,12.8992],[99.5581,12.8992]],[[99.5565,12.8986],[99.5573,12.8986],[99.5576,12.8981],[99.557,12.8978],[99.5565,12.8986]]]}},{"type":"Feature","properties":{"kind":"seasonal","area_km2":0.117,"date":"2026-10-02"},"geometry":{"type":"Polygon","coordinates":[[[99.5977,12.9235],[99.5975,12.9221],[99.5958,12.9216],[99.5958,12.921],[99.5933,12.9211],[99.593,12.9205],[99.5925,12.9205],[99.5922,12.9183],[99.5911,12.9175],[99.5911,12.917],[99.5919,12.917],[99.5925,12.9175],[99.5925,12.9186],[99.593,12.9189],[99.5936,12.9205],[99.5941,12.9205],[99.5941,12.9197],[99.5958,12.9197],[99.5966,12.92],[99.5966,12.9208],[99.5977,12.9208],[99.598,12.9213],[99.5986,12.9213],[99.5986,12.9219],[99.598,12.9219],[99.5977,12.9235]]]}},{"type":"Feature","properties":{"kind":"seasonal","area_km2":0.11,"date":"2026-10-09"},"geometry":{"type":"Polygon","coordinates":[[[99.9547,12.3151],[99.9536,12.3143],[99.9528,12.3143],[99.9522,12.3127],[99.9544,12.3129],[99.9544,12.3116],[99.9563,12.3116],[99.9564,12.3135],[99.9555,12.3151],[99.9547,12.3151]],[[99.9552,12.3126],[99.9555,12.3129],[99.9555,12.3126],[99.9552,12.3126]]]}},{"type":"Feature","properties":{"kind":"seasonal","area_km2":0.108,"date":"2026-10-09"},"geometry":{"type":"Polygon","coordinates":[[[99.6327,12.9557],[99.6327,12.9541],[99.6332,12.9538],[99.6332,12.9532],[99.6346,12.953],[99.6349,12.9522],[99.6332,12.9519],[99.6332,12.9511],[99.6326,12.9511],[99.6326,12.9503],[99.6321,12.9497],[99.6324,12.9489],[99.6318,12.9489],[99.6318,12.9481],[99.6332,12.9481],[99.6332,12.9497],[99.6343,12.95],[99.6343,12.9513],[99.6351,12.9519],[99.6349,12.9538],[99.6335,12.9541],[99.6332,12.9557],[99.6327,12.9557]]]}},{"type":"Feature","properties":{"kind":"seasonal","area_km2":0.108,"date":"2026-10-09"},"geometry":{"type":"Polygon","coordinates":[[[99.7828,12.4787],[99.7822,12.4779],[99.78,12.4773],[99.78,12.4757],[99.7814,12.4757],[99.7814,12.4762],[99.7808,12.4765],[99.7828,12.477],[99.783,12.4779],[99.7836,12.4778],[99.7839,12.4773],[99.7869,12.477],[99.7877,12.4762],[99.7883,12.4762],[99.7883,12.4768],[99.7869,12.4778],[99.7855,12.4778],[99.7844,12.4787],[99.7828,12.4787]]]}},{"type":"Feature","properties":{"kind":"seasonal","area_km2":0.106,"date":"2026-10-09"},"geometry":{"type":"Polygon","coordinates":[[[99.9403,12.3135],[99.9403,12.3124],[99.942,12.3124],[99.942,12.3119],[99.9409,12.3116],[99.9409,12.3121],[99.9401,12.3122],[99.9395,12.31],[99.9406,12.31],[99.9406,12.3111],[99.9409,12.3105],[99.9428,12.3108],[99.9428,12.3121],[99.9442,12.3121],[99.9439,12.3132],[99.9403,12.3135]]]}},{"type":"Feature","properties":{"kind":"seasonal","area_km2":0.105,"date":"2026-10-09"},"geometry":{"type":"Polygon","coordinates":[[[99.9905,12.8751],[99.9891,12.8748],[99.9891,12.8732],[99.9872,12.8716],[99.9861,12.8716],[99.9861,12.8708],[99.9869,12.8708],[99.988,12.8697],[99.988,12.8691],[99.9891,12.8691],[99.9886,12.8713],[99.9894,12.8718],[99.9894,12.8727],[99.9905,12.874],[99.9905,12.8751]]]}},{"type":"Feature","properties":{"kind":"seasonal","area_km2":0.103,"date":"2026-10-09"},"geometry":{"type":"Polygon","coordinates":[[[99.9353,12.3016],[99.9353,12.3005],[99.9359,12.3005],[99.9364,12.2997],[99.9362,12.2981],[99.9337,12.2983],[99.9337,12.2973],[99.9362,12.2972],[99.9362,12.2978],[99.9378,12.2981],[99.9378,12.3005],[99.9367,12.3008],[99.9364,12.3016],[99.9353,12.3016]]]}},{"type":"Feature","properties":{"kind":"seasonal","area_km2":0.101,"date":"2026-10-02"},"geometry":{"type":"Polygon","coordinates":[[[99.5962,12.7591],[99.596,12.758],[99.5976,12.7569],[99.5979,12.7556],[99.6001,12.7556],[99.6001,12.7561],[99.6007,12.7564],[99.6007,12.7575],[99.5993,12.7572],[99.5976,12.7588],[99.5962,12.7591]]]}}]}
