{"type":"FeatureCollection","properties":{"v":3,"id":"t99_19","name":"เชียงราย · พะเยา · ลำปาง","aoi":[99.0,19.0,100.0,20.0],"date":"2026-10-09","dates":["2026-10-09"],"baseline_years":3,"has_seasonal":true,"totals":{"flood_high":0.0,"flood_low":1.6,"seasonal":13.7},"provinces":[{"name":"พะเยา","zone":"th-n","flood_high":0.0,"flood_low":1.2,"seasonal":5.5},{"name":"เชียงราย","zone":"th-n","flood_high":0.0,"flood_low":0.4,"seasonal":3.2},{"name":"เชียงใหม่","zone":"th-n","flood_high":0.0,"flood_low":0.0,"seasonal":4.9},{"name":"ลำปาง","zone":"th-n","flood_high":0.0,"flood_low":0.0,"seasonal":0.2}],"scenes":{"2026-10-09":2},"baseline_dates":["2025-10-07","2024-10-09","2023-10-06"],"threshold_db":-15.0,"auto":true,"source":"Sentinel-1 RTC (Copernicus/ESA) via Microsoft Planetary Computer; JRC Global Surface Water; Copernicus DEM","method":"ChatGeo v3: Otsu threshold on VV dB; minus JRC permanent water and slope > 5 deg; unusual = water not present in most of the previous 3 years (same season)","added":"2026-10-10T16:37+07:00"},"features":[{"type":"Feature","properties":{"kind":"flood","area_km2":0.666,"conf":"low","date":"2026-10-09"},"geometry":{"type":"Polygon","coordinates":[[[99.8578,19.1695],[99.858,19.1676],[99.8569,19.1676],[99.8572,19.1662],[99.8586,19.1649],[99.8586,19.164],[99.8603,19.164],[99.8606,19.1619],[99.86,19.1616],[99.8606,19.1608],[99.8606,19.1597],[99.8614,19.1594],[99.8614,19.1581],[99.8623,19.1572],[99.8634,19.157],[99.8634,19.1559],[99.8642,19.1551],[99.8642,19.1526],[99.8671,19.1502],[99.8682,19.1499],[99.8691,19.1488],[99.8699,19.1488],[99.8708,19.1477],[99.8719,19.1477],[99.8722,19.1501],[99.8714,19.1507],[99.8702,19.1507],[99.8702,19.1515],[99.8674,19.1534],[99.8671,19.1551],[99.8662,19.1553],[99.866,19.1564],[99.8645,19.1564],[99.8645,19.1578],[99.8651,19.1578],[99.8651,19.1586],[99.8646,19.1586],[99.8646,19.1597],[99.8637,19.1605],[99.8628,19.1605],[99.8629,19.1616],[99.8623,19.1616],[99.8623,19.1624],[99.8614,19.1624],[99.8609,19.1629],[99.8612,19.1659],[99.8606,19.1659],[99.8606,19.1665],[99.8597,19.1667],[99.8597,19.1676],[99.8589,19.1678],[99.8589,19.1689],[99.8595,19.1692],[99.8578,19.1695]]]}},{"type":"Feature","properties":{"kind":"flood","area_km2":0.184,"conf":"low","date":"2026-10-09"},"geometry":{"type":"Polygon","coordinates":[[[99.8812,19.3466],[99.8812,19.3458],[99.8792,19.3458],[99.879,19.3464],[99.8781,19.3461],[99.8781,19.3453],[99.8795,19.3448],[99.8795,19.3442],[99.8789,19.3439],[99.8789,19.3429],[99.8804,19.3429],[99.8812,19.342],[99.8815,19.341],[99.8826,19.3409],[99.8829,19.3415],[99.8849,19.3415],[99.8846,19.342],[99.8827,19.3426],[99.8824,19.3445],[99.8818,19.3447],[99.8824,19.3461],[99.8815,19.3461],[99.8812,19.3466]]]}},{"type":"Feature","properties":{"kind":"flood","area_km2":0.151,"conf":"low","date":"2026-10-09"},"geometry":{"type":"Polygon","coordinates":[[[99.885,19.3529],[99.8847,19.3518],[99.8827,19.3513],[99.8827,19.3499],[99.8821,19.3496],[99.8821,19.3483],[99.8827,19.3483],[99.8827,19.3466],[99.883,19.3502],[99.8838,19.351],[99.8853,19.351],[99.8864,19.3501],[99.8881,19.3501],[99.8887,19.3496],[99.8915,19.3499],[99.8915,19.3507],[99.8904,19.3507],[99.8876,19.3518],[99.8858,19.3515],[99.8858,19.3529],[99.885,19.3529]]]}},{"type":"Feature","properties":{"kind":"flood","area_km2":0.12,"conf":"low","date":"2026-10-09"},"geometry":{"type":"Polygon","coordinates":[[[99.9358,19.8387],[99.9358,19.8376],[99.9352,19.8368],[99.936,19.836],[99.936,19.8346],[99.9355,19.8343],[99.9363,19.8343],[99.9363,19.833],[99.9369,19.833],[99.9366,19.8303],[99.936,19.83],[99.936,19.8289],[99.9366,19.8286],[99.9366,19.8297],[99.9372,19.8294],[99.9377,19.8305],[99.938,19.8327],[99.9372,19.8332],[99.9366,19.8349],[99.9366,19.8365],[99.9369,19.837],[99.9375,19.837],[99.9375,19.8378],[99.9369,19.8381],[99.9369,19.8387],[99.9358,19.8387]]]}},{"type":"Feature","properties":{"kind":"flood","area_km2":0.105,"conf":"low","date":"2026-10-09"},"geometry":{"type":"Polygon","coordinates":[[[99.8569,19.1773],[99.8549,19.1768],[99.8558,19.1765],[99.8558,19.1746],[99.8546,19.1746],[99.8552,19.1722],[99.8561,19.1722],[99.8561,19.1708],[99.8552,19.1706],[99.8566,19.1703],[99.8572,19.1703],[99.8572,19.1708],[99.8563,19.1719],[99.8564,19.1746],[99.8575,19.1749],[99.8569,19.1773]]]}},{"type":"Feature","properties":{"kind":"flood","area_km2":0.084,"conf":"low","date":"2026-10-09"},"geometry":{"type":"Polygon","coordinates":[[[99.881,19.1479],[99.8796,19.1471],[99.8793,19.1452],[99.8816,19.1452],[99.8819,19.1458],[99.8827,19.1458],[99.8825,19.1477],[99.881,19.1479]]]}},{"type":"Feature","properties":{"kind":"flood","area_km2":0.069,"conf":"low","date":"2026-10-09"},"geometry":{"type":"Polygon","coordinates":[[[99.9558,19.8738],[99.9557,19.8722],[99.9549,19.8722],[99.9549,19.873],[99.9537,19.8733],[99.9537,19.8714],[99.9529,19.8714],[99.9529,19.8706],[99.9537,19.8706],[99.9537,19.8711],[99.9546,19.8714],[99.956,19.8714],[99.956,19.8722],[99.9569,19.8722],[99.9569,19.8735],[99.9558,19.8738]]]}},{"type":"Feature","properties":{"kind":"flood","area_km2":0.059,"conf":"low","date":"2026-10-09"},"geometry":{"type":"Polygon","coordinates":[[[99.9354,19.528],[99.9354,19.5253],[99.936,19.5245],[99.9368,19.5245],[99.9374,19.5247],[99.9374,19.5256],[99.9368,19.5258],[99.9365,19.528],[99.9354,19.528]]]}},{"type":"Feature","properties":{"kind":"flood","area_km2":0.052,"conf":"low","date":"2026-10-09"},"geometry":{"type":"Polygon","coordinates":[[[99.9354,19.8186],[99.9351,19.8175],[99.9357,19.8173],[99.9356,19.8164],[99.9345,19.8159],[99.9342,19.8145],[99.9359,19.8148],[99.9359,19.8162],[99.9368,19.8162],[99.9362,19.8186],[99.9354,19.8186]]]}},{"type":"Feature","properties":{"kind":"flood","area_km2":0.051,"conf":"low","date":"2026-10-09"},"geometry":{"type":"Polygon","coordinates":[[[99.9376,19.8484],[99.9367,19.8465],[99.9381,19.8462],[99.9384,19.8468],[99.9404,19.8468],[99.9404,19.8473],[99.9393,19.8473],[99.9387,19.8484],[99.9376,19.8484]]]}},{"type":"Feature","properties":{"kind":"flood","area_km2":0.051,"conf":"low","date":"2026-10-09"},"geometry":{"type":"Polygon","coordinates":[[[99.9126,19.6455],[99.9126,19.6409],[99.9135,19.6409],[99.9135,19.6455],[99.9126,19.6455]]]}},{"type":"Feature","properties":{"kind":"seasonal","area_km2":1.333,"date":"2026-10-09"},"geometry":{"type":"Polygon","coordinates":[[[99.5088,19.7211],[99.5088,19.72],[99.5105,19.7179],[99.5114,19.7154],[99.5111,19.7127],[99.5099,19.7116],[99.5088,19.7119],[99.5079,19.7116],[99.5088,19.7108],[99.5097,19.7108],[99.5131,19.7089],[99.5116,19.7067],[99.5125,19.7065],[99.5134,19.7056],[99.5134,19.7051],[99.5111,19.7048],[99.5096,19.704],[99.5079,19.7043],[99.5079,19.7019],[99.5091,19.7008],[99.5111,19.701],[99.5153,19.7002],[99.5153,19.6975],[99.5173,19.6953],[99.5173,19.6945],[99.5162,19.6937],[99.5162,19.6932],[99.519,19.6918],[99.5199,19.6918],[99.5208,19.6926],[99.5239,19.688],[99.5239,19.6864],[99.5245,19.6861],[99.5245,19.6853],[99.5236,19.685],[99.5236,19.6842],[99.5262,19.6842],[99.5267,19.6836],[99.5267,19.6818],[99.5285,19.682],[99.5293,19.6815],[99.5293,19.6807],[99.5305,19.6807],[99.5319,19.6793],[99.5319,19.6801],[99.5313,19.6801],[99.5313,19.6807],[99.5305,19.6809],[99.5307,19.6815],[99.5279,19.6828],[99.5276,19.6861],[99.5265,19.6869],[99.5256,19.6869],[99.5256,19.6877],[99.5242,19.6888],[99.5242,19.6893],[99.525,19.6893],[99.5256,19.6891],[99.5256,19.6885],[99.5268,19.688],[99.529,19.6883],[99.5296,19.688],[99.5302,19.6863],[99.531,19.6858],[99.5313,19.6882],[99.5302,19.6891],[99.5302,19.6896],[99.5308,19.6899],[99.5308,19.6907],[99.5302,19.6912],[99.5302,19.6931],[99.5294,19.6931],[99.5293,19.6904],[99.5285,19.6899],[99.5285,19.6891],[99.5273,19.6888],[99.5253,19.6899],[99.5245,19.691],[99.5239,19.6907],[99.523,19.6918],[99.5225,19.6937],[99.5208,19.6951],[99.5208,19.6956],[99.5193,19.6959],[99.5188,19.6972],[99.5168,19.698],[99.5174,19.7005],[99.5162,19.7018],[99.5145,19.7021],[99.5134,19.7032],[99.5134,19.704],[99.5145,19.7043],[99.5151,19.7048],[99.5151,19.7056],[99.5148,19.7067],[99.5139,19.7067],[99.5134,19.7073],[99.5139,19.7078],[99.5139,19.7097],[99.5134,19.7103],[99.5119,19.7105],[99.5125,19.7122],[99.512,19.7127],[99.5117,19.7141],[99.5117,19.7173],[99.5111,19.7176],[99.5103,19.7198],[99.5097,19.72],[99.5097,19.7211],[99.5088,19.7211]],[[99.5193,19.6942],[99.5199,19.694],[99.5196,19.6934],[99.519,19.6934],[99.5193,19.6942]],[[99.5233,19.6899],[99.5236,19.6902],[99.5236,19.6899],[99.5233,19.6899]],[[99.5236,19.6894],[99.5239,19.6896],[99.5239,19.6894],[99.5236,19.6894]]]}},{"type":"Feature","properties":{"kind":"seasonal","area_km2":1.166,"date":"2026-10-09"},"geometry":{"type":"Polygon","coordinates":[[[99.1531,19.2156],[99.1531,19.214],[99.1539,19.2132],[99.1539,19.2121],[99.1531,19.2115],[99.1531,19.2107],[99.1522,19.2102],[99.1522,19.2096],[99.1536,19.2085],[99.1542,19.2075],[99.1539,19.2048],[99.1542,19.2023],[99.1536,19.2018],[99.1536,19.201],[99.1528,19.2001],[99.1516,19.2001],[99.1516,19.1996],[99.1536,19.1996],[99.1542,19.2001],[99.1542,19.2012],[99.1551,19.2015],[99.1556,19.201],[99.1556,19.1993],[99.1565,19.1982],[99.157,19.195],[99.1579,19.1944],[99.1579,19.1939],[99.1599,19.1936],[99.1602,19.1955],[99.1579,19.1953],[99.1582,19.1958],[99.1588,19.1958],[99.1588,19.1969],[99.1582,19.1972],[99.1582,19.2064],[99.1588,19.2069],[99.1585,19.2085],[99.1602,19.2096],[99.1625,19.2094],[99.1628,19.205],[99.1619,19.2042],[99.1619,19.2037],[99.1622,19.2031],[99.163,19.2031],[99.1636,19.2023],[99.1645,19.202],[99.1645,19.2028],[99.1633,19.2034],[99.1633,19.205],[99.1639,19.2053],[99.1639,19.2091],[99.1628,19.2107],[99.1608,19.211],[99.1585,19.2126],[99.1574,19.2129],[99.1571,19.2156],[99.1559,19.2156],[99.1559,19.2145],[99.1554,19.214],[99.1548,19.2142],[99.1545,19.2153],[99.1531,19.2156]],[[99.1542,19.2037],[99.1545,19.2045],[99.1545,19.2037],[99.1542,19.2037]]]}},{"type":"Feature","properties":{"kind":"seasonal","area_km2":1.107,"date":"2026-10-09"},"geometry":{"type":"Polygon","coordinates":[[[99.8671,19.2038],[99.8671,19.2009],[99.8653,19.2009],[99.8648,19.2001],[99.8636,19.1998],[99.8633,19.1987],[99.8613,19.1971],[99.8608,19.1971],[99.8608,19.1966],[99.8602,19.1963],[99.8607,19.1938],[99.8587,19.1917],[99.8584,19.1895],[99.8607,19.1892],[99.8607,19.1887],[99.8601,19.1884],[99.8599,19.189],[99.8579,19.1893],[99.8561,19.1863],[99.8555,19.1771],[99.8572,19.1773],[99.8572,19.1757],[99.8584,19.1768],[99.8581,19.1781],[99.8587,19.1781],[99.8584,19.18],[99.8578,19.1806],[99.8584,19.1808],[99.8578,19.1819],[99.8578,19.1852],[99.8581,19.1857],[99.8587,19.1857],[99.8584,19.1865],[99.8596,19.1871],[99.8596,19.1876],[99.8604,19.1876],[99.8599,19.1882],[99.8607,19.1882],[99.861,19.1887],[99.8621,19.189],[99.8621,19.1898],[99.8639,19.1906],[99.8627,19.1909],[99.8633,19.1914],[99.8624,19.1914],[99.8624,19.1919],[99.8639,19.1919],[99.8639,19.1927],[99.865,19.1936],[99.865,19.1944],[99.8656,19.1944],[99.8659,19.1936],[99.8659,19.1944],[99.867,19.1946],[99.8667,19.1965],[99.8687,19.1973],[99.8688,19.1987],[99.8696,19.1976],[99.8705,19.1976],[99.8699,19.2],[99.8685,19.2014],[99.8685,19.2033],[99.8679,19.2038],[99.8671,19.2038]],[[99.8639,19.1968],[99.8656,19.1968],[99.8659,19.1957],[99.863,19.1957],[99.863,19.1963],[99.8639,19.1968]]]}},{"type":"Feature","properties":{"kind":"seasonal","area_km2":0.949,"date":"2026-10-09"},"geometry":{"type":"Polygon","coordinates":[[[99.8939,19.3661],[99.8939,19.3653],[99.8933,19.3653],[99.893,19.3642],[99.8905,19.364],[99.8904,19.3553],[99.8893,19.3539],[99.8876,19.3539],[99.8864,19.3529],[99.8858,19.3529],[99.8858,19.3515],[99.8876,19.3518],[99.8884,19.3512],[99.8915,19.3507],[99.8915,19.3496],[99.8921,19.3493],[99.8935,19.3498],[99.8935,19.3504],[99.8918,19.3509],[99.8918,19.3517],[99.8927,19.352],[99.893,19.3534],[99.893,19.3545],[99.8919,19.3547],[99.8927,19.3574],[99.8933,19.358],[99.8944,19.358],[99.8953,19.3588],[99.8962,19.3588],[99.8964,19.3577],[99.8976,19.3574],[99.8976,19.3588],[99.897,19.3593],[99.8973,19.3601],[99.8987,19.3604],[99.899,19.3609],[99.9002,19.3607],[99.901,19.3615],[99.9027,19.3615],[99.9033,19.362],[99.9042,19.362],[99.9045,19.3625],[99.9045,19.3636],[99.9025,19.3634],[99.9025,19.3639],[99.8993,19.3639],[99.8987,19.3617],[99.8968,19.362],[99.8962,19.3612],[99.8956,19.3612],[99.8953,19.3628],[99.8948,19.3639],[99.8942,19.3639],[99.8942,19.3645],[99.8951,19.3647],[99.8951,19.3661],[99.8939,19.3661]],[[99.8927,19.3612],[99.8933,19.3615],[99.8933,19.3612],[99.8927,19.3612]],[[99.8864,19.3526],[99.887,19.3526],[99.887,19.3518],[99.8867,19.3518],[99.8864,19.3526]]]}},{"type":"Feature","properties":{"kind":"seasonal","area_km2":0.735,"date":"2026-10-09"},"geometry":{"type":"Polygon","coordinates":[[[99.222,19.7187],[99.218,19.7141],[99.2171,19.7144],[99.2168,19.713],[99.2159,19.713],[99.2159,19.7141],[99.2148,19.7141],[99.2137,19.7133],[99.2131,19.7101],[99.2134,19.709],[99.2151,19.7073],[99.2154,19.7052],[99.2159,19.7054],[99.2159,19.7068],[99.2168,19.7079],[99.2191,19.7073],[99.2197,19.7084],[99.2217,19.7084],[99.224,19.7073],[99.226,19.7073],[99.2265,19.7062],[99.2282,19.7054],[99.2294,19.7054],[99.2294,19.7062],[99.228,19.7062],[99.2265,19.7084],[99.2245,19.7087],[99.2242,19.7092],[99.2237,19.7087],[99.2228,19.7087],[99.2225,19.71],[99.2197,19.71],[99.2191,19.7106],[99.2191,19.713],[99.2211,19.713],[99.2211,19.7136],[99.2222,19.7141],[99.2222,19.7146],[99.2205,19.7147],[99.2202,19.7155],[99.2211,19.716],[99.222,19.7157],[99.222,19.7165],[99.2231,19.7168],[99.2231,19.7176],[99.2237,19.7179],[99.2237,19.7184],[99.222,19.7187]],[[99.2168,19.7117],[99.2174,19.7117],[99.2174,19.7111],[99.2179,19.7109],[99.2168,19.7109],[99.2168,19.7117]],[[99.2165,19.7103],[99.2168,19.7106],[99.2168,19.7103],[99.2165,19.7103]],[[99.2174,19.7098],[99.2179,19.71],[99.2179,19.7098],[99.2174,19.7098]]]}},{"type":"Feature","properties":{"kind":"seasonal","area_km2":0.692,"date":"2026-10-09"},"geometry":{"type":"Polygon","coordinates":[[[99.1294,19.2037],[99.1294,19.2029],[99.1288,19.2026],[99.1285,19.2034],[99.1274,19.2034],[99.1262,19.2026],[99.1262,19.2021],[99.1271,19.2015],[99.1271,19.2007],[99.1262,19.1999],[99.1259,19.1985],[99.1254,19.198],[99.1245,19.1983],[99.1248,19.1966],[99.1242,19.1956],[99.1237,19.1956],[99.1231,19.1947],[99.1219,19.1947],[99.1217,19.1942],[99.1205,19.1942],[99.1194,19.195],[99.1191,19.1966],[99.1185,19.1966],[99.1188,19.1961],[99.1174,19.1942],[99.1168,19.1942],[99.1165,19.195],[99.116,19.1939],[99.1145,19.1942],[99.1145,19.1934],[99.1151,19.1934],[99.1154,19.1923],[99.1174,19.1923],[99.1177,19.1934],[99.1182,19.1934],[99.1185,19.1942],[99.1188,19.1934],[99.1208,19.1934],[99.1208,19.1928],[99.1219,19.1926],[99.1222,19.1934],[99.1231,19.1934],[99.1234,19.1942],[99.1248,19.1947],[99.1262,19.1975],[99.1268,19.1975],[99.1274,19.1983],[99.1291,19.1983],[99.1299,19.1993],[99.1314,19.1993],[99.1314,19.2002],[99.1317,19.2002],[99.1314,19.1985],[99.1345,19.1991],[99.1354,19.1999],[99.1354,19.201],[99.1362,19.2018],[99.1362,19.2023],[99.1374,19.2026],[99.1374,19.2031],[99.1319,19.2026],[99.1305,19.2037],[99.1294,19.2037]],[[99.1279,19.1985],[99.1282,19.1988],[99.1282,19.1985],[99.1279,19.1985]]]}},{"type":"Feature","properties":{"kind":"seasonal","area_km2":0.594,"date":"2026-10-09"},"geometry":{"type":"Polygon","coordinates":[[[99.0971,19.1956],[99.0971,19.1945],[99.0963,19.1937],[99.0957,19.1937],[99.0965,19.1929],[99.0963,19.1918],[99.0954,19.1907],[99.0948,19.1907],[99.094,19.1899],[99.094,19.1888],[99.0934,19.1883],[99.0926,19.1885],[99.0926,19.188],[99.0917,19.1874],[99.092,19.185],[99.0911,19.1847],[99.0903,19.1853],[99.09,19.1861],[99.0894,19.1861],[99.0891,19.1853],[99.088,19.1847],[99.088,19.1842],[99.0871,19.1836],[99.088,19.1836],[99.0883,19.1842],[99.0891,19.1842],[99.0888,19.1834],[99.0897,19.1831],[99.0906,19.1831],[99.0906,19.1836],[99.0911,19.1836],[99.0917,19.1834],[99.092,19.1823],[99.0931,19.1826],[99.0931,19.1834],[99.0945,19.1834],[99.0945,19.1847],[99.0931,19.185],[99.0931,19.1866],[99.0948,19.1864],[99.0951,19.1855],[99.0965,19.1855],[99.0971,19.1869],[99.0988,19.1874],[99.0991,19.1885],[99.0997,19.1885],[99.0988,19.1888],[99.0983,19.1877],[99.0971,19.1877],[99.0965,19.1869],[99.0948,19.1872],[99.0951,19.1891],[99.096,19.1893],[99.096,19.1899],[99.0977,19.1904],[99.0974,19.1918],[99.1014,19.1912],[99.1017,19.1923],[99.1023,19.1923],[99.102,19.1907],[99.1031,19.1901],[99.1037,19.1904],[99.1028,19.1907],[99.1031,19.192],[99.1043,19.192],[99.1051,19.1926],[99.1068,19.1926],[99.1068,19.192],[99.1077,19.1918],[99.1114,19.192],[99.1114,19.1929],[99.1108,19.1923],[99.1074,19.1923],[99.1068,19.1931],[99.1057,19.1934],[99.1048,19.1926],[99.1037,19.1923],[99.1031,19.1934],[99.1023,19.1937],[99.1014,19.1937],[99.1008,19.1926],[99.1,19.1926],[99.0983,19.1945],[99.0983,19.1956],[99.0971,19.1956]],[[99.0971,19.1931],[99.0974,19.1934],[99.0974,19.1931],[99.0971,19.1931]],[[99.0974,19.1929],[99.0977,19.1931],[99.0977,19.1929],[99.0974,19.1929]],[[99.0971,19.192],[99.0974,19.1929],[99.0974,19.192],[99.0971,19.192]],[[99.1023,19.1918],[99.1028,19.192],[99.1028,19.1918],[99.1023,19.1918]]]}},{"type":"Feature","properties":{"kind":"seasonal","area_km2":0.523,"date":"2026-10-09"},"geometry":{"type":"Polygon","coordinates":[[[99.4878,19.1936],[99.4875,19.1931],[99.4852,19.1933],[99.4861,19.1917],[99.4861,19.1903],[99.4855,19.1898],[99.4852,19.1884],[99.4841,19.1876],[99.4806,19.1876],[99.4801,19.1879],[99.4798,19.1895],[99.4778,19.1896],[99.4775,19.189],[99.4766,19.189],[99.4761,19.1898],[99.4752,19.1898],[99.4752,19.189],[99.4772,19.1866],[99.4783,19.1868],[99.4786,19.1879],[99.4803,19.1876],[99.4809,19.1871],[99.4809,19.1863],[99.4815,19.186],[99.4812,19.1841],[99.482,19.1841],[99.4823,19.1847],[99.4838,19.1847],[99.4843,19.1852],[99.4855,19.1852],[99.4861,19.1863],[99.4861,19.1879],[99.4872,19.1884],[99.4892,19.1884],[99.4901,19.189],[99.4898,19.1928],[99.4892,19.1936],[99.4878,19.1936]]]}},{"type":"Feature","properties":{"kind":"seasonal","area_km2":0.505,"date":"2026-10-09"},"geometry":{"type":"Polygon","coordinates":[[[99.8102,19.4093],[99.8099,19.4088],[99.8084,19.4083],[99.8073,19.4028],[99.8081,19.4028],[99.8087,19.4039],[99.8164,19.4039],[99.8181,19.402],[99.8227,19.4009],[99.8235,19.4003],[99.8235,19.3998],[99.8247,19.3998],[99.8247,19.4009],[99.8233,19.402],[99.819,19.4028],[99.8178,19.4039],[99.8178,19.4044],[99.8173,19.4044],[99.8173,19.405],[99.8167,19.405],[99.8167,19.4055],[99.8161,19.4055],[99.8161,19.4061],[99.8156,19.4061],[99.8156,19.4066],[99.8127,19.4088],[99.8119,19.4088],[99.8119,19.408],[99.813,19.4072],[99.8127,19.4061],[99.8107,19.4058],[99.8101,19.4064],[99.8101,19.4072],[99.8113,19.4077],[99.8113,19.4093],[99.8102,19.4093]],[[99.8087,19.408],[99.809,19.4083],[99.809,19.408],[99.8087,19.408]]]}},{"type":"Feature","properties":{"kind":"seasonal","area_km2":0.477,"date":"2026-10-09"},"geometry":{"type":"Polygon","coordinates":[[[99.8072,19.386],[99.8077,19.3836],[99.8083,19.383],[99.8083,19.382],[99.8092,19.3809],[99.8106,19.376],[99.8117,19.3738],[99.8128,19.373],[99.8131,19.3719],[99.8157,19.3695],[99.8159,19.3676],[99.8182,19.367],[99.8179,19.3686],[99.8168,19.37],[99.8168,19.3711],[99.8162,19.3714],[99.8166,19.3746],[99.8137,19.3746],[99.8131,19.3752],[99.8117,19.3776],[99.8117,19.3792],[99.8111,19.3798],[99.8112,19.3814],[99.8106,19.3825],[99.8089,19.3833],[99.8083,19.386],[99.8072,19.386]]]}},{"type":"Feature","properties":{"kind":"seasonal","area_km2":0.383,"date":"2026-10-09"},"geometry":{"type":"Polygon","coordinates":[[[99.826,19.3851],[99.8254,19.3819],[99.8237,19.3808],[99.8214,19.3808],[99.8203,19.3795],[99.82,19.3751],[99.8208,19.3749],[99.822,19.3732],[99.822,19.3694],[99.8228,19.3694],[99.8231,19.37],[99.8242,19.3702],[99.824,19.374],[99.8234,19.374],[99.8234,19.3746],[99.8228,19.3746],[99.8228,19.3751],[99.822,19.3757],[99.822,19.3792],[99.8226,19.3797],[99.8257,19.38],[99.8266,19.3808],[99.8272,19.3821],[99.8272,19.3843],[99.8269,19.3851],[99.826,19.3851]]]}},{"type":"Feature","properties":{"kind":"seasonal","area_km2":0.299,"date":"2026-10-09"},"geometry":{"type":"Polygon","coordinates":[[[99.0897,19.1736],[99.09,19.1714],[99.088,19.1712],[99.0877,19.1704],[99.0883,19.1704],[99.0885,19.1698],[99.0908,19.1704],[99.09,19.1693],[99.09,19.1679],[99.0917,19.1679],[99.0917,19.1674],[99.0905,19.1671],[99.09,19.1676],[99.0883,19.1679],[99.0874,19.1668],[99.0865,19.1671],[99.0863,19.1666],[99.0851,19.1666],[99.0851,19.1655],[99.0865,19.1666],[99.0877,19.1663],[99.0885,19.1674],[99.0903,19.1671],[99.0908,19.1663],[99.0928,19.1663],[99.0937,19.1666],[99.0943,19.1674],[99.0957,19.1676],[99.0957,19.1685],[99.0945,19.169],[99.0917,19.169],[99.0917,19.1695],[99.0931,19.1704],[99.0931,19.1712],[99.0925,19.1714],[99.0925,19.172],[99.0914,19.1717],[99.0908,19.1733],[99.0897,19.1736]]]}},{"type":"Feature","properties":{"kind":"seasonal","area_km2":0.238,"date":"2026-10-09"},"geometry":{"type":"Polygon","coordinates":[[[99.7985,19.1806],[99.7979,19.179],[99.7987,19.1781],[99.7987,19.1768],[99.7956,19.1765],[99.7945,19.1763],[99.7942,19.1757],[99.7942,19.1746],[99.7956,19.1741],[99.7962,19.173],[99.7973,19.1724],[99.7984,19.1724],[99.7984,19.173],[99.7993,19.1738],[99.7993,19.1751],[99.7999,19.1754],[99.7999,19.1787],[99.7996,19.1781],[99.7987,19.1784],[99.7988,19.1795],[99.7993,19.1798],[99.7988,19.1798],[99.799,19.1806],[99.7985,19.1806]]]}},{"type":"Feature","properties":{"kind":"seasonal","area_km2":0.237,"date":"2026-10-09"},"geometry":{"type":"Polygon","coordinates":[[[99.5982,19.0436],[99.5988,19.0423],[99.5982,19.0401],[99.5988,19.0398],[99.5988,19.039],[99.5997,19.0382],[99.5999,19.0371],[99.5994,19.0368],[99.5988,19.0374],[99.5977,19.0374],[99.5971,19.0371],[99.5971,19.0363],[99.6002,19.0357],[99.6014,19.0374],[99.6014,19.0382],[99.6019,19.0384],[99.6019,19.0395],[99.6025,19.0398],[99.6028,19.0409],[99.6022,19.0412],[99.6022,19.0417],[99.6002,19.0414],[99.5997,19.042],[99.5997,19.0431],[99.5991,19.0436],[99.5982,19.0436]]]}},{"type":"Feature","properties":{"kind":"seasonal","area_km2":0.228,"date":"2026-10-09"},"geometry":{"type":"Polygon","coordinates":[[[99.8222,19.3632],[99.8222,19.3626],[99.8216,19.3627],[99.8222,19.3624],[99.8216,19.3608],[99.8233,19.3605],[99.8236,19.3599],[99.8228,19.3597],[99.8228,19.3586],[99.8242,19.3583],[99.8242,19.3578],[99.8236,19.3575],[99.8236,19.3567],[99.8242,19.3567],[99.8242,19.3553],[99.8233,19.3548],[99.8239,19.3545],[99.8242,19.3534],[99.825,19.3534],[99.825,19.354],[99.8262,19.355],[99.8267,19.355],[99.8273,19.3569],[99.8247,19.3572],[99.8251,19.3618],[99.8248,19.3624],[99.8228,19.3624],[99.8222,19.3632]],[[99.8222,19.3613],[99.8225,19.3616],[99.8225,19.3613],[99.8222,19.3613]],[[99.8242,19.3575],[99.8245,19.3578],[99.8245,19.3575],[99.8242,19.3575]],[[99.8239,19.3569],[99.8242,19.3572],[99.8242,19.3569],[99.8239,19.3569]]]}},{"type":"Feature","properties":{"kind":"seasonal","area_km2":0.224,"date":"2026-10-09"},"geometry":{"type":"Polygon","coordinates":[[[99.7663,19.2629],[99.7663,19.2615],[99.7669,19.2607],[99.7669,19.2588],[99.7663,19.2585],[99.7663,19.258],[99.7672,19.2569],[99.7686,19.2569],[99.7686,19.2574],[99.7694,19.2574],[99.7694,19.2569],[99.7689,19.2566],[99.7689,19.2547],[99.7683,19.2547],[99.768,19.2542],[99.7686,19.2539],[99.7709,19.2566],[99.7712,19.2582],[99.7703,19.2596],[99.7689,19.2599],[99.768,19.262],[99.7672,19.2629],[99.7663,19.2629]]]}},{"type":"Feature","properties":{"kind":"seasonal","area_km2":0.218,"date":"2026-10-09"},"geometry":{"type":"Polygon","coordinates":[[[99.9927,19.7256],[99.9912,19.7251],[99.9915,19.7226],[99.9909,19.7223],[99.9909,19.721],[99.9898,19.7196],[99.9897,19.718],[99.9914,19.7142],[99.9926,19.7142],[99.9917,19.7167],[99.9929,19.7166],[99.9926,19.7183],[99.9935,19.7185],[99.9935,19.7191],[99.992,19.7191],[99.9915,19.7196],[99.9929,19.7242],[99.9929,19.7248],[99.9924,19.7251],[99.9927,19.7256]]]}},{"type":"Feature","properties":{"kind":"seasonal","area_km2":0.211,"date":"2026-10-09"},"geometry":{"type":"Polygon","coordinates":[[[99.2515,19.3844],[99.2506,19.3817],[99.2495,19.3817],[99.2492,19.3811],[99.2486,19.3811],[99.2501,19.3809],[99.2484,19.3803],[99.2478,19.3792],[99.2469,19.3787],[99.2469,19.3779],[99.2478,19.3768],[99.2478,19.376],[99.2486,19.3771],[99.2495,19.3773],[99.2504,19.3771],[99.2504,19.3765],[99.2501,19.3768],[99.2486,19.3765],[99.2489,19.3757],[99.2495,19.3757],[99.2498,19.3763],[99.2515,19.3763],[99.2515,19.3757],[99.2529,19.3746],[99.2526,19.3763],[99.2521,19.3763],[99.2521,19.3768],[99.2509,19.3765],[99.2509,19.3773],[99.2515,19.3773],[99.2515,19.3787],[99.2509,19.3787],[99.2509,19.3795],[99.2504,19.3795],[99.2495,19.3782],[99.2486,19.3784],[99.2501,19.3801],[99.2512,19.3806],[99.2512,19.3817],[99.2521,19.3833],[99.2521,19.3841],[99.2515,19.3844]],[[99.2504,19.3811],[99.2506,19.3814],[99.2506,19.3811],[99.2504,19.3811]],[[99.2486,19.3795],[99.2489,19.3798],[99.2489,19.3795],[99.2486,19.3795]],[[99.2484,19.3792],[99.2486,19.3795],[99.2486,19.3792],[99.2484,19.3792]],[[99.2481,19.3784],[99.2486,19.3784],[99.2484,19.3776],[99.2478,19.3776],[99.2481,19.3784]],[[99.2498,19.3779],[99.2501,19.3782],[99.2501,19.3779],[99.2498,19.3779]],[[99.2475,19.3774],[99.2478,19.3776],[99.2478,19.3774],[99.2475,19.3774]],[[99.2492,19.3763],[99.2495,19.3765],[99.2495,19.3763],[99.2492,19.3763]]]}},{"type":"Feature","properties":{"kind":"seasonal","area_km2":0.195,"date":"2026-10-09"},"geometry":{"type":"Polygon","coordinates":[[[99.1419,19.2037],[99.1377,19.2037],[99.1374,19.2031],[99.1394,19.2031],[99.1399,19.2029],[99.1399,19.2023],[99.1394,19.2026],[99.1371,19.2021],[99.1376,19.2018],[99.1376,19.2012],[99.1371,19.2012],[99.1368,19.1999],[99.1374,19.1999],[99.1394,19.2015],[99.1431,19.2018],[99.1436,19.2023],[99.1448,19.2023],[99.1451,19.2018],[99.1462,19.2015],[99.1471,19.2004],[99.1482,19.2004],[99.1479,19.2018],[99.1468,19.2026],[99.1442,19.2026],[99.1419,19.2037]]]}},{"type":"Feature","properties":{"kind":"seasonal","area_km2":0.173,"date":"2026-10-09"},"geometry":{"type":"Polygon","coordinates":[[[99.6629,19.6691],[99.6623,19.6686],[99.6623,19.6667],[99.6618,19.6653],[99.66,19.6645],[99.66,19.6623],[99.6609,19.6623],[99.6615,19.6629],[99.6635,19.6629],[99.6632,19.6648],[99.6638,19.665],[99.6635,19.6656],[99.6643,19.6672],[99.6644,19.6688],[99.6629,19.6691]]]}},{"type":"Feature","properties":{"kind":"seasonal","area_km2":0.171,"date":"2026-10-09"},"geometry":{"type":"Polygon","coordinates":[[[99.8954,19.3721],[99.8939,19.3718],[99.8942,19.3704],[99.8931,19.3704],[99.8928,19.3688],[99.8922,19.3686],[99.8922,19.3677],[99.8931,19.3672],[99.8933,19.3664],[99.8945,19.3664],[99.8945,19.3675],[99.8951,19.3675],[99.8954,19.368],[99.8974,19.3674],[99.8974,19.3683],[99.8959,19.3691],[99.8954,19.3721]]]}},{"type":"Feature","properties":{"kind":"seasonal","area_km2":0.167,"date":"2026-10-09"},"geometry":{"type":"Polygon","coordinates":[[[99.8908,19.1576],[99.8896,19.1566],[99.8896,19.156],[99.8885,19.156],[99.8885,19.1555],[99.8879,19.1555],[99.8879,19.1547],[99.8868,19.1544],[99.8862,19.1536],[99.8856,19.1536],[99.8856,19.1547],[99.8845,19.1547],[99.8845,19.1542],[99.8839,19.1542],[99.8839,19.1536],[99.8845,19.1536],[99.8845,19.1517],[99.8862,19.1517],[99.8862,19.1522],[99.8876,19.152],[99.8885,19.1528],[99.8888,19.1541],[99.8899,19.1547],[99.8899,19.1558],[99.8914,19.1568],[99.8914,19.1576],[99.8908,19.1576]],[[99.8862,19.1525],[99.8865,19.1531],[99.8865,19.1525],[99.8862,19.1525]]]}},{"type":"Feature","properties":{"kind":"seasonal","area_km2":0.149,"date":"2026-10-09"},"geometry":{"type":"Polygon","coordinates":[[[99.0936,19.9918],[99.0933,19.9883],[99.0942,19.9878],[99.0942,19.9864],[99.0959,19.9848],[99.0959,19.9859],[99.0947,19.9864],[99.0947,19.9888],[99.0959,19.9883],[99.0959,19.9875],[99.0965,19.9875],[99.097,19.9867],[99.0979,19.9867],[99.0982,19.9886],[99.0973,19.9883],[99.097,19.9891],[99.0953,19.9899],[99.0947,19.9918],[99.0936,19.9918]]]}},{"type":"Feature","properties":{"kind":"seasonal","area_km2":0.149,"date":"2026-10-09"},"geometry":{"type":"Polygon","coordinates":[[[99.8805,19.364],[99.8805,19.3605],[99.8799,19.3599],[99.8799,19.3591],[99.8785,19.3586],[99.8784,19.3578],[99.8776,19.3572],[99.8776,19.3564],[99.877,19.3562],[99.8764,19.3572],[99.875,19.3581],[99.875,19.3573],[99.8759,19.357],[99.8762,19.3559],[99.8779,19.3559],[99.8779,19.3567],[99.879,19.357],[99.8793,19.358],[99.8804,19.358],[99.8805,19.3594],[99.881,19.3594],[99.8813,19.3599],[99.8813,19.3624],[99.8822,19.3624],[99.8827,19.3594],[99.8828,19.3629],[99.8819,19.3632],[99.8816,19.364],[99.8805,19.364]]]}},{"type":"Feature","properties":{"kind":"seasonal","area_km2":0.148,"date":"2026-10-09"},"geometry":{"type":"Polygon","coordinates":[[[99.9692,19.3375],[99.9689,19.3367],[99.968,19.3364],[99.968,19.3359],[99.9669,19.3356],[99.9674,19.3351],[99.9674,19.334],[99.9657,19.3321],[99.9657,19.3316],[99.9666,19.3316],[99.9674,19.3308],[99.9683,19.331],[99.9677,19.3324],[99.97,19.3324],[99.9703,19.3318],[99.9714,19.3316],[99.9714,19.3324],[99.97,19.3326],[99.97,19.334],[99.9689,19.334],[99.968,19.3348],[99.968,19.3356],[99.9697,19.3359],[99.9697,19.3375],[99.9692,19.3375]],[[99.968,19.3327],[99.9683,19.3329],[99.9683,19.3327],[99.968,19.3327]]]}},{"type":"Feature","properties":{"kind":"seasonal","area_km2":0.143,"date":"2026-10-09"},"geometry":{"type":"Polygon","coordinates":[[[99.3915,19.9689],[99.3906,19.9676],[99.3898,19.9676],[99.3898,19.9665],[99.3912,19.9657],[99.3923,19.9657],[99.3923,19.9651],[99.3932,19.9651],[99.3935,19.9657],[99.3941,19.9657],[99.3941,19.967],[99.3946,19.9673],[99.3946,19.9681],[99.3935,19.9689],[99.3915,19.9689]],[[99.3929,19.9662],[99.3932,19.9667],[99.3932,19.9662],[99.3929,19.9662]]]}},{"type":"Feature","properties":{"kind":"seasonal","area_km2":0.142,"date":"2026-10-09"},"geometry":{"type":"Polygon","coordinates":[[[99.8244,19.3979],[99.8249,19.3949],[99.8261,19.3933],[99.8255,19.3922],[99.8255,19.3887],[99.8266,19.3887],[99.8266,19.3914],[99.8272,19.3919],[99.8272,19.3938],[99.8266,19.3941],[99.8267,19.3954],[99.8261,19.396],[99.8258,19.3976],[99.8244,19.3979]]]}},{"type":"Feature","properties":{"kind":"seasonal","area_km2":0.14,"date":"2026-10-09"},"geometry":{"type":"Polygon","coordinates":[[[99.8916,19.2639],[99.8914,19.2628],[99.8894,19.2626],[99.8891,19.262],[99.8879,19.2623],[99.8865,19.2618],[99.8865,19.2601],[99.8891,19.2601],[99.8896,19.2604],[99.8896,19.2609],[99.8911,19.2612],[99.8914,19.2617],[99.8922,19.2617],[99.8931,19.2628],[99.8936,19.2628],[99.8936,19.2636],[99.8916,19.2639]]]}},{"type":"Feature","properties":{"kind":"seasonal","area_km2":0.136,"date":"2026-10-09"},"geometry":{"type":"Polygon","coordinates":[[[99.0084,19.0977],[99.0072,19.0966],[99.0078,19.0939],[99.0101,19.0939],[99.0104,19.095],[99.0112,19.0953],[99.0118,19.0961],[99.0109,19.0964],[99.0104,19.0977],[99.0084,19.0977]],[[99.0087,19.0953],[99.0089,19.0956],[99.0089,19.0953],[99.0087,19.0953]]]}},{"type":"Feature","properties":{"kind":"seasonal","area_km2":0.134,"date":"2026-10-09"},"geometry":{"type":"Polygon","coordinates":[[[99.9135,19.6452],[99.9135,19.6428],[99.9149,19.6425],[99.914,19.6422],[99.914,19.6412],[99.9169,19.6411],[99.9175,19.6428],[99.9186,19.643],[99.9186,19.6438],[99.9175,19.6436],[99.916,19.6444],[99.9155,19.6444],[99.9152,19.6439],[99.9149,19.6444],[99.9138,19.6444],[99.9135,19.6452]]]}},{"type":"Feature","properties":{"kind":"seasonal","area_km2":0.125,"date":"2026-10-09"},"geometry":{"type":"Polygon","coordinates":[[[99.5561,19.3018],[99.5558,19.3013],[99.5546,19.301],[99.5546,19.3005],[99.5538,19.3],[99.5523,19.3005],[99.5526,19.2991],[99.5543,19.2991],[99.5543,19.2986],[99.5541,19.2975],[99.5526,19.2972],[99.5526,19.2964],[99.552,19.2962],[99.5529,19.2962],[99.554,19.2972],[99.5549,19.2972],[99.5552,19.2986],[99.5569,19.2994],[99.5566,19.3018],[99.5561,19.3018]]]}},{"type":"Feature","properties":{"kind":"seasonal","area_km2":0.123,"date":"2026-10-09"},"geometry":{"type":"Polygon","coordinates":[[[99.0982,19.9975],[99.0982,19.9962],[99.0987,19.9951],[99.0985,19.9924],[99.0987,19.9918],[99.0996,19.9918],[99.0993,19.9899],[99.1002,19.9897],[99.1005,19.9875],[99.1005,19.9935],[99.0996,19.9945],[99.0996,19.9964],[99.099,19.9967],[99.099,19.9975],[99.0982,19.9975]]]}},{"type":"Feature","properties":{"kind":"seasonal","area_km2":0.119,"date":"2026-10-09"},"geometry":{"type":"Polygon","coordinates":[[[99.5029,19.7371],[99.5029,19.7336],[99.5037,19.7328],[99.5037,19.7322],[99.5051,19.7314],[99.5051,19.7306],[99.506,19.7306],[99.5057,19.7325],[99.5049,19.7336],[99.5049,19.7358],[99.504,19.736],[99.5037,19.7371],[99.5029,19.7371]]]}},{"type":"Feature","properties":{"kind":"seasonal","area_km2":0.117,"date":"2026-10-09"},"geometry":{"type":"Polygon","coordinates":[[[99.7477,19.8753],[99.748,19.8745],[99.7472,19.874],[99.7466,19.8743],[99.7466,19.8737],[99.746,19.874],[99.7454,19.8729],[99.7463,19.8726],[99.7457,19.8724],[99.746,19.8713],[99.7466,19.8721],[99.7474,19.8718],[99.7466,19.8715],[99.7469,19.8707],[99.748,19.8707],[99.7483,19.8721],[99.7494,19.8723],[99.7494,19.8742],[99.7486,19.8748],[99.7486,19.8753],[99.7477,19.8753]],[[99.7474,19.8729],[99.748,19.8732],[99.748,19.8729],[99.7474,19.8729]]]}},{"type":"Feature","properties":{"kind":"seasonal","area_km2":0.117,"date":"2026-10-09"},"geometry":{"type":"Polygon","coordinates":[[[99.7349,19.3896],[99.7349,19.3888],[99.7355,19.3885],[99.7363,19.3869],[99.7363,19.3847],[99.7378,19.3844],[99.7386,19.3855],[99.7386,19.3879],[99.7372,19.388],[99.7363,19.3893],[99.7349,19.3896]]]}},{"type":"Feature","properties":{"kind":"seasonal","area_km2":0.116,"date":"2026-10-09"},"geometry":{"type":"Polygon","coordinates":[[[99.0323,19.1747],[99.0321,19.1736],[99.0309,19.1731],[99.0309,19.1717],[99.0321,19.1717],[99.0321,19.1696],[99.0312,19.1688],[99.0312,19.1677],[99.0338,19.1663],[99.0335,19.1671],[99.0326,19.1674],[99.0332,19.1706],[99.0326,19.1709],[99.0326,19.172],[99.0321,19.1728],[99.0326,19.1728],[99.0326,19.1744],[99.0332,19.1744],[99.0335,19.1739],[99.0349,19.1739],[99.0352,19.1747],[99.0323,19.1747]]]}},{"type":"Feature","properties":{"kind":"seasonal","area_km2":0.113,"date":"2026-10-09"},"geometry":{"type":"Polygon","coordinates":[[[99.893,19.9294],[99.8922,19.9278],[99.8924,19.9254],[99.8933,19.9254],[99.8959,19.9278],[99.8959,19.9286],[99.8945,19.9289],[99.8942,19.9294],[99.893,19.9294]]]}},{"type":"Feature","properties":{"kind":"seasonal","area_km2":0.112,"date":"2026-10-09"},"geometry":{"type":"Polygon","coordinates":[[[99.7357,19.8651],[99.7354,19.8635],[99.7328,19.8637],[99.7322,19.8632],[99.7322,19.8621],[99.7333,19.8621],[99.7336,19.8613],[99.7353,19.861],[99.7356,19.8626],[99.7365,19.8635],[99.7371,19.8635],[99.7371,19.8648],[99.7357,19.8651]]]}},{"type":"Feature","properties":{"kind":"seasonal","area_km2":0.109,"date":"2026-10-09"},"geometry":{"type":"Polygon","coordinates":[[[99.8916,19.1517],[99.8916,19.1506],[99.8925,19.1506],[99.8927,19.15],[99.8973,19.1495],[99.8982,19.1503],[99.8982,19.1516],[99.8959,19.1517],[99.8956,19.1511],[99.8945,19.1509],[99.8925,19.1511],[99.8925,19.1517],[99.8916,19.1517]]]}},{"type":"Feature","properties":{"kind":"seasonal","area_km2":0.107,"date":"2026-10-09"},"geometry":{"type":"Polygon","coordinates":[[[99.8967,19.0275],[99.8961,19.0253],[99.8955,19.0251],[99.8955,19.024],[99.8963,19.024],[99.8975,19.025],[99.8992,19.0248],[99.8995,19.0267],[99.8986,19.0275],[99.8967,19.0275]]]}},{"type":"Feature","properties":{"kind":"seasonal","area_km2":0.104,"date":"2026-10-09"},"geometry":{"type":"Polygon","coordinates":[[[99.1346,19.3349],[99.1343,19.3338],[99.1335,19.3338],[99.132,19.3327],[99.132,19.3319],[99.1329,19.3308],[99.1349,19.3311],[99.136,19.3319],[99.1355,19.3349],[99.1346,19.3349]],[[99.1346,19.3338],[99.1352,19.3335],[99.1349,19.3322],[99.1346,19.3327],[99.1338,19.3327],[99.1338,19.3333],[99.1346,19.3338]]]}},{"type":"Feature","properties":{"kind":"seasonal","area_km2":0.103,"date":"2026-10-09"},"geometry":{"type":"Polygon","coordinates":[[[99.7551,19.2946],[99.7542,19.2935],[99.7536,19.2938],[99.7525,19.2935],[99.753,19.2933],[99.753,19.2927],[99.7545,19.2925],[99.7559,19.2911],[99.7565,19.2911],[99.757,19.2919],[99.757,19.2935],[99.7565,19.2938],[99.7565,19.2946],[99.7551,19.2946]]]}},{"type":"Feature","properties":{"kind":"seasonal","area_km2":0.102,"date":"2026-10-09"},"geometry":{"type":"Polygon","coordinates":[[[99.1985,19.9706],[99.1977,19.9695],[99.1965,19.969],[99.1962,19.9682],[99.1968,19.9654],[99.1979,19.9654],[99.1985,19.9665],[99.1982,19.9676],[99.1988,19.9682],[99.1991,19.9695],[99.1991,19.9706],[99.1985,19.9706]],[[99.1974,19.9668],[99.1977,19.9676],[99.1977,19.9668],[99.1974,19.9668]]]}},{"type":"Feature","properties":{"kind":"seasonal","area_km2":0.102,"date":"2026-10-09"},"geometry":{"type":"Polygon","coordinates":[[[99.7225,19.8676],[99.721,19.8673],[99.721,19.8668],[99.7205,19.8668],[99.7205,19.8622],[99.7216,19.8622],[99.7225,19.8641],[99.7225,19.8676]]]}},{"type":"Feature","properties":{"kind":"seasonal","area_km2":0.101,"date":"2026-10-09"},"geometry":{"type":"Polygon","coordinates":[[[99.9457,19.8687],[99.9448,19.8679],[99.9451,19.8652],[99.9462,19.8644],[99.9471,19.8644],[99.9471,19.8665],[99.9477,19.8668],[99.9477,19.8676],[99.9466,19.8687],[99.9457,19.8687]]]}},{"type":"Feature","properties":{"kind":"seasonal","area_km2":0.1,"date":"2026-10-09"},"geometry":{"type":"Polygon","coordinates":[[[99.2276,19.4381],[99.2279,19.4362],[99.229,19.4367],[99.2293,19.4362],[99.2304,19.4365],[99.2304,19.4359],[99.2324,19.4357],[99.233,19.4359],[99.233,19.4365],[99.2347,19.437],[99.2347,19.4381],[99.233,19.437],[99.2313,19.437],[99.2307,19.4381],[99.2299,19.4381],[99.2299,19.4373],[99.229,19.437],[99.2282,19.4381],[99.2276,19.4381]]]}}]}
