{"type":"FeatureCollection","properties":{"v":3,"id":"t99_20","name":"เชียงราย · เชียงใหม่","aoi":[99.0,20.0,100.0,20.465],"date":"2026-10-09","dates":["2026-10-09"],"baseline_years":3,"has_seasonal":true,"totals":{"flood_high":0.0,"flood_low":0.2,"seasonal":2.2},"provinces":[{"name":"เชียงราย","zone":"th-n","flood_high":0.0,"flood_low":0.2,"seasonal":2.0},{"name":"เชียงใหม่","zone":"th-n","flood_high":0.0,"flood_low":0.0,"seasonal":0.2}],"scenes":{"2026-10-09":2},"baseline_dates":["2025-10-04","2024-10-09","2023-10-06"],"threshold_db":-15.0,"auto":true,"source":"Sentinel-1 RTC (Copernicus/ESA) via Microsoft Planetary Computer; JRC Global Surface Water; Copernicus DEM","method":"ChatGeo v3: Otsu threshold on VV dB; minus JRC permanent water and slope > 5 deg; unusual = water not present in most of the previous 3 years (same season)","added":"2026-10-10T16:37+07:00"},"features":[{"type":"Feature","properties":{"kind":"flood","area_km2":0.115,"conf":"low","date":"2026-10-09"},"geometry":{"type":"Polygon","coordinates":[[[99.97,20.1879],[99.97,20.1871],[99.9694,20.1865],[99.9697,20.1849],[99.9731,20.1846],[99.9737,20.1838],[99.9746,20.1838],[99.9752,20.1862],[99.974,20.1862],[99.9731,20.1854],[99.972,20.1854],[99.9709,20.1871],[99.9709,20.1879],[99.97,20.1879]]]}},{"type":"Feature","properties":{"kind":"flood","area_km2":0.054,"conf":"low","date":"2026-10-09"},"geometry":{"type":"Polygon","coordinates":[[[99.988,20.1732],[99.9874,20.1713],[99.9874,20.1699],[99.9886,20.1702],[99.9886,20.1723],[99.9903,20.1721],[99.9903,20.1731],[99.988,20.1732]]]}},{"type":"Feature","properties":{"kind":"seasonal","area_km2":0.373,"date":"2026-10-09"},"geometry":{"type":"Polygon","coordinates":[[[99.9887,20.1978],[99.989,20.1948],[99.987,20.1951],[99.9867,20.1959],[99.985,20.1959],[99.9841,20.1965],[99.9824,20.1965],[99.9815,20.1949],[99.9804,20.1949],[99.9807,20.1941],[99.9795,20.1938],[99.9789,20.1927],[99.9804,20.1924],[99.9807,20.193],[99.9812,20.193],[99.9812,20.1897],[99.9832,20.1892],[99.9832,20.1897],[99.9844,20.1905],[99.9844,20.1913],[99.9835,20.1916],[99.9835,20.1941],[99.983,20.1946],[99.9833,20.1954],[99.9838,20.1954],[99.9841,20.1949],[99.9858,20.1951],[99.9867,20.1938],[99.9867,20.1927],[99.9884,20.1929],[99.989,20.194],[99.9904,20.1946],[99.9899,20.1975],[99.9887,20.1978]]]}},{"type":"Feature","properties":{"kind":"seasonal","area_km2":0.364,"date":"2026-10-09"},"geometry":{"type":"Polygon","coordinates":[[[99.9994,20.2059],[99.9985,20.2051],[99.9968,20.2051],[99.9954,20.204],[99.9954,20.2035],[99.9948,20.2035],[99.9948,20.2024],[99.9954,20.2024],[99.9956,20.2013],[99.9948,20.2005],[99.993,20.2005],[99.9925,20.1989],[99.995,20.1983],[99.9968,20.1983],[99.9971,20.1989],[99.9999,20.1983],[100.0002,20.1988],[100.0014,20.1988],[100.0014,20.1999],[99.9991,20.1997],[99.9988,20.2002],[99.9965,20.2002],[99.9965,20.2016],[99.9974,20.2021],[99.9974,20.2037],[99.9985,20.2032],[99.9988,20.2021],[100.0014,20.2021],[100.0014,20.2029],[100.0,20.2034],[100.0,20.204],[100.0008,20.2043],[100.0008,20.2059],[99.9994,20.2059]]]}},{"type":"Feature","properties":{"kind":"seasonal","area_km2":0.322,"date":"2026-10-09"},"geometry":{"type":"Polygon","coordinates":[[[99.9919,20.1975],[99.9913,20.197],[99.9913,20.1962],[99.9939,20.194],[99.9962,20.1934],[99.9985,20.1937],[99.9993,20.1932],[100.0002,20.1931],[100.0013,20.194],[100.0013,20.1961],[100.0005,20.1972],[99.9991,20.1972],[99.9982,20.1961],[99.9968,20.1959],[99.9956,20.1962],[99.9953,20.1967],[99.9942,20.1967],[99.9933,20.1975],[99.9919,20.1975]]]}},{"type":"Feature","properties":{"kind":"seasonal","area_km2":0.277,"date":"2026-10-09"},"geometry":{"type":"Polygon","coordinates":[[[99.9475,20.2132],[99.9457,20.2116],[99.9452,20.2116],[99.9452,20.2089],[99.9454,20.2075],[99.9469,20.2078],[99.9469,20.2059],[99.9486,20.2059],[99.9483,20.2078],[99.9489,20.2075],[99.9489,20.207],[99.9494,20.2075],[99.9512,20.2072],[99.9515,20.2086],[99.9506,20.2094],[99.9492,20.2094],[99.948,20.2105],[99.9486,20.2132],[99.9475,20.2132]]]}},{"type":"Feature","properties":{"kind":"seasonal","area_km2":0.251,"date":"2026-10-09"},"geometry":{"type":"Polygon","coordinates":[[[99.9783,20.1906],[99.9781,20.1895],[99.9769,20.1892],[99.9769,20.1884],[99.9775,20.1884],[99.978,20.1868],[99.9777,20.1851],[99.978,20.1846],[99.9789,20.1846],[99.9789,20.1857],[99.9795,20.1857],[99.9797,20.1846],[99.9812,20.1846],[99.9823,20.1867],[99.9832,20.1867],[99.9832,20.1881],[99.9821,20.1892],[99.9809,20.1892],[99.9812,20.1876],[99.9806,20.1873],[99.9803,20.1895],[99.9798,20.1895],[99.9792,20.1906],[99.9783,20.1906]],[[99.9783,20.1878],[99.9789,20.1881],[99.9789,20.1878],[99.9783,20.1878]]]}},{"type":"Feature","properties":{"kind":"seasonal","area_km2":0.211,"date":"2026-10-09"},"geometry":{"type":"Polygon","coordinates":[[[99.262,20.0462],[99.2603,20.0451],[99.2551,20.0459],[99.2537,20.0459],[99.2537,20.0451],[99.2557,20.0448],[99.2563,20.0443],[99.2577,20.0443],[99.258,20.0434],[99.2589,20.0434],[99.2594,20.0426],[99.2609,20.0424],[99.2626,20.0426],[99.2632,20.0434],[99.2629,20.0462],[99.262,20.0462]]]}},{"type":"Feature","properties":{"kind":"seasonal","area_km2":0.153,"date":"2026-10-09"},"geometry":{"type":"Polygon","coordinates":[[[99.9988,20.2086],[99.9971,20.2081],[99.9962,20.207],[99.9951,20.207],[99.9948,20.2056],[99.9968,20.2054],[99.9974,20.2059],[99.9985,20.2059],[99.9988,20.2064],[100.0014,20.2067],[100.0014,20.2086],[99.9988,20.2086]]]}},{"type":"Feature","properties":{"kind":"seasonal","area_km2":0.143,"date":"2026-10-09"},"geometry":{"type":"Polygon","coordinates":[[[99.9301,20.1908],[99.9301,20.1892],[99.9295,20.1889],[99.9295,20.1868],[99.9309,20.1851],[99.9324,20.1851],[99.933,20.1862],[99.933,20.187],[99.9324,20.1873],[99.9324,20.1886],[99.9313,20.1908],[99.9301,20.1908]],[[99.9307,20.1862],[99.9309,20.1868],[99.9309,20.1862],[99.9307,20.1862]],[[99.9312,20.1862],[99.9321,20.1865],[99.9321,20.1862],[99.9312,20.1862]],[[99.9309,20.1857],[99.9321,20.1859],[99.9321,20.1857],[99.9309,20.1857]]]}},{"type":"Feature","properties":{"kind":"seasonal","area_km2":0.112,"date":"2026-10-09"},"geometry":{"type":"Polygon","coordinates":[[[99.9138,20.0567],[99.9135,20.0559],[99.913,20.0562],[99.9132,20.0554],[99.9115,20.0543],[99.9115,20.0535],[99.9141,20.0532],[99.915,20.0548],[99.9164,20.0545],[99.9164,20.0556],[99.9155,20.0567],[99.9138,20.0567]]]}}]}
