{"type":"FeatureCollection","properties":{"v":3,"id":"t99_10","name":"ชุมพร · ประจวบคีรีขันธ์","aoi":[99.0,10.0,99.535,11.0],"date":"2026-10-02","dates":["2026-10-02"],"baseline_years":3,"has_seasonal":true,"totals":{"flood_high":0.0,"flood_low":0.0,"seasonal":0.4},"provinces":[{"name":"ชุมพร","zone":"th-s","flood_high":0.0,"flood_low":0.0,"seasonal":0.4}],"scenes":{"2026-10-02":2},"baseline_dates":["2025-09-30","2024-10-05","2023-09-29"],"threshold_db":-15.0,"auto":true,"source":"Sentinel-1 RTC (Copernicus/ESA) via Microsoft Planetary Computer; JRC Global Surface Water; Copernicus DEM","method":"ChatGeo v3: Otsu threshold on VV dB; minus JRC permanent water and slope > 5 deg; unusual = water not present in most of the previous 3 years (same season)","added":"2026-10-07T18:42+07:00"},"features":[{"type":"Feature","properties":{"kind":"seasonal","area_km2":0.282,"date":"2026-10-02"},"geometry":{"type":"Polygon","coordinates":[[[99.1787,10.7211],[99.1787,10.7192],[99.1773,10.7181],[99.1771,10.7173],[99.1771,10.7154],[99.1779,10.7149],[99.1776,10.7089],[99.1781,10.7089],[99.1784,10.7097],[99.1801,10.7097],[99.1801,10.7108],[99.1792,10.7119],[99.1803,10.7138],[99.1795,10.7162],[99.1798,10.72],[99.1795,10.7209],[99.1787,10.7211]]]}},{"type":"Feature","properties":{"kind":"seasonal","area_km2":0.109,"date":"2026-10-02"},"geometry":{"type":"Polygon","coordinates":[[[99.2555,10.37],[99.255,10.3694],[99.255,10.3675],[99.2591,10.3678],[99.2588,10.37],[99.2555,10.37]],[[99.2577,10.3692],[99.2582,10.3689],[99.258,10.3681],[99.2574,10.3683],[99.2577,10.3692]],[[99.2552,10.3686],[99.2555,10.3689],[99.2555,10.3686],[99.2552,10.3686]]]}}]}
